{
    "type": "FeatureCollection",
    "features": [
        {
            "type": "Feature",
            "properties": {
                "WCID": "ALB",
                "COUNTRY": "Albania"
            },
            ""geometry": { "type": "Polygon", "coordinates": [ [ [ 19.570827073000032, 41.685273220000056 ], [ 19.581945165000036, 41.695691087000057 ], [ 19.599163270000076, 41.779718158000037 ], [ 19.597709178000059, 41.806109083000081 ], [ 19.524754098000074, 41.835245082000029 ], [ 19.479445050000038, 41.852218100000073 ], [ 19.440418238000063, 41.860973166000065 ], [ 19.416245164000031, 41.861245075000056 ], [ 19.36777328900007, 41.849000120000028 ], [ 19.343327133000059, 41.912500078000051 ], [ 19.346945097000059, 41.955554059000065 ], [ 19.376391226000067, 42.072809173000053 ], [ 19.399100149000049, 42.104091106000055 ], [ 19.378191156000071, 42.123464199000068 ], [ 19.332218093000051, 42.152500118000034 ], [ 19.288536140000076, 42.182909160000065 ], [ 19.519718083000043, 42.448609121000061 ], [ 19.608536082000057, 42.542845014000079 ], [ 19.611182249000024, 42.571036037000056 ], [ 19.633327069000075, 42.60333603600003 ], [ 19.651527199000043, 42.623191089000045 ], [ 19.717845152000052, 42.660345048000067 ], [ 19.754582196000058, 42.640973129000031 ], [ 19.764791186000025, 42.587873101000071 ], [ 19.746809154000061, 42.545000169000048 ], [ 19.769445154000039, 42.500964165000028 ], [ 19.793954174000078, 42.484091058000047 ], [ 19.822500254000033, 42.47193612500007 ], [ 19.927354175000062, 42.51555404000004 ], [ 20.056109093000032, 42.562909111000067 ], [ 20.071418137000023, 42.560909189000029 ], [ 20.102082156000051, 42.533473208000032 ], [ 20.161663238000074, 42.511318162000066 ], [ 20.222500265000065, 42.428327094000053 ], [ 20.239582249000023, 42.360554043000036 ], [ 20.249509104000026, 42.327073201000076 ], [ 20.355673284000034, 42.311845127000026 ], [ 20.386945160000039, 42.304164118000074 ], [ 20.457536207000032, 42.273909136000043 ], [ 20.508891122000023, 42.230273115000045 ], [ 20.525136089000057, 42.213054004000071 ], [ 20.595273173000066, 42.043609137000033 ], [ 20.621736182000063, 41.956527030000075 ], [ 20.60332717600005, 41.934718156000031 ], [ 20.583400207000068, 41.91881802100005 ], [ 20.589645060000066, 41.882191116000058 ], [ 20.568954164000047, 41.874544976000038 ], [ 20.533609187000025, 41.776936037000041 ], [ 20.517773257000044, 41.744027008000046 ], [ 20.533882270000049, 41.634718106000037 ], [ 20.466109218000042, 41.555544995000048 ], [ 20.458818135000058, 41.520827152000038 ], [ 20.470691269000042, 41.499300078000033 ], [ 20.508609155000045, 41.45971804900006 ], [ 20.561873300000059, 41.40867309600003 ], [ 20.550000166000075, 41.373054031000038 ], [ 20.524163285000043, 41.350273192000031 ], [ 20.498854128000062, 41.341800093000074 ], [ 20.502500256000076, 41.304444968000041 ], [ 20.519163312000046, 41.246382184000026 ], [ 20.57832714400007, 41.162773202000039 ], [ 20.60060909200007, 41.093182116000037 ], [ 20.662500227000066, 41.089164167000035 ], [ 20.740809164000041, 40.909536125000045 ], [ 20.807218144000046, 40.900554078000027 ], [ 20.821109137000064, 40.908882169000037 ], [ 20.837427194000043, 40.927427130000069 ], [ 20.944163355000057, 40.919164250000051 ], [ 20.96305415300003, 40.911382156000059 ], [ 20.980536121000057, 40.897209028000077 ], [ 20.983491245000039, 40.855891107000048 ], [ 20.98389123000004, 40.793053990000033 ], [ 21.026782266000055, 40.70942707100005 ], [ 21.051454063000051, 40.674445031000062 ], [ 21.053327083000056, 40.620691215000079 ], [ 21.042082257000061, 40.564027035000038 ], [ 20.949582256000042, 40.469644961000029 ], [ 20.920136127000035, 40.463600100000065 ], [ 20.83333615500004, 40.462218091000068 ], [ 20.791927206000025, 40.431545020000044 ], [ 20.787218085000063, 40.394718122000029 ], [ 20.758609141000022, 40.311944984000036 ], [ 20.736800267000035, 40.307218093000074 ], [ 20.71430022100003, 40.270100176000028 ], [ 20.721245131000046, 40.225136127000042 ], [ 20.667082278000066, 40.096245087000057 ], [ 20.621391183000071, 40.085273176000044 ], [ 20.604718236000053, 40.07527323000005 ], [ 20.583336169000063, 40.070544998000059 ], [ 20.555827098000066, 40.066382210000029 ], [ 20.479582289000064, 40.065554078000048 ], [ 20.461573267000063, 40.074164137000025 ], [ 20.450000206000027, 40.072491109000055 ], [ 20.430273229000022, 40.063054092000073 ], [ 20.31541818900007, 39.991800203000025 ], [ 20.337218178000057, 39.923191140000029 ], [ 20.369718169000066, 39.891391205000048 ], [ 20.411318225000059, 39.844644996000056 ], [ 20.413327200000026, 39.820135976000074 ], [ 20.404582193000067, 39.801800059000072 ], [ 20.378609189000031, 39.788054073000069 ], [ 20.306127184000047, 39.812118015000067 ], [ 20.29444515800003, 39.80749120400003 ], [ 20.298054070000035, 39.771945061000054 ], [ 20.318091177000042, 39.734091213000056 ], [ 20.220000111000047, 39.647354105000034 ], [ 20.196245127000054, 39.645000132000064 ], [ 20.166663211000071, 39.650273187000039 ], [ 20.141391270000042, 39.656109171000026 ], [ 20.097009093000054, 39.675973108000051 ], [ 20.024582241000076, 39.696664171000066 ], [ 20.010027066000077, 39.691200176000052 ], [ 19.985418133000053, 39.694754103000037 ], [ 19.983609151000053, 39.765273234000063 ], [ 19.987782165000056, 39.867218132000062 ], [ 19.937500134000061, 39.937491170000044 ], [ 19.857291188000033, 40.043473127000027 ], [ 19.84110925300007, 40.051382124000042 ], [ 19.825554117000024, 40.054718121000064 ], [ 19.755000117000066, 40.082982234000042 ], [ 19.730554129000041, 40.103054042000053 ], [ 19.616663343000027, 40.149164233000079 ], [ 19.503054021000025, 40.197491102000072 ], [ 19.451391155000067, 40.226727012000026 ], [ 19.401109124000072, 40.28000004200004 ], [ 19.28979124600005, 40.421454046000065 ], [ 19.318882150000036, 40.438891087000059 ], [ 19.341800118000037, 40.431382075000045 ], [ 19.391663222000034, 40.387909167000032 ], [ 19.402918106000072, 40.369991172000027 ], [ 19.40680026800004, 40.350136120000059 ], [ 19.432873184000073, 40.327191163000066 ], [ 19.463973230000022, 40.337309126000036 ], [ 19.479445050000038, 40.354853958000035 ], [ 19.487636181000028, 40.438745074000053 ], [ 19.453609174000064, 40.563882195000076 ], [ 19.417636057000038, 40.577218139000024 ], [ 19.393327197000076, 40.580964179000034 ], [ 19.337773284000036, 40.618609150000054 ], [ 19.307209177000061, 40.645309032000057 ], [ 19.356109200000049, 40.696173103000035 ], [ 19.40500017100004, 40.81971816500004 ], [ 19.413327089000063, 40.866391117000035 ], [ 19.452418106000039, 40.883845089000033 ], [ 19.470618235000074, 40.883191133000025 ], [ 19.521663355000044, 40.90985396700006 ], [ 19.52326329300007, 40.936591065000073 ], [ 19.508609211000078, 40.972773226000072 ], [ 19.461109134000026, 41.006945072000065 ], [ 19.436218234000023, 41.021064221000074 ], [ 19.45055413800003, 41.060000173000049 ], [ 19.513745139000036, 41.254018098000074 ], [ 19.510136059000047, 41.27610005400004 ], [ 19.498609098000031, 41.293882094000026 ], [ 19.475136081000073, 41.309027019000041 ], [ 19.452218114000061, 41.309718024000063 ], [ 19.442500135000046, 41.406945083000039 ], [ 19.520000218000064, 41.570000090000065 ], [ 19.566663279000068, 41.585000176000051 ], [ 19.584718233000046, 41.605827027000032 ], [ 19.586936085000048, 41.638609153000061 ], [ 19.570827073000032, 41.685273220000056 ] ] ] }
        }
    ]
}