{
    "type": "FeatureCollection",
    "features": [
        {
            "type": "Feature",
            "properties": {
                "WCID": "ARG",
                "COUNTRY": "Argentina"
            },
            "geometry": { "type": "MultiPolygon", "coordinates": [ [ [ [ -71.859163959999933, -41.01128195299998 ], [ -71.838064026999973, -40.955490998999949 ], [ -71.850281991999964, -40.912508934999948 ], [ -71.863199845999986, -40.890563938999946 ], [ -71.914172881999946, -40.806117940999968 ], [ -71.950145998999972, -40.726946002999966 ], [ -71.930354983999962, -40.701317998999968 ], [ -71.900008806999949, -40.681399914999929 ], [ -71.879181955999968, -40.66499988299995 ], [ -71.859308966999947, -40.643472975999941 ], [ -71.839290969999979, -40.600763993999976 ], [ -71.840699967999967, -40.573481904999937 ], [ -71.837781892999942, -40.531672971999967 ], [ -71.779873, -40.408964088999937 ], [ -71.758608949999939, -40.410417845999973 ], [ -71.735835820999966, -40.427781963999962 ], [ -71.71569997499995, -40.423618001999955 ], [ -71.701673027999959, -40.404446074999953 ], [ -71.663964018999934, -40.334517867999978 ], [ -71.668617818999962, -40.296945986999958 ], [ -71.702717915999983, -40.278955069999938 ], [ -71.719590854999979, -40.302364049999937 ], [ -71.791399960999968, -40.245835823999982 ], [ -71.818063967999933, -40.204590992999954 ], [ -71.791399960999968, -40.115008898999974 ], [ -71.749999896999952, -40.089446105999968 ], [ -71.666945964999968, -40.04749987799994 ], [ -71.633345931999941, -39.950564004999933 ], [ -71.669590957999958, -39.854446038999981 ], [ -71.705008857999985, -39.727499935999958 ], [ -71.709026806999987, -39.626673015999984 ], [ -71.68986393199998, -39.575490935999937 ], [ -71.682235896999941, -39.567217997999933 ], [ -71.666735913999958, -39.566599915999973 ], [ -71.62528187099997, -39.611808884999959 ], [ -71.599164027999961, -39.621117993999974 ], [ -71.50715503899994, -39.617646041999933 ], [ -71.492645963999962, -39.599172997999972 ], [ -71.485281958999963, -39.561526852999975 ], [ -71.450290865999989, -39.435417933999929 ], [ -71.403199824999945, -39.33014609199995 ], [ -71.387790869999947, -39.240417985999954 ], [ -71.402235905999987, -39.129717854999967 ], [ -71.412226799999985, -39.066117984999948 ], [ -71.422235797999974, -39.039590937999947 ], [ -71.422499827999957, -39.013891016999935 ], [ -71.41862688599997, -38.960554954999964 ], [ -71.410426869999981, -38.935417962999963 ], [ -71.393690890999949, -38.913535830999933 ], [ -71.360835842999961, -38.888891023999975 ], [ -71.334454975999961, -38.875835873999961 ], [ -71.238890885999979, -38.831117917999961 ], [ -71.097781880999946, -38.766108881999969 ], [ -71.053335832999949, -38.748481907999974 ], [ -71.026263961999973, -38.745417986999939 ], [ -70.994590928999969, -38.748199939999949 ], [ -70.946117879999974, -38.749173078999945 ], [ -70.9234818799999, -38.74083593499995 ], [ -70.861945969999965, -38.690135814999962 ], [ -70.829726771999958, -38.588054962999934 ], [ -70.825699937999957, -38.555899969999984 ], [ -70.843972989999941, -38.521946053999955 ], [ -70.880845987999976, -38.498890957999947 ], [ -70.907226854999976, -38.486255071999949 ], [ -70.950008926999942, -38.450835830999949 ], [ -70.971535833999951, -38.415491021999969 ], [ -71.002790944999958, -38.284999875999972 ], [ -71.013199927999949, -38.227646032999985 ], [ -71.009035797999957, -38.20417301599997 ], [ -71.000564040999961, -38.154164066999954 ], [ -70.998335795999935, -38.070208912999931 ], [ -71.094999926999947, -37.882499878999965 ], [ -71.123899890999951, -37.837781921999976 ], [ -71.130281871999955, -37.814172950999932 ], [ -71.137217896999971, -37.791117855999971 ], [ -71.160835752999958, -37.745564055999978 ], [ -71.179864014999964, -37.696464039999967 ], [ -71.182372885999939, -37.65889098599996 ], [ -71.175846065999963, -37.626390993999962 ], [ -71.157373020999955, -37.608617838999976 ], [ -71.123063879999961, -37.588190972999939 ], [ -71.108690927999987, -37.458963986999947 ], [ -71.118055021999965, -37.435009009999931 ], [ -71.14542679799996, -37.405700008999929 ], [ -71.16673577499995, -37.379235825999956 ], [ -71.196326910999971, -37.302226922999978 ], [ -71.183126921999985, -37.268608952999955 ], [ -71.147917898999935, -37.235973006999984 ], [ -71.130008956999973, -37.19194605499996 ], [ -71.112790851999989, -37.114445971999942 ], [ -71.148617787999967, -36.975281903999985 ], [ -71.186117919999958, -36.845555019999949 ], [ -71.136945987999979, -36.741673064999929 ], [ -71.054799815999957, -36.547091037999962 ], [ -71.034308912999961, -36.48389098499996 ], [ -71.016481945999942, -36.475917950999929 ], [ -70.981945989999986, -36.483609017999981 ], [ -70.952781995999942, -36.486946020999937 ], [ -70.706945971999971, -36.414517994999983 ], [ -70.696399860999975, -36.390973061999944 ], [ -70.718617939999945, -36.343999869999948 ], [ -70.704726778999941, -36.270564004999983 ], [ -70.588617805999945, -36.164726886999972 ], [ -70.50451781299995, -36.162290937999956 ], [ -70.467508860999942, -36.164173009999956 ], [ -70.438554916999976, -36.151464032999968 ], [ -70.424317918999975, -36.136035966999941 ], [ -70.396117843999946, -36.075564055999962 ], [ -70.407226882999964, -35.971117997999954 ], [ -70.411399897999956, -35.893054986999971 ], [ -70.402235794999967, -35.870835902999943 ], [ -70.375072896999939, -35.833126893999975 ], [ -70.34375492099997, -35.811355067999955 ], [ -70.374454982999964, -35.735281919999977 ], [ -70.408617943999957, -35.672226873999932 ], [ -70.418481934999988, -35.634935953999957 ], [ -70.404173020999963, -35.614446056999952 ], [ -70.396117843999946, -35.515008856999941 ], [ -70.421954892999963, -35.364446070999975 ], [ -70.532926932999942, -35.30778205799993 ], [ -70.550290882999946, -35.296673018999968 ], [ -70.567154936999941, -35.267917893999936 ], [ -70.564999949999958, -35.241946063999933 ], [ -70.540490929999976, -35.21013590299998 ], [ -70.516399830999944, -35.204999975999954 ], [ -70.482226811999965, -35.203335832999983 ], [ -70.450835913999981, -35.198335859999929 ], [ -70.381117924999955, -35.169026858999985 ], [ -70.362990885999977, -35.144790920999981 ], [ -70.357790920999946, -35.100282009999944 ], [ -70.361955050999939, -35.079173024999932 ], [ -70.362926847999972, -35.042635805999964 ], [ -70.361955050999939, -35.00444601099997 ], [ -70.359754968999937, -34.996909002999985 ], [ -70.297499890999973, -34.853617852999946 ], [ -70.232508960999951, -34.661946022999985 ], [ -70.149863897999978, -34.531735838999964 ], [ -70.045490930999961, -34.400281947999929 ], [ -70.052226795999957, -34.354999889999931 ], [ -70.052435840999976, -34.296046108999974 ], [ -70.047617922999962, -34.28600894799996 ], [ -70.029590962999976, -34.27680897099998 ], [ -69.986117886999978, -34.269726932999959 ], [ -69.957363935999979, -34.270563949999939 ], [ -69.934717877999958, -34.275835831999984 ], [ -69.888064036999936, -34.27833581799996 ], [ -69.817572900999949, -34.234726954999928 ], [ -69.848346052999943, -34.097226861999957 ], [ -69.884172989999968, -33.891946005999955 ], [ -69.904172880999965, -33.82750895199996 ], [ -69.905008891999955, -33.778472973999953 ], [ -69.869726778999961, -33.555282002999945 ], [ -69.809172892999982, -33.437917923999976 ], [ -69.78348185699997, -33.412781936999977 ], [ -69.774935835999941, -33.387155105999966 ], [ -69.803617870999972, -33.278890923999938 ], [ -69.875417923999976, -33.245146051999939 ], [ -69.90250890599998, -33.2372268299999 ], [ -69.927372982999941, -33.2408359099999 ], [ -69.955417825999973, -33.26520897599994 ], [ -69.975772941999935, -33.29577291499993 ], [ -70.000417916999936, -33.298617900999943 ], [ -70.095555032999982, -33.179446012999961 ], [ -70.100699844999951, -33.153199926999946 ], [ -70.090908943999978, -33.122499864999952 ], [ -70.084655037999937, -33.076908849999938 ], [ -70.099635845999956, -33.051846120999983 ], [ -70.07167297899997, -33.005835842999943 ], [ -70.021117864999951, -32.948891036999953 ], [ -69.993335878999972, -32.876182049999954 ], [ -70.045208963999983, -32.853963970999928 ], [ -70.144863924999981, -32.759099937999963 ], [ -70.170845980999957, -32.627782000999957 ], [ -70.16424607099998, -32.581108881999967 ], [ -70.152235808999933, -32.543063925999945 ], [ -70.146535779999965, -32.506254965999972 ], [ -70.154172866999943, -32.475835865999954 ], [ -70.230835764999938, -32.341664058999982 ], [ -70.244326773999944, -32.309835960999976 ], [ -70.313272956999981, -32.284172920999936 ], [ -70.320981960999973, -32.265281954999978 ], [ -70.316954958999986, -32.228472993999958 ], [ -70.348890848999986, -32.086946067999975 ], [ -70.306955012999936, -32.047781959999952 ], [ -70.264926809999963, -32.042435814999976 ], [ -70.232373005999989, -31.965208981999979 ], [ -70.237508933999948, -31.938473057999943 ], [ -70.284445914999935, -31.891946118999954 ], [ -70.304035763999934, -31.882363926999972 ], [ -70.339935790999959, -31.884373068999935 ], [ -70.373335830999963, -31.88610896199998 ], [ -70.411881856999969, -31.87889096899994 ], [ -70.430281978999972, -31.868617940999968 ], [ -70.446672957999965, -31.848890963999963 ], [ -70.458890922999956, -31.83249998499997 ], [ -70.58673590099994, -31.563817909999955 ], [ -70.57918196299994, -31.530281915999979 ], [ -70.567508820999933, -31.469172979999939 ], [ -70.560281943999939, -31.322426976999964 ], [ -70.531254910999962, -31.181254939999974 ], [ -70.520845927999972, -31.159172983999952 ], [ -70.451381910999942, -31.094582037999942 ], [ -70.430281978999972, -31.113608957999929 ], [ -70.361955050999939, -31.093055022999977 ], [ -70.295008956999936, -31.029726893999964 ], [ -70.291399877999936, -30.995835841999963 ], [ -70.327917817999946, -30.956873067999936 ], [ -70.331681962999937, -30.931390908999958 ], [ -70.327090859999942, -30.891255003999959 ], [ -70.316399909999973, -30.824726831999953 ], [ -70.269181966999952, -30.678335886999946 ], [ -70.252499967999938, -30.637781891999964 ], [ -70.211672890999978, -30.559445965999942 ], [ -70.133899892999978, -30.439726906999965 ], [ -70.051535791999981, -30.39499989799998 ], [ -70.029726917999938, -30.397782019999966 ], [ -69.998345910999944, -30.395146078999971 ], [ -69.938472969999964, -30.372635806999938 ], [ -69.898899825999933, -30.324999942999966 ], [ -69.831681990999982, -30.190555052999969 ], [ -69.829172951999965, -30.143964076999964 ], [ -69.84167288499998, -30.120555097999954 ], [ -69.863481925999963, -30.10402682299997 ], [ -69.924945919999971, -29.999999859999946 ], [ -69.918808857999977, -29.974064072999965 ], [ -69.907508878999977, -29.918190975999948 ], [ -69.905146019999961, -29.799582016999977 ], [ -69.914454961999979, -29.720417958999974 ], [ -69.917235909999988, -29.713335920999953 ], [ -69.950008815999979, -29.694309000999965 ], [ -69.962781997999969, -29.67819998899995 ], [ -69.96861781399997, -29.655417975999967 ], [ -69.963890923999941, -29.628608960999941 ], [ -69.956954898999982, -29.600417938999954 ], [ -69.959863921999954, -29.555699981999965 ], [ -69.965008901999965, -29.535555083999952 ], [ -70.003063915999974, -29.423891033999951 ], [ -70.029026860999977, -29.374863940999944 ], [ -70.034726890999934, -29.352081927999961 ], [ -70.028972881999948, -29.291117831999941 ], [ -69.960282011999936, -29.20111798399995 ], [ -69.901599971999985, -29.138963992999948 ], [ -69.838135888999943, -29.132708913999977 ], [ -69.805981902999974, -29.113608902999943 ], [ -69.792781913999988, -29.09569996099998 ], [ -69.786945929999945, -29.070835882999972 ], [ -69.788890866999964, -29.01694611299996 ], [ -69.75750885399998, -28.886673064999968 ], [ -69.723346059999983, -28.797708885999953 ], [ -69.729446073999952, -28.764026877999981 ], [ -69.739581973999975, -28.741526831999977 ], [ -69.746399813999972, -28.719172966999963 ], [ -69.745981892999964, -28.669864074999964 ], [ -69.70098196899994, -28.590900008999938 ], [ -69.669308935999936, -28.575626839999984 ], [ -69.662226897999972, -28.54139095599993 ], [ -69.655381900999942, -28.400935906999962 ], [ -69.605281923999939, -28.368335835999972 ], [ -69.531955023999956, -28.314026970999976 ], [ -69.398899853999978, -28.180281969999953 ], [ -69.350563932999933, -28.126108891999934 ], [ -69.337781865999943, -28.103199976999974 ], [ -69.326126828999975, -28.059173023999961 ], [ -69.295981984999969, -27.996808981999948 ], [ -69.259035896999933, -27.980146093999963 ], [ -69.222090981999941, -27.97694605099997 ], [ -69.193199902999936, -27.970417889999965 ], [ -69.177781894999953, -27.951946018999934 ], [ -69.164463888999933, -27.925555093999947 ], [ -69.155290901999933, -27.902781965999964 ], [ -69.120526790999975, -27.774264087999939 ], [ -69.113063878999981, -27.733064015999958 ], [ -69.073472964999951, -27.630726845999959 ], [ -69.045355032999964, -27.6015999 ], [ -68.903481932999966, -27.364172935999932 ], [ -68.869517790999964, -27.278546094999967 ], [ -68.878126843999951, -27.240072991999966 ], [ -68.866954939999971, -27.209446020999962 ], [ -68.847782006999978, -27.176108844999931 ], [ -68.807435883999972, -27.118545956999981 ], [ -68.782372987999963, -27.106108888999984 ], [ -68.73889085899998, -27.103335819999984 ], [ -68.694926770999984, -27.109654936999959 ], [ -68.645846033999987, -27.138472925999963 ], [ -68.411255002999951, -27.066526859999954 ], [ -68.392226909999977, -27.058608978999928 ], [ -68.353899818999935, -27.040281946999983 ], [ -68.323335879999945, -27.02333591799993 ], [ -68.287790909999956, -26.912781967999933 ], [ -68.295835860999944, -26.891672982999978 ], [ -68.424454991999937, -26.712499910999952 ], [ -68.43639987499995, -26.696390898999937 ], [ -68.450290867999968, -26.681390980999936 ], [ -68.495564040999966, -26.633055058999958 ], [ -68.541117840999959, -26.584446055999933 ], [ -68.568208822999964, -26.545555030999935 ], [ -68.578063928999939, -26.525417843999946 ], [ -68.583617945999947, -26.50528199799993 ], [ -68.585555003999957, -26.457226869999943 ], [ -68.585281921999979, -26.436672934999933 ], [ -68.581117791999986, -26.381945979999955 ], [ -68.577226912999947, -26.350563966999971 ], [ -68.564446018999945, -26.303955052999981 ], [ -68.545290855999951, -26.281946018999975 ], [ -68.519726888999969, -26.263335846999951 ], [ -68.479735822999942, -26.23805502099998 ], [ -68.419445966999945, -26.187782041999981 ], [ -68.399863996999954, -26.159372922999978 ], [ -68.454454996999971, -25.905554979999977 ], [ -68.493346021999969, -25.742781939999929 ], [ -68.501108837999936, -25.718335951999961 ], [ -68.553346031999979, -25.617499979999934 ], [ -68.596672927999975, -25.498055008999927 ], [ -68.599726790999966, -25.473890987999937 ], [ -68.597499886999969, -25.443335933999947 ], [ -68.593064015999971, -25.423335873999974 ], [ -68.572508906999985, -25.346108873999981 ], [ -68.560008806999974, -25.315281909999953 ], [ -68.539463923999961, -25.27389089899998 ], [ -68.534708869999974, -25.269890886999974 ], [ -68.530008801999941, -25.251946070999963 ], [ -68.514872928999978, -25.19875501599995 ], [ -68.496946049999963, -25.171108983999943 ], [ -68.485899874999973, -25.162490878999961 ], [ -68.420290862999934, -25.152781952999931 ], [ -68.355626825999934, -25.121255100999974 ], [ -68.500290931999984, -24.894999872999961 ], [ -68.548335832999953, -24.869581918999927 ], [ -68.570973006999964, -24.813335827999936 ], [ -68.567426790999946, -24.781946103999928 ], [ -68.540845931999968, -24.729446052999947 ], [ -68.508054920999939, -24.670282053999983 ], [ -68.463054996999972, -24.604726853999978 ], [ -68.390699894999955, -24.503755094999974 ], [ -68.365835816999947, -24.489926966999974 ], [ -68.318972930999962, -24.496945971999935 ], [ -68.277508829999988, -24.447226868999962 ], [ -68.253617890999976, -24.398608980999938 ], [ -68.189999915999977, -24.371390929999961 ], [ -67.899173020999967, -24.253890895999973 ], [ -67.639881862999971, -24.147590928999932 ], [ -67.577326880999976, -24.121691015999943 ], [ -67.335845925999934, -24.021664064999982 ], [ -67.250917800999957, -23.733226850999984 ], [ -67.190846041999976, -23.528617887999928 ], [ -67.150845922999963, -23.39194609499998 ], [ -67.138626784999985, -23.35833583699997 ], [ -67.093608923999966, -23.24110888499996 ], [ -67.047499906999974, -23.12417295399996 ], [ -67.000835839999979, -23.002782040999932 ], [ -67.10473590099997, -22.900555007999969 ], [ -67.183626875999948, -22.821664031999944 ], [ -67.124454997999976, -22.719582006999929 ], [ -67.012645941999949, -22.634172927999941 ], [ -67.018064003999939, -22.573890950999953 ], [ -67.022508926999933, -22.523890885999947 ], [ -66.926390960999981, -22.478054951999979 ], [ -66.850281938999956, -22.453055086999939 ], [ -66.774735844999952, -22.426945961999934 ], [ -66.771390962999988, -22.374999954999964 ], [ -66.736682004999977, -22.227499915999942 ], [ -66.688899959999958, -22.196108849999973 ], [ -66.616390964999937, -22.191946061999943 ], [ -66.559717899999953, -22.178335862999973 ], [ -66.495563985999979, -22.161108871999943 ], [ -66.402235852999979, -22.13416407099993 ], [ -66.345381905999943, -22.116626949999954 ], [ -66.306946018999952, -22.076946014999976 ], [ -66.291263980999986, -22.035281920999978 ], [ -66.281955038999968, -21.978054979999968 ], [ -66.263063905999957, -21.902226918999929 ], [ -66.236254890999987, -21.79696396099996 ], [ -66.223008801999981, -21.780517828999962 ], [ -66.194735803999947, -21.788335797999935 ], [ -66.077517905999969, -21.831946001999938 ], [ -65.926117934999979, -21.933335849999935 ], [ -65.867508817999976, -22.00555499799998 ], [ -65.812790915999983, -22.071390991999976 ], [ -65.750008951999973, -22.110072972999944 ], [ -65.657499897999969, -22.108890956999971 ], [ -65.598890948999951, -22.09999993699995 ], [ -65.190199909999933, -22.094726880999929 ], [ -64.988345910999954, -22.090835833999961 ], [ -64.969454944999939, -22.107635849999951 ], [ -64.715699866999955, -22.182090954999978 ], [ -64.683572869999978, -22.175435891999939 ], [ -64.592645983999944, -22.213199885999927 ], [ -64.546954888999949, -22.260564009999939 ], [ -64.540081895999947, -22.286599876999958 ], [ -64.526117812999985, -22.408891006999966 ], [ -64.461945961999959, -22.514445989999956 ], [ -64.443890838999948, -22.580000016999975 ], [ -64.455281845999934, -22.615555043999962 ], [ -64.453135910999947, -22.643963996999958 ], [ -64.416399872999932, -22.68360889 ], [ -64.363063978999946, -22.736945956999932 ], [ -64.352508815999954, -22.767226923999942 ], [ -64.347781925999982, -22.814164072999972 ], [ -64.348072944999956, -22.843054984999981 ], [ -64.338272991999986, -22.86979090899996 ], [ -64.316390859999956, -22.860555056999942 ], [ -64.301390940999966, -22.832499988999928 ], [ -64.283890868999947, -22.7544460299999 ], [ -64.2861179399999, -22.727499887999954 ], [ -64.279872918999956, -22.645555048999938 ], [ -64.2533460399999, -22.567782051999927 ], [ -64.244172884999955, -22.549726928999974 ], [ -64.223072951999939, -22.512917968999943 ], [ -64.19939089099995, -22.494999974999928 ], [ -64.172645913999986, -22.470417863999955 ], [ -64.126681903999952, -22.410281899999973 ], [ -64.058626884999967, -22.249726878999979 ], [ -63.993054920999953, -22.094446087999927 ], [ -63.941117798999983, -22.000835818999974 ], [ -63.733063873999981, -22.00278192899998 ], [ -63.685835872999974, -22.003055011999948 ], [ -63.593335870999965, -22.003335805999939 ], [ -63.130281987999979, -22.000555024999983 ], [ -62.886117817999946, -21.997781956999972 ], [ -62.817190912999934, -21.997381971999971 ], [ -62.800699853999959, -22.017017920999933 ], [ -62.792781972999933, -22.058890891999965 ], [ -62.793063939999968, -22.093755082999962 ], [ -62.79236388399994, -22.115417944999933 ], [ -62.765008871999953, -22.154726890999939 ], [ -62.65722681699998, -22.236254981999934 ], [ -62.643772856999988, -22.238899974999981 ], [ -62.617781915999956, -22.27555504299994 ], [ -62.52139086699998, -22.370835824999972 ], [ -62.392363872999965, -22.456808838999962 ], [ -62.363472960999957, -22.468472926999937 ], [ -62.341390836999949, -22.470281909999983 ], [ -62.315835754999966, -22.480835898999942 ], [ -62.285281873999963, -22.495835817999932 ], [ -62.250417850999952, -22.525281946999939 ], [ -62.240281950999986, -22.542782019999947 ], [ -62.237646009999935, -22.570417824999936 ], [ -62.154726858999936, -22.756109 ], [ -62.101954898999963, -22.816390976999969 ], [ -62.042226797999945, -22.876390986999979 ], [ -62.025699863999932, -22.89902682 ], [ -62.004654916999982, -22.950072944999931 ], [ -62.00695491099998, -22.975282021999931 ], [ -61.990490841999986, -23.005490903999942 ], [ -61.918890947999955, -23.068335899999965 ], [ -61.889026897999941, -23.074308843999972 ], [ -61.855281857999955, -23.089999933999934 ], [ -61.757635870999934, -23.171526850999953 ], [ -61.746254922999981, -23.188054958999942 ], [ -61.744163972999957, -23.234235891999958 ], [ -61.671735779999949, -23.286317853999947 ], [ -61.632635877999974, -23.283473035999975 ], [ -61.594173000999945, -23.297090945999969 ], [ -61.450835750999943, -23.418055052999932 ], [ -61.364172905999965, -23.456108892999964 ], [ -61.294726826999977, -23.489172986999961 ], [ -61.182499847999964, -23.554726845999937 ], [ -61.111326760999987, -23.608399859999963 ], [ -61.034726894999949, -23.754173058999982 ], [ -61.024726781999959, -23.786108948999981 ], [ -61.010699833999979, -23.810835897999937 ], [ -60.98639097399996, -23.821663975999968 ], [ -60.875281973999961, -23.849726922999935 ], [ -60.760835802999964, -23.872499883999978 ], [ -60.732226857999933, -23.872217915999954 ], [ -60.61389098099994, -23.894446052999967 ], [ -60.592017901999952, -23.918963957999949 ], [ -60.577426852999963, -23.946317963999945 ], [ -60.456390828999986, -23.988890991999938 ], [ -60.279726796999967, -24.038472965999972 ], [ -60.162781979999977, -24.041673008999965 ], [ -60.139454975999968, -24.03778196199994 ], [ -60.115835778999951, -24.032217886999945 ], [ -60.08778188399998, -24.024172936999946 ], [ -60.066672898999968, -24.0163910099999 ], [ -60.038063954999984, -24.009726893999982 ], [ -59.982781949999946, -24.042781934999937 ], [ -59.670281967999983, -24.233608869999955 ], [ -59.533617885999945, -24.315699887999983 ], [ -59.470835754999939, -24.354726867999943 ], [ -59.383199938999951, -24.435135805999948 ], [ -59.356945974999974, -24.471390890999942 ], [ -59.338890851999963, -24.48889096299996 ], [ -59.289726798999936, -24.515281887999947 ], [ -59.101954900999942, -24.608335933999967 ], [ -59.058617778999974, -24.618617846999939 ], [ -58.989726915999938, -24.654726917999938 ], [ -58.938608873999954, -24.685555054999952 ], [ -58.922499861999938, -24.697781904999943 ], [ -58.881390984999939, -24.729999928999973 ], [ -58.807917903999964, -24.781526840999959 ], [ -58.669726806999961, -24.822226847999957 ], [ -58.604446029999963, -24.828608996999947 ], [ -58.575835744999949, -24.826390977999949 ], [ -58.532645976999959, -24.833199932999946 ], [ -58.449308903999963, -24.859581972999933 ], [ -58.352226851999944, -24.967917904999979 ], [ -58.281672851999986, -24.978617906999943 ], [ -58.181808845999967, -24.975554991999957 ], [ -58.129173007999952, -25.008054982999965 ], [ -58.059717875999979, -25.034446075999938 ], [ -57.935563951999939, -25.077499889999956 ], [ -57.908054880999941, -25.078054938999969 ], [ -57.879172854999979, -25.084864061999951 ], [ -57.858063869999967, -25.097499948999939 ], [ -57.761108886999978, -25.17152690599994 ], [ -57.749726764999934, -25.200282030999972 ], [ -57.737290869999981, -25.233263981999983 ], [ -57.706390983999938, -25.271390912999948 ], [ -57.67267293499998, -25.29429999499996 ], [ -57.668617937999954, -25.306117975999939 ], [ -57.632081891999974, -25.386390959999972 ], [ -57.588199946999964, -25.415417825999953 ], [ -57.556326921999982, -25.439999935999936 ], [ -57.553890972999966, -25.468335797999941 ], [ -57.576663932999963, -25.54944596699994 ], [ -57.748890921999987, -25.735135799999966 ], [ -57.792917873999954, -25.766673045999937 ], [ -57.810981880999975, -25.773135828999955 ], [ -57.805554933999986, -25.833055036999951 ], [ -57.853890854999975, -25.904446053999948 ], [ -57.900772851999932, -25.955072916999939 ], [ -57.890908859999968, -25.973890959999949 ], [ -57.860073011999987, -25.997917852999933 ], [ -58.002917908999962, -26.104173060999983 ], [ -58.048335753999936, -26.119163926999931 ], [ -58.144726802999969, -26.206946090999963 ], [ -58.131390859999954, -26.257226948999971 ], [ -58.161945913999944, -26.300555017999955 ], [ -58.209935830999939, -26.420345992999955 ], [ -58.217226912999934, -26.541390900999943 ], [ -58.182917771999939, -26.571108938999942 ], [ -58.168608856999981, -26.600000017999946 ], [ -58.181672890999948, -26.656108980999932 ], [ -58.316672997999945, -26.872782016999963 ], [ -58.352763963999962, -26.88539091399997 ], [ -58.394445994999955, -26.908055076999972 ], [ -58.47116387899996, -26.987264062999941 ], [ -58.578608813999949, -27.122499867999977 ], [ -58.605835749999983, -27.125000021999938 ], [ -58.628063886999939, -27.131108920999964 ], [ -58.652090946999976, -27.158890906999943 ], [ -58.65351788299995, -27.193045988999984 ], [ -58.614863897999953, -27.227226886999972 ], [ -58.598963929999968, -27.249235920999979 ], [ -58.604617858999973, -27.316917944999943 ], [ -58.560981838999965, -27.301109004999944 ], [ -58.529163966999931, -27.293335795999951 ], [ -58.505563879999954, -27.288608904999933 ], [ -58.479726830999937, -27.286108918999957 ], [ -58.289726854999969, -27.273890953999967 ], [ -58.156390891999934, -27.26889098099997 ], [ -58.011117924999951, -27.270282041999963 ], [ -57.935835860999987, -27.275555096999938 ], [ -57.791390858999932, -27.292226869999979 ], [ -57.729590918999975, -27.3070819499999 ], [ -57.703899882999963, -27.319446094999932 ], [ -57.682499877999987, -27.334999889999949 ], [ -57.644863958999963, -27.360699977999957 ], [ -57.616954903999954, -27.37166401099995 ], [ -57.413063934999968, -27.417781912999942 ], [ -57.344926772999941, -27.426117882999961 ], [ -57.323617795999951, -27.425554953999949 ], [ -57.296954961999973, -27.431117855999958 ], [ -57.269172975999936, -27.44221784299998 ], [ -57.237363988999959, -27.459581960999969 ], [ -57.207226855999977, -27.471946105999962 ], [ -57.164455009999983, -27.484172955999952 ], [ -57.121672937999961, -27.490282022999963 ], [ -57.077781939999966, -27.492226958999936 ], [ -57.044235886999957, -27.476808950999953 ], [ -56.998608828999977, -27.450835947999963 ], [ -56.964726828999972, -27.434173059999978 ], [ -56.916181862999963, -27.419308927999964 ], [ -56.880699925999977, -27.419582009999942 ], [ -56.862499963999937, -27.428199947999929 ], [ -56.835835788999987, -27.449446060999946 ], [ -56.813335743999971, -27.470281962999934 ], [ -56.792646020999939, -27.489726972999961 ], [ -56.766535889999943, -27.501946110999938 ], [ -56.731390904999955, -27.505281940999964 ], [ -56.706272855999941, -27.483435851999957 ], [ -56.69667289399996, -27.474163957999963 ], [ -56.673055037999973, -27.461390942999969 ], [ -56.644445925999946, -27.453890983999941 ], [ -56.606945961999941, -27.448335961999931 ], [ -56.578199889999951, -27.448617928999965 ], [ -56.549999813999932, -27.452499922999948 ], [ -56.520281943999976, -27.461945992999972 ], [ -56.50417293199996, -27.475281935999931 ], [ -56.493890850999946, -27.502364032999935 ], [ -56.456390886999941, -27.547226828999953 ], [ -56.418617839999968, -27.574717962999955 ], [ -56.398055019999958, -27.584446 ], [ -56.365626777999978, -27.584726960999944 ], [ -56.345554968999977, -27.570281923999971 ], [ -56.27499996399996, -27.468335852999928 ], [ -56.268890897999938, -27.44860887599998 ], [ -56.27139088399997, -27.424999904999936 ], [ -56.268126802999973, -27.389382012999931 ], [ -56.14402685899995, -27.311464007999973 ], [ -56.098617898999976, -27.304726969999933 ], [ -56.064446052999983, -27.302782032999971 ], [ -56.035699812999951, -27.305135838999945 ], [ -55.965272882999955, -27.331955079999943 ], [ -55.923199919999945, -27.326526958999978 ], [ -55.892508910999936, -27.332635857999946 ], [ -55.867572915999972, -27.358408868999959 ], [ -55.859026894999943, -27.391526941999928 ], [ -55.844726865999974, -27.406254951999983 ], [ -55.757781886999965, -27.441946100999928 ], [ -55.731672928999956, -27.436673045999953 ], [ -55.599999934999971, -27.342081926999981 ], [ -55.584590978999984, -27.316808980999951 ], [ -55.568481966999968, -27.255835831999946 ], [ -55.570281896999973, -27.235417850999966 ], [ -55.581117853999956, -27.214999869999929 ], [ -55.573335759999964, -27.166673000999936 ], [ -55.547499883999933, -27.112226839999948 ], [ -55.417645930999981, -26.986391003999984 ], [ -55.400835856999947, -26.974026857999945 ], [ -55.379445909999959, -26.966390943999954 ], [ -55.271117857999968, -26.93749986499995 ], [ -55.251108913999985, -26.936108971999943 ], [ -55.12999980099994, -26.872708926999962 ], [ -55.055626837999966, -26.803264020999961 ], [ -55.034445935999941, -26.794999966999967 ], [ -54.99250892799995, -26.793890873999942 ], [ -54.963335880999978, -26.783199923999973 ], [ -54.949308933999987, -26.768335959999945 ], [ -54.940417913999966, -26.740835940999943 ], [ -54.92889095299995, -26.688263973999938 ], [ -54.907781967999938, -26.667781954999953 ], [ -54.876599946999931, -26.655282022999984 ], [ -54.842226767999932, -26.657499873999939 ], [ -54.693199881999931, -26.428054996999947 ], [ -54.658754952999971, -26.285555098999964 ], [ -54.667499960999976, -26.238881979999974 ], [ -54.640972912999985, -26.21430892199993 ], [ -54.639590904999977, -26.187782041999981 ], [ -54.660972972999957, -26.157917991999966 ], [ -54.66035489099994, -25.976254991999951 ], [ -54.604445919999932, -25.943608987999937 ], [ -54.611672964999968, -25.781946046999963 ], [ -54.623335879999956, -25.64860891099994 ], [ -54.59891788799996, -25.57322693499998 ], [ -54.546390846999941, -25.57028203699997 ], [ -54.468890931999965, -25.620555015999969 ], [ -54.452508837999972, -25.633054947999938 ], [ -54.384035896999933, -25.580699903999971 ], [ -54.313335883999969, -25.555281950999984 ], [ -54.278681911999968, -25.552746089999971 ], [ -54.177508818999968, -25.561946066999951 ], [ -54.156108814999982, -25.535554973999979 ], [ -54.107572900999969, -25.496391033999942 ], [ -53.888617808999982, -25.633755004999955 ], [ -53.861663954999983, -25.685281915999951 ], [ -53.825281968999946, -25.801390888999947 ], [ -53.825690837999957, -25.82278200899998 ], [ -53.834726864999936, -25.88139095899993 ], [ -53.826881905999983, -25.951390913999944 ], [ -53.738617782999938, -26.087781913999947 ], [ -53.664308858999959, -26.193335890999947 ], [ -53.654172958999936, -26.217635866999956 ], [ -53.650008828999944, -26.249999903999935 ], [ -53.650281911999969, -26.26305505299996 ], [ -53.653890823999973, -26.277499922999937 ], [ -53.668890909999959, -26.309999913999945 ], [ -53.690972865999981, -26.334863991999953 ], [ -53.711735845999954, -26.364099901999964 ], [ -53.709445910999932, -26.511108928999931 ], [ -53.725835883999935, -26.656672915999934 ], [ -53.735835829999985, -26.69583585 ], [ -53.717090876999976, -26.782646047999947 ], [ -53.698617832999957, -26.882917916999929 ], [ -53.705281948999982, -26.911663989999965 ], [ -53.734172859999944, -26.978055032999976 ], [ -53.745563866999987, -27.002781982999977 ], [ -53.807781895999938, -27.12917303699993 ], [ -53.838755039999967, -27.17111792399993 ], [ -53.857781959999954, -27.149172927999928 ], [ -53.899726847999943, -27.155281994999939 ], [ -54.005835874999946, -27.191108930999974 ], [ -54.026390815999946, -27.224999982999975 ], [ -54.048617778999983, -27.250281981999933 ], [ -54.070835857999953, -27.26805497 ], [ -54.091946015999952, -27.283335849999958 ], [ -54.113754889999939, -27.29083580899993 ], [ -54.145554992999962, -27.289999965999982 ], [ -54.234173, -27.381390873999976 ], [ -54.280281848999948, -27.424517944999934 ], [ -54.358063898999944, -27.456946019999975 ], [ -54.450835809999944, -27.469173037999951 ], [ -54.52972678499998, -27.490835898999933 ], [ -54.626945965999937, -27.53083585 ], [ -54.686117843999966, -27.55528200599997 ], [ -54.771255013999962, -27.565135938999958 ], [ -54.789517839999974, -27.553890944999978 ], [ -54.792499953999936, -27.533055041999944 ], [ -54.813608938999948, -27.535555028999966 ], [ -54.898608812999953, -27.670282052999937 ], [ -54.901672901999973, -27.711108961999969 ], [ -54.908199889999935, -27.730281894999962 ], [ -55.021663868999951, -27.833890935999932 ], [ -55.063754936999942, -27.845699863999982 ], [ -55.179726781999932, -27.856255026999975 ], [ -55.321254882999938, -27.922081967999929 ], [ -55.374172854999983, -27.973608879999972 ], [ -55.379581864999977, -27.993472984999983 ], [ -55.380281920999948, -28.025835847999929 ], [ -55.447781890999977, -28.086673042999962 ], [ -55.582226779999985, -28.133054974999936 ], [ -55.626299832999962, -28.141017950999981 ], [ -55.633890818999987, -28.158817927999962 ], [ -55.678608943999961, -28.195554970999979 ], [ -55.709445964999986, -28.208617831999959 ], [ -55.748335816999941, -28.217082045999973 ], [ -55.770281986999976, -28.235626838999963 ], [ -55.767508917999976, -28.256255037999949 ], [ -55.717781935999938, -28.28083580699996 ], [ -55.680835847999958, -28.30242691899997 ], [ -55.667635858999972, -28.335626966999939 ], [ -55.697535783999967, -28.407708987999968 ], [ -55.720626753999966, -28.387635838999984 ], [ -55.732917808999957, -28.363191023999946 ], [ -55.833063949999939, -28.353054955999937 ], [ -55.869790934999969, -28.356317862999958 ], [ -55.893063959999949, -28.369726896999964 ], [ -55.978890960999934, -28.488335855999935 ], [ -56.011117869999964, -28.561108880999939 ], [ -56.066117906999978, -28.626108863999946 ], [ -56.170008914999983, -28.728335895999976 ], [ -56.275563897999973, -28.776672990999941 ], [ -56.295417776999955, -28.797435802999928 ], [ -56.301672855999982, -28.831946109999933 ], [ -56.413063990999945, -29.046390900999938 ], [ -56.427390842999955, -29.069573065999975 ], [ -56.515008888999944, -29.092782052999951 ], [ -56.534172936999937, -29.103335874999971 ], [ -56.571672901999932, -29.124726826999961 ], [ -56.592226836999941, -29.140691 ], [ -56.624999910999975, -29.174446097999976 ], [ -56.644173010999964, -29.200699894999957 ], [ -56.654863960999933, -29.230835853999963 ], [ -56.655208792999986, -29.263263928999947 ], [ -56.695835877999968, -29.343263997999941 ], [ -56.813335743999971, -29.467226814999947 ], [ -56.913063962999956, -29.558890972999961 ], [ -57.045008865999932, -29.706108875999973 ], [ -57.076254924999944, -29.73791786399994 ], [ -57.103890897999975, -29.76215497499993 ], [ -57.144726858999945, -29.77652692199996 ], [ -57.194726755999966, -29.77749989299997 ], [ -57.227781964999963, -29.780555096999933 ], [ -57.257499834999976, -29.791390885999931 ], [ -57.27991790599998, -29.805699967999942 ], [ -57.297426862999941, -29.825835813999959 ], [ -57.318681860999959, -29.875282001999949 ], [ -57.31892678, -29.910835855999949 ], [ -57.325490983999941, -29.978272960999959 ], [ -57.344526788999985, -29.999999859999946 ], [ -57.48694605299994, -30.132226897999942 ], [ -57.533617830999958, -30.163335828999948 ], [ -57.553890972999966, -30.172781897999982 ], [ -57.58250880199995, -30.180835900999966 ], [ -57.607999845999984, -30.184926940999958 ], [ -57.62944595099998, -30.237782048999975 ], [ -57.624999853999952, -30.278890924999928 ], [ -57.631390887999942, -30.298755029999938 ], [ -57.668890851999947, -30.354726864999975 ], [ -57.746117852999987, -30.417499943999928 ], [ -57.796954933999984, -30.448335959999952 ], [ -57.868617858999983, -30.499445955999931 ], [ -57.882781934999969, -30.515135872999963 ], [ -57.889454934999947, -30.534999977999973 ], [ -57.889863971999944, -30.598335817999953 ], [ -57.871535766999955, -30.621526866999943 ], [ -57.845835845999943, -30.642646077999984 ], [ -57.813890904999937, -30.71375496 ], [ -57.806399829999975, -30.748217992999969 ], [ -57.802917819999948, -30.765417993999961 ], [ -57.799326844999939, -30.791763991999971 ], [ -57.797781891999932, -30.805699911999966 ], [ -57.796946048999985, -30.883472908999977 ], [ -57.853617772999939, -31.065555003999975 ], [ -57.920835774999944, -31.270972987999983 ], [ -58.004445929999974, -31.417708931999982 ], [ -58.038754903999973, -31.433472944999949 ], [ -58.068055019999974, -31.449717911999983 ], [ -58.078890976999958, -31.475899959999936 ], [ -58.065281950999974, -31.49416396 ], [ -58.035690982999938, -31.507264035999981 ], [ -58.012917854999955, -31.523608914999954 ], [ -57.989863932999981, -31.548335864999956 ], [ -57.977781921999963, -31.58089989399997 ], [ -57.981535841999971, -31.619446086999972 ], [ -58.040208828999937, -31.789172921999977 ], [ -58.063608922999947, -31.81249992599993 ], [ -58.097917896999945, -31.82708192299998 ], [ -58.139026773999944, -31.83430896699997 ], [ -58.162226875999977, -31.841117922999956 ], [ -58.184590966999963, -31.860281970999949 ], [ -58.200145934999966, -31.894790936999982 ], [ -58.160426777999987, -31.951108943999941 ], [ -58.145972856999947, -31.993055005999963 ], [ -58.151117836999958, -32.066390958999932 ], [ -58.161235799999986, -32.101064042999951 ], [ -58.178335887999935, -32.12625501399998 ], [ -58.182290972999965, -32.156846110999936 ], [ -58.162781924999933, -32.196673059999966 ], [ -58.13999991299994, -32.221672923999961 ], [ -58.101581961999955, -32.254645989999972 ], [ -58.097554960999958, -32.294590955999979 ], [ -58.10159989899995, -32.32562696399998 ], [ -58.135281906999978, -32.354173043999936 ], [ -58.150281992999965, -32.369726838999952 ], [ -58.176946000999976, -32.404026927999951 ], [ -58.199246053999957, -32.45030894699994 ], [ -58.200008806999961, -32.448335846999953 ], [ -58.212917776999973, -32.464308904999939 ], [ -58.221117791999973, -32.486391028999947 ], [ -58.224726871999962, -32.521664088999955 ], [ -58.224035867999987, -32.571390903999941 ], [ -58.198617913999954, -32.705554998999958 ], [ -58.168063865999954, -32.859172988999944 ], [ -58.150554907999947, -32.944173030999934 ], [ -58.146526900999959, -33.045417871999973 ], [ -58.154863876999968, -33.066808991999949 ], [ -58.169308912999952, -33.08125503399998 ], [ -58.188199878999967, -33.090973012999939 ], [ -58.22152682899997, -33.095146026999942 ], [ -58.244308841999953, -33.093335870999965 ], [ -58.265699961999985, -33.089026902999933 ], [ -58.36749985299997, -33.081117905999974 ], [ -58.403190834999975, -33.08104599 ], [ -58.425699932999976, -33.097435962999953 ], [ -58.426672903999986, -33.261946068999976 ], [ -58.455554930999938, -33.33555510399998 ], [ -58.472090916999946, -33.353190963999964 ], [ -58.507363977999944, -33.409308978999945 ], [ -58.525554886999942, -33.485282046999941 ], [ -58.531954972999984, -33.51694602699996 ], [ -58.549445992999949, -33.660564070999953 ], [ -58.54972678699994, -33.686108926999964 ], [ -58.546946006999974, -33.736255003999929 ], [ -58.532364009999981, -33.771254981999959 ], [ -58.488890933999983, -33.82750895199996 ], [ -58.466599932999941, -33.848408891999952 ], [ -58.440490974999932, -33.980764004999969 ], [ -58.448245910999958, -34.01046393799993 ], [ -58.424446, -34.020000028999959 ], [ -58.396945981999977, -34.032917882999982 ], [ -58.385281892999956, -34.050417955999933 ], [ -58.377508850999959, -34.185908906999941 ], [ -58.411945899999978, -34.234455045999937 ], [ -58.434172863999947, -34.261808883999947 ], [ -58.475417861999972, -34.281946070999936 ], [ -58.498890878999987, -34.326664027999982 ], [ -58.493335856999977, -34.396946118999949 ], [ -58.476108865999947, -34.48861798799993 ], [ -58.469726884999943, -34.539726977999976 ], [ -58.463054889999967, -34.547781986999951 ], [ -58.427646042999982, -34.572572973999968 ], [ -58.400008896999964, -34.576808852999932 ], [ -58.369681996999986, -34.586554994999972 ], [ -58.346335882999938, -34.633617872999935 ], [ -58.344726891999983, -34.636117858999967 ], [ -58.325835758999972, -34.658199982999975 ], [ -58.230835770999931, -34.717226853999932 ], [ -58.164172985999983, -34.747508993999929 ], [ -58.129717831999983, -34.755564002999961 ], [ -58.077508800999965, -34.770835830999943 ], [ -58.010699835999958, -34.791526893999958 ], [ -57.854999948999932, -34.851108981999971 ], [ -57.795835781999983, -34.878890967999951 ], [ -57.49653578899995, -35.047090954999931 ], [ -57.33555496699995, -35.15555496099995 ], [ -57.312781838999967, -35.177781924999977 ], [ -57.188335889999962, -35.32055507299998 ], [ -57.135563929999932, -35.398890998999946 ], [ -57.122781862999943, -35.423755076999953 ], [ -57.129717887999959, -35.470282015999942 ], [ -57.141945911999983, -35.488891013999933 ], [ -57.179026780999948, -35.539590966999981 ], [ -57.233063904999938, -35.589172941999948 ], [ -57.310008937999953, -35.688335885999948 ], [ -57.354999808999935, -35.749172912999938 ], [ -57.376108793999947, -35.781390936999969 ], [ -57.383199883999964, -35.80125504199998 ], [ -57.387781935999953, -35.830835951999973 ], [ -57.387781935999953, -35.90667306499995 ], [ -57.384999813999968, -35.930282036999984 ], [ -57.376672895999945, -35.962782027999936 ], [ -57.365835765999975, -35.986946048999982 ], [ -57.310417806999965, -36.094864058999974 ], [ -57.241946039999959, -36.178335911999966 ], [ -57.220281837999948, -36.198617938999973 ], [ -57.146117919999938, -36.256108909999966 ], [ -57.104863868999985, -36.285281955999949 ], [ -57.053335783999955, -36.314173034999953 ], [ -56.933335763999935, -36.368617854999968 ], [ -56.903064016999963, -36.364726975999929 ], [ -56.872217774999967, -36.348891045999949 ], [ -56.770145975999981, -36.305282014999932 ], [ -56.745345935999978, -36.315972964999958 ], [ -56.698335863999944, -36.409446105999962 ], [ -56.693608805999986, -36.431673068999942 ], [ -56.670972972999948, -36.581672925999953 ], [ -56.660554937999962, -36.873482012999943 ], [ -56.663063976999979, -36.900555057999952 ], [ -56.678335804999961, -36.923617863999937 ], [ -56.703608918999976, -36.952226975999963 ], [ -56.722781851999969, -36.971391023999956 ], [ -56.738335814999971, -36.986945992999949 ], [ -56.820835870999986, -37.08278199199998 ], [ -56.945835863999946, -37.251108880999936 ], [ -57.026117899999974, -37.370835817999932 ], [ -57.033335891999968, -37.390146046999973 ], [ -57.082781912999963, -37.452781997999978 ], [ -57.119999909999933, -37.493055030999983 ], [ -57.184446015999981, -37.560009002999948 ], [ -57.210554973999933, -37.58083585299994 ], [ -57.255563950999942, -37.613617979999958 ], [ -57.273608846999934, -37.62667296099994 ], [ -57.32999994499994, -37.673617989999968 ], [ -57.411663988999976, -37.755282033999947 ], [ -57.484026803999939, -37.830417916999977 ], [ -57.501672888999963, -37.85945500899993 ], [ -57.515835790999972, -37.884726950999948 ], [ -57.525281860999939, -37.913608976999967 ], [ -57.531672893999939, -37.937782050999942 ], [ -57.540908912999953, -37.989654967999968 ], [ -57.526117871999986, -38.025554993999947 ], [ -57.533408786999985, -38.085908887999949 ], [ -57.551946035999947, -38.113617950999981 ], [ -57.57791786599995, -38.13833584899993 ], [ -57.626108947999967, -38.173055032999969 ], [ -57.64528188099996, -38.18556401799998 ], [ -57.674446041999943, -38.203891048999935 ], [ -57.836399834999952, -38.293063937999932 ], [ -58.161390864999987, -38.435282035999933 ], [ -58.189172850999967, -38.446946124999954 ], [ -58.301117861999955, -38.484999965999975 ], [ -58.657226874999935, -38.574717845999942 ], [ -58.766945987999975, -38.599726929999974 ], [ -58.793199951999952, -38.608891032999963 ], [ -59.032090898999968, -38.690563961999942 ], [ -59.064863972999945, -38.697508871999958 ], [ -59.099863950999975, -38.702090922999957 ], [ -59.171672888999979, -38.709446042999957 ], [ -59.267226920999974, -38.725008890999959 ], [ -59.494726860999947, -38.766946066999935 ], [ -59.672781953999959, -38.803890981999984 ], [ -59.789726770999948, -38.836946022999939 ], [ -59.887781961999963, -38.84222695699998 ], [ -59.909172914999942, -38.844173066999929 ], [ -60.191117841999983, -38.886391036999953 ], [ -60.467226785999969, -38.928064015999951 ], [ -60.701390841999967, -38.953608871999961 ], [ -60.823890848999952, -38.97278197199995 ], [ -60.8599999, -38.976390884999944 ], [ -61.094454995999968, -38.995835893999981 ], [ -61.162226873999941, -38.998890929999959 ], [ -61.194726865999939, -38.997508921999952 ], [ -61.31110892099997, -38.991672937999965 ], [ -61.360008944999947, -38.982645963999971 ], [ -61.390835907999985, -38.980426938999983 ], [ -61.423199944999965, -38.984026965999931 ], [ -61.45333590499996, -38.99000896299998 ], [ -61.50528191099994, -39.008891043999938 ], [ -61.540281888999971, -39.013335966999932 ], [ -61.634172951999972, -39.005564098999969 ], [ -61.81806402899997, -38.986117915999955 ], [ -61.841390864999937, -38.981672991999972 ], [ -61.97778186499994, -38.954446055999938 ], [ -62.023199877999957, -38.943055049999941 ], [ -62.088826826999934, -38.916046042999938 ], [ -62.104446000999985, -38.887217995999947 ], [ -62.112781970999947, -38.864446040999951 ], [ -62.208335834999957, -38.816390913999953 ], [ -62.351746007999964, -38.790135942999939 ], [ -62.385146047999967, -38.802646100999937 ], [ -62.395145993999961, -38.820281960999978 ], [ -62.38167292299994, -38.859172985999976 ], [ -62.366673003999949, -38.880835846999958 ], [ -62.324717890999977, -38.923891001999948 ], [ -62.278890840999964, -38.955835942999954 ], [ -62.31528187899994, -39.036663976999932 ], [ -62.336945913999955, -39.078608864999978 ], [ -62.349726807999957, -39.167499953999936 ], [ -62.327499843999988, -39.26000900799994 ], [ -62.285135860999958, -39.271099941999978 ], [ -62.248890835999987, -39.275891037999941 ], [ -62.224808956999937, -39.276555051999935 ], [ -62.16598191099996, -39.286391047999984 ], [ -62.072646065999947, -39.32709088799993 ], [ -62.024445931999935, -39.365555105999931 ], [ -62.024373008999987, -39.387499934999937 ], [ -62.05635499899995, -39.411490952999941 ], [ -62.135563983999987, -39.370835872999976 ], [ -62.164454895999938, -39.348335826999971 ], [ -62.177917908999973, -39.328617902999952 ], [ -62.191390979999937, -39.309309015999929 ], [ -62.25918196899994, -39.316346125999985 ], [ -62.274864006999962, -39.338473009999973 ], [ -62.146808809999982, -39.433472997999957 ], [ -62.06875501899998, -39.508472925999968 ], [ -62.093608869999969, -39.641946017999942 ], [ -62.10694598699996, -39.718335832999969 ], [ -62.109999849999951, -39.744173049999972 ], [ -62.112781970999947, -39.782499972999972 ], [ -62.117090939999969, -39.836873043999958 ], [ -62.172917935999976, -39.860555104999946 ], [ -62.262299868999946, -39.845355026999982 ], [ -62.309172980999961, -39.892226964999963 ], [ -62.341663919999974, -40.014164042999937 ], [ -62.342226847999939, -40.102782049999973 ], [ -62.33805500699998, -40.124726877999933 ], [ -62.351808871999935, -40.178617988999974 ], [ -62.36902681, -40.209173043999954 ], [ -62.387090984999986, -40.222781901999952 ], [ -62.422646012999962, -40.23291797 ], [ -62.475146062999954, -40.277781938999965 ], [ -62.488754920999952, -40.302572926999972 ], [ -62.44250894399994, -40.417226968999955 ], [ -62.421463996999933, -40.458126967999931 ], [ -62.296672880999949, -40.556946086999972 ], [ -62.266808829999945, -40.557709006999971 ], [ -62.24749994299998, -40.601181915999973 ], [ -62.262917782999978, -40.63201793199994 ], [ -62.308263878999981, -40.63055495499998 ], [ -62.336463953999953, -40.607090989999961 ], [ -62.338335800999971, -40.671317993999935 ], [ -62.326664000999983, -40.678335825999966 ], [ -62.259999874999949, -40.645281958999931 ], [ -62.195317900999953, -40.628409019999935 ], [ -62.199863909999976, -40.649654964999968 ], [ -62.225772875999951, -40.661600014999976 ], [ -62.279163922999942, -40.781390990999967 ], [ -62.320835895999949, -40.865355029999932 ], [ -62.390008892999958, -40.901946060999933 ], [ -62.410008951999941, -40.909863941999959 ], [ -62.594454911999946, -40.984999991999985 ], [ -62.726672896999958, -41.046808984999984 ], [ -62.753063988999941, -41.048482012999955 ], [ -62.771599897999977, -41.047308880999935 ], [ -62.945554898999944, -41.107508883999969 ], [ -62.99917292799995, -41.12640001699998 ], [ -63.015281939999966, -41.138617981999971 ], [ -63.036399809999978, -41.14930893199994 ], [ -63.061108822999984, -41.153617900999961 ], [ -63.119046045999937, -41.158808980999936 ], [ -63.141945908999958, -41.160563983999964 ], [ -63.366672947999973, -41.161945991999971 ], [ -63.439172889999952, -41.158617873999958 ], [ -63.563335865999932, -41.161945991999971 ], [ -63.678335745999959, -41.166118000999973 ], [ -63.701954942999976, -41.166390914999965 ], [ -63.774726793999946, -41.164864067999929 ], [ -63.807499867999979, -41.159172922999971 ], [ -63.839726776999953, -41.147226866999972 ], [ -63.874935799999946, -41.129308872999957 ], [ -63.909172856999987, -41.101955034999946 ], [ -63.930281841999943, -41.083891026999936 ], [ -63.957917814999973, -41.066246114999956 ], [ -63.99333588199994, -41.053064063999955 ], [ -64.063608919999979, -41.035835899999938 ], [ -64.149035768999966, -41.019864015999985 ], [ -64.299181974999954, -40.959446083999978 ], [ -64.486117861999958, -40.898608889999934 ], [ -64.509735885999987, -40.893891051999958 ], [ -64.531399919999956, -40.887781984999947 ], [ -64.722781904999977, -40.832226897999931 ], [ -64.749035868999954, -40.799064065999971 ], [ -64.777645986999971, -40.731108958999982 ], [ -64.804455001999941, -40.72194603 ], [ -64.884735864999982, -40.708335830999943 ], [ -64.909726843999977, -40.706946111999969 ], [ -64.937226862999978, -40.710835817999964 ], [ -64.983754974999954, -40.723755012999959 ], [ -65.130145919999961, -40.844172954999976 ], [ -65.16654601099998, -40.931526969999936 ], [ -65.179308799999944, -40.99056406699998 ], [ -65.167508923999947, -41.090835936999952 ], [ -65.161672940999949, -41.114173 ], [ -65.132781860999955, -41.226108957999941 ], [ -65.06653582499996, -41.44028200799994 ], [ -65.045563967999954, -41.465973043999952 ], [ -65.024735775999943, -41.481108916999972 ], [ -65.004035827999985, -41.492782057999932 ], [ -64.99174594599998, -41.517435917999933 ], [ -64.995835811999939, -41.560282027999961 ], [ -65.000426915999981, -41.580281918999958 ], [ -65.015072950999979, -41.61118197299993 ], [ -65.027235762999965, -41.640555011999936 ], [ -65.02820890199996, -41.68541797499995 ], [ -65.020572987999969, -41.718335887999956 ], [ -65.011672914999963, -41.739726840999936 ], [ -64.994308796999974, -41.768126907999942 ], [ -65.008054950999963, -41.812500032999935 ], [ -65.023055036999949, -41.841664026999979 ], [ -65.036672947999932, -41.865418004999981 ], [ -65.071954892999941, -41.926808907999941 ], [ -65.079726928999946, -41.95778205199997 ], [ -65.076117848999957, -41.982090912999979 ], [ -65.062226855999938, -42.009999967999931 ], [ -65.013626904999967, -42.092226940999979 ], [ -64.9941730099999, -42.112226832999966 ], [ -64.963055026999939, -42.137217979999946 ], [ -64.934445914999969, -42.156955014999937 ], [ -64.877090897999949, -42.189444948999949 ], [ -64.737790875999963, -42.228335973999947 ], [ -64.603899862999981, -42.256954975999975 ], [ -64.582781992999969, -42.257226884999966 ], [ -64.539035833999947, -42.24590896899997 ], [ -64.500008854999976, -42.250972979999972 ], [ -64.464455000999976, -42.265626892999933 ], [ -64.479735880999954, -42.284173027999941 ], [ -64.507235898999966, -42.301672932999963 ], [ -64.533890853999935, -42.323064052999939 ], [ -64.551955028999942, -42.344173037999951 ], [ -64.600872989999971, -42.40726395799993 ], [ -64.595355014999939, -42.434444793999944 ], [ -64.451954900999965, -42.445835967999983 ], [ -64.135417858999972, -42.43639090399995 ], [ -64.113481914999966, -42.431526885999972 ], [ -64.06250887899995, -42.396808874999977 ], [ -64.047235877999981, -42.377781954999932 ], [ -64.044663974999935, -42.310691021999958 ], [ -64.063063928999952, -42.278618004999942 ], [ -64.083626916999947, -42.266672954999933 ], [ -64.110564006999937, -42.259999953999966 ], [ -64.142226813999969, -42.256954975999975 ], [ -64.222781932999965, -42.259172994999972 ], [ -64.248608922999949, -42.261672981999936 ], [ -64.293064022999943, -42.261944890999985 ], [ -64.328235829999983, -42.246182050999948 ], [ -64.296108833999938, -42.229726866999954 ], [ -64.161390861999962, -42.21028202499997 ], [ -64.013626792999958, -42.165555015999985 ], [ -63.898054932999969, -42.111672956999939 ], [ -63.87194597499996, -42.1024999699999 ], [ -63.8483358299999, -42.098617974999968 ], [ -63.773054939999952, -42.090000036999982 ], [ -63.750835855999981, -42.090000036999982 ], [ -63.732499938999979, -42.100008867999975 ], [ -63.696399920999966, -42.164454974999956 ], [ -63.68500891399998, -42.191390890999969 ], [ -63.672363974999939, -42.217226933999939 ], [ -63.651599820999934, -42.243682064999973 ], [ -63.616390965999983, -42.272782020999955 ], [ -63.603890866999961, -42.291391019999935 ], [ -63.594581924999943, -42.309173059999978 ], [ -63.586946010999952, -42.33180889199997 ], [ -63.579308923999974, -42.615008925999973 ], [ -63.628645979999988, -42.764826895999931 ], [ -63.684517901999982, -42.815764056999967 ], [ -63.717226770999957, -42.825426882999977 ], [ -63.751399957999979, -42.828890955999952 ], [ -63.838335883999946, -42.84333582499994 ], [ -64.063899939999942, -42.885973057999934 ], [ -64.098408905999975, -42.88854496099998 ], [ -64.136954931999981, -42.872917907999977 ], [ -64.248199886999942, -42.775144850999936 ], [ -64.250699872999974, -42.749726897999949 ], [ -64.225008836999962, -42.691391030999966 ], [ -64.198817903999952, -42.645282013999974 ], [ -64.316681879999976, -42.55083590199996 ], [ -64.335154923999937, -42.540417866999974 ], [ -64.398054904999981, -42.51583592399993 ], [ -64.454035791999956, -42.507226870999943 ], [ -64.494445952999968, -42.507509005999964 ], [ -64.522372945999962, -42.508472924999978 ], [ -64.618335846999969, -42.519172926999943 ], [ -64.734308864999946, -42.559309 ], [ -64.75500881399995, -42.580144902999962 ], [ -64.778208915999983, -42.604726845999949 ], [ -64.820845980999934, -42.628617951999956 ], [ -64.839735772999973, -42.635282067999981 ], [ -64.876108874999943, -42.637217951999958 ], [ -64.92875493799994, -42.647635819999948 ], [ -64.953754969999977, -42.661108890999969 ], [ -65.018690914999979, -42.743964003999963 ], [ -65.009235792999959, -42.778126964999956 ], [ -64.989445951999983, -42.794591034999939 ], [ -64.940564033999976, -42.802226947999941 ], [ -64.805699881999942, -42.84152684299994 ], [ -64.729863941999952, -42.87417301399995 ], [ -64.678345914999966, -42.908055013999956 ], [ -64.65668188099994, -42.919726981999929 ], [ -64.627645961999974, -42.932226913999955 ], [ -64.593899916999987, -42.941117933999976 ], [ -64.414172968999935, -42.977499919999957 ], [ -64.389872993999973, -42.975282068999945 ], [ -64.353899876999947, -42.963055050999969 ], [ -64.32188184499995, -42.952091018999965 ], [ -64.296526922999988, -42.991182035999941 ], [ -64.364455039999939, -43.030835813999943 ], [ -64.391954890999955, -43.045563991999984 ], [ -64.526945944999966, -43.093891027999973 ], [ -64.591399929999966, -43.116673040999956 ], [ -64.704181957999936, -43.133335928999941 ], [ -64.769181940999943, -43.149173032999954 ], [ -64.800290871999948, -43.161117914999977 ], [ -64.831535756999983, -43.17653592299996 ], [ -64.929864030999966, -43.235835876999943 ], [ -65.03376392399997, -43.311526976999971 ], [ -65.043199935999951, -43.329309016999957 ], [ -65.132372991999944, -43.459308982999971 ], [ -65.25528186799994, -43.572499879999953 ], [ -65.283890979999967, -43.606117849999976 ], [ -65.326808838999966, -43.661808890999964 ], [ -65.336399914999959, -43.716664088999948 ], [ -65.334454978999986, -43.74014481699993 ], [ -65.316255016999946, -43.827226923999945 ], [ -65.297917926999958, -43.852081948999967 ], [ -65.283890979999967, -43.87694485399993 ], [ -65.271254924999937, -43.90986394 ], [ -65.258345955999971, -43.96972699 ], [ -65.230835879999972, -43.961391019999951 ], [ -65.210145989999944, -43.958064073999935 ], [ -65.228763872999934, -44.111255089999929 ], [ -65.255426874999955, -44.119999929999949 ], [ -65.293545925999979, -44.13129102399995 ], [ -65.312499923999951, -44.186955074999958 ], [ -65.308617929999969, -44.207499957999971 ], [ -65.269181912999954, -44.285563975999935 ], [ -65.24945493599995, -44.313055108999947 ], [ -65.322782004999965, -44.405008945999953 ], [ -65.339172983999958, -44.427508991999957 ], [ -65.387508904999947, -44.521664083999951 ], [ -65.59668198199995, -44.616672956999935 ], [ -65.624726823999936, -44.634999987999947 ], [ -65.63959095599995, -44.648473058999969 ], [ -65.68904602899994, -44.712091033999968 ], [ -65.719181987999946, -44.77611787799998 ], [ -65.720835905999934, -44.805835915999978 ], [ -65.712581909999983, -44.829590899999971 ], [ -65.668899956999951, -44.851673023999979 ], [ -65.648481975999971, -44.853335825999977 ], [ -65.628063994999934, -44.854864013999929 ], [ -65.537299885999971, -44.892291055999976 ], [ -65.611117797999952, -45.020564014999934 ], [ -65.688472873999956, -45.042364003999978 ], [ -65.725008919999937, -45.02472697099995 ], [ -65.749599914999976, -45.010972937999952 ], [ -65.842508952999935, -44.986390994999965 ], [ -66.111954954999987, -44.96110899599995 ], [ -66.182781868999939, -44.964444825999976 ], [ -66.353899931999933, -45.031955020999931 ], [ -66.517717859999948, -45.084381981999968 ], [ -66.532646028999977, -45.111808909999979 ], [ -66.56668192099994, -45.157500004999974 ], [ -66.685835870999938, -45.198335966999934 ], [ -66.82918200599994, -45.208890962999931 ], [ -66.853335800999957, -45.212508926999931 ], [ -66.946535859999983, -45.254173020999986 ], [ -66.990417804999936, -45.2816730399999 ], [ -67.037781927999958, -45.337500034999948 ], [ -67.10111793599998, -45.421955085999969 ], [ -67.181817893999948, -45.526526871999977 ], [ -67.197363976999952, -45.539863988999969 ], [ -67.250835825999957, -45.571108873999947 ], [ -67.273054909999985, -45.583063982999931 ], [ -67.298335903999941, -45.59652682799998 ], [ -67.319026799999961, -45.619864057999962 ], [ -67.329590846999963, -45.643199946999971 ], [ -67.381117926999934, -45.795564003999971 ], [ -67.417226829999947, -45.818473086999973 ], [ -67.536954941999966, -45.928618000999961 ], [ -67.584354938999979, -46.000300036999931 ], [ -67.617926808999982, -46.071390980999979 ], [ -67.620563922999963, -46.1299999299999 ], [ -67.618763992999959, -46.177226925999946 ], [ -67.609172916999967, -46.211944936999942 ], [ -67.58168195099995, -46.303335844999935 ], [ -67.57333575399997, -46.325563980999959 ], [ -67.533617937999963, -46.422364066999933 ], [ -67.502572877999967, -46.462435933999984 ], [ -67.446117909999941, -46.524864013999945 ], [ -67.405008864999957, -46.56778204099993 ], [ -67.357226819999937, -46.610835853999959 ], [ -67.338054892999935, -46.625282063999975 ], [ -67.20848190199996, -46.698199927999951 ], [ -67.179172900999959, -46.708891045999962 ], [ -67.099726874999988, -46.758055098999932 ], [ -66.953899863999936, -46.87028191 ], [ -66.81855492699998, -46.989173003999952 ], [ -66.734999923999965, -47.031955075999974 ], [ -66.709590855999977, -47.04209097599994 ], [ -66.668899900999975, -47.048617963999959 ], [ -66.641681848999951, -47.050281939999934 ], [ -66.621399822999933, -47.049999972999956 ], [ -66.576954948999969, -47.04667302699994 ], [ -66.506117807999942, -47.045835842999963 ], [ -66.370072981999954, -47.061464068999953 ], [ -66.351463982999974, -47.078064092999966 ], [ -66.209163909999972, -47.093609002999983 ], [ -66.100354903999971, -47.091600028999949 ], [ -66.053890828999954, -47.074581914999953 ], [ -66.013626847999944, -47.066944827999976 ], [ -65.9893178199999, -47.067226962999939 ], [ -65.894381869999961, -47.101673064999943 ], [ -65.775281898999935, -47.195208901999933 ], [ -65.732790845999943, -47.33055501299998 ], [ -65.732508878999965, -47.350835865999954 ], [ -65.735417902999984, -47.389163961999941 ], [ -65.744446049999965, -47.460282063999955 ], [ -65.755290891999948, -47.536390918999984 ], [ -65.784999876999962, -47.611391014999981 ], [ -65.870417840999949, -47.755555055999935 ], [ -65.887926798999956, -47.766181967999955 ], [ -65.930845998999985, -47.767499938999947 ], [ -65.96918197399998, -47.758755098999984 ], [ -66.001672912999936, -47.757364038999981 ], [ -66.029590853999935, -47.762917887999947 ], [ -66.049181875999977, -47.771255030999953 ], [ -66.065699924999933, -47.784309006999933 ], [ -66.09069995699997, -47.805417991999946 ], [ -66.113890838999964, -47.817500002999964 ], [ -66.170535908999966, -47.823044799999934 ], [ -66.229117867999946, -47.840381927999942 ], [ -66.243617889999939, -47.860282074999986 ], [ -66.211781912999982, -47.843964017999951 ], [ -66.181946025999935, -47.839173089999974 ], [ -66.126899887999969, -47.835599884999965 ], [ -66.080272868999941, -47.819454997999969 ], [ -65.977372937999974, -47.78472692899993 ], [ -65.956808943999988, -47.786390904999962 ], [ -65.904526822999969, -47.809581953999952 ], [ -65.78834593299996, -47.932917971999984 ], [ -65.789790972999981, -47.965835884999933 ], [ -65.828346051999972, -47.9726448399999 ], [ -65.852781981999954, -47.965282008999964 ], [ -65.884172879999937, -47.951955117999944 ], [ -65.913054905999957, -47.946181997999986 ], [ -65.967535768999937, -47.961844925999969 ], [ -65.946117826999966, -48.049726833999955 ], [ -65.964172948999988, -48.092781987999956 ], [ -66.06708193299994, -48.100417901999947 ], [ -66.281399821999969, -48.244173073999946 ], [ -66.335554962999936, -48.28361797499997 ], [ -66.410572996999974, -48.34139091399993 ], [ -66.467226782999944, -48.398055093999972 ], [ -66.549726838999959, -48.408055039999965 ], [ -66.639726853999946, -48.431673062999948 ], [ -66.664454976999934, -48.440281948999939 ], [ -66.688063948999968, -48.455835910999951 ], [ -66.75110893699997, -48.511117914999943 ], [ -66.825699827999983, -48.570135901999947 ], [ -66.879726893999987, -48.577782040999978 ], [ -66.912781934999941, -48.583617857999968 ], [ -66.937790851999978, -48.589444956999955 ], [ -66.966672878999987, -48.598064067999985 ], [ -67.063335836999954, -48.631108882999968 ], [ -67.08848188099995, -48.642091019999953 ], [ -67.124654990999943, -48.669999907999966 ], [ -67.204999890999943, -48.764726980999967 ], [ -67.244445965999944, -48.823199975999955 ], [ -67.284726877999958, -48.834726936999971 ], [ -67.312790830999973, -48.843891038999971 ], [ -67.337781977999953, -48.855282045999957 ], [ -67.404445936999934, -48.894026890999953 ], [ -67.486681962999967, -48.964173026999958 ], [ -67.504181867999932, -48.979999903999953 ], [ -67.508345996999935, -48.984173085999942 ], [ -67.518890933999955, -48.991108942999972 ], [ -67.560563912999953, -49.018890928999951 ], [ -67.585699899999952, -49.040418002999957 ], [ -67.638545954999984, -49.118335839999986 ], [ -67.628063881999935, -49.141944811999963 ], [ -67.614381933999937, -49.17104493599993 ], [ -67.678063946999941, -49.244173017999969 ], [ -67.726390982999988, -49.28417296799995 ], [ -67.768481882999936, -49.316672959999948 ], [ -67.790699961999962, -49.329864063999935 ], [ -67.82778200499996, -49.386390948999974 ], [ -67.722363980999944, -49.378544816999977 ], [ -67.697508955999979, -49.351808891999951 ], [ -67.688063891999946, -49.323481914999945 ], [ -67.650635844999954, -49.260072984999965 ], [ -67.625699849999933, -49.252644941999961 ], [ -67.60577288099995, -49.264099986999952 ], [ -67.656681878999962, -49.427508877999969 ], [ -67.689999943999965, -49.522781947999931 ], [ -67.719181875999936, -49.631672928999933 ], [ -67.729172936999987, -49.70749998399998 ], [ -67.737499854999953, -49.757226965999962 ], [ -67.746945923999988, -49.792500025999971 ], [ -67.753346009999973, -49.81583591499998 ], [ -67.765835883999955, -49.85611800099997 ], [ -67.774872916999982, -49.878064001999974 ], [ -67.788072905999968, -49.904164075999972 ], [ -67.810281931999953, -49.924590940999963 ], [ -67.875835790999986, -49.971944838999946 ], [ -67.897226910999962, -49.985835831999964 ], [ -67.924999843999956, -50.002226978999943 ], [ -67.973345990999974, -50.029863956999975 ], [ -68.005572899999947, -50.047226901999977 ], [ -68.042235847999962, -50.064999889999967 ], [ -68.061399895999955, -50.073335859999986 ], [ -68.177781950999986, -50.109173022999983 ], [ -68.200290881999933, -50.115281920999962 ], [ -68.243346035999934, -50.122217945999978 ], [ -68.273346040999968, -50.123335923999946 ], [ -68.29500890199995, -50.123335923999946 ], [ -68.331190895999953, -50.120699982999952 ], [ -68.4239639799999, -50.06819104799996 ], [ -68.506390945999954, -49.978618006999966 ], [ -68.592508798999972, -49.928608889999964 ], [ -68.606045906999952, -49.949235915999964 ], [ -68.692226791999985, -49.974444824999978 ], [ -68.729172879999965, -49.972499887999959 ], [ -68.833346022999933, -49.968335925999952 ], [ -68.853899958999989, -49.968890975999955 ], [ -68.946117824999988, -49.984726905999935 ], [ -68.966255011999976, -49.989035874999956 ], [ -69.002854927999977, -50.009655020999958 ], [ -68.90889094299996, -50.003063994999934 ], [ -68.883054899999934, -49.992226864999964 ], [ -68.844181979999973, -49.982781968999973 ], [ -68.81418197499994, -49.983064103999936 ], [ -68.782226806999972, -49.990009013999952 ], [ -68.668335852999974, -49.992226864999964 ], [ -68.646390856999972, -49.989308956999935 ], [ -68.617781912999988, -49.980135969999935 ], [ -68.584935916999939, -49.98041793699997 ], [ -68.552790982999966, -49.997644926999953 ], [ -68.536045951999938, -50.024726856999962 ], [ -68.523199846999944, -50.057635884999968 ], [ -68.509035771999947, -50.072917937999932 ], [ -68.488063913999952, -50.084164105999946 ], [ -68.469999906999988, -50.093054957999982 ], [ -68.418335867999986, -50.115281920999962 ], [ -68.378264, -50.13278199399997 ], [ -68.373199821999947, -50.155208949999974 ], [ -68.396954973999982, -50.181255042999965 ], [ -68.42361780799996, -50.195281990999945 ], [ -68.445008927999936, -50.202226899999971 ], [ -68.475281846999962, -50.210282076999931 ], [ -68.547790841999984, -50.226390920999961 ], [ -68.650281904999986, -50.249999892999938 ], [ -68.672226900999988, -50.256955027999936 ], [ -68.771954951999987, -50.289455019999934 ], [ -68.820699910999963, -50.306255035999982 ], [ -68.852235814999972, -50.32055506599994 ], [ -68.874735860999976, -50.333755054999983 ], [ -68.941117851999934, -50.388064087999965 ], [ -68.958617924999942, -50.404444840999986 ], [ -69.067508905999944, -50.522226841999952 ], [ -69.080846022999935, -50.541391057999931 ], [ -69.102781965999952, -50.593608973999949 ], [ -69.145764030999942, -50.743755010999962 ], [ -69.145145948999982, -50.803755020999972 ], [ -69.138199865999979, -50.860690942999952 ], [ -69.143617927999969, -50.88167302599993 ], [ -69.172226871999953, -50.908617994999986 ], [ -69.246946006999963, -50.9650000399999 ], [ -69.311399824999967, -51.000835861999974 ], [ -69.333617903999937, -51.01445511299994 ], [ -69.378345918999969, -51.048335938999969 ], [ -69.405973006999943, -51.079655087999981 ], [ -69.366681996999944, -51.052691008999943 ], [ -69.302373018999958, -51.010281930999952 ], [ -69.192508898999961, -50.966809022999939 ], [ -69.163063942999941, -51.00555504099998 ], [ -69.143546010999955, -51.046244821999949 ], [ -69.142917870999952, -51.077499932999956 ], [ -69.145281902999955, -51.107508990999975 ], [ -69.141399908999972, -51.132226887999934 ], [ -69.132235805999983, -51.157226919999971 ], [ -69.057781874999932, -51.325835943999948 ], [ -69.047499961999961, -51.346673019999969 ], [ -69.008054892999951, -51.418617912999935 ], [ -68.990846007999949, -51.449172966999981 ], [ -68.977646018999963, -51.471673012999986 ], [ -68.96431778699997, -51.504444912999986 ], [ -68.953272952999953, -51.539935902999957 ], [ -68.970072968999943, -51.572782066999935 ], [ -68.99570885299994, -51.572499931999971 ], [ -69.014454978999936, -51.563335829999971 ], [ -69.054454929999963, -51.567781926999942 ], [ -69.078472937999948, -51.576944855999955 ], [ -69.130845918999967, -51.609999896999966 ], [ -69.155290901999933, -51.607508962999987 ], [ -69.205846015999953, -51.593891051999947 ], [ -69.296390853999981, -51.557644852999942 ], [ -69.37445503899994, -51.556399972999941 ], [ -69.480008848999944, -51.576255024999966 ], [ -69.60951780299996, -51.624173023999958 ], [ -69.549454928999978, -51.618335866999985 ], [ -69.525845956999945, -51.612499882999941 ], [ -69.495845951999968, -51.603481960999943 ], [ -69.387645975999988, -51.592090954999946 ], [ -69.346808839999937, -51.594590940999979 ], [ -69.257235798999943, -51.609455072999936 ], [ -69.179172955999945, -51.634172969999952 ], [ -69.013482007999983, -51.617090986999983 ], [ -68.990145950999988, -51.62444493299995 ], [ -68.922790988999964, -51.701117889999978 ], [ -68.865981968999961, -51.782509019999964 ], [ -68.810290927999972, -51.87221801499993 ], [ -68.791808830999969, -51.899035913999967 ], [ -68.771117935999939, -51.923890939999978 ], [ -68.687499901999956, -52.022226924999984 ], [ -68.665554905999954, -52.044444835999968 ], [ -68.613617783999985, -52.095554998999944 ], [ -68.595835910999938, -52.112226939999971 ], [ -68.573063956999988, -52.129308923999986 ], [ -68.51333585499998, -52.171955040999933 ], [ -68.439999901999954, -52.244444924999982 ], [ -68.407790929999976, -52.283891 ], [ -68.382790897999939, -52.327364075999981 ], [ -68.420908943999962, -52.372509006999962 ], [ -68.441754904999982, -52.377782061999937 ], [ -68.435835772999951, -52.328754968999931 ], [ -68.575563942999963, -52.305281951999973 ], [ -68.648617928999954, -52.297226942999941 ], [ -68.727508904999979, -52.289999898999952 ], [ -68.828608906999989, -52.279726869999934 ], [ -68.880008915999952, -52.255835931999968 ], [ -68.935835911999959, -52.23056399099994 ], [ -68.991390830999933, -52.206118001999982 ], [ -69.032790894999948, -52.194726995999986 ], [ -69.23360889099996, -52.143335870999977 ], [ -69.287508886999944, -52.143890920999979 ], [ -69.461399850999953, -52.14361800599994 ], [ -69.765835771999946, -52.060564073999956 ], [ -69.887790953999968, -52.026117971999952 ], [ -69.943072958999949, -52.010835918999931 ], [ -69.998335851999968, -51.996391049999943 ], [ -70.066681890999973, -51.996391049999943 ], [ -70.110290921999933, -51.996391049999943 ], [ -70.434717848999981, -51.997509027999968 ], [ -70.662226841999939, -51.997509027999968 ], [ -71.233335862999979, -51.997509027999968 ], [ -71.694455035999965, -51.996944925999969 ], [ -71.910573021999937, -51.995835831999955 ], [ -71.942363904999979, -51.914100038999948 ], [ -71.942363904999979, -51.880981965999979 ], [ -71.959590894999963, -51.854591039999946 ], [ -72.087508963999937, -51.764455070999986 ], [ -72.13556392299995, -51.740008914999976 ], [ -72.161117831999945, -51.728335940999955 ], [ -72.181672940999988, -51.719999970999936 ], [ -72.208755036999946, -51.712226928999939 ], [ -72.258335838999983, -51.706944820999979 ], [ -72.289245950999941, -51.696255044999987 ], [ -72.400554942999975, -51.513617899999986 ], [ -72.369446011999969, -51.498890896999967 ], [ -72.347581985999966, -51.484791026999972 ], [ -72.30972679599995, -51.39917307099995 ], [ -72.31333587599994, -51.359455086999958 ], [ -72.311672905999956, -51.311390906999975 ], [ -72.292508857999962, -51.284454990999961 ], [ -72.262790987999949, -51.265144929999963 ], [ -72.249626873999944, -51.237854961999972 ], [ -72.290555036999933, -51.204381998999963 ], [ -72.326672992999988, -51.191944930999966 ], [ -72.351964044999988, -51.179999880999958 ], [ -72.376045922999936, -51.158963985999947 ], [ -72.395217849999938, -51.108126904999949 ], [ -72.334108913999955, -51.034308991999978 ], [ -72.281881945999942, -51.030491034999955 ], [ -72.265835797999955, -51.010700020999934 ], [ -72.242645921999951, -50.854590928999983 ], [ -72.254172882999967, -50.831672961999971 ], [ -72.280426847999934, -50.800699984999937 ], [ -72.302781885999934, -50.780555086999982 ], [ -72.334308906999979, -50.756117982999967 ], [ -72.338617874999954, -50.731673000999933 ], [ -72.300417853999988, -50.677435884999966 ], [ -72.29389086599997, -50.652917979999984 ], [ -72.370281855999963, -50.614444875999936 ], [ -72.491255014999979, -50.603064095999969 ], [ -72.518335770999954, -50.60583582299995 ], [ -72.542917880999937, -50.613891 ], [ -72.564726922999967, -50.631390904999932 ], [ -72.586946006999938, -50.659726934999981 ], [ -72.606946065999978, -50.669173003999958 ], [ -72.639454941999986, -50.671944899999971 ], [ -72.671399883999982, -50.663890896999931 ], [ -72.690981853999972, -50.652644896999959 ], [ -72.708899848999977, -50.637499971999944 ], [ -72.737090870999964, -50.620763992999969 ], [ -72.766117904999987, -50.620699954999964 ], [ -72.87306394899997, -50.654444826999963 ], [ -72.906108931999938, -50.667499976999977 ], [ -72.925845966999987, -50.679172949999952 ], [ -72.957163941999966, -50.706317910999985 ], [ -72.983899866999934, -50.729726890999984 ], [ -73.018064000999971, -50.749455040999976 ], [ -73.052226794999967, -50.761673005999967 ], [ -73.083617859999947, -50.768617915999982 ], [ -73.109172941999987, -50.77250896299995 ], [ -73.137090881999939, -50.769863968999971 ], [ -73.158482001999971, -50.758891051999967 ], [ -73.176526898999953, -50.739726835999932 ], [ -73.228899879999972, -50.598063954999986 ], [ -73.249590942999987, -50.500282013999936 ], [ -73.26636396899994, -50.355582033999951 ], [ -73.277508882999939, -50.328472946999966 ], [ -73.317508833999966, -50.267226882999978 ], [ -73.332090998999945, -50.249591023999983 ], [ -73.349026801999969, -50.236255079999978 ], [ -73.436399927999958, -50.191390942999931 ], [ -73.485290898999949, -50.166944954999963 ], [ -73.522508895999977, -50.14840887899993 ], [ -73.536255049999966, -50.120135880999953 ], [ -73.525008882999941, -50.08764494199994 ], [ -73.501672993999989, -50.056526958999939 ], [ -73.474246064999988, -50.032017938999957 ], [ -73.469999960999985, -50.001672934999931 ], [ -73.490008904999968, -49.983755107999968 ], [ -73.514726801999984, -49.968609008999977 ], [ -73.554245966999986, -49.94066407899993 ], [ -73.529026831999943, -49.852708912999958 ], [ -73.501808947999962, -49.831117967999944 ], [ -73.466117797999971, -49.809308926999961 ], [ -73.446463911999956, -49.790908972999944 ], [ -73.515426858999945, -49.605135822999955 ], [ -73.568890995999936, -49.559172986999954 ], [ -73.582299861999957, -49.540835896999965 ], [ -73.540008968999985, -49.443199967999931 ], [ -73.464735789999963, -49.311391019999974 ], [ -73.423063984999942, -49.309717991999946 ], [ -73.168064025999968, -49.304726903999949 ], [ -73.136126795999985, -49.30417302799998 ], [ -73.086735760999943, -49.26736406699996 ], [ -73.167690863999951, -49.252635889999965 ], [ -73.174726800999963, -49.242781956999977 ], [ -73.176817917999983, -49.221808925999937 ], [ -73.077373006999949, -49.067917853999973 ], [ -73.006390859999954, -48.998335819999966 ], [ -72.982508805999942, -48.978481940999984 ], [ -72.951672957999961, -48.964726902999985 ], [ -72.915846020999936, -48.954444821999971 ], [ -72.895835903999966, -48.950699955999937 ], [ -72.856535841999971, -48.95209101599994 ], [ -72.810835860999987, -48.94583593699997 ], [ -72.781399958999941, -48.938055015999964 ], [ -72.755281947999947, -48.928063954999971 ], [ -72.736954916999935, -48.919726978999961 ], [ -72.708890963999977, -48.903617966999946 ], [ -72.586946006999938, -48.824444855999957 ], [ -72.561117842999977, -48.799444823999977 ], [ -72.552081982999937, -48.776673036999966 ], [ -72.552226822999955, -48.731117895999944 ], [ -72.55611787, -48.694172981999941 ], [ -72.561254970999983, -48.651673043999949 ], [ -72.573626826999941, -48.587226937999958 ], [ -72.579726840999967, -48.564726891999953 ], [ -72.590563971999984, -48.533681998999953 ], [ -72.603763959999981, -48.494035931999974 ], [ -72.595563944999981, -48.473064074999968 ], [ -72.577926910999963, -48.456808881999962 ], [ -72.556817925999951, -48.44694489099993 ], [ -72.490845977999982, -48.422782042999984 ], [ -72.426117903999966, -48.405281970999965 ], [ -72.291881891999935, -48.34778194699993 ], [ -72.300281899999959, -48.190417916999934 ], [ -72.32195498699997, -48.078335945999982 ], [ -72.40695502899996, -48.008264072999964 ], [ -72.450008842999978, -48.001390912999966 ], [ -72.478335819999984, -47.988481942999954 ], [ -72.515017877999981, -47.961108994999961 ], [ -72.531399972999964, -47.941390902999956 ], [ -72.535072922999973, -47.915490988999977 ], [ -72.455835773999979, -47.763200021999978 ], [ -72.428690980999988, -47.721044916999972 ], [ -72.404172907999964, -47.691944959999944 ], [ -72.374026889999982, -47.65972693599997 ], [ -72.353055032999976, -47.636673013999939 ], [ -72.339726800999983, -47.61749991399995 ], [ -72.329599952999956, -47.595835878999935 ], [ -72.308263985999986, -47.505491032999942 ], [ -72.341672910999989, -47.489999933999968 ], [ -72.359308938999959, -47.47812696799997 ], [ -72.350146009999946, -47.449999982999941 ], [ -72.335417831999962, -47.435417985999948 ], [ -72.313608957999975, -47.426117929999975 ], [ -72.293063907999965, -47.420008862999964 ], [ -72.256390901999964, -47.411118010999985 ], [ -72.229864022999948, -47.410699921999935 ], [ -72.194245962999958, -47.418608917999961 ], [ -72.159035766999978, -47.411108957999943 ], [ -72.081399896999983, -47.35278197599996 ], [ -72.017372885999976, -47.277499912999986 ], [ -71.882781983999962, -47.23278195599994 ], [ -71.867917851999948, -47.218617880999943 ], [ -71.852363889999936, -47.17285503599993 ], [ -71.862508841999954, -47.139726904999975 ], [ -71.892781929999956, -47.115564057999961 ], [ -71.976390910999953, -47.034444836999967 ], [ -71.939246003999983, -46.816255010999953 ], [ -71.917364039999939, -46.800144825999951 ], [ -71.850146037999934, -46.796673041999952 ], [ -71.813754998999968, -46.786044955999955 ], [ -71.686399858999948, -46.702781978999951 ], [ -71.672855038999955, -46.683964103999983 ], [ -71.666399967999951, -46.652499947999956 ], [ -71.670563929999958, -46.53833591199998 ], [ -71.68986393199998, -46.490699879999966 ], [ -71.725008916999968, -46.430555029999937 ], [ -71.740846019999935, -46.27139090299994 ], [ -71.746608913999978, -46.247018004999973 ], [ -71.766954977999944, -46.221526960999938 ], [ -71.800563894999982, -46.209726916999955 ], [ -71.83487286899998, -46.200973024999939 ], [ -71.90180890399995, -46.149099940999974 ], [ -71.851117835999958, -46.132508968999957 ], [ -71.824172866999959, -46.130564032999985 ], [ -71.793063935999953, -46.125555006999946 ], [ -71.765972953999949, -46.117090960999974 ], [ -71.740699839999934, -46.096672979999937 ], [ -71.720835902999966, -46.06819093799993 ], [ -71.699717864999968, -46.044444838999937 ], [ -71.665845923999939, -46.012499896999941 ], [ -71.645008847999975, -45.999454972999956 ], [ -71.638626866999971, -45.996944928999937 ], [ -71.604445967999936, -45.976944868999965 ], [ -71.629246007999939, -45.903544877999934 ], [ -71.649735905999933, -45.883609023999952 ], [ -71.694455035999965, -45.868899957999986 ], [ -71.724455040999942, -45.861808867999969 ], [ -71.753754988999958, -45.84909989099998 ], [ -71.792226918999972, -45.729035832999955 ], [ -71.781954896999935, -45.655008875999954 ], [ -71.75049090899995, -45.558544903999973 ], [ -71.712781899999982, -45.538891017999958 ], [ -71.672499981999977, -45.52778197899994 ], [ -71.649735905999933, -45.523890930999983 ], [ -71.629308872999957, -45.52152689899998 ], [ -71.606254950999983, -45.522635824999952 ], [ -71.467508803999976, -45.477499946999956 ], [ -71.298617812999964, -45.305072966999944 ], [ -71.329445949999979, -45.231255053999973 ], [ -71.498064025999952, -45.075564051999947 ], [ -71.549035888999981, -44.999173061999954 ], [ -71.582645978999949, -44.975417910999965 ], [ -71.740846019999935, -44.937226941999938 ], [ -71.806672961999936, -44.930835908999939 ], [ -71.934446023999953, -44.922226855999952 ], [ -72.066817899999933, -44.901673087999939 ], [ -72.08180893399998, -44.787090962999969 ], [ -72.07542678599998, -44.766391013999964 ], [ -72.047372890999952, -44.754035920999968 ], [ -72.019454950999943, -44.75917302199997 ], [ -71.994172950999939, -44.769172967999964 ], [ -71.974164006999956, -44.77611787799998 ], [ -71.951535885999988, -44.783055075999982 ], [ -71.841117889999964, -44.792364017999944 ], [ -71.813481916999933, -44.785000012999944 ], [ -71.795008872999972, -44.763200023999957 ], [ -71.771326810999938, -44.755344838999974 ], [ -71.714446042999953, -44.764163942999971 ], [ -71.693617850999942, -44.770282060999932 ], [ -71.673617791999959, -44.777226970999948 ], [ -71.653626784999972, -44.782781993999947 ], [ -71.62918197099998, -44.780008924999947 ], [ -71.60847297, -44.774581977999958 ], [ -71.555699836999963, -44.754309003999936 ], [ -71.518335826999987, -44.743890968999949 ], [ -71.491672992999952, -44.74375501399993 ], [ -71.471399850999944, -44.747081958999956 ], [ -71.44279090699996, -44.761391040999968 ], [ -71.395846045999974, -44.786944949999963 ], [ -71.369726862999983, -44.796391018999941 ], [ -71.339735909999945, -44.803335928999957 ], [ -71.305555011999957, -44.803609011999981 ], [ -71.277926917999935, -44.79820000199993 ], [ -71.225908825999966, -44.746808876999978 ], [ -71.220417841999961, -44.717091006999965 ], [ -71.227508931999978, -44.688608963999968 ], [ -71.232017892999977, -44.663335849999953 ], [ -71.189945934999969, -44.591881968999985 ], [ -71.145008875999963, -44.586672951999958 ], [ -71.121681871999954, -44.568754956999953 ], [ -71.108754964999946, -44.535281993999945 ], [ -71.161735801999953, -44.45125509099995 ], [ -71.195699943999955, -44.430282060999957 ], [ -71.401117927999962, -44.400418009999953 ], [ -71.480563953999933, -44.402499906999935 ], [ -71.54556393699994, -44.409864079999977 ], [ -71.626399848999938, -44.41000003399995 ], [ -71.778626777999989, -44.408055096999931 ], [ -71.827708856999948, -44.400208964999933 ], [ -71.853408944999956, -44.372435863999954 ], [ -71.84285495599994, -44.352217875999941 ], [ -71.797290929999974, -44.328408911999929 ], [ -71.793899946999943, -44.215564019999931 ], [ -71.800417882999966, -44.190144891999978 ], [ -71.818208806999962, -44.162364079999975 ], [ -71.779172942999935, -44.083891025999947 ], [ -71.746672951999983, -44.058890993999967 ], [ -71.655426882999961, -43.956391046999954 ], [ -71.646672990999946, -43.938054962999956 ], [ -71.648617927999965, -43.916254973999969 ], [ -71.698335856999961, -43.866672998999945 ], [ -71.756117847999974, -43.819455055999981 ], [ -71.807645932999947, -43.763335866999967 ], [ -71.807363965999969, -43.734309000999986 ], [ -71.786254980999956, -43.725835902999961 ], [ -71.766399928999988, -43.719999918999974 ], [ -71.702926792999961, -43.689235818999975 ], [ -71.69041780799995, -43.666254987999935 ], [ -71.701745950999964, -43.601672926999981 ], [ -71.848890931999961, -43.50055498699993 ], [ -71.935564001999978, -43.453399908999984 ], [ -71.929735896999944, -43.386944826999979 ], [ -71.89570889, -43.32528201599996 ], [ -71.79528195499995, -43.3008358599999 ], [ -71.75889996899997, -43.307290930999955 ], [ -71.74015501599996, -43.297644868999953 ], [ -71.733335834999934, -43.278617948999965 ], [ -71.739664003999962, -43.176108948999968 ], [ -71.835564040999941, -43.132990929999949 ], [ -71.868054979999954, -43.126672986999949 ], [ -71.93084599599996, -43.122218004999979 ], [ -71.958890837999945, -43.12111796399995 ], [ -71.999308878999955, -43.121808967999982 ], [ -72.052781900999946, -43.104726984999957 ], [ -72.078335808999952, -43.088755100999947 ], [ -72.118064017999984, -43.039172957999938 ], [ -72.136673016999964, -43.005764032999934 ], [ -72.133472973999972, -42.956108967999967 ], [ -72.12639982099995, -42.936535882999976 ], [ -72.113481966999984, -42.914308919999939 ], [ -72.104590946999963, -42.881808927999941 ], [ -72.101963890999968, -42.854726830999937 ], [ -72.107226887999957, -42.760564027999976 ], [ -72.110835799999961, -42.720555024999953 ], [ -72.128345930999956, -42.668717982999965 ], [ -72.138899920999961, -42.590699897999968 ], [ -72.135008873999936, -42.569172990999959 ], [ -72.126108800999987, -42.547499903999949 ], [ -72.11139990199996, -42.526944794999963 ], [ -72.044799981999972, -42.368964024999968 ], [ -72.056672947999971, -42.34944491899995 ], [ -72.08168186499995, -42.333335906999935 ], [ -72.108899915999984, -42.315835834999973 ], [ -72.13035490599998, -42.285426959999938 ], [ -72.038335857999982, -42.149172920999945 ], [ -72.017499954999948, -42.133891034999976 ], [ -71.993763913999942, -42.124590977999958 ], [ -71.961746049999988, -42.129173029999947 ], [ -71.947917920999942, -42.14667293499997 ], [ -71.93785494399998, -42.172226842999976 ], [ -71.907226798999943, -42.176255017999949 ], [ -71.777226832999986, -42.130417909999949 ], [ -71.726535764999937, -42.095072932999983 ], [ -71.731526852999934, -42.029444809999973 ], [ -71.759763975999988, -41.99972694 ], [ -71.763481852999973, -41.946108910999953 ], [ -71.777508799999964, -41.887217993999968 ], [ -71.787781995999978, -41.861255048999965 ], [ -71.850281991999964, -41.766391015999943 ], [ -71.914590970999939, -41.652091024999947 ], [ -71.914517880999938, -41.623544944999935 ], [ -71.892226879999953, -41.603890890999935 ], [ -71.850008909999985, -41.549444896999944 ], [ -71.867781897999976, -41.432782047999979 ], [ -71.882508900999937, -41.406255000999977 ], [ -71.893063896999934, -41.386944939999978 ], [ -71.89903583499995, -41.356663973999957 ], [ -71.883472987999937, -41.293890894999947 ], [ -71.865981967999971, -41.265835826999933 ], [ -71.861390863999986, -41.241672978999929 ], [ -71.840426885999989, -41.058755040999984 ], [ -71.859163959999933, -41.01128195299998 ] ] ], [ [ [ -68.617581920999953, -52.641508922999947 ], [ -68.57139981399996, -52.686390996999933 ], [ -68.524446067999975, -52.740281940999978 ], [ -68.451126878999958, -52.812782050999942 ], [ -68.410281863999955, -52.843890981999948 ], [ -68.348072887999933, -52.881955047999952 ], [ -68.332226899999966, -52.893055034999975 ], [ -68.319454890999964, -52.906109010999955 ], [ -68.302781943999946, -52.923335833999943 ], [ -68.294726767999975, -52.932499935999942 ], [ -68.28778185799996, -52.941944831999933 ], [ -68.269726902999935, -52.97222697199993 ], [ -68.261945981999986, -52.988064074999954 ], [ -68.257508937999944, -52.999172946999977 ], [ -68.224172935999945, -53.106255112999975 ], [ -68.223755013999948, -53.11833595 ], [ -68.240008864999936, -53.117435900999965 ], [ -68.253345981999985, -53.092782041999953 ], [ -68.258054934999961, -53.081673002999935 ], [ -68.263626888999966, -53.064444838999975 ], [ -68.271390878999966, -53.034999882999955 ], [ -68.278063878999944, -53.018335821999983 ], [ -68.291264035999973, -53.003964042999939 ], [ -68.313481946999957, -52.994863977999955 ], [ -68.32722692699997, -52.99417297399998 ], [ -68.368346028999952, -53.003890952999939 ], [ -68.391817872999979, -53.01361798399995 ], [ -68.543626879999977, -53.126400011999976 ], [ -68.562363953999977, -53.153064018999942 ], [ -68.567226798999968, -53.174173003999954 ], [ -68.567508933999989, -53.188055111999972 ], [ -68.563064010999938, -53.199173035999934 ], [ -68.557508820999942, -53.210008992999974 ], [ -68.543626879999977, -53.229444949999959 ], [ -68.525554993999947, -53.246117896999976 ], [ -68.515290850999975, -53.253617855999948 ], [ -68.498064027999988, -53.263891051999963 ], [ -68.45807296199996, -53.281390956999985 ], [ -68.430555005999963, -53.292499995999947 ], [ -68.404172965999976, -53.297226886999965 ], [ -68.363890879999985, -53.300835966999955 ], [ -68.309717800999977, -53.301672983999936 ], [ -68.283335760999933, -53.300417876999973 ], [ -68.22583590499994, -53.286809018999975 ], [ -68.200563963999969, -53.28472695499994 ], [ -68.179735772999948, -53.286118014999943 ], [ -68.163199953999936, -53.293755101999977 ], [ -68.151117943999964, -53.304172969999968 ], [ -68.099454909999963, -53.369444861999966 ], [ -68.092508826999961, -53.379717889999938 ], [ -68.08667301, -53.390009022999948 ], [ -68.083346064999944, -53.401672943999984 ], [ -68.066117901999974, -53.460835937999946 ], [ -68.043063979999943, -53.522782057999962 ], [ -68.008345968999947, -53.569455008999967 ], [ -67.996945909999965, -53.583335943999941 ], [ -67.988617818999955, -53.592226963999963 ], [ -67.970290954999939, -53.60860889099996 ], [ -67.803890897999963, -53.709726997999951 ], [ -67.738890914999956, -53.747217909999961 ], [ -67.658055002999959, -53.791673009999954 ], [ -67.628890840999986, -53.805282034999948 ], [ -67.585563944999933, -53.831390992999957 ], [ -67.584164, -53.846390911999947 ], [ -67.588899942999944, -53.857509002999961 ], [ -67.588899942999944, -53.871117861999949 ], [ -67.58639995599998, -53.883608908999975 ], [ -67.579181963999986, -53.899999887999968 ], [ -67.57333575399997, -53.910281968999982 ], [ -67.563608890999944, -53.918617938999944 ], [ -67.490845923999984, -53.958064013999945 ], [ -67.359172930999932, -54.028890927999953 ], [ -67.26722680499995, -54.071108897999977 ], [ -66.994172897999988, -54.186108945999933 ], [ -66.870008915999961, -54.228335967999953 ], [ -66.843899957999952, -54.233609022999985 ], [ -66.757235772999934, -54.265008973999954 ], [ -66.729735753999933, -54.277226938999945 ], [ -66.716672892999952, -54.28305504399998 ], [ -66.703608858999985, -54.289172994999944 ], [ -66.685563961999947, -54.299444849999986 ], [ -66.654872952999938, -54.326255037999942 ], [ -66.569454988999951, -54.399726944999941 ], [ -66.549590884999986, -54.412226877999956 ], [ -66.321117804999972, -54.508608873999947 ], [ -66.277790909999965, -54.524726937999958 ], [ -66.263335814999948, -54.530008877999933 ], [ -66.241672952999977, -54.537781919999986 ], [ -66.227508877999981, -54.541944875999945 ], [ -66.063335892999987, -54.588335860999962 ], [ -66.04749996299995, -54.592781956999943 ], [ -65.807508807999966, -54.657499972999972 ], [ -65.705846044999987, -54.671672932999968 ], [ -65.685564018999969, -54.673335902999952 ], [ -65.673617794999984, -54.673055108999961 ], [ -65.428072957999973, -54.64944496399994 ], [ -65.330290848999937, -54.635564028999966 ], [ -65.297226922999982, -54.63360903399996 ], [ -65.235290860999953, -54.63360903399996 ], [ -65.218890828999974, -54.634172968999962 ], [ -65.15889098699995, -54.643055103999984 ], [ -65.14007294399994, -54.653264093999951 ], [ -65.238346064999973, -54.813608896999938 ], [ -65.31889095799994, -54.90194493599995 ], [ -65.336945912999965, -54.918617882999968 ], [ -65.350563990999945, -54.927781984999967 ], [ -65.376682000999949, -54.930555053999967 ], [ -65.396673007999937, -54.925144870999986 ], [ -65.401672980999933, -54.913755037999977 ], [ -65.485835837999957, -54.902499985999953 ], [ -65.603054910999958, -54.931673031999935 ], [ -65.706681888999981, -54.92556396599997 ], [ -65.714446044999988, -54.916117896999936 ], [ -65.727508905999969, -54.906391032999977 ], [ -65.737790986999983, -54.902226903999974 ], [ -65.767917893999936, -54.895835869999985 ], [ -65.878063980999968, -54.891390946999934 ], [ -65.888626854999984, -54.892226957999981 ], [ -65.936108827999988, -54.898608938999985 ], [ -65.952372905999937, -54.918335915999933 ], [ -65.983063914999946, -54.939172991999953 ], [ -66.009863876999987, -54.954591 ], [ -66.104172860999938, -54.979999900999985 ], [ -66.123335902999941, -54.983063989999948 ], [ -66.165008881999938, -54.986944810999944 ], [ -66.186399833999985, -54.988618005999967 ], [ -66.260835827999983, -54.984173082999973 ], [ -66.339735855999947, -54.982508939999946 ], [ -66.351963879999971, -54.982508939999946 ], [ -66.375563965999959, -54.986390934999974 ], [ -66.385008862999939, -54.991108939999947 ], [ -66.446117797999932, -55.051673052999945 ], [ -66.458072906999973, -55.051673052999945 ], [ -66.55168200199995, -55.044726968999953 ], [ -66.580564028999959, -55.040835921999985 ], [ -66.632235779999974, -55.029726882999967 ], [ -66.652926842999932, -55.024444942999935 ], [ -66.674726831999976, -55.013063994999982 ], [ -66.685835870999938, -55.005564034999963 ], [ -66.694454981999968, -54.996673014999942 ], [ -66.709163880999938, -54.984455049999951 ], [ -66.727235767999957, -54.974444878999975 ], [ -66.746945980999953, -54.964999982999984 ], [ -66.796399879999967, -54.945554972999957 ], [ -66.821672994999972, -54.93972686799998 ], [ -66.993054918999974, -54.911391005999974 ], [ -67.011335849999966, -54.908617936999974 ], [ -67.021664030999943, -54.907499958999949 ], [ -67.15668190699995, -54.89833585699995 ], [ -67.488890928999979, -54.877499953999973 ], [ -67.60417294399997, -54.882508978999965 ], [ -67.624454969999988, -54.884726997999962 ], [ -67.656681878999962, -54.886944849999963 ], [ -67.679455006999945, -54.887499899999966 ], [ -67.71417301799994, -54.886944849999963 ], [ -67.826126913999985, -54.877499953999973 ], [ -68.000290959999973, -54.861117858999933 ], [ -68.028899903999957, -54.85722698 ], [ -68.06222685399996, -54.848891009999932 ], [ -68.066599860999986, -54.847208928999976 ], [ -68.069454904999986, -54.846117940999932 ], [ -68.100281867999968, -54.836390909999977 ], [ -68.116954982999971, -54.83222694799997 ], [ -68.152508836999971, -54.825564004999933 ], [ -68.245563887999936, -54.81694489399996 ], [ -68.309172977999935, -54.827499889999956 ], [ -68.320281848999969, -54.84194492599994 ], [ -68.33278194899998, -54.844999961999974 ], [ -68.492508837999935, -54.855564009999966 ], [ -68.515017935999936, -54.856117885999936 ], [ -68.534181983999986, -54.853335932999983 ], [ -68.554308944999946, -54.847781915999974 ], [ -68.575563942999963, -54.835835859999975 ], [ -68.635835861999965, -54.788335949999976 ], [ -68.632126869999979, -54.546099952999953 ], [ -68.630572864999976, -54.355282070999976 ], [ -68.631672905999949, -54.334726961999934 ], [ -68.629181971999969, -53.998063964999972 ], [ -68.626954899999987, -53.840282012999978 ], [ -68.624454913999955, -53.51028195799995 ], [ -68.623335761999954, -53.338335930999961 ], [ -68.623335761999954, -53.324717852999981 ], [ -68.623899863999952, -53.276390983999931 ], [ -68.623064020999948, -53.138891058999945 ], [ -68.620564033999983, -52.795008895999956 ], [ -68.619735901999945, -52.719172955999966 ], [ -68.618617923999977, -52.650555007999969 ], [ -68.617581920999953, -52.641508922999947 ] ] ], [ [ [ -64.678345914999966, -54.907226876999971 ], [ -64.669308882999985, -54.86917303599995 ], [ -64.703063979999968, -54.847363993999977 ], [ -64.727235879999967, -54.844454970999948 ], [ -64.750563889999967, -54.842781942999977 ], [ -64.755564030999949, -54.831526890999953 ], [ -64.740835852999965, -54.806535911999958 ], [ -64.692781899999943, -54.776944942999933 ], [ -64.668064001999937, -54.77500000699996 ], [ -64.64861781899998, -54.780835822999961 ], [ -64.623899921999964, -54.793890971999986 ], [ -64.609172917999956, -54.798890944999982 ], [ -64.598346013999958, -54.799444820999952 ], [ -64.516108813999949, -54.783335976999979 ], [ -64.378617941999948, -54.748064089999957 ], [ -64.337508896999964, -54.727782063999939 ], [ -64.168335771999978, -54.74278198199994 ], [ -64.023054925999986, -54.732226986999933 ], [ -63.920008813999971, -54.714173037999956 ], [ -63.908055045999959, -54.713617987999953 ], [ -63.822364, -54.720281936999982 ], [ -63.81375494699995, -54.728617906999943 ], [ -63.868617855999958, -54.784308947999932 ], [ -63.954726823999977, -54.811954979999939 ], [ -63.975835808999932, -54.790835935999951 ], [ -64.011399888999961, -54.77861797099996 ], [ -64.040281915999969, -54.789999924999961 ], [ -64.135563870999988, -54.818891004999955 ], [ -64.25750882799997, -54.840972960999977 ], [ -64.268135907999977, -54.827782024999976 ], [ -64.265290921999963, -54.806117989999962 ], [ -64.326399857999945, -54.788609031999954 ], [ -64.349163933999932, -54.803063959999974 ], [ -64.422790906999978, -54.839726906999942 ], [ -64.452517828999987, -54.846944898999936 ], [ -64.463345906999962, -54.848064050999938 ], [ -64.484999883999933, -54.847226865999971 ], [ -64.576954893999982, -54.867781974999957 ], [ -64.639454889999968, -54.90139106 ], [ -64.678345914999966, -54.907226876999971 ] ] ], [ [ [ -61.893335865999973, -39.243617860999962 ], [ -61.904035868999983, -39.241526910999937 ], [ -62.061117930999956, -39.166672994999942 ], [ -62.090835801999958, -39.12056397799995 ], [ -62.096390823999968, -39.111672957999929 ], [ -62.098472888999936, -39.097646010999938 ], [ -62.092363989999967, -39.087646064999944 ], [ -62.079172885999981, -39.088055101999942 ], [ -61.957508890999975, -39.115835913999945 ], [ -61.94417294699997, -39.119999875999952 ], [ -61.889999868999951, -39.140490946999932 ], [ -61.876672977999988, -39.164446090999945 ], [ -61.859726780999949, -39.218335861999947 ], [ -61.863472988999945, -39.235490934999973 ], [ -61.878890829999932, -39.242499882999937 ], [ -61.893335865999973, -39.243617860999962 ] ] ], [ [ [ -68.636126881999985, -54.804773029999978 ], [ -68.632417889999942, -54.807354990999954 ], [ -68.62099084099998, -54.815635975999953 ], [ -68.611290966999945, -54.825909003999982 ], [ -68.595299971999964, -54.847608913999977 ], [ -68.58530891099997, -54.861027 ], [ -68.577890926999942, -54.865308978999963 ], [ -68.566181910999944, -54.869308989999979 ], [ -68.557899919999954, -54.875017904999936 ], [ -68.559617874999958, -54.881008953999981 ], [ -68.569035781999958, -54.884155016999955 ], [ -68.580172983999944, -54.885581952999985 ], [ -68.587590967999972, -54.887582041999963 ], [ -68.595299971999964, -54.889573079999934 ], [ -68.606145986999934, -54.891573001999973 ], [ -68.620708873999945, -54.891573001999973 ], [ -68.631563940999968, -54.890717879999954 ], [ -68.643108838999979, -54.888608992999934 ], [ -68.637217869999972, -54.884999912999945 ], [ -68.636126881999985, -54.804773029999978 ] ] ] ] }
        }
    ]
}