{
    "type": "FeatureCollection",
    "features": [
        {
            "type": "Feature",
            "properties": {
                "WCID": "AUT",
                "COUNTRY": "Austria"
            },
            "geometry": { "type": "Polygon", "coordinates": [ [ [ 10.471236153000063, 46.871354039000039 ], [ 10.48820917200004, 46.935991085000069 ], [ 10.430000207000035, 46.984164230000033 ], [ 10.390763345000039, 47.00256418400005 ], [ 10.350627104000068, 46.991245094000078 ], [ 10.323327078000034, 46.955554112000073 ], [ 10.31332713200004, 46.933609116000071 ], [ 10.227500131000056, 46.87693605100003 ], [ 10.160836173000064, 46.85500010800007 ], [ 10.141809085000034, 46.851345095000056 ], [ 10.131527172000062, 46.85040917200007 ], [ 10.109445048000055, 46.850273217000051 ], [ 10.058891275000065, 46.866391114000066 ], [ 9.935000208000076, 46.912773214000026 ], [ 9.877782152000066, 46.940409187000057 ], [ 9.875836041000071, 46.968182120000051 ], [ 9.891600222000022, 47.000336106000077 ], [ 9.872918133000042, 47.023045029000059 ], [ 9.71944515000007, 47.050282191000065 ], [ 9.632500171000061, 47.056664172000069 ], [ 9.59863610900004, 47.063836064000043 ], [ 9.606945090000067, 47.068054005000079 ], [ 9.633609097000033, 47.09714507700005 ], [ 9.633891232000053, 47.130554002000054 ], [ 9.622773140000049, 47.150554061000037 ], [ 9.566391263000071, 47.243891079000036 ], [ 9.533573262000061, 47.274545040000078 ], [ 9.540000170000042, 47.284164113000031 ], [ 9.610963206000065, 47.362227124000071 ], [ 9.637363184000037, 47.369582076000029 ], [ 9.670345135000048, 47.390691061000041 ], [ 9.649654072000033, 47.458609120000062 ], [ 9.596600145000025, 47.469436024000061 ], [ 9.559800237000047, 47.50209108100006 ], [ 9.566727209000021, 47.540454046000036 ], [ 9.57791822400003, 47.53741812100003 ], [ 9.608773183000039, 47.529518177000057 ], [ 9.651509154000053, 47.529518177000057 ], [ 9.692527171000052, 47.529518177000057 ], [ 9.732791152000061, 47.541118061000077 ], [ 9.746245112000054, 47.565827073000037 ], [ 9.775418159000026, 47.59124502700007 ], [ 9.810973186000069, 47.59416410800003 ], [ 9.955000100000063, 47.539718115000028 ], [ 10.043054004000055, 47.495282126000063 ], [ 10.231736177000073, 47.373745032000045 ], [ 10.211663196000075, 47.322491203000027 ], [ 10.173336105000033, 47.274718043000064 ], [ 10.228891192000049, 47.276036013000066 ], [ 10.274445159000038, 47.288891171000046 ], [ 10.336663189000035, 47.312700134000067 ], [ 10.429718072000071, 47.396109124000077 ], [ 10.473745024000038, 47.437636090000069 ], [ 10.466182201000038, 47.482909096000071 ], [ 10.436391240000034, 47.529164126000069 ], [ 10.43368220900004, 47.580482160000031 ], [ 10.481800201000055, 47.586518136000052 ], [ 10.569445069000039, 47.540273165000031 ], [ 10.690836150000052, 47.553891075000081 ], [ 10.909445070000061, 47.51805408000007 ], [ 10.97666324000005, 47.40027325300008 ], [ 11.008336105000069, 47.395827156000053 ], [ 11.028609079000034, 47.39527311300003 ], [ 11.104027097000028, 47.396527045000028 ], [ 11.296391272000051, 47.428891082000064 ], [ 11.45750016900007, 47.512218097000073 ], [ 11.505282214000033, 47.509164234000082 ], [ 11.554445094000073, 47.515545042000042 ], [ 11.579863215000046, 47.524091062000025 ], [ 11.683054167000023, 47.584718039000052 ], [ 11.920000177000077, 47.614164168000059 ], [ 12.006391112000074, 47.62444507500004 ], [ 12.060000256000023, 47.620554028000072 ], [ 12.111109246000069, 47.614718044000028 ], [ 12.141391218000024, 47.611109132000081 ], [ 12.201554005000048, 47.612991204000082 ], [ 12.207318072000021, 47.633373143000028 ], [ 12.201109093000071, 47.657491064000055 ], [ 12.455000126000073, 47.66777314400008 ], [ 12.51444508700007, 47.633253952000075 ], [ 12.566663338000069, 47.641936095000062 ], [ 12.576391207000029, 47.644164173000036 ], [ 12.603400214000033, 47.672291158000064 ], [ 12.66583617200007, 47.685000135000053 ], [ 12.736945054000046, 47.682709193000051 ], [ 12.827845118000027, 47.621245032000047 ], [ 12.805973212000026, 47.614853998000058 ], [ 12.78819117200004, 47.583536023000079 ], [ 12.806663210000067, 47.554718034000075 ], [ 12.957873247000066, 47.477018126000075 ], [ 13.012500122000063, 47.469791082000029 ], [ 13.053336084000023, 47.497564183000065 ], [ 13.100136105000047, 47.642918119000058 ], [ 13.07750010500007, 47.687354108000079 ], [ 13.05833605600003, 47.706109120000065 ], [ 13.023054111000022, 47.724164242000029 ], [ 12.993745110000077, 47.714164129000039 ], [ 12.913954086000047, 47.725000085000033 ], [ 12.944163303000039, 47.788745130000052 ], [ 12.97055406100003, 47.810554004000039 ], [ 13.008891210000058, 47.854164208000043 ], [ 12.966663349000044, 47.906945052000026 ], [ 12.918891194000025, 47.95777324900007 ], [ 12.865345082000033, 47.994600146000039 ], [ 12.857045154000048, 48.01193610100006 ], [ 12.837500232000025, 48.030000108000081 ], [ 12.799163251000039, 48.054582219000054 ], [ 12.766245170000047, 48.082218024000042 ], [ 12.759718182000029, 48.121727131000057 ], [ 12.871245104000025, 48.202909048000038 ], [ 13.017773177000038, 48.259436101000063 ], [ 13.154445138000028, 48.292218059000049 ], [ 13.25805401100007, 48.298882175000074 ], [ 13.285273236000023, 48.305273209000063 ], [ 13.313054048000026, 48.315827031000026 ], [ 13.335000218000062, 48.328609098000072 ], [ 13.395000228000072, 48.366100177000078 ], [ 13.421873280000057, 48.391036004000057 ], [ 13.437918087000071, 48.429436017000057 ], [ 13.457500224000057, 48.515554038000062 ], [ 13.443227184000023, 48.56023612000007 ], [ 13.51860916000004, 48.584582196000042 ], [ 13.60277319100004, 48.568054088000054 ], [ 13.654718192000075, 48.551664115000051 ], [ 13.676945155000055, 48.53229119000008 ], [ 13.726000244000033, 48.515591086000029 ], [ 13.803745078000077, 48.582636085000047 ], [ 13.825418165000031, 48.631109134000042 ], [ 13.814718163000066, 48.738054005000038 ], [ 13.833609129000024, 48.773609033000071 ], [ 13.858054111000058, 48.770553997000036 ], [ 13.883609193000041, 48.763609087000077 ], [ 13.998609240000064, 48.714027112000053 ], [ 14.051391258000024, 48.669791115000066 ], [ 14.184163287000047, 48.596109157000058 ], [ 14.278327096000055, 48.582500131000074 ], [ 14.390273281000077, 48.592500077000068 ], [ 14.446391129000062, 48.618891169000051 ], [ 14.505554122000035, 48.628327013000046 ], [ 14.611945116000072, 48.628464141000052 ], [ 14.654445053000074, 48.608473134000064 ], [ 14.700282162000065, 48.58138215300005 ], [ 14.705418089000034, 48.585136072000068 ], [ 14.719445036000025, 48.604018153000027 ], [ 14.716663250000067, 48.654300184000078 ], [ 14.727218078000021, 48.693464124000059 ], [ 14.823745081000027, 48.785064244000068 ], [ 14.849445170000024, 48.78638221500006 ], [ 14.885554073000037, 48.78277313500007 ], [ 14.958891200000039, 48.794718018000026 ], [ 14.985000158000048, 48.939164194000057 ], [ 14.979582264000044, 48.979927065000027 ], [ 15.00416320100004, 49.011391221000054 ], [ 15.028609189000065, 49.018745 ], [ 15.065554104000057, 49.01471816600008 ], [ 15.156663212000069, 48.999718080000036 ], [ 15.301391188000025, 48.987782082000081 ], [ 15.359027166000033, 48.984718161000046 ], [ 15.392500128000052, 48.973609122000028 ], [ 15.451663289000066, 48.95110907600008 ], [ 15.514445085000034, 48.919991093000078 ], [ 15.54666327700005, 48.912218051000082 ], [ 15.564436097000055, 48.90916418900008 ], [ 15.585000258000036, 48.89916424300003 ], [ 15.685973191000073, 48.864018085000055 ], [ 15.746391122000034, 48.858609075000061 ], [ 15.849427176000063, 48.859700063000048 ], [ 15.964163193000047, 48.804718131000072 ], [ 16.021663217000025, 48.777218112000071 ], [ 16.060554074000038, 48.760273257000051 ], [ 16.081109183000024, 48.754718067000056 ], [ 16.103336146000061, 48.750000061000037 ], [ 16.333054106000077, 48.733054032000041 ], [ 16.382154121000042, 48.73603614600006 ], [ 16.412982258000056, 48.751873249000027 ], [ 16.43082716300006, 48.782218085000068 ], [ 16.458263311000053, 48.811245119000034 ], [ 16.540554155000052, 48.812354045000063 ], [ 16.658818115000031, 48.785273121000046 ], [ 16.711663332000057, 48.746382096000048 ], [ 16.785554168000033, 48.719854043000055 ], [ 16.83291812300007, 48.716245131000051 ], [ 16.871936050000045, 48.725482156000055 ], [ 16.892500212000073, 48.725827155000047 ], [ 16.91791816500006, 48.70319115500007 ], [ 16.946182278000038, 48.619064172000037 ], [ 16.943336119000037, 48.573327144000075 ], [ 16.933327121000048, 48.532773149000036 ], [ 16.907500130000074, 48.506944985000075 ], [ 16.865691197000046, 48.468745132000038 ], [ 16.855827206000072, 48.44943607700003 ], [ 16.844718167000053, 48.361973096000042 ], [ 16.923891277000052, 48.282082159000026 ], [ 16.949718100000041, 48.278045099000053 ], [ 16.952363261000073, 48.25027317200005 ], [ 16.975273182000024, 48.188327051000044 ], [ 16.998018147000039, 48.169700116000058 ], [ 17.033545179000043, 48.145264186000077 ], [ 17.069145133000063, 48.135264240000026 ], [ 17.081109127000047, 48.088336143000049 ], [ 17.116663316000029, 48.038609161000068 ], [ 17.166382251000073, 48.012500203000059 ], [ 17.146945121000044, 48.000000103000048 ], [ 17.108054096000046, 47.971382107000068 ], [ 17.060554018000062, 47.876935995000053 ], [ 17.054445119000036, 47.84721812500004 ], [ 17.056800266000039, 47.79458211900004 ], [ 17.068609195000022, 47.768327149000072 ], [ 17.071663225000066, 47.72860916500008 ], [ 17.053891243000066, 47.70944511700003 ], [ 16.955273290000036, 47.694718113000079 ], [ 16.910827075000043, 47.690827066000054 ], [ 16.824445025000045, 47.683882156000038 ], [ 16.764163215000053, 47.68540917100006 ], [ 16.735836071000051, 47.702082118000078 ], [ 16.723473266000042, 47.726454010000054 ], [ 16.635554143000036, 47.760273146000031 ], [ 16.612218086000041, 47.759164220000059 ], [ 16.558609109000031, 47.756382099000064 ], [ 16.450554140000065, 47.698054111000033 ], [ 16.43263614500006, 47.666382084000077 ], [ 16.493054077000068, 47.646664159000068 ], [ 16.596663285000034, 47.628891172000067 ], [ 16.63257320200006, 47.634436136000033 ], [ 16.666391164000061, 47.61443607700005 ], [ 16.713891242000045, 47.543882077000035 ], [ 16.705273305000048, 47.521109117000037 ], [ 16.655200150000042, 47.458153983000045 ], [ 16.592500161000032, 47.42528217000006 ], [ 16.473891202000061, 47.418745124000054 ], [ 16.452009238000073, 47.412845102000063 ], [ 16.456391129000053, 47.368891072000054 ], [ 16.491391275000069, 47.281936035000058 ], [ 16.474300239000058, 47.259991207000041 ], [ 16.444718156000022, 47.244436071000052 ], [ 16.420900139000025, 47.210409064000032 ], [ 16.459300153000072, 47.147291154000072 ], [ 16.505554009000036, 47.115000207000037 ], [ 16.504863340000043, 47.006764188000034 ], [ 16.445000123000057, 47.004718165000043 ], [ 16.412500131000058, 47.007773201000077 ], [ 16.346945099000038, 47.009991221000064 ], [ 16.302773307000052, 47.011382114000071 ], [ 16.276663343000052, 46.988054104000071 ], [ 16.25360908600004, 46.95832701300003 ], [ 16.137918203000027, 46.878891214000078 ], [ 16.111800192000032, 46.869718059000036 ], [ 16.009309130000076, 46.835491060000038 ], [ 15.988327214000037, 46.831591128000071 ], [ 15.987918178000029, 46.755136101000062 ], [ 15.859027138000044, 46.723191159000066 ], [ 15.832782225000074, 46.722218020000071 ], [ 15.806663209000021, 46.718609108000066 ], [ 15.602500164000048, 46.686664166000071 ], [ 15.406109154000035, 46.652500199000031 ], [ 15.139445106000039, 46.657218037000064 ], [ 15.102918113000044, 46.656664161000037 ], [ 15.074409249000041, 46.648573110000029 ], [ 15.055136068000024, 46.652082110000038 ], [ 14.867500125000049, 46.613327040000058 ], [ 14.833745027000077, 46.570691148000037 ], [ 14.825000187000057, 46.541382147000036 ], [ 14.813191259000064, 46.511382142000059 ], [ 14.545000196000046, 46.407491134000054 ], [ 14.478054103000034, 46.419445069000062 ], [ 14.153682161000063, 46.442636119000042 ], [ 14.128891173000056, 46.463054100000079 ], [ 14.115836191000028, 46.478882150000061 ], [ 14.082218222000051, 46.489164231000075 ], [ 13.936945087000026, 46.515827065000053 ], [ 13.845554011000047, 46.520000079000056 ], [ 13.776109105000046, 46.518327052000075 ], [ 13.718654009000034, 46.526609043000065 ], [ 13.611109161000059, 46.548045089000027 ], [ 13.555000198000073, 46.556245105000073 ], [ 13.428891112000031, 46.563045008000074 ], [ 13.257500135000043, 46.561944967000045 ], [ 12.82555400800004, 46.631245034000074 ], [ 12.778336066000065, 46.647918148000031 ], [ 12.757773245000067, 46.649718078000035 ], [ 12.747927191000031, 46.64449112300008 ], [ 12.735627084000043, 46.641318070000068 ], [ 12.692500180000025, 46.659718024000028 ], [ 12.590273148000051, 46.658882181000081 ], [ 12.55444503800004, 46.661664134000034 ], [ 12.486173263000069, 46.682364250000035 ], [ 12.440554084000041, 46.69082712200003 ], [ 12.404300173000024, 46.705553959000042 ], [ 12.383745064000038, 46.721109095000031 ], [ 12.301663266000048, 46.841109115000052 ], [ 12.232218192000062, 46.888882107000029 ], [ 12.185554125000067, 46.907918080000059 ], [ 12.160273299000039, 46.928054094000061 ], [ 12.136109110000064, 46.966945119000059 ], [ 12.133018200000038, 47.012564130000044 ], [ 12.194582273000037, 47.032982111000081 ], [ 12.223891274000039, 47.063044980000029 ], [ 12.230836184000054, 47.072218135000071 ], [ 12.227500186000043, 47.08416419100007 ], [ 12.18610917500007, 47.094582226000057 ], [ 12.140127060000054, 47.084809094000036 ], [ 12.075282142000049, 47.059436068000025 ], [ 11.761245086000031, 46.978191118000041 ], [ 11.731109127000025, 46.978882122000073 ], [ 11.710136096000042, 46.996382195000081 ], [ 11.621945063000055, 47.012773174000074 ], [ 11.483891262000043, 47.014164235000067 ], [ 11.177154006000023, 46.96735398800007 ], [ 11.118054044000075, 46.929991151000081 ], [ 11.100554139000053, 46.915409154000031 ], [ 11.097082187000069, 46.891591138000081 ], [ 11.071391151000057, 46.823464203000071 ], [ 11.016800151000041, 46.77332701000006 ], [ 10.887782209000022, 46.771109159000048 ], [ 10.834163342000068, 46.786945089000028 ], [ 10.791663237000023, 46.801382079000064 ], [ 10.763263337000069, 46.830553952000059 ], [ 10.680136147000042, 46.87381815100008 ], [ 10.646945152000058, 46.870418116000053 ], [ 10.599718156000051, 46.85777317600008 ], [ 10.563609085000053, 46.848882156000059 ], [ 10.497773259000041, 46.855273190000048 ], [ 10.476109224000027, 46.865691225000035 ], [ 10.471236153000063, 46.871354039000039 ] ] ] }
        }
    ]
}