{
    "type": "FeatureCollection",
    "features": [
        {
            "type": "Feature",
            "properties": {
                "WCID": "BEL",
                "COUNTRY": "Belgium"
            },
            "geometry": { "type": "Polygon", "coordinates": [ [ [ 4.149236124000026, 49.978373172000033 ], [ 4.147218097000064, 50.009991219000028 ], [ 4.171391171000039, 50.137218116000042 ], [ 4.19444509300007, 50.237500212000043 ], [ 4.16500013700005, 50.283054012000036 ], [ 4.035754040000029, 50.355991154000037 ], [ 3.983891182000036, 50.345273215000077 ], [ 3.889718152000057, 50.340000159000056 ], [ 3.774718105000034, 50.353882100000078 ], [ 3.67694504800005, 50.395273111000051 ], [ 3.671109232000049, 50.437073160000068 ], [ 3.660400177000042, 50.455273121000062 ], [ 3.613963260000048, 50.492936030000067 ], [ 3.518054003000032, 50.518882211000061 ], [ 3.454582209000023, 50.510409113000037 ], [ 3.37000008800004, 50.495273240000074 ], [ 3.297082224000064, 50.524300106000055 ], [ 3.279309237000064, 50.540000081000073 ], [ 3.24263606300002, 50.664164231000029 ], [ 3.197782153000048, 50.727218103000041 ], [ 3.187218105000056, 50.746664119000059 ], [ 3.182873261000054, 50.757045106000078 ], [ 3.158573286000035, 50.784364243000027 ], [ 3.116391190000058, 50.791664210000079 ], [ 3.046245054000053, 50.778745015000027 ], [ 3.026991152000051, 50.769845110000063 ], [ 3.014309165000043, 50.769864221000034 ], [ 2.960554008000031, 50.757500075000053 ], [ 2.943054103000065, 50.741391063000037 ], [ 2.898054011000056, 50.703045030000055 ], [ 2.867500130000053, 50.713382096000032 ], [ 2.78194503800006, 50.755553965000047 ], [ 2.650554012000043, 50.816109192000056 ], [ 2.597782220000056, 50.925827132000052 ], [ 2.597500253000021, 50.995827088000055 ], [ 2.541663199000027, 51.091109043000074 ], [ 2.55555402400006, 51.094027119000032 ], [ 2.863054033000026, 51.213336135000077 ], [ 2.955282126000043, 51.249718121000058 ], [ 3.020000142000072, 51.27638212800008 ], [ 3.104027045000066, 51.314854058000037 ], [ 3.131663186000026, 51.324164173000042 ], [ 3.179718145000038, 51.336109056000055 ], [ 3.370863257000053, 51.373854107000057 ], [ 3.37360916800003, 51.310000098000046 ], [ 3.380136156000049, 51.275273202000051 ], [ 3.388327120000042, 51.268673124000031 ], [ 3.439863252000066, 51.244782186000066 ], [ 3.474718223000025, 51.242636083000036 ], [ 3.522982227000057, 51.258953972000029 ], [ 3.521736173000022, 51.283264174000067 ], [ 3.60000018300002, 51.304164114000059 ], [ 3.669163289000039, 51.292773108000063 ], [ 3.788745052000024, 51.262845019000054 ], [ 3.793818116000068, 51.230273111000031 ], [ 3.895418182000071, 51.205691168000044 ], [ 3.952500116000067, 51.214436008000064 ], [ 4.062218223000059, 51.252218107000033 ], [ 4.127782140000022, 51.278882115000044 ], [ 4.167218157000036, 51.297364211000058 ], [ 4.221663312000032, 51.33541805200008 ], [ 4.238900193000063, 51.350427023000066 ], [ 4.255836164000073, 51.336236125000028 ], [ 4.263563272000056, 51.317045088000043 ], [ 4.280645088000028, 51.301127015000077 ], [ 4.312009164000074, 51.286382242000059 ], [ 4.300082219000046, 51.267654052000069 ], [ 4.302373161000048, 51.263182139000037 ], [ 4.309682180000038, 51.262027113000045 ], [ 4.327700255000025, 51.29011805600004 ], [ 4.286763207000035, 51.312445099000058 ], [ 4.280182240000045, 51.344200107000063 ], [ 4.260982149000029, 51.355436048000058 ], [ 4.252363206000041, 51.375145088000068 ], [ 4.279673290000062, 51.37659113400008 ], [ 4.352918216000035, 51.361245042000064 ], [ 4.388054149000027, 51.35750017600003 ], [ 4.412918059000049, 51.358464262000041 ], [ 4.433473167000045, 51.370136062000029 ], [ 4.417782245000069, 51.398327085000062 ], [ 4.399027066000031, 51.413882221000051 ], [ 4.395691236000062, 51.451518140000076 ], [ 4.484300190000056, 51.480136137000045 ], [ 4.544336075000047, 51.483044992000032 ], [ 4.540418206000027, 51.454509138000049 ], [ 4.540345115000036, 51.43117324900004 ], [ 4.647636159000058, 51.42319116300007 ], [ 4.671145050000064, 51.43255408400006 ], [ 4.70208215200006, 51.466945033000059 ], [ 4.766182254000057, 51.499927151000065 ], [ 4.797636184000055, 51.501245122000057 ], [ 4.825836091000042, 51.492218147000074 ], [ 4.845482266000033, 51.475273124000068 ], [ 4.832782174000045, 51.429991066000071 ], [ 4.853054143000065, 51.414444982000077 ], [ 4.940482254000074, 51.402354087000049 ], [ 4.997082229000057, 51.436318061000065 ], [ 5.017154038000058, 51.470618150000064 ], [ 5.038473241000077, 51.486945092000042 ], [ 5.076809216000072, 51.469300180000062 ], [ 5.101245146000053, 51.434718124000028 ], [ 5.08107325800006, 51.401244993000034 ], [ 5.141945153000052, 51.319718076000072 ], [ 5.161527123000042, 51.315127140000072 ], [ 5.19347323900007, 51.319509199000038 ], [ 5.233336062000035, 51.309373132000076 ], [ 5.238973227000031, 51.262282091000031 ], [ 5.329718058000026, 51.262218053000026 ], [ 5.40437315500003, 51.26603601000005 ], [ 5.474236150000024, 51.286873254000056 ], [ 5.508336080000049, 51.294227032000038 ], [ 5.552918082000076, 51.26964509000004 ], [ 5.568336090000059, 51.220709192000072 ], [ 5.644718194000063, 51.203609104000066 ], [ 5.75416321900002, 51.189991193000026 ], [ 5.847136127000056, 51.153191118000052 ], [ 5.818054108000069, 51.115000149000082 ], [ 5.776945064000074, 51.025836145000028 ], [ 5.764163332000066, 50.990000156000065 ], [ 5.758054098000059, 50.960000151000031 ], [ 5.651391195000031, 50.87513606300007 ], [ 5.638818172000072, 50.848882099000036 ], [ 5.653609214000028, 50.823609152000074 ], [ 5.683609219000061, 50.811382134000041 ], [ 5.693936059000066, 50.808818110000061 ], [ 5.701945135000074, 50.805827112000031 ], [ 5.704236077000076, 50.782009096000081 ], [ 5.691909147000047, 50.760554106000029 ], [ 5.698609138000052, 50.757773158000077 ], [ 5.739863189000062, 50.759854049000069 ], [ 5.79750017300006, 50.769436073000065 ], [ 5.870554159000051, 50.760827020000079 ], [ 5.898918184000024, 50.753882111000053 ], [ 5.926391213000045, 50.75610013000005 ], [ 6.011800124000047, 50.75727326100008 ], [ 6.054718151000031, 50.723609191000037 ], [ 6.167218212000023, 50.656391189000033 ], [ 6.270418215000063, 50.619853970000065 ], [ 6.247773163000033, 50.589164134000043 ], [ 6.264718186000039, 50.497773226000049 ], [ 6.313473202000068, 50.497218176000047 ], [ 6.339163233000022, 50.486936096000079 ], [ 6.373400122000021, 50.443191111000033 ], [ 6.398200162000023, 50.323173153000027 ], [ 6.349718061000033, 50.312773223000079 ], [ 6.280836083000054, 50.28360906100005 ], [ 6.166663330000063, 50.224718145000054 ], [ 6.139718193000022, 50.154445107000072 ], [ 6.13440909600007, 50.12784496900008 ], [ 6.120000101000073, 50.131945061000067 ], [ 6.030554130000041, 50.163053992000073 ], [ 6.026254046000076, 50.181253953000066 ], [ 6.017918075000068, 50.181809171000054 ], [ 5.973054106000063, 50.170000075000075 ], [ 5.887709233000066, 50.097427043000039 ], [ 5.883054091000076, 50.077218106000032 ], [ 5.834445088000052, 49.986936124000067 ], [ 5.778609207000045, 49.957009042000038 ], [ 5.747773191000022, 49.90749110400003 ], [ 5.734445127000072, 49.835000047000051 ], [ 5.752636036000069, 49.792282180000029 ], [ 5.790282181000066, 49.780827136000028 ], [ 5.869445066000026, 49.719718033000049 ], [ 5.876154109000026, 49.709882204000053 ], [ 5.89916327100002, 49.66277322600007 ], [ 5.900282255000036, 49.640545089000057 ], [ 5.863054032000036, 49.571664118000058 ], [ 5.835973276000061, 49.549718116000065 ], [ 5.80788216600007, 49.545045037000079 ], [ 5.792218065000043, 49.54582706900004 ], [ 5.702218218000041, 49.543054 ], [ 5.631945012000074, 49.535827123000047 ], [ 5.593336122000039, 49.526382227000056 ], [ 5.522500155000046, 49.510000132000073 ], [ 5.47278222500006, 49.508882154000048 ], [ 5.474927155000046, 49.535900213000048 ], [ 5.432500140000059, 49.603473105000035 ], [ 5.406809104000047, 49.617354040000066 ], [ 5.392309082000054, 49.62255400500004 ], [ 5.331109118000029, 49.656664160000048 ], [ 4.990554068000051, 49.803609149000067 ], [ 4.959163337000064, 49.802218088000075 ], [ 4.937291264000066, 49.791873143000032 ], [ 4.909718155000064, 49.789300067000056 ], [ 4.86847315600005, 49.802218088000075 ], [ 4.820836118000045, 49.992773114000045 ], [ 4.838891241000056, 50.069164271000034 ], [ 4.853336110000043, 50.095554022000044 ], [ 4.885900139000057, 50.134164254000041 ], [ 4.82472716500007, 50.167573179000044 ], [ 4.763054127000032, 50.135553973000071 ], [ 4.69374517600005, 50.084018177000075 ], [ 4.693400177000058, 50.056664171000079 ], [ 4.676663192000035, 49.999164147000045 ], [ 4.510554155000023, 49.947491223000043 ], [ 4.458127195000031, 49.939227002000052 ], [ 4.430009095000059, 49.945009174000063 ], [ 4.413336148000042, 49.94916425100007 ], [ 4.317218182000033, 49.969718018000037 ], [ 4.239582145000043, 49.963464113000043 ], [ 4.215263226000047, 49.959600055000067 ], [ 4.178618216000075, 49.978136131000042 ], [ 4.149236124000026, 49.978373172000033 ] ] ] }
        }
    ]
}