{
    "type": "FeatureCollection",
    "features": [
        {
            "type": "Feature",
            "properties": {
                "WCID": "BOL",
                "COUNTRY": "Bolivia"
            },
            "geometry": { "type": "Polygon", "coordinates": [ [ [ -62.198835785999961, -20.471390947999964 ], [ -62.269445944999973, -20.562226806999945 ], [ -62.267781968999941, -20.621946022999964 ], [ -62.265281982999966, -20.742226836999976 ], [ -62.264164003999952, -20.810835899999972 ], [ -62.261090862999936, -21.000517865999939 ], [ -62.258899833999976, -21.056946011999969 ], [ -62.377781875999972, -21.426390967999964 ], [ -62.470554959999959, -21.714173052999968 ], [ -62.474808942999971, -21.728064045999929 ], [ -62.486117806999971, -21.764999908999982 ], [ -62.524445902999958, -21.883608867999953 ], [ -62.601108801999942, -22.120555044999946 ], [ -62.634172894999949, -22.221946066999976 ], [ -62.643772856999988, -22.238899974999981 ], [ -62.65722681699998, -22.236254981999934 ], [ -62.765008871999953, -22.154726890999939 ], [ -62.79236388399994, -22.115417944999933 ], [ -62.793063939999968, -22.093755082999962 ], [ -62.792781972999933, -22.058890891999965 ], [ -62.800699853999959, -22.017017920999933 ], [ -62.817190912999934, -21.997381971999971 ], [ -62.886117817999946, -21.997781956999972 ], [ -63.130281987999979, -22.000555024999983 ], [ -63.593335870999965, -22.003335805999939 ], [ -63.685835872999974, -22.003055011999948 ], [ -63.733063873999981, -22.00278192899998 ], [ -63.941117798999983, -22.000835818999974 ], [ -63.993054920999953, -22.094446087999927 ], [ -64.058626884999967, -22.249726878999979 ], [ -64.126681903999952, -22.410281899999973 ], [ -64.172645913999986, -22.470417863999955 ], [ -64.19939089099995, -22.494999974999928 ], [ -64.223072951999939, -22.512917968999943 ], [ -64.244172884999955, -22.549726928999974 ], [ -64.2533460399999, -22.567782051999927 ], [ -64.279872918999956, -22.645555048999938 ], [ -64.2861179399999, -22.727499887999954 ], [ -64.283890868999947, -22.7544460299999 ], [ -64.301390940999966, -22.832499988999928 ], [ -64.316390859999956, -22.860555056999942 ], [ -64.338272991999986, -22.86979090899996 ], [ -64.348072944999956, -22.843054984999981 ], [ -64.347781925999982, -22.814164072999972 ], [ -64.352508815999954, -22.767226923999942 ], [ -64.363063978999946, -22.736945956999932 ], [ -64.416399872999932, -22.68360889 ], [ -64.453135910999947, -22.643963996999958 ], [ -64.455281845999934, -22.615555043999962 ], [ -64.443890838999948, -22.580000016999975 ], [ -64.461945961999959, -22.514445989999956 ], [ -64.526117812999985, -22.408891006999966 ], [ -64.540081895999947, -22.286599876999958 ], [ -64.546954888999949, -22.260564009999939 ], [ -64.592645983999944, -22.213199885999927 ], [ -64.683572869999978, -22.175435891999939 ], [ -64.715699866999955, -22.182090954999978 ], [ -64.969454944999939, -22.107635849999951 ], [ -64.988345910999954, -22.090835833999961 ], [ -65.190199909999933, -22.094726880999929 ], [ -65.598890948999951, -22.09999993699995 ], [ -65.657499897999969, -22.108890956999971 ], [ -65.750008951999973, -22.110072972999944 ], [ -65.812790915999983, -22.071390991999976 ], [ -65.867508817999976, -22.00555499799998 ], [ -65.926117934999979, -21.933335849999935 ], [ -66.077517905999969, -21.831946001999938 ], [ -66.194735803999947, -21.788335797999935 ], [ -66.223008801999981, -21.780517828999962 ], [ -66.236254890999987, -21.79696396099996 ], [ -66.263063905999957, -21.902226918999929 ], [ -66.281955038999968, -21.978054979999968 ], [ -66.291263980999986, -22.035281920999978 ], [ -66.306946018999952, -22.076946014999976 ], [ -66.345381905999943, -22.116626949999954 ], [ -66.402235852999979, -22.13416407099993 ], [ -66.495563985999979, -22.161108871999943 ], [ -66.559717899999953, -22.178335862999973 ], [ -66.616390964999937, -22.191946061999943 ], [ -66.688899959999958, -22.196108849999973 ], [ -66.736682004999977, -22.227499915999942 ], [ -66.771390962999988, -22.374999954999964 ], [ -66.774735844999952, -22.426945961999934 ], [ -66.850281938999956, -22.453055086999939 ], [ -66.926390960999981, -22.478054951999979 ], [ -67.022508926999933, -22.523890885999947 ], [ -67.018064003999939, -22.573890950999953 ], [ -67.012645941999949, -22.634172927999941 ], [ -67.124454997999976, -22.719582006999929 ], [ -67.183626875999948, -22.821664031999944 ], [ -67.335008909999942, -22.852782015999935 ], [ -67.499999968999987, -22.885435898999958 ], [ -67.579181963999986, -22.901108883999939 ], [ -67.793335902999956, -22.878054962999954 ], [ -67.876399892999984, -22.828055065999934 ], [ -67.884172934999981, -22.712781935999942 ], [ -67.849726832999977, -22.554864029999976 ], [ -67.890563967999981, -22.426390911999931 ], [ -67.932781937999948, -22.300281992999942 ], [ -67.922917946999974, -22.273890899999969 ], [ -67.922646037999982, -22.239173056999959 ], [ -67.944454911999969, -22.104726826999979 ], [ -67.972781888999975, -22.060281952999958 ], [ -67.996945909999965, -22.046946009999942 ], [ -68.085155047999933, -21.96167305299997 ], [ -68.087508853999964, -21.913064048999956 ], [ -68.086117792999971, -21.880281922999927 ], [ -68.087508853999964, -21.842781958999979 ], [ -68.090563889999942, -21.819999945999939 ], [ -68.105146054999977, -21.745281983999973 ], [ -68.121946070999968, -21.698064040999952 ], [ -68.138764023999954, -21.666946057999951 ], [ -68.170008909999979, -21.627781950999974 ], [ -68.186117921999937, -21.609726827999964 ], [ -68.188608855999973, -21.296946051999953 ], [ -68.229808926999965, -21.233200001999933 ], [ -68.424035896999953, -20.938890928999967 ], [ -68.453608927999937, -20.939445977999981 ], [ -68.478899979999937, -20.941673049999963 ], [ -68.505699941999978, -20.937646047999976 ], [ -68.531817783999941, -20.926390995999952 ], [ -68.552572884999961, -20.904717908999942 ], [ -68.557690875999981, -20.894454938999957 ], [ -68.560008806999974, -20.891391018999968 ], [ -68.56556399699997, -20.870282033999956 ], [ -68.564999894999971, -20.733817943999952 ], [ -68.528890990999969, -20.687646061999942 ], [ -68.509172898999964, -20.671673004999946 ], [ -68.472163946999956, -20.650690921999967 ], [ -68.467017793999958, -20.630626824999979 ], [ -68.492508837999935, -20.604726911999933 ], [ -68.549454984999954, -20.567499861999977 ], [ -68.570845936999945, -20.558890976999976 ], [ -68.599726790999966, -20.549999956999955 ], [ -68.629446001999952, -20.538608949999968 ], [ -68.661955045999946, -20.523054987999956 ], [ -68.690981911999984, -20.504999865999935 ], [ -68.724726783999984, -20.470835898999951 ], [ -68.739181878999943, -20.450281962999952 ], [ -68.752226801999939, -20.424026824999942 ], [ -68.754799878999961, -20.373545974999956 ], [ -68.735008863999951, -20.352226938999934 ], [ -68.703608913999972, -20.338054984999928 ], [ -68.721117870999933, -20.23778194199997 ], [ -68.76645491499994, -20.136464009999941 ], [ -68.784655044999965, -20.11444609199998 ], [ -68.777226833999975, -20.08916392499998 ], [ -68.650554986999964, -20.056663932999982 ], [ -68.610635837999951, -20.051735876999942 ], [ -68.57778196199996, -20.053546032999975 ], [ -68.523346026999945, -19.916390938999939 ], [ -68.566955057999962, -19.83389088399997 ], [ -68.626108830999954, -19.785835923999969 ], [ -68.689726805999953, -19.742672977999973 ], [ -68.687154902999964, -19.703682040999979 ], [ -68.601963920999935, -19.607782003999944 ], [ -68.572555006999949, -19.566535831999943 ], [ -68.551390868999988, -19.539717932999963 ], [ -68.443681904999949, -19.433645952999939 ], [ -68.491672993999941, -19.369026843999961 ], [ -68.551254914999959, -19.319308914999965 ], [ -68.582645980999985, -19.303754951999963 ], [ -68.608335842999963, -19.297226957999953 ], [ -68.642235779999965, -19.282082032999938 ], [ -68.65833590799997, -19.26736391399993 ], [ -68.740846021999971, -19.177781987999936 ], [ -68.7824998899999, -19.141945998999972 ], [ -68.899873020999962, -19.064790914999946 ], [ -68.965835916999936, -18.953054948999977 ], [ -68.932781881999972, -18.882781910999938 ], [ -68.951399932999948, -18.845835822999959 ], [ -69.000563985999975, -18.743055081999955 ], [ -69.024446039999987, -18.658608915999935 ], [ -69.029172929999959, -18.61139097299997 ], [ -69.032499875999974, -18.560000014999957 ], [ -69.025554965999959, -18.507499964999965 ], [ -69.023472900999934, -18.483472903999939 ], [ -69.030146068999954, -18.45917292799993 ], [ -69.039735804999964, -18.440972966999936 ], [ -69.060281860999964, -18.414308958999982 ], [ -69.074726897999938, -18.392226834999974 ], [ -69.085554975999969, -18.285835840999937 ], [ -69.090981922999958, -18.228126939999981 ], [ -69.114446054999974, -18.200835798999947 ], [ -69.13541791199998, -18.179591026999958 ], [ -69.148899867999944, -18.150690894999968 ], [ -69.139590925999983, -18.125146038999958 ], [ -69.118681933999937, -18.108891013999937 ], [ -69.082363984999972, -18.086946017999935 ], [ -69.073199882999972, -18.068335845999968 ], [ -69.071672867999951, -18.038890890999937 ], [ -69.074935774999972, -18.037917919999927 ], [ -69.13361781499998, -18.028890944999944 ], [ -69.291254926999954, -17.979446097999983 ], [ -69.306117884999935, -17.955699998999933 ], [ -69.315290872999981, -17.926946046999944 ], [ -69.321399938999946, -17.89194607 ], [ -69.318690907999951, -17.825135930999977 ], [ -69.327372882999953, -17.797499957999946 ], [ -69.355563905999986, -17.745554956999968 ], [ -69.376108955999939, -17.726945957999931 ], [ -69.487226840999938, -17.632917935999956 ], [ -69.499726772999963, -17.505282001999944 ], [ -69.500563957999987, -17.426946075999979 ], [ -69.501108948999956, -17.378890947999935 ], [ -69.533617825999954, -17.347782016999929 ], [ -69.590835881999965, -17.295281966999937 ], [ -69.656190921999951, -17.287246067999945 ], [ -69.618899834999979, -17.214726847999941 ], [ -69.59279087699997, -17.184717957999965 ], [ -69.531535760999986, -17.129863933999957 ], [ -69.465381924999974, -17.097046099999943 ], [ -69.40639981299995, -17.072226949999958 ], [ -69.38694591899997, -17.05291789499995 ], [ -69.320699881999985, -16.926254931999949 ], [ -69.191955022999934, -16.778055004999942 ], [ -69.107645984999976, -16.711599922999937 ], [ -69.050708889999953, -16.683755072999929 ], [ -69.012390851999953, -16.65698193299994 ], [ -69.014326903999972, -16.629364064999947 ], [ -69.032017915999973, -16.608608963999927 ], [ -69.041399947999935, -16.54764604099995 ], [ -69.034181955999941, -16.473054980999962 ], [ -68.990846007999949, -16.419726965999928 ], [ -68.833346022999933, -16.35402692699995 ], [ -68.824245957999949, -16.326317863999975 ], [ -68.838481950999949, -16.298399922999977 ], [ -68.892899947999979, -16.283617933999949 ], [ -68.932563951999953, -16.250555013999929 ], [ -68.968199948999938, -16.20909996499995 ], [ -69.044726892999961, -16.207781993999959 ], [ -69.070699895999951, -16.227573008999968 ], [ -69.140008847999979, -16.222226863999936 ], [ -69.159726772999988, -16.21187303399995 ], [ -69.213817875999951, -16.157217827999943 ], [ -69.420981977999986, -15.621526873999926 ], [ -69.332508809999979, -15.438890902999958 ], [ -69.268335785999966, -15.326946059999955 ], [ -69.195981856999936, -15.261663941999927 ], [ -69.169872898999984, -15.263335795999978 ], [ -69.143135800999971, -15.254445949999933 ], [ -69.13709094, -15.227635929999963 ], [ -69.17083581199995, -15.187781991999941 ], [ -69.197781953999936, -15.158608944999969 ], [ -69.295008845999973, -15.079446059999952 ], [ -69.381390895999971, -14.964791011999978 ], [ -69.364799924999943, -14.800626911999927 ], [ -69.343481894999968, -14.779863931999955 ], [ -69.310563981999962, -14.766946077999933 ], [ -69.248899828999981, -14.687499884999966 ], [ -69.248608808999961, -14.654164049999963 ], [ -69.244735866999974, -14.616391002999933 ], [ -69.23541787299996, -14.588955021999936 ], [ -69.115572917999941, -14.484163965999926 ], [ -68.984235870999953, -14.378126854999948 ], [ -68.999799891999942, -14.33604601299993 ], [ -69.002372967999975, -14.248755028999938 ], [ -68.986399910999978, -14.231663992999927 ], [ -68.958899891999977, -14.223890951999977 ], [ -68.912781989999985, -14.216946041999961 ], [ -68.857890917999953, -14.200135799999941 ], [ -68.898608862999936, -14.031808910999928 ], [ -68.937372985999957, -14.005417817999955 ], [ -68.960972904999949, -13.987081901999943 ], [ -68.975146031999941, -13.966255051999951 ], [ -69.001681963999943, -13.839446076999934 ], [ -69.014173011999958, -13.791108981999969 ], [ -69.062790899999982, -13.707781967999949 ], [ -69.023090853999975, -13.642046053999934 ], [ -68.979172865999942, -13.566108860999975 ], [ -68.96125503899998, -13.506808906999936 ], [ -68.959454941999979, -13.452782008999975 ], [ -68.960554982999952, -13.272500011999966 ], [ -68.968335903999957, -13.166108849999944 ], [ -68.968481915999973, -13.096663942999953 ], [ -68.963345988999947, -13.026673039999935 ], [ -68.973345934999941, -13.001946089999933 ], [ -68.973345934999941, -12.865490884999929 ], [ -68.922226885999976, -12.802782011999966 ], [ -68.879445987999986, -12.757499952999979 ], [ -68.815563982999947, -12.733054970999945 ], [ -68.768346039999983, -12.644164048999926 ], [ -68.743617916999938, -12.584726799999942 ], [ -68.673908812999969, -12.501155033999964 ], [ -68.677508840999963, -12.495835878999969 ], [ -68.69862687799997, -12.454172957999958 ], [ -68.736390871999959, -12.378055050999933 ], [ -68.749454906999972, -12.350281949999953 ], [ -68.835554989999935, -12.176946035999947 ], [ -68.880281998999976, -12.08694602099996 ], [ -68.925281922999943, -11.998335892999933 ], [ -68.957226863999949, -11.944726916999969 ], [ -68.987226868999983, -11.896108860999959 ], [ -69.000835894999966, -11.875282010999967 ], [ -69.039463895999972, -11.812782013999936 ], [ -69.069455015999949, -11.764163957999926 ], [ -69.180554963999953, -11.58360887799995 ], [ -69.214735861999941, -11.528054964999967 ], [ -69.248899828999981, -11.472499877999951 ], [ -69.432508938999945, -11.173608921999971 ], [ -69.500563957999987, -11.062499921999972 ], [ -69.568435915999942, -10.951091016999953 ], [ -69.567508877999956, -10.950555077999979 ], [ -69.540555023999957, -10.952217879999978 ], [ -69.486954931999946, -10.951108953999949 ], [ -69.447645985999941, -10.947635828999978 ], [ -69.412226912999984, -10.937781895999933 ], [ -69.222781985999973, -10.950835871999971 ], [ -69.07612684299994, -10.967226850999964 ], [ -68.84889093299995, -11.016108936999956 ], [ -68.761835815999973, -11.003317817999971 ], [ -68.766708886999936, -11.137117970999952 ], [ -68.70056393599998, -11.134726948999969 ], [ -68.65472682799998, -11.124446041999931 ], [ -68.620835775999979, -11.116390864999971 ], [ -68.576454938999973, -11.103073026999937 ], [ -68.552226880999967, -11.088891013999955 ], [ -68.522572879999984, -11.059308930999975 ], [ -68.402508822999948, -11.017781964999926 ], [ -68.34403582799996, -11.006872917999942 ], [ -68.31306402499996, -10.996663927999975 ], [ -68.280908864999958, -10.979726950999975 ], [ -68.230282001999967, -10.911664052999981 ], [ -68.124599948999958, -10.759308880999981 ], [ -68.118963956999949, -10.731945989999929 ], [ -68.10196394899998, -10.705281982999963 ], [ -68.082226913999932, -10.690281895999931 ], [ -68.061108875999935, -10.67639090299997 ], [ -68.017646025999966, -10.660281890999954 ], [ -67.865846070999964, -10.656946060999928 ], [ -67.836681908999935, -10.659308919999944 ], [ -67.817508808999946, -10.665282031999936 ], [ -67.787226835999945, -10.684163944999966 ], [ -67.742372924999984, -10.712917895999965 ], [ -67.70333588799997, -10.694726819999971 ], [ -67.674999857999978, -10.619999972999949 ], [ -67.609735844999989, -10.530135912999981 ], [ -67.582508908999955, -10.504446049999956 ], [ -67.529173014999969, -10.481108986999971 ], [ -67.509172955999986, -10.472781901999952 ], [ -67.449446027999954, -10.44166391899995 ], [ -67.326672938999934, -10.358964037999954 ], [ -67.323272903999964, -10.323473048999972 ], [ -67.300290898999947, -10.316663925999933 ], [ -67.22541787199998, -10.311946087999956 ], [ -67.183208954999941, -10.323681925999949 ], [ -67.076954920999981, -10.268754978999937 ], [ -67.046399865999945, -10.243608933999951 ], [ -66.970835834999946, -10.172226801999955 ], [ -66.950008816999969, -10.151390898999978 ], [ -66.925281867999956, -10.123190991999934 ], [ -66.893755014999954, -10.091526843999929 ], [ -66.760281923999969, -9.990835878999974 ], [ -66.732226855999954, -9.976946059999932 ], [ -66.693481842999972, -9.963191020999943 ], [ -66.659235900999988, -9.948545991999936 ], [ -66.642508807999945, -9.930135811999946 ], [ -66.640254913999968, -9.918272904999981 ], [ -66.630481949999933, -9.90576392 ], [ -66.545699837999962, -9.887917841999979 ], [ -66.479317845999958, -9.881808943999943 ], [ -66.43709099199998, -9.888608845999954 ], [ -66.383346060999941, -9.866664017999938 ], [ -66.174999942999932, -9.79722682299996 ], [ -66.077645980999932, -9.775555076999979 ], [ -65.97195504299998, -9.779726917999938 ], [ -65.843899845999942, -9.777781980999976 ], [ -65.79223580699994, -9.77499986 ], [ -65.745835769999985, -9.770554936999929 ], [ -65.605981870999983, -9.834926946999929 ], [ -65.569308864999982, -9.835135823999963 ], [ -65.515699888999961, -9.773964023999952 ], [ -65.512217878999934, -9.741390942999942 ], [ -65.492508838999981, -9.719163978999973 ], [ -65.442335771999979, -9.679191017999926 ], [ -65.40688199799996, -9.686254950999967 ], [ -65.376954915999988, -9.703335928999934 ], [ -65.341946052999958, -9.762499927999954 ], [ -65.301808806999986, -9.842154997999955 ], [ -65.322717798999975, -9.903546068999958 ], [ -65.336454900999968, -9.947082008999928 ], [ -65.330417918999956, -10.043890978999968 ], [ -65.31306402599995, -10.075281876999952 ], [ -65.303754916999935, -10.100835785999948 ], [ -65.288617869999939, -10.195417851999935 ], [ -65.289172919999942, -10.217781942999977 ], [ -65.311526784999955, -10.288755037999977 ], [ -65.324726773999942, -10.306808986999954 ], [ -65.347926875999974, -10.325554945999954 ], [ -65.378199963999975, -10.354863946999956 ], [ -65.38889996599994, -10.372499973999936 ], [ -65.395846048999942, -10.393335875999981 ], [ -65.395772958999942, -10.393581968999968 ], [ -65.391254945999947, -10.413755030999937 ], [ -65.402363984999965, -10.442217961999972 ], [ -65.441973003999976, -10.473481957999979 ], [ -65.438064018999967, -10.618754924999962 ], [ -65.390017943999965, -10.75583592299995 ], [ -65.32919097599995, -10.851891024999929 ], [ -65.315845979999949, -10.880835915999967 ], [ -65.302655043999948, -10.985555055999953 ], [ -65.343335772999978, -11.058054997999932 ], [ -65.393617803999973, -11.149446073999968 ], [ -65.401946062999968, -11.169726926999942 ], [ -65.39070894799994, -11.274726860999976 ], [ -65.348345970999958, -11.404726826999934 ], [ -65.310281904999954, -11.494135916999937 ], [ -65.289735848999953, -11.504999869999949 ], [ -65.241535881999937, -11.505973008999945 ], [ -65.222926882999957, -11.518755075999934 ], [ -65.169455034999942, -11.614726861999941 ], [ -65.188335774999985, -11.656390954999949 ], [ -65.200835873999949, -11.685554948999936 ], [ -65.209163965999949, -11.7116729599999 ], [ -65.191746035999984, -11.7520179099999 ], [ -65.149517839999987, -11.772154928999953 ], [ -65.118381918999944, -11.698954929999957 ], [ -65.062372868999944, -11.75486406899995 ], [ -65.04333589, -11.809717925999962 ], [ -65.03557290699996, -11.881673043999967 ], [ -65.01695502299998, -11.969999863999931 ], [ -65.008345969999937, -11.989446046999944 ], [ -64.98430885099998, -12.011108907999926 ], [ -64.896117818999983, -12.023335924999969 ], [ -64.835846066999977, -12.02319997099994 ], [ -64.809590928999967, -12.028608980999934 ], [ -64.791117884999949, -12.041526834999956 ], [ -64.763335898999969, -12.097781977999944 ], [ -64.738617833999967, -12.150072983999962 ], [ -64.61765490099998, -12.210973042999967 ], [ -64.516535788999988, -12.242217927999945 ], [ -64.496945939999932, -12.366255007999939 ], [ -64.421399845999986, -12.441108923999934 ], [ -64.399445964999984, -12.458090994999964 ], [ -64.37306392499994, -12.468335859999968 ], [ -64.293308942999943, -12.482072960999972 ], [ -64.23889094499998, -12.479172989999938 ], [ -64.176390947999948, -12.485554970999942 ], [ -64.039517821999937, -12.517990924999935 ], [ -64.020008941999947, -12.537081882999928 ], [ -63.92796391, -12.547272935999956 ], [ -63.898608808999938, -12.528608952999946 ], [ -63.870563966999953, -12.49389094199995 ], [ -63.832508952999945, -12.474163964999946 ], [ -63.797499921999986, -12.459999889999949 ], [ -63.671954937999942, -12.470555052999941 ], [ -63.471390913999983, -12.570417885999973 ], [ -63.464364029999956, -12.595917813999961 ], [ -63.415555033999965, -12.653890912999941 ], [ -63.394617877999963, -12.668363944999953 ], [ -63.324872898999956, -12.704208985999969 ], [ -63.24709084899996, -12.705835913999977 ], [ -63.216108820999978, -12.680899918999955 ], [ -63.163335854999957, -12.648890939999944 ], [ -63.133345907999967, -12.63588189099994 ], [ -63.067099871999972, -12.659872908999944 ], [ -63.062299890999952, -12.697890874999928 ], [ -63.049172992999956, -12.747500007999975 ], [ -62.994172954999954, -12.839335826999957 ], [ -62.973764026999959, -12.852899925999964 ], [ -62.896663928999942, -12.900281985999982 ], [ -62.843846035999945, -12.942335838999952 ], [ -62.769726877999972, -13.005835795999928 ], [ -62.688254945999972, -12.968599861999962 ], [ -62.645863973999951, -13.007363984999927 ], [ -62.645481926999935, -13.032364016999963 ], [ -62.419217813999978, -13.132517869999958 ], [ -62.384726784999941, -13.145835875999978 ], [ -62.330835841999942, -13.147781985999927 ], [ -62.268526784999949, -13.140890887999944 ], [ -62.244590918999961, -13.126673000999972 ], [ -62.213754902999938, -13.120972970999958 ], [ -62.113672966999957, -13.153708829999971 ], [ -62.109726766999984, -13.183335839999927 ], [ -62.08555503499997, -13.271390917999952 ], [ -62.002499929999942, -13.362217891999933 ], [ -61.972946009999987, -13.375426932999972 ], [ -61.944454914999938, -13.395835860999966 ], [ -61.874181875999966, -13.453946087999952 ], [ -61.868445971999961, -13.480882003999966 ], [ -61.840308928999946, -13.538745969999979 ], [ -61.810064004999958, -13.548663940999973 ], [ -61.730181952999942, -13.53688200199997 ], [ -61.616390911999986, -13.513054933999967 ], [ -61.593526923999946, -13.507235880999929 ], [ -61.577499886999988, -13.525972954999929 ], [ -61.521135777999973, -13.550381895999976 ], [ -61.492781978999972, -13.553335845999982 ], [ -61.261645968999972, -13.523090921999938 ], [ -61.038981883999952, -13.493117905999952 ], [ -61.004173013999946, -13.540835913999956 ], [ -60.957781861999933, -13.582781974999932 ], [ -60.791599901999973, -13.679454990999943 ], [ -60.770655034999947, -13.683299936999958 ], [ -60.744290931999956, -13.682364013999972 ], [ -60.675564018999978, -13.738608930999931 ], [ -60.583335758999965, -13.768608935999964 ], [ -60.476808809999966, -13.803472959999965 ], [ -60.384499915999982, -13.987255071999982 ], [ -60.400554948999968, -14.02972684599996 ], [ -60.425835774999939, -14.067081970999936 ], [ -60.464863927999943, -14.101808866999932 ], [ -60.481999890999987, -14.167863963999935 ], [ -60.450517796999975, -14.291126890999976 ], [ -60.427472927999986, -14.324299948999965 ], [ -60.346508939999978, -14.483417975999942 ], [ -60.281108804999974, -14.623335912999949 ], [ -60.276117884999962, -14.706663932999959 ], [ -60.264454968999985, -14.913608931999931 ], [ -60.259999819999962, -15.03666398799993 ], [ -60.258899946999975, -15.093608961999962 ], [ -60.292499810999971, -15.094445978999943 ], [ -60.38472689799994, -15.092499868999937 ], [ -60.571399928999938, -15.09750000899993 ], [ -60.439726767999957, -15.241390967999962 ], [ -60.227226913999971, -15.47860888699995 ], [ -60.184308886999986, -15.980417840999962 ], [ -60.160281993999945, -16.263054945999954 ], [ -60.106673016999935, -16.265835893999963 ], [ -60.005563962999986, -16.26999985599997 ], [ -59.532781874999955, -16.289172956999948 ], [ -59.48972688799995, -16.290835925999943 ], [ -58.972781892999933, -16.31083581799993 ], [ -58.541946033999977, -16.326664035999954 ], [ -58.43917300399994, -16.329726950999941 ], [ -58.415008814999965, -16.3199999199999 ], [ -58.400699900999939, -16.305555050999942 ], [ -58.388890972999945, -16.282917877999978 ], [ -58.327508953999939, -16.27916395799997 ], [ -58.325835758999972, -16.306663976999971 ], [ -58.324446038999952, -16.396117826999955 ], [ -58.346390867999958, -16.506108848999929 ], [ -58.362090842999976, -16.525835825999934 ], [ -58.397781992999967, -16.553055050999944 ], [ -58.419446026999935, -16.573608985999954 ], [ -58.431672876999983, -16.589999964999947 ], [ -58.467917902999943, -16.644026863999954 ], [ -58.4757729199999, -16.674635897999963 ], [ -58.476390833999972, -16.721672958999932 ], [ -58.463481864999949, -16.900690964999967 ], [ -58.458754973999987, -16.924445949999949 ], [ -58.44513589, -16.952781978999951 ], [ -58.435146002999943, -16.970973055999934 ], [ -58.424446, -17.009726952999927 ], [ -58.407364016999963, -17.112081893999971 ], [ -58.406673012999931, -17.138335857999948 ], [ -58.409445913999946, -17.190554947999942 ], [ -58.403063932999942, -17.226390936999962 ], [ -58.390417819999982, -17.259581931999946 ], [ -58.371117817999959, -17.278890986999954 ], [ -58.351108872999987, -17.287226957999962 ], [ -58.321946052999976, -17.292917934999934 ], [ -58.294446033999975, -17.299726889999931 ], [ -58.249999818999981, -17.326117982999961 ], [ -58.120563954999966, -17.412782 ], [ -58.108890981999934, -17.438890957999945 ], [ -58.091663990999962, -17.455555019999963 ], [ -58.016672946999961, -17.497635861999981 ], [ -57.983555041999978, -17.500690897999959 ], [ -57.901672899999937, -17.461946053999952 ], [ -57.880835823999973, -17.476945971999953 ], [ -57.788063913999963, -17.553608870999938 ], [ -57.745508823999955, -17.593890955999939 ], [ -57.76583577699995, -17.612781921999954 ], [ -57.779481850999957, -17.637746079999943 ], [ -57.759173001999955, -17.68694600699996 ], [ -57.729454963999956, -17.720555091999927 ], [ -57.717281925999941, -17.727581976999943 ], [ -57.718172922999941, -17.738581883999927 ], [ -57.72111782099995, -17.774999911999942 ], [ -57.718890916999953, -17.844999867999945 ], [ -57.581672958999945, -18.096108946999948 ], [ -57.521117898999933, -18.203891001999978 ], [ -57.552363957999944, -18.246808860999977 ], [ -57.563335868999957, -18.274726968999971 ], [ -57.626945964999948, -18.468055063999941 ], [ -57.770281873999977, -18.906108914999948 ], [ -57.723035767999932, -18.913608873999976 ], [ -57.716664012999956, -18.9344459499999 ], [ -57.704726840999967, -19.043608839999933 ], [ -57.776672906999977, -19.047499886999958 ], [ -57.787226896999982, -19.068054995999944 ], [ -57.821399915999962, -19.137217934999967 ], [ -57.854999948999932, -19.206390931999977 ], [ -57.96055493199998, -19.421108972999946 ], [ -58.087226778999934, -19.677226909999945 ], [ -58.121117831999982, -19.741390881999962 ], [ -58.103335791999939, -19.760282015999962 ], [ -57.85187299599994, -19.975508837999939 ], [ -57.900835882999957, -20.029026954999949 ], [ -58.109726824999939, -20.149172986999929 ], [ -58.158890877999966, -20.168055067999944 ], [ -58.13722684399994, -20.116391028999942 ], [ -58.133055002999981, -20.082226893999973 ], [ -58.131254904999935, -19.98611798 ], [ -58.15097299699994, -19.831108929999971 ], [ -58.232226831999981, -19.782499925999957 ], [ -58.268054941999935, -19.764164009999945 ], [ -58.520563965999941, -19.638617851999982 ], [ -58.792617912999958, -19.501508858999955 ], [ -59.095835775999944, -19.348890997999945 ], [ -59.156390835999957, -19.34555500099998 ], [ -59.428335817999937, -19.329999864999934 ], [ -59.573617836999972, -19.321664061999968 ], [ -59.981808810999951, -19.29680886899996 ], [ -60.01852691199997, -19.302073039999982 ], [ -60.057499911999969, -19.314726863999965 ], [ -60.424446054999976, -19.410835944999974 ], [ -60.516399891999981, -19.434717830999944 ], [ -60.613335763999942, -19.459163986999954 ], [ -60.79639083, -19.490281969999955 ], [ -61.357226822999962, -19.583055053999942 ], [ -61.668890961999978, -19.63333591199995 ], [ -61.742499829999986, -19.645000000999971 ], [ -61.774445945999958, -19.724726819999944 ], [ -61.847499931999948, -19.910835916999929 ], [ -61.913072900999964, -20.080008874999976 ], [ -62.101954898999963, -20.337499934999983 ], [ -62.198835785999961, -20.471390947999964 ] ] ] }
        }
    ]
}