{
    "type": "FeatureCollection",
    "features": [
        {
            "type": "Feature",
            "properties": {
                "WCID": "BOS",
                "COUNTRY": "Bosnia and Herzegovina"
            },
            ""geometry": { "type": "Polygon", "coordinates": [ [ [ 17.649845063000043, 42.88907310500008 ], [ 17.578527137000037, 42.943827049000049 ], [ 17.67530023300003, 42.967518163000079 ], [ 17.667636156000071, 43.022909132000052 ], [ 17.654445052000028, 43.047218160000057 ], [ 17.636663347000024, 43.070418095000036 ], [ 17.589445069000078, 43.102218030000074 ], [ 17.565282221000075, 43.115000097000063 ], [ 17.434718153000063, 43.179445030000068 ], [ 17.303745049000042, 43.275691072000029 ], [ 17.287636204000023, 43.302082165000058 ], [ 17.278191140000047, 43.329018081000072 ], [ 17.257845076000024, 43.420064158000059 ], [ 17.270691181000075, 43.44534498400003 ], [ 17.254718123000032, 43.464027072000079 ], [ 17.223327058000052, 43.478054020000059 ], [ 17.160273185000051, 43.497773118000055 ], [ 17.106663203000039, 43.510273217000076 ], [ 17.071391148000032, 43.526382230000081 ], [ 17.053054059000033, 43.536245047000079 ], [ 16.976391160000048, 43.586109157000067 ], [ 16.955827167000052, 43.603335980000054 ], [ 16.93750013500005, 43.621664185000043 ], [ 16.829718080000077, 43.725554019000072 ], [ 16.709582273000024, 43.833745111000042 ], [ 16.699027110000031, 43.853336134000074 ], [ 16.646391273000063, 43.91221816500007 ], [ 16.533473290000074, 44.015691084000025 ], [ 16.510418195000057, 44.022500207000064 ], [ 16.463609121000047, 44.026664169000071 ], [ 16.430000204000066, 44.036036142000057 ], [ 16.346800260000066, 44.087500190000071 ], [ 16.323054160000027, 44.120064219000028 ], [ 16.305827170000043, 44.152909042000033 ], [ 16.27263617400007, 44.18319118200003 ], [ 16.243673178000051, 44.197527086000036 ], [ 16.206800180000073, 44.196382118000031 ], [ 16.166109225000071, 44.192491071000063 ], [ 16.14548220000006, 44.198673228000075 ], [ 16.191945101000044, 44.313891204000072 ], [ 16.198054167000066, 44.353609188000064 ], [ 16.129863194000052, 44.492353993000052 ], [ 16.115409105000026, 44.509164235000071 ], [ 16.074163268000063, 44.530545129000075 ], [ 16.033336191000046, 44.574164218000078 ], [ 16.010554010000021, 44.616945117000057 ], [ 15.961663207000072, 44.693882103000078 ], [ 15.942218197000045, 44.707845013000053 ], [ 15.863191267000047, 44.712145097000075 ], [ 15.763745182000036, 44.77999107100004 ], [ 15.74059118100007, 44.812244970000052 ], [ 15.769163245000072, 44.922773104000044 ], [ 15.765000121000071, 45.056391203000032 ], [ 15.765136075000044, 45.077918109000052 ], [ 15.785763269000029, 45.168953960000067 ], [ 15.806800169000041, 45.191800178000051 ], [ 15.828745165000043, 45.208609079000041 ], [ 15.882500155000059, 45.222500072000059 ], [ 15.930827191000049, 45.22832700400005 ], [ 16.022427144000062, 45.214373146000071 ], [ 16.112773164000032, 45.126244978000045 ], [ 16.197218156000076, 45.044444979000048 ], [ 16.215000196000062, 45.031382118000067 ], [ 16.255973286000028, 45.011664194000048 ], [ 16.291763342000024, 44.999118161000069 ], [ 16.352663233000044, 45.007382215000064 ], [ 16.366400167000052, 45.042018083000073 ], [ 16.417800176000071, 45.124264167000035 ], [ 16.476391188000036, 45.185827066000058 ], [ 16.505409170000064, 45.212091089000069 ], [ 16.531091153000034, 45.225527113000055 ], [ 16.595918134000044, 45.230191139000056 ], [ 16.629663341000025, 45.220809107000036 ], [ 16.662773200000061, 45.210273222000069 ], [ 16.682782144000043, 45.204991115000041 ], [ 16.818473254000025, 45.187491209000029 ], [ 16.844427147000033, 45.196336129000031 ], [ 16.913927206000039, 45.265944985000033 ], [ 17.042573159000028, 45.211800070000038 ], [ 17.071109181000054, 45.18832705300008 ], [ 17.182773231000056, 45.148327102000053 ], [ 17.237082264000037, 45.14874502400005 ], [ 17.282500109000068, 45.176382170000068 ], [ 17.485900234000042, 45.11756417600003 ], [ 17.519554078000056, 45.109509167000056 ], [ 17.596382267000024, 45.108891086000028 ], [ 17.690000247000057, 45.122773194000047 ], [ 17.758054093000055, 45.086664122000059 ], [ 17.832773228000065, 45.05554496600007 ], [ 17.860345163000034, 45.049373203000073 ], [ 17.912500214000033, 45.068053950000035 ], [ 17.933054150000032, 45.080273256000055 ], [ 18.070273281000027, 45.104436104000058 ], [ 18.117982236000046, 45.084436045000075 ], [ 18.173054022000031, 45.078191192000077 ], [ 18.201527180000028, 45.083327119000046 ], [ 18.215273166000031, 45.098536082000066 ], [ 18.217845069000077, 45.125900146000049 ], [ 18.260827133000078, 45.137773112000048 ], [ 18.419163296000022, 45.108891086000028 ], [ 18.634163304000026, 45.083327119000046 ], [ 18.795000125000058, 44.993609071000037 ], [ 18.797354098000028, 44.945136022000042 ], [ 18.769791215000055, 44.942145024000069 ], [ 18.768054150000069, 44.915836074000026 ], [ 18.79110924500003, 44.89735397700008 ], [ 18.846736081000074, 44.862773094000033 ], [ 18.962773305000042, 44.853327025000056 ], [ 19.029718225000067, 44.860273108000058 ], [ 19.039718170000071, 44.861382201000026 ], [ 19.121109133000061, 44.901382152000053 ], [ 19.175345075000052, 44.92242709900006 ], [ 19.30486324900005, 44.909435988000041 ], [ 19.37139125300007, 44.889164187000063 ], [ 19.382200220000072, 44.864818111000034 ], [ 19.34521809000006, 44.767736058000025 ], [ 19.336109141000065, 44.747218165000049 ], [ 19.313609095000061, 44.704718060000062 ], [ 19.193982237000057, 44.560154035000039 ], [ 19.130827111000031, 44.521427127000038 ], [ 19.105554164000068, 44.37666411500004 ], [ 19.104445071000043, 44.355827039000076 ], [ 19.12899113900005, 44.315227112000059 ], [ 19.160909091000065, 44.286782118000076 ], [ 19.237436203000073, 44.265182121000066 ], [ 19.357954057000029, 44.209409104000031 ], [ 19.485836083000038, 44.120282148000058 ], [ 19.596945083000037, 44.060273254000037 ], [ 19.61856335300007, 44.052618061000032 ], [ 19.619782249000025, 44.01975396000006 ], [ 19.525791275000074, 43.960445122000067 ], [ 19.485273155000073, 43.958882232000065 ], [ 19.428527167000027, 43.960653999000044 ], [ 19.366127083000038, 43.97087321500004 ], [ 19.308927131000075, 43.997736041000053 ], [ 19.23945406200005, 44.010609136000028 ], [ 19.251218231000053, 43.962382180000077 ], [ 19.366945157000032, 43.859445032000053 ], [ 19.437500162000049, 43.800282207000066 ], [ 19.475273209000022, 43.772773136000069 ], [ 19.49013616700006, 43.758473106000054 ], [ 19.499582237000027, 43.737082154000063 ], [ 19.507636072000025, 43.709582135000062 ], [ 19.51055414800004, 43.685827151000069 ], [ 19.493891260000055, 43.588054094000029 ], [ 19.480554143000063, 43.571391206000044 ], [ 19.40860925000004, 43.584445014000039 ], [ 19.287500137000052, 43.544164270000067 ], [ 19.228809213000034, 43.513218115000029 ], [ 19.217782148000026, 43.519027110000025 ], [ 19.009163283000078, 43.555973198000061 ], [ 18.949854110000047, 43.506035998000073 ], [ 18.957145024000056, 43.455900147000079 ], [ 18.982773196000039, 43.452773194000031 ], [ 19.005000160000066, 43.447353958000065 ], [ 19.025273301000027, 43.432354040000064 ], [ 19.092918110000028, 43.305273155000066 ], [ 19.075554159000035, 43.255273091000049 ], [ 19.059573223000029, 43.235945093000055 ], [ 19.016663243000039, 43.239435988000025 ], [ 18.955054075000078, 43.293891201000065 ], [ 18.958127216000037, 43.320909093000068 ], [ 18.915573299000073, 43.357773206000047 ], [ 18.880827125000053, 43.355536076000078 ], [ 18.839336201000037, 43.348018012000068 ], [ 18.702773205000028, 43.257145105000063 ], [ 18.645836110000062, 43.147218121000037 ], [ 18.648263342000064, 43.127073223000025 ], [ 18.658118113000057, 43.083882114000062 ], [ 18.647045116000072, 43.043400203000033 ], [ 18.57971814900003, 43.029164211000079 ], [ 18.552218131000075, 43.022773178000079 ], [ 18.530000220000034, 43.014718169000048 ], [ 18.503054078000048, 42.99540911400004 ], [ 18.481736048000073, 42.966173203000039 ], [ 18.455409160000045, 42.828609073000052 ], [ 18.490836112000068, 42.766391211000041 ], [ 18.523818231000064, 42.727564224000048 ], [ 18.557845070000042, 42.713954024000031 ], [ 18.576382152000065, 42.663054079000062 ], [ 18.572082235000039, 42.641173121000065 ], [ 18.543327111000053, 42.61513608000007 ], [ 18.463891144000058, 42.569444984000029 ], [ 18.455554167000059, 42.565827019000039 ], [ 18.404718092000053, 42.610409189000052 ], [ 18.362500122000029, 42.626664214000073 ], [ 18.340973215000076, 42.629027073000032 ], [ 18.307082163000075, 42.618191116000048 ], [ 18.274654089000023, 42.617145054000048 ], [ 18.226945134000061, 42.645554006000054 ], [ 18.160554090000062, 42.695000194000045 ], [ 17.990554173000078, 42.764718015000028 ], [ 17.960000125000022, 42.779164226000034 ], [ 17.879718088000061, 42.821382196000059 ], [ 17.845345077000047, 42.860835982000026 ], [ 17.797500167000067, 42.903882084000031 ], [ 17.744445067000072, 42.920273231000067 ], [ 17.70652718100007, 42.927082186000064 ], [ 17.686109200000033, 42.920273231000067 ], [ 17.649845063000043, 42.88907310500008 ] ] ] }
        }
    ]
}