{
    "type": "FeatureCollection",
    "features": [
        {
            "type": "Feature",
            "properties": {
                "WCID": "BRD",
                "COUNTRY": "West Germany"
            },
            "geometry": { "type": "MultiPolygon", "coordinates": [ [ [ [ 7.445963415709716, 47.708793245271487 ], [ 7.543118509856445, 48.024230562166018 ], [ 7.502136263457519, 48.058272920564455 ], [ 7.536028418151123, 48.191337190583987 ], [ 7.68064263781665, 48.358523927644534 ], [ 7.704579386321289, 48.519576631501955 ], [ 7.729077848998291, 48.615619264558596 ], [ 8.15829566439746, 48.97834738345508 ], [ 7.885707888213378, 49.065208040193362 ], [ 7.670458349791748, 49.059009157136721 ], [ 7.465429815856201, 49.099334321931643 ], [ 7.422812018004638, 49.183108888582034 ], [ 7.317378077117187, 49.186214052156252 ], [ 7.284997973052246, 49.164493165925784 ], [ 6.974740538207275, 49.136569581941409 ], [ 6.954413923827392, 49.20173605533008 ], [ 6.77724269351123, 49.176902376130862 ], [ 6.625501665679199, 49.301787935212893 ], [ 6.433043036071044, 49.445331178621096 ], [ 6.3994536729729, 49.604186616853518 ], [ 6.511355433074218, 49.668929658845705 ], [ 6.530922445861084, 49.798427186921877 ], [ 6.321478399840576, 49.841613374666018 ], [ 6.136599573699218, 49.981978975251955 ], [ 6.108513388243896, 50.117454133943362 ], [ 6.298354181853515, 50.286868654207034 ], [ 6.28142503222583, 50.49760016055469 ], [ 6.154545816985351, 50.66175802798633 ], [ 5.999575647917968, 50.741599641755862 ], [ 6.073926481810791, 50.866614900544924 ], [ 6.009666475859863, 50.964496217683596 ], [ 5.927895102111084, 50.98081549258594 ], [ 5.964243445006591, 51.024337373689455 ], [ 6.070175680724365, 51.084186159089846 ], [ 6.176207575408203, 51.144050203279299 ], [ 6.089237246123535, 51.198485933259768 ], [ 6.179620298949462, 51.322330079988284 ], [ 6.222278151122314, 51.389102540925784 ], [ 6.153822455016357, 51.52067144961719 ], [ 6.1168608995354, 51.639857850984377 ], [ 5.947897944060546, 51.721671663240237 ], [ 5.979368242827636, 51.803527437166018 ], [ 6.13267425021289, 51.838435731843752 ], [ 6.211378130522949, 51.879943452791018 ], [ 6.381445440856201, 51.81990011783008 ], [ 6.680369410125, 51.887752138093752 ], [ 6.82461646517871, 51.956386171296877 ], [ 6.882234129515869, 52.125732027009768 ], [ 7.067718062010986, 52.21864279361133 ], [ 7.069026503173095, 52.366283021882815 ], [ 6.996851477233154, 52.442874513582034 ], [ 6.911921534148437, 52.415519319490237 ], [ 6.713568243590576, 52.475699983552737 ], [ 6.726836237517578, 52.558333955720705 ], [ 6.778090509978515, 52.639930330232424 ], [ 7.034791025725585, 52.623504243806643 ], [ 7.072895083037597, 52.804263673738284 ], [ 7.228004488555175, 52.96671637149219 ], [ 7.159938845244628, 53.164001069978518 ], [ 7.189745459166748, 53.230140291169924 ], [ 6.980709108916503, 53.316657625154299 ], [ 7.03733209094165, 53.51014669986133 ], [ 7.165639433470947, 53.591670595125002 ], [ 7.332391771880371, 53.604426942781252 ], [ 7.836380991545898, 53.63209494204883 ], [ 7.968539270964843, 53.637534700349612 ], [ 8.011022600737792, 53.565692506746096 ], [ 8.098732981291992, 53.443934999421877 ], [ 8.029082331267578, 53.372649751619143 ], [ 8.174986872283203, 53.321742616609377 ], [ 8.241933855620605, 53.352290712312502 ], [ 8.260771784392578, 53.438846193269534 ], [ 8.189001116362792, 53.530520997957034 ], [ 8.305650744048339, 53.52543219180469 ], [ 8.501803431121093, 53.449027620271487 ], [ 8.42865756472705, 53.612048707917971 ], [ 8.539542231169921, 53.800681673005862 ], [ 8.848478350249511, 53.749679170564455 ], [ 9.125039133635742, 53.790477357820315 ], [ 8.857097658721191, 53.866988740876955 ], [ 8.818971666899902, 53.969039522126955 ], [ 8.946340593901855, 54.014972291902346 ], [ 8.832654032317382, 54.066016756013674 ], [ 8.778787645903808, 54.132403932527346 ], [ 8.853296312895996, 54.168155275300784 ], [ 8.884012255278808, 54.229449830964846 ], [ 8.580725702849609, 54.193687044099612 ], [ 8.553946528044921, 54.275439821199221 ], [ 8.852422747222167, 54.331649385408205 ], [ 8.950601610747558, 54.418555818513674 ], [ 8.742068323699218, 54.60780294986133 ], [ 8.595986399260742, 54.761352144197268 ], [ 8.616097483245117, 54.887363038972659 ], [ 8.668599161711914, 54.880340181306643 ], [ 9.49598220309375, 54.938293062166018 ], [ 9.610262903777343, 54.880042634919924 ], [ 9.864443811980468, 54.726291261628909 ], [ 9.986687693206054, 54.592444978669924 ], [ 9.978010210601074, 54.490146242097659 ], [ 9.864808115569335, 54.411399446443362 ], [ 10.064928087798339, 54.433894716218752 ], [ 10.141728434172851, 54.336753450349612 ], [ 10.212877306548339, 54.371917329744143 ], [ 10.340239557830078, 54.362315736726565 ], [ 10.437767325705437, 54.297488988691981 ], [ 10.353450952705829, 54.034000323068206 ], [ 10.491700987778596, 53.840450273966326 ], [ 10.39492596322766, 53.70220023889356 ], [ 10.934101100011457, 53.425700168748023 ], [ 10.547001001807704, 53.356575151211636 ], [ 10.51935099479315, 53.121550091587935 ], [ 10.705988542141389, 52.983300056515162 ], [ 10.595388514083174, 52.513249937267751 ], [ 10.470963482517682, 52.430299916224087 ], [ 10.401838464981299, 52.001724807498505 ], [ 10.512438493039513, 51.89112477944029 ], [ 10.44331347550313, 51.725224737352967 ], [ 10.166813405357592, 51.780524751382075 ], [ 9.835013321182947, 51.628449712802031 ], [ 9.848838324690224, 51.338124639149214 ], [ 10.028563370284823, 51.241349614598278 ], [ 9.890313335212054, 50.77129949535086 ], [ 9.904138338719331, 50.48097442169805 ], [ 10.166813405357592, 50.494799425205322 ], [ 10.553913503561343, 50.190649348045234 ], [ 10.74746355266322, 50.356549390132557 ], [ 11.120738647359696, 50.190649348045234 ], [ 11.176038661388803, 50.522449432219879 ], [ 11.466363735041616, 50.467149418190772 ], [ 11.825813826230815, 50.563924442741708 ], [ 12.2353592248833, 50.240806184724612 ], [ 12.252341303435546, 50.215892396882815 ], [ 12.368390116301757, 50.045638643220705 ], [ 12.554163012114746, 50.001620851472659 ], [ 12.484350237456542, 49.888846956208987 ], [ 12.448309931365234, 49.706145845369143 ], [ 12.519705805388671, 49.66758307071094 ], [ 12.536298784819824, 49.56257589908008 ], [ 12.645775827971679, 49.484584413484377 ], [ 12.860805544463378, 49.365573488191409 ], [ 12.945256266204101, 49.397918306306643 ], [ 13.203111681548339, 49.166171632722659 ], [ 13.39694312533496, 49.089534364656252 ], [ 13.479734453765136, 48.999183259919924 ], [ 13.578151735869628, 49.036891542390627 ], [ 13.652069124785644, 48.956100069001955 ], [ 13.745481524077636, 48.939948640779299 ], [ 13.946682962981445, 48.655101381257815 ], [ 13.640039476958496, 48.538158021882815 ], [ 13.443694147673828, 48.606326662019534 ], [ 13.384143862334472, 48.593932710603518 ], [ 13.366653475371582, 48.442138277009768 ], [ 13.29362395724414, 48.364715181306643 ], [ 12.85824969729541, 48.23158224673633 ], [ 12.694188150969726, 48.12943609805469 ], [ 12.936306032744628, 47.87266119571094 ], [ 12.847529444304687, 47.739711366609377 ], [ 12.998080286589843, 47.733523927644534 ], [ 13.022998842803222, 47.662421785310549 ], [ 12.978917154875976, 47.507907472566409 ], [ 12.942021402922851, 47.483203493074221 ], [ 12.743726763335449, 47.563529573396487 ], [ 12.76539138278125, 47.637698732332034 ], [ 12.700078997222167, 47.690246187166018 ], [ 12.446094545928222, 47.662421785310549 ], [ 12.358181032744628, 47.724254213289065 ], [ 12.163277659026367, 47.708793245271487 ], [ 12.122032198516113, 47.628429017976565 ], [ 11.55956748446582, 47.612979494050784 ], [ 11.503432306853515, 47.535716615632815 ], [ 11.359831842986328, 47.529540620759768 ], [ 11.340007814971191, 47.47084005923633 ], [ 11.17034629305957, 47.424499116853518 ], [ 10.902938875762207, 47.41523703189258 ], [ 10.876619371978027, 47.480113588289065 ], [ 10.834806475249511, 47.544993959382815 ], [ 10.613203081694824, 47.585166536287112 ], [ 10.495405230132324, 47.560435853914065 ], [ 10.38832667788623, 47.578986726716799 ], [ 10.403125795928222, 47.455390535310549 ], [ 10.199509653655273, 47.300960145906252 ], [ 10.102937731353027, 47.300960145906252 ], [ 10.13797381838916, 47.388656221345705 ], [ 10.020953211394531, 47.405971132234377 ], [ 10.025811228362304, 47.480113588289065 ], [ 9.938269648162109, 47.501731477693362 ], [ 9.891994509307128, 47.563529573396487 ], [ 9.779980692473632, 47.566623292878909 ], [ 9.736709627715332, 47.616065584138674 ], [ 9.665470719275044, 47.556240114043327 ], [ 9.653150344436488, 47.556182484034188 ], [ 9.628191145158061, 47.570395588444711 ], [ 9.606712670379503, 47.57248189051159 ], [ 9.60088044237073, 47.585312661068031 ], [ 9.563357176262819, 47.584746979125001 ], [ 9.533925648094501, 47.59678061932501 ], [ 9.502257340469352, 47.646370985509307 ], [ 9.488171047056394, 47.651505682882998 ], [ 9.466080995855355, 47.647980237778491 ], [ 9.421182075871505, 47.665947684457613 ], [ 9.347634956983754, 47.660919078143486 ], [ 9.287804878151578, 47.683765275235324 ], [ 9.237245446629197, 47.711482986700766 ], [ 9.225777565070517, 47.739347885480086 ], [ 9.132380912926813, 47.772336658259512 ], [ 9.105701403173684, 47.79244785892643 ], [ 9.042968426858371, 47.817624090976025 ], [ 9.030608947173162, 47.804994340176108 ], [ 9.06687405483502, 47.779532244267855 ], [ 9.173649406371743, 47.734443430470506 ], [ 9.179800812772427, 47.704594860047891 ], [ 9.201323419921486, 47.707409761844914 ], [ 9.188048383707981, 47.699307599375963 ], [ 9.211480461040331, 47.682787433693768 ], [ 9.216057312656227, 47.671002838166572 ], [ 9.1985578866875, 47.677886568025393 ], [ 9.118142444734893, 47.67853423872031 ], [ 9.112519530198746, 47.68572201095995 ], [ 9.081389504422836, 47.683207007118462 ], [ 9.043323638417071, 47.693462868524321 ], [ 9.048183735261208, 47.708273526745813 ], [ 9.084469172589861, 47.689720935906159 ], [ 9.10902282658467, 47.690162048498607 ], [ 9.100921224629866, 47.702421832185856 ], [ 8.987175500981742, 47.743408893941208 ], [ 9.014017977368139, 47.719607631339358 ], [ 8.959238171322115, 47.737391279404541 ], [ 8.939972749823733, 47.726182321942055 ], [ 8.994297857106877, 47.706713649280879 ], [ 9.00635064628403, 47.694759228843544 ], [ 8.99458859182209, 47.684411168673691 ], [ 8.983487283772465, 47.679618759299416 ], [ 8.815385851470214, 47.680972658113284 ], [ 8.748005899993164, 47.721164308503909 ], [ 8.658565554229003, 47.714973054841799 ], [ 8.650836023894531, 47.782989107087893 ], [ 8.33202842196582, 47.693343721345705 ], [ 8.412250551787597, 47.603705964998049 ], [ 8.2530594201958, 47.59443625064258 ], [ 8.127995524016601, 47.643882356599612 ], [ 7.872660669890625, 47.572799287751955 ], [ 7.751046690551025, 47.616065584138674 ], [ 7.628408941832763, 47.563529573396487 ], [ 7.506581816283447, 47.603705964998049 ], [ 7.445963415709716, 47.708793245271487 ] ] ] ] }
        }
    ]
}