{
    "type": "FeatureCollection",
    "features": [
        {
            "type": "Feature",
            "properties": {
                "WCID": "BUL",
                "COUNTRY": "Bulgaria"
            },
            "geometry": { "type": "Polygon", "coordinates": [ [ [ 22.935600123000029, 41.342127155000071 ], [ 22.955900254000028, 41.355618164000077 ], [ 22.966663288000063, 41.374164130000054 ], [ 22.959163329000035, 41.476391163000073 ], [ 22.951663202000077, 41.598609035000038 ], [ 22.954236111000057, 41.635964160000071 ], [ 22.986945147000029, 41.665836089000038 ], [ 23.015000215000043, 41.695409120000079 ], [ 23.030973273000029, 41.725064126000063 ], [ 23.00923614800007, 41.766309125000078 ], [ 22.965900200000078, 41.77569115600005 ], [ 22.942500105000079, 41.807782111000051 ], [ 22.897636136000074, 41.882218105000049 ], [ 22.876945073000059, 41.938191114000062 ], [ 22.82305412900007, 42.027354112000069 ], [ 22.685836171000062, 42.065273172000047 ], [ 22.609445182000059, 42.103336064000075 ], [ 22.519445167000072, 42.149718164000035 ], [ 22.407773238000061, 42.279445047000081 ], [ 22.365273301000059, 42.323882210000079 ], [ 22.410827101000052, 42.335273217000065 ], [ 22.459445157000061, 42.363054029000068 ], [ 22.520836060000079, 42.400691121000079 ], [ 22.537218154000072, 42.425418071000081 ], [ 22.558473152000033, 42.483327131000067 ], [ 22.546945185000027, 42.512909047000051 ], [ 22.52250020300005, 42.531109176000029 ], [ 22.468191170000068, 42.566936113000054 ], [ 22.447218139000029, 42.599444989000062 ], [ 22.442909170000064, 42.820409057000063 ], [ 22.521245097000076, 42.87687324500007 ], [ 22.594854132000023, 42.89444506600006 ], [ 22.615000204000069, 42.894718149000028 ], [ 22.658609235000029, 42.882909053000049 ], [ 22.741591250000056, 42.892145072000062 ], [ 22.966391212000076, 43.101664154000048 ], [ 22.992082248000031, 43.137353962000077 ], [ 23.005000270000039, 43.192773095000064 ], [ 22.940554163000058, 43.210545076000074 ], [ 22.905973280000069, 43.229718009000067 ], [ 22.846945068000025, 43.286727021000047 ], [ 22.829509200000075, 43.331873125000072 ], [ 22.764309225000034, 43.386664118000056 ], [ 22.721382146000053, 43.400691065000046 ], [ 22.669163225000034, 43.415835991000051 ], [ 22.628054013000053, 43.430827024000052 ], [ 22.541663245000052, 43.475618071000042 ], [ 22.410418231000051, 43.717500184000073 ], [ 22.367218238000078, 43.826945041000045 ], [ 22.418609195000045, 44.008191125000053 ], [ 22.544854068000063, 44.060836015000064 ], [ 22.614854024000067, 44.11958209200003 ], [ 22.61916332800007, 44.170000078000044 ], [ 22.651800112000046, 44.213191187000064 ], [ 22.676391275000071, 44.224718148000079 ], [ 22.681436175000044, 44.224700043000041 ], [ 22.691663270000049, 44.215554045000033 ], [ 22.91458216500007, 44.111109161000059 ], [ 22.948327205000055, 44.104018071000041 ], [ 22.997445157000072, 44.100627088000067 ], [ 23.012773311000046, 44.096109075000072 ], [ 23.042982193000057, 44.072564141000043 ], [ 23.037636048000024, 44.050691062000055 ], [ 22.992236140000045, 44.013754026000072 ], [ 22.959427191000032, 44.01227311100007 ], [ 22.91340014900004, 44.000864168000078 ], [ 22.882218128000034, 43.984864120000054 ], [ 22.841963200000066, 43.896673255000053 ], [ 22.852545185000054, 43.860736013000064 ], [ 22.869300107000072, 43.845418085000063 ], [ 22.894445146000066, 43.836109143000044 ], [ 22.966945088000045, 43.816936042000066 ], [ 23.067527088000077, 43.802182216000062 ], [ 23.143191199000057, 43.809718050000072 ], [ 23.162109154000063, 43.818227023000077 ], [ 23.198609158000068, 43.83138208500003 ], [ 23.224500186000057, 43.838664115000029 ], [ 23.262073241000053, 43.847782117000065 ], [ 23.283609200000058, 43.850827095000056 ], [ 23.422682241000075, 43.85570016500003 ], [ 23.446663201000035, 43.851109062000035 ], [ 23.511518177000028, 43.836554055000079 ], [ 23.533700213000031, 43.82242702700006 ], [ 23.570273307000036, 43.806936097000062 ], [ 23.607082267000067, 43.797354073000065 ], [ 23.629718099000058, 43.795000099000049 ], [ 23.774163270000031, 43.788327098000025 ], [ 23.987500140000066, 43.744164191000038 ], [ 24.067982169000061, 43.720627137000065 ], [ 24.116082224000024, 43.69990908300008 ], [ 24.155618152000045, 43.689909138000075 ], [ 24.189236122000068, 43.684927102000074 ], [ 24.224163345000022, 43.689436063000073 ], [ 24.257218218000048, 43.694445088000066 ], [ 24.286391265000077, 43.697491072000048 ], [ 24.307782217000067, 43.697491072000048 ], [ 24.319709162000038, 43.696636118000072 ], [ 24.355273242000067, 43.696873158000074 ], [ 24.405282191000026, 43.719718035000028 ], [ 24.438609141000029, 43.736382097000046 ], [ 24.457773190000069, 43.744718067000065 ], [ 24.501800142000036, 43.761245001000077 ], [ 24.528609156000073, 43.761109047000048 ], [ 24.562500209000063, 43.759164110000029 ], [ 24.60582710400007, 43.751518138000051 ], [ 24.686927215000026, 43.71838212800003 ], [ 24.714163203000055, 43.714718062000031 ], [ 24.793609229000026, 43.712773126000059 ], [ 24.881382172000031, 43.712218076000056 ], [ 25.022754034000059, 43.710191164000037 ], [ 25.224718171000063, 43.687482074000059 ], [ 25.268609168000069, 43.675273161000064 ], [ 25.314445103000025, 43.652218066000046 ], [ 25.344163309000066, 43.633464228000037 ], [ 25.378791130000025, 43.623309049000056 ], [ 25.432063322000033, 43.627927143000079 ], [ 25.463854036000043, 43.639209185000027 ], [ 25.531936045000066, 43.64360012800006 ], [ 25.609163213000045, 43.66220912700004 ], [ 25.681336094000073, 43.690427139000064 ], [ 25.735309180000058, 43.694600154000057 ], [ 25.766527075000056, 43.703327056000035 ], [ 25.786945056000036, 43.713054087000046 ], [ 25.88456321600006, 43.793018114000063 ], [ 25.942773186000068, 43.84847312100004 ], [ 26.085282305000078, 43.949718130000065 ], [ 26.111663339000074, 43.96831807600006 ], [ 26.136382242000025, 43.982773171000076 ], [ 26.301936062000038, 44.030818072000045 ], [ 26.386663357000032, 44.043873222000059 ], [ 26.413036177000038, 44.043127065000078 ], [ 26.438418089000038, 44.041309030000036 ], [ 26.478609147000043, 44.049427071000025 ], [ 26.671100225000032, 44.07193600100004 ], [ 26.794718209000052, 44.095273231000078 ], [ 26.840827227000034, 44.115554084000053 ], [ 26.890209209000034, 44.131991164000056 ], [ 26.91340025900007, 44.13612713100008 ], [ 27.036427152000044, 44.147336082000038 ], [ 27.111109239000029, 44.140827031000072 ], [ 27.165836194000065, 44.129991075000078 ], [ 27.193600242000059, 44.123318074000053 ], [ 27.23027324800006, 44.120827140000074 ], [ 27.250545049000038, 44.124982217000081 ], [ 27.272709147000057, 44.13214505600007 ], [ 27.279300173000024, 44.103882117000069 ], [ 27.295273231000067, 44.084300147000079 ], [ 27.407500209000034, 44.021800150000047 ], [ 27.475827137000067, 44.019436118000044 ], [ 27.62479115900004, 44.028182131000051 ], [ 27.652427132000071, 44.041664255000057 ], [ 27.678745135000042, 44.029718031000073 ], [ 27.698354094000024, 43.99360912800006 ], [ 27.716800149000051, 43.969227009000065 ], [ 27.741800181000031, 43.959436108000034 ], [ 27.813191197000037, 43.965000183000029 ], [ 27.833327211000039, 43.969164145000036 ], [ 27.860409140000058, 43.980818176000071 ], [ 27.922218133000058, 44.003882156000032 ], [ 27.952218138000035, 43.974436027000081 ], [ 27.960273314000062, 43.94499107200005 ], [ 27.998054072000059, 43.859509070000058 ], [ 28.038463228000069, 43.835409087000073 ], [ 28.133054179000055, 43.801653989000044 ], [ 28.181945149000057, 43.78527323600008 ], [ 28.235554126000068, 43.770000067000069 ], [ 28.257773210000039, 43.764435992000074 ], [ 28.403891241000053, 43.750273090000064 ], [ 28.485000236000076, 43.744164191000038 ], [ 28.583245194000028, 43.747764219000032 ], [ 28.57638225900007, 43.733045094000033 ], [ 28.570000278000066, 43.689709145000052 ], [ 28.577563269000052, 43.591653954000037 ], [ 28.600409152000054, 43.561864167000067 ], [ 28.605136210000069, 43.533954106000067 ], [ 28.592491271000029, 43.503318082000078 ], [ 28.557636132000027, 43.453318018000061 ], [ 28.541663242000027, 43.437773108000044 ], [ 28.525554063000072, 43.425818167000045 ], [ 28.479445046000023, 43.393327060000047 ], [ 28.453327203000072, 43.385273225000049 ], [ 28.431391259000065, 43.389436013000079 ], [ 28.408463234000067, 43.398464161000049 ], [ 28.382500121000078, 43.412764191000065 ], [ 28.335963291000041, 43.421654037000053 ], [ 28.299718098000028, 43.421654037000053 ], [ 28.150409244000059, 43.404444984000065 ], [ 28.127218195000069, 43.394982151000079 ], [ 28.084854044000053, 43.35707314900003 ], [ 28.071663276000038, 43.322773228000074 ], [ 28.05332719200004, 43.280818115000045 ], [ 28.015827227000045, 43.225818077000042 ], [ 27.945000145000051, 43.167218013000081 ], [ 27.887354109000057, 43.036936080000032 ], [ 27.886391196000034, 43.01415406700005 ], [ 27.896382257000027, 42.924991069000043 ], [ 27.903882216000056, 42.891109069000038 ], [ 27.901663359000054, 42.855554041000062 ], [ 27.879163313000049, 42.841100120000078 ], [ 27.898118149000027, 42.78401801800004 ], [ 27.89409114800003, 42.703054030000033 ], [ 27.805545057000074, 42.708054003000029 ], [ 27.771936140000037, 42.713609025000039 ], [ 27.732909161000066, 42.711109039000064 ], [ 27.632500163000032, 42.63165396100004 ], [ 27.510691161000068, 42.552218161000042 ], [ 27.49582719600005, 42.535827014000063 ], [ 27.449582225000029, 42.472982187000071 ], [ 27.464991180000027, 42.449436079000066 ], [ 27.515200122000067, 42.43513605000004 ], [ 27.553882270000031, 42.448873151000043 ], [ 27.61666322700006, 42.447218060000068 ], [ 27.679163224000035, 42.418318096000064 ], [ 27.700345132000052, 42.395273227000075 ], [ 27.703891179000038, 42.368891186000042 ], [ 27.755409206000024, 42.254300176000072 ], [ 27.780554078000023, 42.227218079000068 ], [ 27.857218150000051, 42.164164207000056 ], [ 27.899163205000036, 42.133609152000076 ], [ 27.938891247000072, 42.103045045000044 ], [ 27.968609117000028, 42.072491164000041 ], [ 28.000554059000024, 42.037073096000029 ], [ 28.021800172000042, 41.994164122000029 ], [ 28.013054159000035, 41.98221806600003 ], [ 27.971100218000061, 41.984153951000053 ], [ 27.903609134000078, 41.994709114000045 ], [ 27.867082309000068, 42.005545070000039 ], [ 27.832500252000045, 42.001664249000044 ], [ 27.705827064000061, 41.977482123000073 ], [ 27.633327122000026, 41.955827141000043 ], [ 27.595554075000052, 41.935553999000035 ], [ 27.569582245000049, 41.909264160000077 ], [ 27.441109126000072, 41.976945011000055 ], [ 27.411527211000077, 41.994718166000041 ], [ 27.393463204000057, 42.009291111000039 ], [ 27.37305410700003, 42.039982120000047 ], [ 27.363263206000056, 42.06284510200004 ], [ 27.309163218000037, 42.091382129000067 ], [ 27.28624508300004, 42.100964154000053 ], [ 27.233054028000026, 42.109991128000047 ], [ 27.070273277000069, 42.089991069000064 ], [ 27.037218236000058, 42.08360908800006 ], [ 26.962218140000061, 42.003318166000042 ], [ 26.933054146000075, 42.006945016000032 ], [ 26.621382295000046, 41.97305396400003 ], [ 26.566954072000044, 41.934754031000068 ], [ 26.57529121500005, 41.898645127000066 ], [ 26.565827209000076, 41.871382149000056 ], [ 26.558327082000062, 41.851664224000046 ], [ 26.535727124000061, 41.82804502700003 ], [ 26.472773163000056, 41.824153980000062 ], [ 26.446663200000046, 41.825000049000039 ], [ 26.381318217000057, 41.822000166000066 ], [ 26.343954040000028, 41.782345047000035 ], [ 26.332636124000032, 41.745409184000039 ], [ 26.351173206000055, 41.719082129000071 ], [ 26.361100229000044, 41.711054110000077 ], [ 26.301936062000038, 41.707909052000048 ], [ 26.271109099000057, 41.712909025000044 ], [ 26.232863312000063, 41.739518047000047 ], [ 26.172500198000023, 41.747773216000041 ], [ 26.138609146000078, 41.739154105000068 ], [ 26.077636165000058, 41.714300086000037 ], [ 26.065963359000023, 41.691654027000027 ], [ 26.068600138000079, 41.660273188000076 ], [ 26.101100129000031, 41.628045105000069 ], [ 26.129782164000062, 41.630618014000049 ], [ 26.182773227000041, 41.54012715500005 ], [ 26.198054107000075, 41.439436022000052 ], [ 26.140000207000071, 41.354718115000026 ], [ 25.983473194000055, 41.320273187000055 ], [ 25.905554016000053, 41.311100199000066 ], [ 25.883882270000072, 41.309436056000038 ], [ 25.814163275000055, 41.33610006400005 ], [ 25.653045159000044, 41.317773200000033 ], [ 25.561245046000067, 41.31937313800006 ], [ 25.503609236000045, 41.28944505000004 ], [ 25.340409222000062, 41.249853968000025 ], [ 25.282354149000071, 41.243045013000028 ], [ 25.241663194000068, 41.253600176000077 ], [ 25.190827118000072, 41.301453970000068 ], [ 25.185836198000061, 41.305273100000079 ], [ 25.163054017000036, 41.31749106500007 ], [ 25.061191262000023, 41.36257313200008 ], [ 25.036509240000044, 41.370436027000039 ], [ 24.901391284000056, 41.411945056000036 ], [ 24.818473306000044, 41.403745040000047 ], [ 24.812500195000041, 41.37832708600007 ], [ 24.809445158000074, 41.352218128000061 ], [ 24.767773186000056, 41.370554045000063 ], [ 24.609300230000031, 41.432564203000027 ], [ 24.565973166000049, 41.496382170000061 ], [ 24.46610916000003, 41.551936083000044 ], [ 24.306245144000059, 41.54750004400006 ], [ 24.258191190000048, 41.569582168000068 ], [ 24.215273163000063, 41.554991119000078 ], [ 24.199991277000038, 41.543782168000064 ], [ 24.157218090000072, 41.541109179000046 ], [ 24.09319124600006, 41.548264139000025 ], [ 24.064027084000031, 41.521727033000047 ], [ 24.066391284000076, 41.485273130000053 ], [ 23.976663345000077, 41.440827083000045 ], [ 23.886391254000046, 41.451945007000063 ], [ 23.796391239000059, 41.436664127000029 ], [ 23.738327113000025, 41.408609059000071 ], [ 23.633473192000054, 41.377773210000043 ], [ 23.598054119000039, 41.380827073000034 ], [ 23.545000192000032, 41.394436099000075 ], [ 23.44055413500007, 41.409436017000075 ], [ 23.287145189000057, 41.40416413500003 ], [ 23.229863263000027, 41.376245022000035 ], [ 23.228327195000077, 41.354091149000055 ], [ 23.20791809900004, 41.333045028000072 ], [ 23.185136086000057, 41.323744971000053 ], [ 23.120000149000077, 41.320827063000024 ], [ 23.094445067000038, 41.320545096000046 ], [ 22.975554141000032, 41.335545014000047 ], [ 22.935600123000029, 41.342127155000071 ] ] ] }
        }
    ]
}