{
    "type": "FeatureCollection",
    "features": [
        {
            "type": "Feature",
            "properties": {
                "WCID": "COM",
                "COUNTRY": "Comoros"
            },
            "geometry": { "type": "MultiPolygon", "coordinates": [ [ [ [ 43.453609163000067, -11.936108978999926 ], [ 43.427500205000058, -11.922781920999967 ], [ 43.293054143000063, -11.846390930999974 ], [ 43.272636162000026, -11.833472909999955 ], [ 43.257500288000074, -11.815555082999936 ], [ 43.220136111000045, -11.763472953999951 ], [ 43.215000184000075, -11.745554959999936 ], [ 43.214027212000076, -11.730555040999946 ], [ 43.219718189000048, -11.714172945999962 ], [ 43.232218121000074, -11.692781993999972 ], [ 43.239718248000031, -11.681108852999955 ], [ 43.244582267000055, -11.669163969999943 ], [ 43.25000016100006, -11.551108886999941 ], [ 43.252782283000045, -11.476390924999976 ], [ 43.250482289000047, -11.439581964999945 ], [ 43.260273190000078, -11.411390941999969 ], [ 43.26582720600004, -11.397226866999972 ], [ 43.27763613500008, -11.382781997999928 ], [ 43.286945076000052, -11.378335900999957 ], [ 43.330827189000047, -11.368335787999968 ], [ 43.343045154000038, -11.366946067999947 ], [ 43.372636122000074, -11.372499916999971 ], [ 43.380827086000068, -11.381108969999957 ], [ 43.395273296000028, -11.406108834999941 ], [ 43.397218233000046, -11.41750000899998 ], [ 43.396663351000029, -11.44166403 ], [ 43.37943619300006, -11.580555015999948 ], [ 43.374791277000043, -11.615281910999954 ], [ 43.383609207000063, -11.644446072999926 ], [ 43.427500205000058, -11.712781885999959 ], [ 43.438327109000056, -11.728890897999975 ], [ 43.49777324300004, -11.886108914999966 ], [ 43.487082293000071, -11.916390886999977 ], [ 43.462082261000035, -11.934446009999931 ], [ 43.453609163000067, -11.936108978999926 ] ] ], [ [ [ 44.513609117000044, -12.38028195499993 ], [ 44.508045209000045, -12.379717852999931 ], [ 44.487909196000032, -12.369581952999965 ], [ 44.427218182000047, -12.309445987999936 ], [ 44.390973323000026, -12.269863958999963 ], [ 44.322491163000052, -12.235554985999954 ], [ 44.312773184000037, -12.231672990999982 ], [ 44.24777320100003, -12.19833581499995 ], [ 44.230554090000055, -12.188890918999959 ], [ 44.218891174000078, -12.180835909999928 ], [ 44.212218174000043, -12.163546054999927 ], [ 44.232491148000065, -12.167708843999947 ], [ 44.241663297000059, -12.175281892999976 ], [ 44.297500183000068, -12.18708193599997 ], [ 44.325827160000074, -12.187499857999967 ], [ 44.363609259000043, -12.180835909999928 ], [ 44.373891172000071, -12.178054961999976 ], [ 44.382773307000036, -12.17333578299997 ], [ 44.409854063000068, -12.151526908999926 ], [ 44.420273272000031, -12.121945998999934 ], [ 44.419718222000029, -12.110281909999969 ], [ 44.413191234000067, -12.093335880999973 ], [ 44.434163259000059, -12.078891011999929 ], [ 44.453327139000066, -12.070835835999958 ], [ 44.467354087000047, -12.070135946999926 ], [ 44.479718232000039, -12.081255043999931 ], [ 44.487500159000035, -12.093055086999982 ], [ 44.518327122000073, -12.213608983999961 ], [ 44.53041818500003, -12.347781963999978 ], [ 44.526663260000078, -12.366108994999934 ], [ 44.517773246000047, -12.377781968999955 ], [ 44.513609117000044, -12.38028195499993 ] ] ], [ [ [ 43.854436133000036, -12.38305502399993 ], [ 43.774991281000041, -12.363608840999973 ], [ 43.740000188000067, -12.359446052999942 ], [ 43.731663211000068, -12.364999901999965 ], [ 43.711936067000067, -12.363608840999973 ], [ 43.668609171000071, -12.357499941999947 ], [ 43.65694508200005, -12.350281949999953 ], [ 43.630273196000076, -12.299999918999958 ], [ 43.624718173000076, -12.285835843999962 ], [ 43.621382176000054, -12.272499899999957 ], [ 43.62554513200007, -12.25444595099998 ], [ 43.645409236000035, -12.242155063999974 ], [ 43.725000269000077, -12.267781894999928 ], [ 43.737218234000068, -12.274446010999952 ], [ 43.824163213000077, -12.326663925999981 ], [ 43.835827134000056, -12.334164052999938 ], [ 43.857082299000069, -12.352781936999975 ], [ 43.863609120000035, -12.363190918999976 ], [ 43.861518170000068, -12.373608954999952 ], [ 43.854436133000036, -12.38305502399993 ] ] ] ] }
        }
    ]
}