{
    "type": "FeatureCollection",
    "features": [
        {
            "type": "Feature",
            "properties": {
                "WCID": "CRI",
                "COUNTRY": "Costa Rica"
            },
            "geometry": { "type": "Polygon", "coordinates": [ [ [ -85.226790986999958, 9.727344968000068 ], [ -85.278482016999988, 9.785973196000043 ], [ -85.344999961999974, 9.832773217000067 ], [ -85.38500896499994, 9.846244947000059 ], [ -85.43972686799998, 9.858327126000063 ], [ -85.5318818699999, 9.87229104100004 ], [ -85.55195502, 9.870000099000038 ], [ -85.572508954999989, 9.873891146000062 ], [ -85.619173021999984, 9.888891065000053 ], [ -85.656681870999989, 9.905000077000068 ], [ -85.714173009999968, 9.994718125000077 ], [ -85.752790951999941, 10.048891036000043 ], [ -85.764872962999959, 10.057218122000052 ], [ -85.795290888999943, 10.100000026000032 ], [ -85.833346070999937, 10.194718047000038 ], [ -85.851526921999948, 10.24721809700003 ], [ -85.85750891899994, 10.369445022000036 ], [ -85.80139090299997, 10.410826981000071 ], [ -85.654726875999984, 10.590273134000029 ], [ -85.632508964999943, 10.621664200000055 ], [ -85.680008874999942, 10.799309083000026 ], [ -85.708072995999942, 10.808891107000022 ], [ -85.737781980999955, 10.81555405000006 ], [ -85.81750896799997, 10.846391072000074 ], [ -85.911390977999986, 10.891109028000074 ], [ -85.884172925999962, 10.913891041000056 ], [ -85.848890980999954, 10.941664142000036 ], [ -85.820845970999983, 10.943891046000033 ], [ -85.726082017999943, 10.927600147000021 ], [ -85.704999854999983, 10.933054083000059 ], [ -85.689873033999959, 10.963053921000039 ], [ -85.669591007999941, 11.055000046000032 ], [ -85.688064051999959, 11.07430910100004 ], [ -85.69238190499999, 11.076064104000068 ], [ -85.613546081999971, 11.21284503000004 ], [ -85.564181868999981, 11.209718077000048 ], [ -85.526945934999958, 11.166109046000031 ], [ -85.420835901999965, 11.126391062000039 ], [ -85.359590843999968, 11.122218048000036 ], [ -85.266399837999984, 11.084445001000063 ], [ -85.221572916999946, 11.065253963000032 ], [ -85.173754997999936, 11.044864146000066 ], [ -85.16471779699998, 11.042427024000062 ], [ -85.161390851999954, 11.039445078000028 ], [ -85.13361791899996, 11.027218060000052 ], [ -85.087781983999946, 11.010000122000065 ], [ -84.902790865999975, 10.940836010000055 ], [ -84.674454914999956, 11.078053968000063 ], [ -84.343063966999978, 10.953891159000023 ], [ -84.273345977999952, 10.898609155000031 ], [ -84.225045930999954, 10.811909095000033 ], [ -84.193272985999954, 10.783644982000055 ], [ -84.158054910999965, 10.784109005000062 ], [ -84.115981947999956, 10.763745003000054 ], [ -84.08029096599995, 10.766945046000046 ], [ -84.040555044999962, 10.778053918000069 ], [ -83.997363935999942, 10.766527124000049 ], [ -83.958617917999959, 10.734445055000037 ], [ -83.920626941999956, 10.709691115000055 ], [ -83.870008963999965, 10.722500172000025 ], [ -83.827517910999973, 10.746109143000069 ], [ -83.772381919999987, 10.770254054000077 ], [ -83.760846073999971, 10.771364153000036 ], [ -83.751708960999963, 10.770482042000026 ], [ -83.684172949999947, 10.787082066000039 ], [ -83.660146055999974, 10.801945024000077 ], [ -83.65472682099994, 10.824445070000024 ], [ -83.662226779999969, 10.888609042000041 ], [ -83.645799925999938, 10.924845015000074 ], [ -83.637463955999976, 10.920200099000056 ], [ -83.62208199, 10.905836032000025 ], [ -83.600981889999957, 10.86291800500004 ], [ -83.593064008999988, 10.838053928000022 ], [ -83.576673028999949, 10.785554045000026 ], [ -83.57000891399997, 10.750273105000076 ], [ -83.555554991999941, 10.692500167000048 ], [ -83.505835888999968, 10.569309156000031 ], [ -83.461672981999982, 10.478891052000051 ], [ -83.410835900999984, 10.396945040000048 ], [ -83.339735903999951, 10.299717980000025 ], [ -83.104863912999974, 10.009718044000067 ], [ -83.07709097899999, 9.990835963000052 ], [ -83.02529098499997, 10.002791071000047 ], [ -83.010835889999953, 9.950282136000055 ], [ -82.979735843999947, 9.908891124000036 ], [ -82.92029088399994, 9.830000149000057 ], [ -82.85305494399995, 9.744445057000064 ], [ -82.763126845999977, 9.652636059000031 ], [ -82.700563984999974, 9.631944996000072 ], [ -82.65972685, 9.626945023000076 ], [ -82.608335892999946, 9.602782176000062 ], [ -82.563573008999981, 9.562873085000035 ], [ -82.56139991699996, 9.535553947000039 ], [ -82.610008920999974, 9.490418069000043 ], [ -82.636263890999942, 9.48805403700004 ], [ -82.682499977999953, 9.50874493300006 ], [ -82.718899901999976, 9.546664160000034 ], [ -82.748554906999971, 9.582982109000056 ], [ -82.81418202399999, 9.606664170000045 ], [ -82.837717905999966, 9.609718033000036 ], [ -82.864455002999989, 9.585554012000046 ], [ -82.934717815999988, 9.471664231000034 ], [ -82.93111795599998, 9.199444994000032 ], [ -82.930464, 9.06312708400003 ], [ -82.882235869999988, 9.067218124000021 ], [ -82.743617798999935, 8.981036066000058 ], [ -82.711881901999959, 8.925073115000032 ], [ -82.719863987999986, 8.910827065000035 ], [ -82.756326942999976, 8.881318072000056 ], [ -82.813335786999971, 8.862500029000046 ], [ -82.85848189099994, 8.842782104000037 ], [ -82.879454921999979, 8.825836075000041 ], [ -82.914463951999949, 8.762782203000029 ], [ -82.91569994799994, 8.739654017000021 ], [ -82.896663974999967, 8.710000017000027 ], [ -82.879581991999942, 8.689445076000027 ], [ -82.836745939999957, 8.636664232000044 ], [ -82.825563977999934, 8.570000106000066 ], [ -82.829926926999974, 8.474653945000057 ], [ -82.87646392399995, 8.427500040000041 ], [ -82.922290973999964, 8.416391168000075 ], [ -82.952517960999955, 8.399444972000026 ], [ -83.017790857999955, 8.340273094000054 ], [ -83.030290957999966, 8.310554050000064 ], [ -83.005008958999952, 8.291109040000038 ], [ -82.97209087799996, 8.276391089000072 ], [ -82.950008921999938, 8.27027313800005 ], [ -82.933346032999964, 8.257500123000057 ], [ -82.885981909999941, 8.101809121000031 ], [ -82.886808868999935, 8.075273189000029 ], [ -82.892781979999938, 8.035973127000034 ], [ -82.898845951999988, 8.025673109000024 ], [ -82.897299825999937, 8.095827124000039 ], [ -82.939863968999987, 8.183326985000065 ], [ -82.970981951999988, 8.229445055000042 ], [ -82.994446083999946, 8.250000164000028 ], [ -83.041399829999989, 8.285827100000063 ], [ -83.08445498399999, 8.306527048000021 ], [ -83.121399898999982, 8.333609145000025 ], [ -83.143335842999988, 8.358053960000063 ], [ -83.137582000999942, 8.387982048000026 ], [ -83.117917888999955, 8.404509150000024 ], [ -83.095255065999936, 8.447535974000061 ], [ -83.180281930999968, 8.599718143000075 ], [ -83.232226931999946, 8.624164132000033 ], [ -83.325908948999938, 8.671109160000071 ], [ -83.325490859999945, 8.70319106200003 ], [ -83.344035820999977, 8.728053966000061 ], [ -83.373899870999935, 8.732218096000054 ], [ -83.404726834999963, 8.729164233000063 ], [ -83.480417934999934, 8.704545075000055 ], [ -83.426390869999977, 8.612782178000032 ], [ -83.400008828999944, 8.586944961000029 ], [ -83.378890958999989, 8.57721809800006 ], [ -83.350417801999981, 8.570418027000073 ], [ -83.324726932999965, 8.559582070000033 ], [ -83.293335867999986, 8.530554031000065 ], [ -83.272508849999952, 8.462773100000049 ], [ -83.272226882999973, 8.419718113000044 ], [ -83.279454932999954, 8.377636098000039 ], [ -83.291117847999942, 8.370282151000026 ], [ -83.310154994999948, 8.37208208100003 ], [ -83.368055002999938, 8.397218068000029 ], [ -83.39584604099997, 8.415136062000045 ], [ -83.448626884999953, 8.433891073000041 ], [ -83.483208940999987, 8.442500126000027 ], [ -83.511126881999985, 8.443054002000054 ], [ -83.595563994999964, 8.468336002000058 ], [ -83.733472956999947, 8.587364224000055 ], [ -83.735835815999963, 8.612500043000068 ], [ -83.729035912999962, 8.635000088000027 ], [ -83.70625490599997, 8.676736099000038 ], [ -83.674181888999954, 8.688609065000037 ], [ -83.590572906999967, 8.841109076000066 ], [ -83.587508818999936, 8.875000129000057 ], [ -83.602508904999979, 8.967782097000054 ], [ -83.626464048999935, 9.036454024000022 ], [ -83.704999966999935, 9.118327114000067 ], [ -83.725845927999956, 9.138891107000063 ], [ -83.77057293699994, 9.181664127000033 ], [ -83.950072902999977, 9.311809100000062 ], [ -84.008899949999943, 9.337773218000052 ], [ -84.073626849999982, 9.359718047000058 ], [ -84.123063985999977, 9.37028209500005 ], [ -84.147781882999936, 9.376809083000069 ], [ -84.164735790999941, 9.401109058000031 ], [ -84.229445927999961, 9.46860902800006 ], [ -84.381390888999988, 9.504164223000032 ], [ -84.489526827999953, 9.52402698700007 ], [ -84.532581982999943, 9.519791108000049 ], [ -84.618617860999962, 9.579444945000034 ], [ -84.658617811999989, 9.633053922000045 ], [ -84.671399878999978, 9.661945001000049 ], [ -84.673481942999956, 9.692636010000058 ], [ -84.653764018999937, 9.725136002000056 ], [ -84.63709090499998, 9.738335990000053 ], [ -84.630908915999953, 9.765827124000054 ], [ -84.707508949999976, 9.918336021000073 ], [ -84.747572938999951, 9.96715406900006 ], [ -84.805554921999942, 9.967782041000021 ], [ -84.849817907999977, 9.967582049000043 ], [ -84.881672995999963, 10.003336063000063 ], [ -84.917508816999941, 10.028327042000058 ], [ -85.040554988999986, 10.130282166000029 ], [ -85.070017880999956, 10.155336010000042 ], [ -85.236254993999978, 10.207364159000065 ], [ -85.243346083999938, 10.18027317800005 ], [ -85.23854593599998, 10.107291108000027 ], [ -85.222990967999976, 10.085000107000042 ], [ -85.197635877999971, 10.078335991000074 ], [ -85.157790991999946, 10.045273071000054 ], [ -85.167281988999946, 10.020109089000073 ], [ -85.137163966999935, 9.994027121000045 ], [ -85.00639085399996, 9.937218101000042 ], [ -84.932235820999949, 9.892218010000022 ], [ -84.89722679099998, 9.807500103000052 ], [ -84.951126786999964, 9.730554064000046 ], [ -85.142226803999961, 9.58944505900007 ], [ -85.226790986999958, 9.727344968000068 ] ] ] }
        }
    ]
}