{
    "type": "FeatureCollection",
    "features": [
        {
            "type": "Feature",
            "properties": {
                "WCID": "CRO",
                "COUNTRY": "Croatia"
            },
            "geometry": { "type": "MultiPolygon", "coordinates": [ [ [ [ 17.578527137000037, 42.943827049000049 ], [ 17.518891237000048, 42.952773222000076 ], [ 17.480691216000025, 42.981245039000044 ], [ 17.47166323600004, 42.990553980000072 ], [ 17.470554142000026, 43.017773205000026 ], [ 17.45500018000007, 43.033336052000038 ], [ 17.326527062000025, 43.116391158000056 ], [ 17.251663255000039, 43.15416420400004 ], [ 17.222500267000044, 43.16138219700008 ], [ 17.177845175000073, 43.173882129000049 ], [ 17.131382273000042, 43.198882161000029 ], [ 17.068191273000025, 43.240973229000076 ], [ 17.045000223000045, 43.272500081000032 ], [ 16.940000122000072, 43.364718116000063 ], [ 16.881663249000042, 43.403609141000061 ], [ 16.860836064000068, 43.405273116000046 ], [ 16.838054051000029, 43.405273116000046 ], [ 16.813609236000048, 43.40694497100003 ], [ 16.764163215000053, 43.411382182000068 ], [ 16.736382235000065, 43.41610907300003 ], [ 16.637782220000076, 43.441109105000066 ], [ 16.618891254000062, 43.448882147000063 ], [ 16.499163311000075, 43.503054052000039 ], [ 16.469236061000061, 43.533536016000028 ], [ 16.430554080000036, 43.545691117000047 ], [ 16.35402713600007, 43.550827044000073 ], [ 16.310273266000024, 43.543054003000066 ], [ 16.190554040000052, 43.511664111000073 ], [ 16.170273187000078, 43.491936128000077 ], [ 16.102709180000033, 43.475827116000062 ], [ 16.03694510300005, 43.481800060000069 ], [ 15.988336099000037, 43.504436060000046 ], [ 15.918818103000035, 43.566936057000078 ], [ 15.925827218000052, 43.627736035000055 ], [ 15.965900259000023, 43.631800085000066 ], [ 15.940836189000038, 43.683609132000072 ], [ 15.782154021000053, 43.75624502800008 ], [ 15.688891266000041, 43.778882202000034 ], [ 15.59944512800007, 43.845273246000033 ], [ 15.533891268000048, 43.881945078000058 ], [ 15.526036084000054, 43.895036102000063 ], [ 15.490973242000052, 43.913054009000064 ], [ 15.457500111000058, 43.92263603300006 ], [ 15.405554105000022, 43.965273098000068 ], [ 15.281663205000029, 44.073053980000054 ], [ 15.232218190000026, 44.119164170000033 ], [ 15.151663239000072, 44.196391171000073 ], [ 15.117982238000025, 44.270764133000057 ], [ 15.145136083000068, 44.280064190000076 ], [ 15.203891213000077, 44.255000120000034 ], [ 15.291318152000031, 44.253400182000064 ], [ 15.280000235000045, 44.305827143000045 ], [ 15.321391247000065, 44.300500108000051 ], [ 15.341891203000046, 44.287491059000047 ], [ 15.385054149000041, 44.270164156000078 ], [ 15.414445125000043, 44.259991208000031 ], [ 15.522291217000031, 44.263253948000056 ], [ 15.503336046000072, 44.276109105000046 ], [ 15.478609096000071, 44.275554055000043 ], [ 15.448609091000037, 44.283191143000067 ], [ 15.270554166000068, 44.369164156000068 ], [ 15.181663244000049, 44.438609062000069 ], [ 15.140836167000032, 44.473053991000029 ], [ 15.095836076000069, 44.518054082000049 ], [ 15.013745057000051, 44.565482075000034 ], [ 14.990554007000071, 44.579436100000066 ], [ 14.97110916500003, 44.60166423700008 ], [ 14.92639120900003, 44.655000131000065 ], [ 14.894718176000026, 44.695273164000071 ], [ 14.887782151000067, 44.716245021000077 ], [ 14.878609164000068, 44.811382137000066 ], [ 14.880273307000039, 44.852082144000065 ], [ 14.894027172000051, 44.889444981000054 ], [ 14.909582140000055, 44.911518052000076 ], [ 14.91930011900007, 44.965973098000063 ], [ 14.831527175000076, 45.115418074000047 ], [ 14.800282290000041, 45.123053987000048 ], [ 14.752782212000056, 45.135691215000065 ], [ 14.724863266000057, 45.148609069000031 ], [ 14.674445113000047, 45.182218154000054 ], [ 14.585000147000073, 45.252218110000058 ], [ 14.482773282000039, 45.311100142000043 ], [ 14.44860914800006, 45.321245094000062 ], [ 14.32305410500004, 45.350964138000052 ], [ 14.286600202000045, 45.314991189000068 ], [ 14.253891166000074, 45.23194496800005 ], [ 14.248191137000049, 45.19715403500004 ], [ 14.239718206000077, 45.164164205000077 ], [ 14.230836071000056, 45.144164146000037 ], [ 14.216663278000055, 45.123327070000073 ], [ 14.160136059000024, 45.076873221000028 ], [ 14.155836142000055, 45.039445006000051 ], [ 14.167445078000071, 44.989054010000075 ], [ 14.144300129000044, 44.962153968000052 ], [ 14.087500162000026, 44.961391215000049 ], [ 13.994863200000054, 44.890554074000079 ], [ 13.975827060000029, 44.846935991000066 ], [ 13.975827060000029, 44.82402707600005 ], [ 13.994163311000023, 44.818053964000057 ], [ 13.996182176000048, 44.810691133000034 ], [ 13.904445096000074, 44.772564202000069 ], [ 13.816945067000063, 44.860135980000052 ], [ 13.839163313000029, 44.876382120000073 ], [ 13.756945057000053, 44.981382221000047 ], [ 13.681109117000062, 45.05138217700005 ], [ 13.603054152000027, 45.157773172000077 ], [ 13.595000149000043, 45.250691095000036 ], [ 13.57583610100005, 45.300282122000056 ], [ 13.533609246000026, 45.401664259000029 ], [ 13.504791257000022, 45.502009051000073 ], [ 13.555000198000073, 45.494436002000043 ], [ 13.591736069000035, 45.481700203000059 ], [ 13.601391183000032, 45.473191062000069 ], [ 13.640482200000065, 45.453745047000041 ], [ 13.673473203000071, 45.445691211000053 ], [ 13.703609163000067, 45.444164196000031 ], [ 13.90694508200005, 45.453327125000044 ], [ 13.952500223000072, 45.456664128000057 ], [ 13.988263289000031, 45.463400161000038 ], [ 14.137218091000022, 45.475273127000037 ], [ 14.392500185000074, 45.486109084000077 ], [ 14.413473215000067, 45.49166410600003 ], [ 14.496109226000044, 45.543682197000066 ], [ 14.535000251000042, 45.612218170000062 ], [ 14.570345060000022, 45.666382196000029 ], [ 14.609791135000023, 45.668436098000029 ], [ 14.609582258000046, 45.633045020000054 ], [ 14.620836136000037, 45.612082216000033 ], [ 14.723609166000074, 45.531391142000075 ], [ 14.826091176000034, 45.465445010000053 ], [ 14.863718210000059, 45.468654106000031 ], [ 14.912836163000065, 45.482491119000031 ], [ 14.979063256000074, 45.500473151000051 ], [ 15.092027171000041, 45.471518034000042 ], [ 15.156673270000056, 45.429291179000074 ], [ 15.174454137000055, 45.425818054000047 ], [ 15.27721811400005, 45.462773195000068 ], [ 15.303973149000058, 45.538627072000054 ], [ 15.294000193000045, 45.594536042000072 ], [ 15.30709121700005, 45.629864256000076 ], [ 15.352591205000067, 45.651754099000073 ], [ 15.356627092000053, 45.71200908600008 ], [ 15.288645163000069, 45.700544990000026 ], [ 15.294027183000026, 45.734300087000065 ], [ 15.31583605700007, 45.756664178000051 ], [ 15.333891179000034, 45.766391209000062 ], [ 15.499445167000033, 45.835827063000067 ], [ 15.611800220000077, 45.846736110000052 ], [ 15.629718215000025, 45.833191122000073 ], [ 15.652636182000037, 45.823391169000047 ], [ 15.696109091000039, 45.843054108000047 ], [ 15.724445120000041, 45.938609145000044 ], [ 15.711491224000042, 46.053191103000074 ], [ 15.663609099000041, 46.06798214500003 ], [ 15.632918090000032, 46.084582169000043 ], [ 15.606391211000073, 46.115827054000079 ], [ 15.600418099000024, 46.144300044000033 ], [ 15.611945060000039, 46.166936044000067 ], [ 15.659163338000042, 46.220900078000057 ], [ 15.685973191000073, 46.225964256000054 ], [ 15.797782247000043, 46.233327088000067 ], [ 16.017218126000046, 46.298045103000049 ], [ 16.080409127000053, 46.336036080000042 ], [ 16.075836128000049, 46.358191126000065 ], [ 16.07531812600007, 46.378418167000063 ], [ 16.137918203000027, 46.405964119000032 ], [ 16.266109186000051, 46.419445069000062 ], [ 16.252409133000072, 46.495564149000074 ], [ 16.267500247000044, 46.514445057000046 ], [ 16.292509164000023, 46.530818099000044 ], [ 16.335554092000052, 46.533882188000064 ], [ 16.384163264000051, 46.535827124000036 ], [ 16.463891256000068, 46.520964166000056 ], [ 16.495482146000029, 46.50569116500003 ], [ 16.517791252000052, 46.491645107000068 ], [ 16.56445414600006, 46.477091105000056 ], [ 16.591991212000039, 46.47400908000003 ], [ 16.607873242000039, 46.476235984000027 ], [ 16.628609233000077, 46.475000156000078 ], [ 16.661109224000029, 46.465554086000054 ], [ 16.801391271000057, 46.391391174000034 ], [ 16.840554037000061, 46.369991170000048 ], [ 16.874300250000033, 46.345336137000061 ], [ 16.879027140000062, 46.308573109000065 ], [ 16.880582151000056, 46.304509060000044 ], [ 16.891391118000058, 46.28374507400008 ], [ 16.919718095000064, 46.259991095000032 ], [ 16.937773218000075, 46.249454037000078 ], [ 16.973054157000036, 46.233609055000045 ], [ 17.040273165000031, 46.21416421300006 ], [ 17.152709188000074, 46.180273161000059 ], [ 17.182773231000056, 46.154582125000047 ], [ 17.234718232000034, 46.09041815300003 ], [ 17.254718123000032, 46.053327058000036 ], [ 17.257427154000027, 46.020964194000044 ], [ 17.311391188000073, 45.975273099000049 ], [ 17.354854039000031, 45.951664127000072 ], [ 17.38944514700006, 45.938045043000045 ], [ 17.427573252000059, 45.940291226000056 ], [ 17.458609092000074, 45.954436023000028 ], [ 17.582563191000077, 45.937564257000076 ], [ 17.626109190000022, 45.905827019000071 ], [ 17.644854143000032, 45.885273251000058 ], [ 17.652691223000033, 45.853136029000041 ], [ 17.660973213000034, 45.83874497100004 ], [ 17.880836066000029, 45.783882230000074 ], [ 18.006382224000049, 45.786944977000076 ], [ 18.153327213000068, 45.787218060000043 ], [ 18.195554068000035, 45.783882230000074 ], [ 18.225827155000047, 45.779718100000025 ], [ 18.248054119000074, 45.767291091000061 ], [ 18.332636072000071, 45.754436101000067 ], [ 18.407500213000048, 45.748327035000045 ], [ 18.433745126000076, 45.750973201000079 ], [ 18.55555412800004, 45.800000127000033 ], [ 18.598473161000072, 45.827918067000041 ], [ 18.618473220000055, 45.851391084000056 ], [ 18.719445146000055, 45.911518164000029 ], [ 18.780000206000068, 45.894718147000049 ], [ 18.807500224000023, 45.90277315600008 ], [ 18.817018211000061, 45.912964210000041 ], [ 18.832354076000058, 45.875509172000079 ], [ 18.889854100000036, 45.825764253000045 ], [ 18.916663282000059, 45.815691217000051 ], [ 18.956663233000029, 45.782500054000081 ], [ 18.966891166000039, 45.664073150000036 ], [ 18.936391264000065, 45.628054100000043 ], [ 18.910418093000033, 45.620173099000056 ], [ 18.902236182000024, 45.57313603800003 ], [ 18.929182157000071, 45.544845103000057 ], [ 18.948727079000037, 45.537936068000079 ], [ 18.969663229000048, 45.539991143000066 ], [ 19.007091277000029, 45.561136002000069 ], [ 19.097927135000077, 45.518864220000069 ], [ 19.096018073000039, 45.498009039000067 ], [ 19.056400169000028, 45.487018017000025 ], [ 19.025573206000047, 45.497073116000081 ], [ 19.001082290000056, 45.489691174000029 ], [ 18.981263280000064, 45.382218076000072 ], [ 19.112500247000071, 45.29804499200003 ], [ 19.138609205000023, 45.287500055000066 ], [ 19.19020015500007, 45.27033609700004 ], [ 19.260518120000029, 45.247427014000039 ], [ 19.285000151000077, 45.243409065000037 ], [ 19.320336075000057, 45.238364165000064 ], [ 19.350563230000034, 45.234582083000078 ], [ 19.388963243000035, 45.235744988000079 ], [ 19.409209227000076, 45.235273254000049 ], [ 19.425000230000023, 45.21791802100006 ], [ 19.418536106000033, 45.179991082000072 ], [ 19.352500120000059, 45.173336019000033 ], [ 19.248682202000055, 45.186664251000025 ], [ 19.212827103000052, 45.210000140000034 ], [ 19.187500176000071, 45.216945050000049 ], [ 19.167354104000026, 45.21430005600007 ], [ 19.104163271000061, 45.096664236000038 ], [ 19.115554110000062, 45.031945047000079 ], [ 19.040763226000024, 44.930764243000056 ], [ 19.009818078000023, 44.905482076000055 ], [ 19.028609131000053, 44.880273167000041 ], [ 19.039718170000071, 44.861382201000026 ], [ 19.029718225000067, 44.860273108000058 ], [ 18.962773305000042, 44.853327025000056 ], [ 18.846736081000074, 44.862773094000033 ], [ 18.79110924500003, 44.89735397700008 ], [ 18.768054150000069, 44.915836074000026 ], [ 18.769791215000055, 44.942145024000069 ], [ 18.797354098000028, 44.945136022000042 ], [ 18.795000125000058, 44.993609071000037 ], [ 18.634163304000026, 45.083327119000046 ], [ 18.419163296000022, 45.108891086000028 ], [ 18.260827133000078, 45.137773112000048 ], [ 18.217845069000077, 45.125900146000049 ], [ 18.215273166000031, 45.098536082000066 ], [ 18.201527180000028, 45.083327119000046 ], [ 18.173054022000031, 45.078191192000077 ], [ 18.117982236000046, 45.084436045000075 ], [ 18.070273281000027, 45.104436104000058 ], [ 17.933054150000032, 45.080273256000055 ], [ 17.912500214000033, 45.068053950000035 ], [ 17.860345163000034, 45.049373203000073 ], [ 17.832773228000065, 45.05554496600007 ], [ 17.758054093000055, 45.086664122000059 ], [ 17.690000247000057, 45.122773194000047 ], [ 17.596382267000024, 45.108891086000028 ], [ 17.519554078000056, 45.109509167000056 ], [ 17.485900234000042, 45.11756417600003 ], [ 17.282500109000068, 45.176382170000068 ], [ 17.237082264000037, 45.14874502400005 ], [ 17.182773231000056, 45.148327102000053 ], [ 17.071109181000054, 45.18832705300008 ], [ 17.042573159000028, 45.211800070000038 ], [ 16.913927206000039, 45.265944985000033 ], [ 16.844427147000033, 45.196336129000031 ], [ 16.818473254000025, 45.187491209000029 ], [ 16.682782144000043, 45.204991115000041 ], [ 16.662773200000061, 45.210273222000069 ], [ 16.629663341000025, 45.220809107000036 ], [ 16.595918134000044, 45.230191139000056 ], [ 16.531091153000034, 45.225527113000055 ], [ 16.505409170000064, 45.212091089000069 ], [ 16.476391188000036, 45.185827066000058 ], [ 16.417800176000071, 45.124264167000035 ], [ 16.366400167000052, 45.042018083000073 ], [ 16.352663233000044, 45.007382215000064 ], [ 16.291763342000024, 44.999118161000069 ], [ 16.255973286000028, 45.011664194000048 ], [ 16.215000196000062, 45.031382118000067 ], [ 16.197218156000076, 45.044444979000048 ], [ 16.112773164000032, 45.126244978000045 ], [ 16.022427144000062, 45.214373146000071 ], [ 15.930827191000049, 45.22832700400005 ], [ 15.882500155000059, 45.222500072000059 ], [ 15.828745165000043, 45.208609079000041 ], [ 15.806800169000041, 45.191800178000051 ], [ 15.785763269000029, 45.168953960000067 ], [ 15.765136075000044, 45.077918109000052 ], [ 15.765000121000071, 45.056391203000032 ], [ 15.769163245000072, 44.922773104000044 ], [ 15.74059118100007, 44.812244970000052 ], [ 15.763745182000036, 44.77999107100004 ], [ 15.863191267000047, 44.712145097000075 ], [ 15.942218197000045, 44.707845013000053 ], [ 15.961663207000072, 44.693882103000078 ], [ 16.010554010000021, 44.616945117000057 ], [ 16.033336191000046, 44.574164218000078 ], [ 16.074163268000063, 44.530545129000075 ], [ 16.115409105000026, 44.509164235000071 ], [ 16.129863194000052, 44.492353993000052 ], [ 16.198054167000066, 44.353609188000064 ], [ 16.191945101000044, 44.313891204000072 ], [ 16.14548220000006, 44.198673228000075 ], [ 16.166109225000071, 44.192491071000063 ], [ 16.206800180000073, 44.196382118000031 ], [ 16.243673178000051, 44.197527086000036 ], [ 16.27263617400007, 44.18319118200003 ], [ 16.305827170000043, 44.152909042000033 ], [ 16.323054160000027, 44.120064219000028 ], [ 16.346800260000066, 44.087500190000071 ], [ 16.430000204000066, 44.036036142000057 ], [ 16.463609121000047, 44.026664169000071 ], [ 16.510418195000057, 44.022500207000064 ], [ 16.533473290000074, 44.015691084000025 ], [ 16.646391273000063, 43.91221816500007 ], [ 16.699027110000031, 43.853336134000074 ], [ 16.709582273000024, 43.833745111000042 ], [ 16.829718080000077, 43.725554019000072 ], [ 16.93750013500005, 43.621664185000043 ], [ 16.955827167000052, 43.603335980000054 ], [ 16.976391160000048, 43.586109157000067 ], [ 17.053054059000033, 43.536245047000079 ], [ 17.071391148000032, 43.526382230000081 ], [ 17.106663203000039, 43.510273217000076 ], [ 17.160273185000051, 43.497773118000055 ], [ 17.223327058000052, 43.478054020000059 ], [ 17.254718123000032, 43.464027072000079 ], [ 17.270691181000075, 43.44534498400003 ], [ 17.257845076000024, 43.420064158000059 ], [ 17.278191140000047, 43.329018081000072 ], [ 17.287636204000023, 43.302082165000058 ], [ 17.303745049000042, 43.275691072000029 ], [ 17.434718153000063, 43.179445030000068 ], [ 17.565282221000075, 43.115000097000063 ], [ 17.589445069000078, 43.102218030000074 ], [ 17.636663347000024, 43.070418095000036 ], [ 17.654445052000028, 43.047218160000057 ], [ 17.667636156000071, 43.022909132000052 ], [ 17.67530023300003, 42.967518163000079 ], [ 17.578527137000037, 42.943827049000049 ] ] ], [ [ [ 17.649845063000043, 42.88907310500008 ], [ 17.686109200000033, 42.920273231000067 ], [ 17.70652718100007, 42.927082186000064 ], [ 17.744445067000072, 42.920273231000067 ], [ 17.797500167000067, 42.903882084000031 ], [ 17.845345077000047, 42.860835982000026 ], [ 17.879718088000061, 42.821382196000059 ], [ 17.960000125000022, 42.779164226000034 ], [ 17.990554173000078, 42.764718015000028 ], [ 18.160554090000062, 42.695000194000045 ], [ 18.226945134000061, 42.645554006000054 ], [ 18.274654089000023, 42.617145054000048 ], [ 18.307082163000075, 42.618191116000048 ], [ 18.340973215000076, 42.629027073000032 ], [ 18.362500122000029, 42.626664214000073 ], [ 18.404718092000053, 42.610409189000052 ], [ 18.455554167000059, 42.565827019000039 ], [ 18.453327096000066, 42.516800094000075 ], [ 18.457782245000033, 42.493609044000038 ], [ 18.472918118000052, 42.471527088000073 ], [ 18.498054105000051, 42.451109107000036 ], [ 18.503200258000049, 42.449436079000066 ], [ 18.522773175000054, 42.430136077000043 ], [ 18.516945070000077, 42.399991065000052 ], [ 18.357063284000048, 42.496564168000077 ], [ 18.214718116000029, 42.57943604500008 ], [ 18.057782234000058, 42.663609129000065 ], [ 17.877218102000029, 42.767773219000048 ], [ 17.742636085000072, 42.79708222000005 ], [ 17.552500154000029, 42.840827038000043 ], [ 17.439163244000042, 42.873882079000055 ], [ 17.365000165000026, 42.915273090000028 ], [ 17.203745088000062, 42.981945095000071 ], [ 17.180482289000054, 42.975482145000058 ], [ 17.145273266000061, 42.976664161000031 ], [ 17.071663225000066, 42.986382139000057 ], [ 17.012363271000027, 43.00624507100008 ], [ 17.010618159000046, 43.048045119000051 ], [ 17.26889125100007, 43.011936048000052 ], [ 17.298882204000051, 43.006945127000051 ], [ 17.438954032000026, 42.953954065000062 ], [ 17.522782284000073, 42.920273231000067 ], [ 17.657354075000057, 42.880827156000066 ], [ 17.649845063000043, 42.88907310500008 ] ] ], [ [ [ 14.733609112000067, 44.939991210000073 ], [ 14.721391147000077, 44.940273177000051 ], [ 14.69832716600007, 44.94777313600008 ], [ 14.640836195000077, 44.967773196000053 ], [ 14.483336043000065, 45.03541817200005 ], [ 14.463609234000046, 45.048045006000052 ], [ 14.436391183000069, 45.07000006100003 ], [ 14.42881813300005, 45.086245027000075 ], [ 14.539163207000058, 45.239436043000069 ], [ 14.554309138000065, 45.247636059000058 ], [ 14.589582198000073, 45.23832711700004 ], [ 14.657773172000077, 45.122773194000047 ], [ 14.704163318000042, 45.06832703300006 ], [ 14.792500196000049, 45.009164207000026 ], [ 14.806663265000054, 44.996382140000037 ], [ 14.814445024000065, 44.980409082000051 ], [ 14.805000128000074, 44.969445050000047 ], [ 14.75819122200005, 44.941936147000035 ], [ 14.733609112000067, 44.939991210000073 ] ] ], [ [ [ 16.687218182000038, 43.261664125000038 ], [ 16.628891200000055, 43.26193603400003 ], [ 16.577500243000031, 43.268609034000065 ], [ 16.519718084000033, 43.276382076000061 ], [ 16.487782195000023, 43.285273096000026 ], [ 16.414718151000045, 43.314718051000057 ], [ 16.405554048000056, 43.326036135000038 ], [ 16.432145133000063, 43.390482074000033 ], [ 16.601109214000076, 43.379164158000037 ], [ 16.700273164000066, 43.368609163000031 ], [ 16.753054008000049, 43.36278223100004 ], [ 16.776109104000057, 43.359445060000041 ], [ 16.807363209000073, 43.351391057000058 ], [ 16.884718117000034, 43.317218038000078 ], [ 16.887218104000056, 43.297773196000037 ], [ 16.847354108000047, 43.267918030000033 ], [ 16.826109168000073, 43.26749105600004 ], [ 16.79332720900004, 43.268609034000065 ], [ 16.716391229000067, 43.266109048000033 ], [ 16.706109148000053, 43.265273204000039 ], [ 16.687218182000038, 43.261664125000038 ] ] ], [ [ [ 14.488054049000027, 44.605827025000053 ], [ 14.483891261000053, 44.607773136000048 ], [ 14.451109134000035, 44.626391187000081 ], [ 14.389445149000039, 44.695000082000035 ], [ 14.331391249000035, 44.849718112000062 ], [ 14.341391195000028, 44.916109156000061 ], [ 14.362082258000044, 44.907364149000045 ], [ 14.39718214800007, 44.911591143000066 ], [ 14.392500185000074, 44.956109107000032 ], [ 14.353609160000076, 45.04513598300008 ], [ 14.34110922800005, 45.056664117000025 ], [ 14.317500256000073, 45.065973227000029 ], [ 14.308054019000053, 45.073054091000074 ], [ 14.275273234000053, 45.103336063000029 ], [ 14.274791274000052, 45.121873145000052 ], [ 14.308745023000029, 45.170136144000026 ], [ 14.31763604300005, 45.175409031000072 ], [ 14.353054110000073, 45.166800146000071 ], [ 14.363609106000069, 45.160553952000043 ], [ 14.366391227000065, 45.146591210000054 ], [ 14.35805408300007, 45.136109137000062 ], [ 14.353891127000054, 45.119164114000057 ], [ 14.358891268000036, 45.101109159000032 ], [ 14.376945049000028, 45.052500155000075 ], [ 14.410000258000025, 45.004718110000056 ], [ 14.418891278000046, 44.993044969000039 ], [ 14.426391237000075, 44.984718051000073 ], [ 14.459445105000043, 44.827500202000067 ], [ 14.470554144000062, 44.740554049000025 ], [ 14.506391139000073, 44.67082700800006 ], [ 14.530136064000033, 44.633682101000034 ], [ 14.516800121000074, 44.614027041000043 ], [ 14.493327104000059, 44.606382075000056 ], [ 14.488054049000027, 44.605827025000053 ] ] ], [ [ [ 14.745282253000028, 44.694445032000033 ], [ 14.873891158000049, 44.608054097000036 ], [ 14.909163213000056, 44.607773136000048 ], [ 14.928609228000028, 44.598327066000081 ], [ 14.960282261000032, 44.579164191000075 ], [ 15.042636136000056, 44.522845010000026 ], [ 15.07333619800005, 44.480000074000031 ], [ 15.058473239000023, 44.481664217000059 ], [ 15.010827149000022, 44.514164208000068 ], [ 14.97627325600007, 44.519164181000065 ], [ 15.007945115000041, 44.489991135000025 ], [ 15.042445029000078, 44.464491206000048 ], [ 15.036945159000027, 44.482082138000067 ], [ 15.050073231000056, 44.476109027000064 ], [ 15.085282254000049, 44.458609121000052 ], [ 15.116945061000024, 44.439436021000063 ], [ 15.240554161000034, 44.350273190000053 ], [ 15.250073153000073, 44.335482149000029 ], [ 15.219163209000044, 44.305827143000045 ], [ 15.171527176000041, 44.295827029000066 ], [ 15.140273239000066, 44.303891091000025 ], [ 15.128891117000023, 44.309864203000075 ], [ 15.10971818400003, 44.32360918300003 ], [ 15.100136160000034, 44.334718054000064 ], [ 15.02366319500004, 44.422391085000072 ], [ 15.012663289000045, 44.441882195000062 ], [ 14.917836135000073, 44.50489114100003 ], [ 14.744718151000029, 44.675554066000075 ], [ 14.736663309000051, 44.687773205000042 ], [ 14.735209217000033, 44.697773151000035 ], [ 14.745282253000028, 44.694445032000033 ] ] ], [ [ [ 17.057782290000034, 43.112500111000031 ], [ 16.879718144000037, 43.120554114000072 ], [ 16.666109197000026, 43.119164226000066 ], [ 16.654163309000069, 43.119718103000025 ], [ 16.533882160000076, 43.143609041000047 ], [ 16.464718215000062, 43.160273103000065 ], [ 16.430554080000036, 43.169445084000074 ], [ 16.377773236000053, 43.195344998000053 ], [ 16.457218088000047, 43.210273167000025 ], [ 16.475827086000038, 43.211936137000066 ], [ 16.565282278000041, 43.218045036000035 ], [ 16.613327179000066, 43.213882080000076 ], [ 16.662218150000058, 43.200273222000078 ], [ 16.811109249000026, 43.16138219700008 ], [ 16.961391242000047, 43.149164232000032 ], [ 17.116391240000041, 43.136109082000075 ], [ 17.110000206000052, 43.116391158000056 ], [ 17.057782290000034, 43.112500111000031 ] ] ], [ [ [ 16.866109119000043, 42.897773185000062 ], [ 16.831663352000078, 42.903882084000031 ], [ 16.723609221000061, 42.919445099000029 ], [ 16.672218096000051, 42.926109047000068 ], [ 16.633891173000052, 42.982353964000026 ], [ 16.643327184000043, 42.986664107000081 ], [ 16.68610908900007, 42.99082706300004 ], [ 16.721109234000039, 42.984991079000054 ], [ 16.733609167000054, 42.980000158000053 ], [ 16.756945056000063, 42.972773114000063 ], [ 16.772218224000028, 42.969164201000069 ], [ 16.820554145000074, 42.960000099000069 ], [ 16.863327165000044, 42.956109052000045 ], [ 16.873609246000058, 42.956936010000049 ], [ 16.896382206000055, 42.961935983000046 ], [ 16.911391177000041, 42.968891119000034 ], [ 16.940554166000027, 42.973327157000028 ], [ 16.965554030000078, 42.976391078000063 ], [ 17.01971822400003, 42.976664161000031 ], [ 17.044718088000025, 42.975273100000038 ], [ 17.135827197000026, 42.961935983000046 ], [ 17.183609242000045, 42.918609088000039 ], [ 17.134445189000076, 42.91166417800008 ], [ 17.12389119900007, 42.911382211000046 ], [ 16.94110921500004, 42.911382211000046 ], [ 16.866109119000043, 42.897773185000062 ] ] ], [ [ [ 17.740000144000078, 42.69166419700008 ], [ 17.727500211000063, 42.698327139000071 ], [ 17.699718226000073, 42.705554016000065 ], [ 17.689445030000059, 42.707773209000038 ], [ 17.634718075000023, 42.718327031000058 ], [ 17.611382186000071, 42.72055410300004 ], [ 17.548609107000061, 42.728336029000047 ], [ 17.372500124000055, 42.757218056000056 ], [ 17.358609131000037, 42.761664153000027 ], [ 17.331663324000033, 42.774864142000069 ], [ 17.323473199000034, 42.789027043000033 ], [ 17.363054055000077, 42.802218147000076 ], [ 17.378054141000064, 42.801936013000045 ], [ 17.399436041000058, 42.797773224000025 ], [ 17.664863255000057, 42.735973117000071 ], [ 17.730554074000054, 42.710000113000035 ], [ 17.740273226000056, 42.703044977000047 ], [ 17.74555416000004, 42.693054084000039 ], [ 17.740000144000078, 42.69166419700008 ] ] ], [ [ [ 15.19416334400006, 43.871109121000075 ], [ 15.184300191000034, 43.873609108000039 ], [ 15.148336126000061, 43.890000087000033 ], [ 15.137500170000067, 43.896382236000079 ], [ 15.108054041000059, 43.920000092000066 ], [ 15.099718070000051, 43.927500051000038 ], [ 15.071663338000064, 43.957500056000072 ], [ 15.057218133000049, 43.973882151000055 ], [ 15.047218187000055, 43.988882237000041 ], [ 15.036109148000037, 44.003609073000064 ], [ 15.028891156000043, 44.01193599100003 ], [ 14.989445081000042, 44.055545022000047 ], [ 14.974582291000047, 44.067636085000061 ], [ 14.916945139000063, 44.10916422400004 ], [ 14.881945161000033, 44.130273209000052 ], [ 14.871391172000074, 44.142773142000067 ], [ 14.860000165000031, 44.156945096000072 ], [ 14.854236098000058, 44.172564270000066 ], [ 14.992500117000077, 44.083609143000047 ], [ 15.036663192000049, 44.026936078000062 ], [ 15.050282276000075, 44.013882102000025 ], [ 15.084027148000075, 43.985691079000048 ], [ 15.143054019000033, 43.951664240000071 ], [ 15.219582136000042, 43.909718011000052 ], [ 15.225136153000051, 43.899582111000029 ], [ 15.21721810400004, 43.890827045000037 ], [ 15.19416334400006, 43.871109121000075 ] ] ], [ [ [ 16.093327148000071, 43.009991111000033 ], [ 16.064445121000062, 43.010554039000056 ], [ 16.050554129000034, 43.063045038000041 ], [ 16.066109097000037, 43.070273088000079 ], [ 16.085000230000048, 43.077500133000058 ], [ 16.103609229000028, 43.081109045000062 ], [ 16.113891142000057, 43.08221813800003 ], [ 16.139718133000031, 43.082500106000055 ], [ 16.185000191000029, 43.081664262000061 ], [ 16.230554159000064, 43.078327091000062 ], [ 16.252118113000051, 43.06460910100003 ], [ 16.209863263000045, 43.023464182000055 ], [ 16.093327148000071, 43.009991111000033 ] ] ], [ [ [ 14.516663329000039, 44.473327073000064 ], [ 14.511109144000045, 44.474164257000041 ], [ 14.367500153000037, 44.590273230000037 ], [ 14.347773176000032, 44.655273213000044 ], [ 14.33805402400003, 44.706736087000081 ], [ 14.382773154000063, 44.696945019000054 ], [ 14.391945135000071, 44.689854096000033 ], [ 14.395418093000046, 44.67721804200005 ], [ 14.393891245000077, 44.659436002000064 ], [ 14.395418093000046, 44.626527141000054 ], [ 14.40721813600004, 44.603882088000034 ], [ 14.416109156000061, 44.592218167000055 ], [ 14.426391237000075, 44.58166417800004 ], [ 14.476663210000027, 44.53582706900005 ], [ 14.489718192000055, 44.526664140000037 ], [ 14.504163229000028, 44.522500179000076 ], [ 14.51583620200006, 44.51250006500004 ], [ 14.533473235000031, 44.491100060000065 ], [ 14.525973276000059, 44.475691105000067 ], [ 14.516663329000039, 44.473327073000064 ] ] ] ] }
        }
    ]
}