{
    "type": "FeatureCollection",
    "features": [
        {
            "type": "Feature",
            "properties": {
                "WCID": "CUB",
                "COUNTRY": "Cuba"
            },
            "geometry": { "type": "MultiPolygon", "coordinates": [ [ [ [ -78.647245918999943, 21.534454069000049 ], [ -78.699454949999961, 21.606527037000035 ], [ -78.740281858999936, 21.634718059000022 ], [ -78.758135815999935, 21.640273082000078 ], [ -78.851254904999962, 21.620973079000066 ], [ -78.866390944999978, 21.611109088000035 ], [ -78.897782010999947, 21.592500089000055 ], [ -78.911954970999943, 21.592218122000077 ], [ -78.966017911999984, 21.596373199000027 ], [ -79.024172896999971, 21.583327102000055 ], [ -79.130145969999944, 21.557082190000074 ], [ -79.144181969999977, 21.553054015000043 ], [ -79.173063995999939, 21.54666415500003 ], [ -79.196946049999951, 21.541944975000035 ], [ -79.209726775999968, 21.540273121000041 ], [ -79.231946027999982, 21.541109132000031 ], [ -79.245835847999956, 21.54221805800006 ], [ -79.265017832999945, 21.54582713800005 ], [ -79.462508882999941, 21.594445026000074 ], [ -79.480708844999981, 21.602773117000027 ], [ -79.646390907999944, 21.686109017000035 ], [ -79.668335903999946, 21.69360914400005 ], [ -79.777790986999946, 21.705554026000073 ], [ -79.890017797999974, 21.746945038000035 ], [ -79.987790854999957, 21.723609149000026 ], [ -80.047226929999965, 21.78832699700007 ], [ -80.101090883999973, 21.822682071000031 ], [ -80.171672878999971, 21.839445039000054 ], [ -80.189182004999964, 21.84416421800006 ], [ -80.19944598, 21.848609142000043 ], [ -80.245281914999964, 21.875553943000057 ], [ -80.281108851999988, 21.89778208000007 ], [ -80.294172885999956, 21.906391132000067 ], [ -80.366954962999955, 21.97055393100004 ], [ -80.381390946999943, 21.985554017000027 ], [ -80.402235901999973, 22.007500187000062 ], [ -80.427226881999957, 22.039164167000024 ], [ -80.433064038999987, 22.06194500600003 ], [ -80.41084596099995, 22.06471807500003 ], [ -80.392990997999959, 22.073891063000076 ], [ -80.396663947999969, 22.104444944000022 ], [ -80.454035895999937, 22.122226984000065 ], [ -80.453199884999947, 22.163609110000039 ], [ -80.491954955999972, 22.177218136000079 ], [ -80.532717827999988, 22.176600054000062 ], [ -80.540008909999983, 22.160826989000043 ], [ -80.55593586699996, 22.06282711800003 ], [ -80.591126784999972, 22.050554 ], [ -80.628063987999951, 22.054164086000071 ], [ -80.753617856999938, 22.06013602400003 ], [ -80.811808884999948, 22.057636038000055 ], [ -80.823626865999984, 22.05166409900005 ], [ -80.839735877999942, 22.045827110000062 ], [ -80.876955047999957, 22.040000178000071 ], [ -80.89110889799997, 22.03971804300005 ], [ -80.905290909999962, 22.04055405400004 ], [ -81.00944594799995, 22.056391157000064 ], [ -81.02111791599998, 22.059445020000055 ], [ -81.088763897999968, 22.084164091000048 ], [ -81.104445935999934, 22.093609155000024 ], [ -81.11168186499998, 22.100826979000033 ], [ -81.117508964999956, 22.109164123000028 ], [ -81.12583588199999, 22.128609132000065 ], [ -81.134173025999985, 22.148053974000049 ], [ -81.196399939999935, 22.109717999000054 ], [ -81.205564042999981, 22.094718080000064 ], [ -81.323899919999974, 22.084164091000048 ], [ -81.34861781699999, 22.084854089000032 ], [ -81.387364002999959, 22.117773176000071 ], [ -81.388063891999934, 22.13110911900003 ], [ -81.38285504199996, 22.148818069000072 ], [ -81.390290962999984, 22.165554047000057 ], [ -81.396663891999935, 22.173335974000054 ], [ -81.406399974999943, 22.178336114000047 ], [ -81.622217889999945, 22.207218141000055 ], [ -81.649317923999945, 22.208609034000062 ], [ -81.660281955999949, 22.194718041000044 ], [ -81.761817816999951, 22.17166411900007 ], [ -81.823064047999935, 22.183609170000068 ], [ -81.840563952999958, 22.195000176000065 ], [ -82.006954957999938, 22.303336107000064 ], [ -82.099454958999956, 22.343054091000056 ], [ -82.137790934999941, 22.366945030000068 ], [ -82.150281981999967, 22.376109132000067 ], [ -82.156681899999967, 22.383891058000074 ], [ -82.162655011999959, 22.395273180000061 ], [ -82.159181886999988, 22.408609123000076 ], [ -82.144726791999972, 22.423053992000064 ], [ -82.121390902999963, 22.432218095000053 ], [ -82.099163939999983, 22.430553952000025 ], [ -82.058063947999983, 22.427773172000059 ], [ -81.979873028999975, 22.426935987000036 ], [ -81.841126881999969, 22.431109169000024 ], [ -81.795008811999935, 22.43638205700006 ], [ -81.700972910999951, 22.454853927000045 ], [ -81.648899833999963, 22.491391146000069 ], [ -81.644035815999985, 22.573327100000029 ], [ -81.650126944999954, 22.57740003400005 ], [ -81.741117868999936, 22.632500151000045 ], [ -81.755008861999954, 22.640273193000041 ], [ -81.787226885999985, 22.655836040000054 ], [ -81.812790851999978, 22.66360908200005 ], [ -81.83667290599999, 22.669445066000037 ], [ -81.885008826999979, 22.680827020000038 ], [ -81.961117849999937, 22.675827047000041 ], [ -82.176681959999939, 22.677773157000047 ], [ -82.40055505, 22.686109128000055 ], [ -82.62472687199994, 22.682782183000029 ], [ -82.673063966999962, 22.688054065000074 ], [ -82.702790888999971, 22.695554024000046 ], [ -82.718063889999939, 22.698745015000043 ], [ -82.760563994999984, 22.700835964000078 ], [ -82.777499965999937, 22.695827106000024 ], [ -82.788481935999982, 22.685273117000065 ], [ -82.791399843999955, 22.674027117000037 ], [ -82.78779093199995, 22.66082712900004 ], [ -82.798681873999953, 22.61965404700004 ], [ -82.82333590099995, 22.607382102000031 ], [ -82.849163896999983, 22.599718025000072 ], [ -82.859726938999984, 22.595554063000066 ], [ -83.026672992999977, 22.512217996000061 ], [ -83.035572897999941, 22.506945109000071 ], [ -83.075146042999961, 22.478054030000067 ], [ -83.105008919999989, 22.436800146000053 ], [ -83.108335864999958, 22.416945094000027 ], [ -83.136264030999939, 22.363191110000059 ], [ -83.142235801999959, 22.354864192000036 ], [ -83.168890923999982, 22.331391175000078 ], [ -83.190145921999942, 22.327353948000052 ], [ -83.204181921999975, 22.333053977000077 ], [ -83.254308887999969, 22.348054064000053 ], [ -83.34361789899998, 22.232773223000038 ], [ -83.368064054999934, 22.201664124000047 ], [ -83.411955052999986, 22.189164192000078 ], [ -83.479455021999968, 22.174445067000022 ], [ -83.493899890999955, 22.177773186000024 ], [ -83.543335853999963, 22.194718041000044 ], [ -83.589446043999942, 22.213053957000056 ], [ -83.667235804999962, 22.175000117000025 ], [ -83.748335915999974, 22.170827102000032 ], [ -83.813608812999973, 22.168609083000035 ], [ -83.847782, 22.170273226000063 ], [ -83.875563985999975, 22.171109070000057 ], [ -83.908199931999945, 22.17069114800006 ], [ -83.929035834999979, 22.162500185000056 ], [ -83.943345922999981, 22.150836096000035 ], [ -83.954726870999934, 22.140554015000077 ], [ -83.967372983999951, 22.128191043000072 ], [ -84.006672877999961, 22.053954035000061 ], [ -83.994172945999935, 22.027773161000027 ], [ -83.990846000999966, 21.947218042000031 ], [ -84.00222678099999, 21.934164233000047 ], [ -84.028764053999964, 21.914027046000058 ], [ -84.041263986999979, 21.914164174000064 ], [ -84.065845928999977, 21.929164093000054 ], [ -84.081681858999957, 21.935273159000076 ], [ -84.107508849999988, 21.93971808200007 ], [ -84.125282004999974, 21.939027078000038 ], [ -84.229445927999961, 21.909164201000067 ], [ -84.240008969999963, 21.905282207000027 ], [ -84.271663897999986, 21.893609065000078 ], [ -84.281399980999936, 21.888882175000049 ], [ -84.306117877999952, 21.876664210000058 ], [ -84.328335788999937, 21.86278210200004 ], [ -84.38278195, 21.823054060000061 ], [ -84.40223584499995, 21.806664086000069 ], [ -84.432372977999989, 21.784027080000044 ], [ -84.45194606299998, 21.775273188000028 ], [ -84.48749991699998, 21.766936044000033 ], [ -84.501108941999973, 21.765554036000026 ], [ -84.515835778999985, 21.765827119000051 ], [ -84.528126833999977, 21.775273188000028 ], [ -84.494172916999958, 21.843327034000026 ], [ -84.475281951999989, 21.860554024000066 ], [ -84.470835854999962, 21.870282061000069 ], [ -84.46959097499996, 21.892773222000073 ], [ -84.475563918999967, 21.914718050000033 ], [ -84.48639987599995, 21.928891178000072 ], [ -84.498481885999979, 21.934718109000073 ], [ -84.564181925999947, 21.933891151000068 ], [ -84.601964024999972, 21.927773200000047 ], [ -84.613890969999943, 21.925000131000047 ], [ -84.648899832999973, 21.916109111000026 ], [ -84.700290957999982, 21.89500012600007 ], [ -84.736681995999959, 21.873609006000038 ], [ -84.747363893999989, 21.866391182000029 ], [ -84.75611795399999, 21.854027036000048 ], [ -84.765017857999965, 21.844718094000029 ], [ -84.805008923999935, 21.820000030000074 ], [ -84.815563919999988, 21.815827015000025 ], [ -84.864726799999971, 21.821800127000074 ], [ -84.911117951999984, 21.830554019000033 ], [ -84.927508930999977, 21.836109042000032 ], [ -84.936955000999944, 21.840827047000062 ], [ -84.945281917999978, 21.846944998000026 ], [ -84.951126786999964, 21.855273090000026 ], [ -84.951535823999961, 21.856164086000035 ], [ -84.952926884999954, 21.863191139000037 ], [ -84.938063925999984, 21.904582150000067 ], [ -84.924381977999985, 21.914644960000032 ], [ -84.905835843999967, 21.890273068000056 ], [ -84.894308882999951, 21.883891087000052 ], [ -84.818072958999949, 21.907500058000039 ], [ -84.546954934999974, 22.02750007800006 ], [ -84.533335850999947, 22.035826996000026 ], [ -84.514172976999987, 22.045273233000046 ], [ -84.493899834999979, 22.04610907700004 ], [ -84.371881955999982, 22.04145393500005 ], [ -84.358899895999969, 22.034444988000075 ], [ -84.348346073999949, 22.023327064000057 ], [ -84.338054940999939, 22.012218025000038 ], [ -84.320846055999937, 22.079164118000051 ], [ -84.411117811999986, 22.155282192000072 ], [ -84.439999838999938, 22.203609061000066 ], [ -84.400554937999971, 22.332773184000075 ], [ -84.390835785999968, 22.351391067000066 ], [ -84.299454935999961, 22.459164237000039 ], [ -84.200563900999953, 22.553053958000078 ], [ -84.069935794999935, 22.661527017000026 ], [ -84.023054971999954, 22.677500075000069 ], [ -83.843335903999957, 22.752218037000034 ], [ -83.692508919999966, 22.80193596600003 ], [ -83.442508933999989, 22.900273125000069 ], [ -83.229172901999959, 22.998882193000043 ], [ -83.216946051999969, 23.001391064000074 ], [ -83.053890876999958, 23.018327035000027 ], [ -82.99999993299997, 23.015227072000073 ], [ -83.008054941999944, 22.979853931000036 ], [ -82.972635868999987, 22.96736422500004 ], [ -82.944764029999988, 22.978727068000069 ], [ -82.927646003999939, 23.017082154000036 ], [ -82.9175089299999, 23.024718068000027 ], [ -82.900281939999957, 23.029444959000045 ], [ -82.858335878999981, 23.030282143000022 ], [ -82.80750885599997, 23.031109102000073 ], [ -82.768617830999972, 23.03055405200007 ], [ -82.748335803999964, 23.028054066000038 ], [ -82.726672942999983, 23.028609115000052 ], [ -82.695008962999964, 23.032218027000056 ], [ -82.590008860999944, 23.048609007000039 ], [ -82.556117808999943, 23.058326985000065 ], [ -82.54556398699998, 23.062500167000053 ], [ -82.535335885999984, 23.07023599300004 ], [ -82.53333579599996, 23.071945064000033 ], [ -82.496673016999978, 23.092782140000054 ], [ -82.407154960999947, 23.14270911400007 ], [ -82.331117855999935, 23.16666409000004 ], [ -82.265563995999969, 23.181391094000048 ], [ -82.234172930999989, 23.186382182000045 ], [ -82.220563904999949, 23.18750016000007 ], [ -82.206390944999953, 23.186664149000023 ], [ -82.172499892999951, 23.181944970000075 ], [ -82.095854931999952, 23.184464235000064 ], [ -82.082782012999985, 23.18721802500005 ], [ -82.04529093299999, 23.193335977000061 ], [ -82.028208949999964, 23.194026981000036 ], [ -82.005008846999942, 23.188191164000045 ], [ -81.99667287699998, 23.179444984000042 ], [ -81.983335927999974, 23.170827046000056 ], [ -81.963899970999989, 23.164300058000038 ], [ -81.934172880999938, 23.160273224000036 ], [ -81.848890870999981, 23.153327141000034 ], [ -81.783617805999938, 23.151391089000072 ], [ -81.771664037999983, 23.153891075000047 ], [ -81.703472896999983, 23.159445092000055 ], [ -81.677472903999956, 23.152009171000032 ], [ -81.647226806999981, 23.156945106000023 ], [ -81.626955005999946, 23.158609081000066 ], [ -81.585426866999967, 23.156382177000069 ], [ -81.573617937999984, 23.152354002000038 ], [ -81.553345969999953, 23.140553959000044 ], [ -81.536390888999961, 23.123054054000079 ], [ -81.527926842999989, 23.106244985000046 ], [ -81.527790888999959, 23.093473144000029 ], [ -81.53139996799996, 23.079435970000077 ], [ -81.500835860999985, 23.05555408400005 ], [ -81.386946080999962, 23.112218097000039 ], [ -81.299999928999966, 23.141391143000078 ], [ -81.226964046999967, 23.161664117000043 ], [ -81.255008889999942, 23.146382064000022 ], [ -81.279445992999968, 23.131245017000026 ], [ -81.285572996999974, 23.119718056000067 ], [ -81.173899894999977, 23.031391069000051 ], [ -81.131399956999985, 23.023327008000024 ], [ -81.120845967999969, 23.027218055000048 ], [ -81.103346062999947, 23.049164224000037 ], [ -80.982790992999981, 23.076664243000039 ], [ -80.744172960999947, 23.095000159000051 ], [ -80.633054908999952, 23.098327104000077 ], [ -80.621399871999984, 23.09166416100004 ], [ -80.59605500899994, 23.067218005000029 ], [ -80.587435896999978, 23.045827053000039 ], [ -80.541955019999989, 22.990000057000032 ], [ -80.438608835999958, 22.951664250000078 ], [ -80.411390951999977, 22.941945098000076 ], [ -80.400281912999958, 22.93832713300003 ], [ -80.278626801999962, 22.905282150000062 ], [ -80.249454928999967, 22.903609122000034 ], [ -80.231399974999988, 22.907218035000028 ], [ -80.170008903999985, 22.930273130000046 ], [ -80.037646079999945, 22.951244987000052 ], [ -80.015563955999937, 22.938891067000043 ], [ -80.008345962999954, 22.931664190000049 ], [ -79.998899893999976, 22.908054046000075 ], [ -79.989181914999961, 22.882773220000047 ], [ -79.981945985999971, 22.875827137000044 ], [ -79.973072902999945, 22.870000037000068 ], [ -79.854446005999989, 22.803609161000054 ], [ -79.724726833999966, 22.769445027000074 ], [ -79.676681932999941, 22.758891037000069 ], [ -79.633899860999975, 22.690554051000049 ], [ -79.602508962999934, 22.644718116000035 ], [ -79.548063974999934, 22.571945092000078 ], [ -79.538890987999935, 22.560000041000023 ], [ -79.524445950999961, 22.545553999000049 ], [ -79.506672963999961, 22.530836047000037 ], [ -79.49139091, 22.52860914300004 ], [ -79.421108819999972, 22.476109093000048 ], [ -79.390717882999979, 22.451709037000057 ], [ -79.351390998999989, 22.415836 ], [ -79.335845920999986, 22.406944980000048 ], [ -79.259035835999953, 22.37263600600005 ], [ -79.159590924999975, 22.372218085000043 ], [ -79.085554914999989, 22.380273094000074 ], [ -79.067226877999985, 22.383054042000026 ], [ -79.055554909999955, 22.386109078000061 ], [ -79.03695496399996, 22.39305398700003 ], [ -79.016399854999975, 22.401109164000047 ], [ -79.00334604699998, 22.402773139000033 ], [ -78.976964006999935, 22.401945007000052 ], [ -78.932499853999957, 22.391800055000033 ], [ -78.925563996999983, 22.395273180000061 ], [ -78.888626793999947, 22.404164200000025 ], [ -78.790555005999977, 22.395000098000025 ], [ -78.573335804999942, 22.321945106000044 ], [ -78.409999836999987, 22.243609012000036 ], [ -78.352508865999937, 22.198609088000069 ], [ -78.34222678499998, 22.186036066000042 ], [ -78.309726792999982, 22.165554047000057 ], [ -78.121672927999953, 22.092500061000067 ], [ -78.110563888999934, 22.088609014000042 ], [ -78.084017897999956, 22.083100092000052 ], [ -78.066390922999972, 22.082773198000041 ], [ -78.055554966999978, 22.078891203000069 ], [ -78.01556390099995, 22.02750007800006 ], [ -77.952517906999958, 21.948891070000059 ], [ -77.900281885999959, 21.888882175000049 ], [ -77.864181866999957, 21.898891173000038 ], [ -77.756117844999949, 21.804445061000024 ], [ -77.746946030999936, 21.799445088000027 ], [ -77.659590841999943, 21.779791202000069 ], [ -77.577517927999963, 21.780000079000047 ], [ -77.498008870999968, 21.778709098000036 ], [ -77.45528195199995, 21.775827064000055 ], [ -77.429454960999976, 21.748609013000078 ], [ -77.428826820999973, 21.73639104800003 ], [ -77.449863888999971, 21.750345073000062 ], [ -77.45722688799998, 21.741391189000069 ], [ -77.45722688799998, 21.728336039000055 ], [ -77.454999983999983, 21.710282090000078 ], [ -77.43945490699997, 21.671664147000058 ], [ -77.430563886999948, 21.656109012000059 ], [ -77.405008972999951, 21.648054003000027 ], [ -77.360290847999977, 21.635554070000069 ], [ -77.340490948999957, 21.637291136000044 ], [ -77.334726881999984, 21.652773182000033 ], [ -77.339582014999962, 21.665000032000023 ], [ -77.409726810999985, 21.757773115000077 ], [ -77.446254976999967, 21.800691142000062 ], [ -77.458890863999954, 21.80639117100003 ], [ -77.499426920999952, 21.815118074000054 ], [ -77.512726821999934, 21.816891182000063 ], [ -77.529563885999949, 21.826391063000074 ], [ -77.568073031999972, 21.847218081000051 ], [ -77.610690985999952, 21.885827139000071 ], [ -77.599308864999955, 21.908609152000054 ], [ -77.572363895999956, 21.92458220900005 ], [ -77.560981941999955, 21.926109057000076 ], [ -77.543063946999951, 21.918609097000058 ], [ -77.529172953999989, 21.910273127000039 ], [ -77.5213908599999, 21.903609011000071 ], [ -77.515835837999987, 21.882218059000024 ], [ -77.511945963999949, 21.872218113000031 ], [ -77.507235836999939, 21.863054011000031 ], [ -77.498899866999977, 21.850273117000029 ], [ -77.491117939999981, 21.843609169000047 ], [ -77.4652909499999, 21.826109096000039 ], [ -77.229172903999938, 21.686664234000034 ], [ -77.171672880999949, 21.656391146000033 ], [ -77.156954928999937, 21.653609025000037 ], [ -77.140017952999983, 21.652773182000033 ], [ -77.137099876999969, 21.607482071000049 ], [ -77.140399831999957, 21.596273119000045 ], [ -77.157981879999966, 21.577191046000053 ], [ -77.166808861999982, 21.582027069000048 ], [ -77.181946076999964, 21.576944953000066 ], [ -77.189726829999984, 21.583609069000033 ], [ -77.215835787999936, 21.594445026000074 ], [ -77.264455016999989, 21.612500148000038 ], [ -77.277235910999934, 21.613891042000034 ], [ -77.346390970999948, 21.621109034000028 ], [ -77.364308964999964, 21.614100086000064 ], [ -77.265835851999952, 21.480826987000057 ], [ -77.256255000999943, 21.472500069000034 ], [ -77.208963967999978, 21.455409033000024 ], [ -77.153481971999952, 21.486036005000074 ], [ -77.131955064999943, 21.520000147000076 ], [ -77.124117817999945, 21.544745034000073 ], [ -77.101955059999966, 21.575327078000043 ], [ -77.09028191799996, 21.575082159000033 ], [ -77.061954940999954, 21.585000130000026 ], [ -77.044445983999935, 21.566945008000062 ], [ -76.988617814999941, 21.508891108000057 ], [ -76.969726848999983, 21.485273084000028 ], [ -76.946072949999973, 21.452209158000073 ], [ -76.883899847999942, 21.419718051000075 ], [ -76.884590851999974, 21.354864249000059 ], [ -76.902235763999954, 21.340553993000071 ], [ -76.898608914999954, 21.309309108000036 ], [ -76.875835786999971, 21.301945103000037 ], [ -76.835672891999934, 21.336891101000049 ], [ -76.798826882999947, 21.383609148000062 ], [ -76.661255040999947, 21.353891110000063 ], [ -76.574581970999986, 21.282745013000067 ], [ -76.574781963999953, 21.264664242000038 ], [ -76.582408824999959, 21.252826983000034 ], [ -76.593445946999964, 21.250664116000053 ], [ -76.588063926999951, 21.229164199000024 ], [ -76.598072925999986, 21.229444993000072 ], [ -76.611672898999984, 21.225273152000057 ], [ -76.603064013999983, 21.206109104000063 ], [ -76.538481952999973, 21.182773215000054 ], [ -76.489455026999963, 21.201664181000069 ], [ -76.457363904999966, 21.220000097000025 ], [ -76.467226890999939, 21.226664213000049 ], [ -76.486955040999987, 21.229718075000051 ], [ -76.499681954999971, 21.242218008000066 ], [ -76.514417843999979, 21.251345062000041 ], [ -76.507472933999964, 21.268891068000073 ], [ -76.490573004999987, 21.283053969000036 ], [ -76.364455033999945, 21.27443603200004 ], [ -76.31431784199998, 21.248464202000036 ], [ -76.307781968999961, 21.243054019000056 ], [ -76.263335921999953, 21.216245004000029 ], [ -76.238754984999957, 21.210418073000028 ], [ -76.215290852999942, 21.207218030000035 ], [ -76.17000896199994, 21.186109045000023 ], [ -76.156399935999957, 21.177773074000072 ], [ -76.13195495399998, 21.159164243000077 ], [ -76.091672867999989, 21.111382198000058 ], [ -76.021664026999986, 21.084164147000024 ], [ -75.968335843999967, 21.090827090000062 ], [ -75.886672972999975, 21.105000050000058 ], [ -75.814035902999933, 21.132636023000032 ], [ -75.725572960999955, 21.126391170000034 ], [ -75.70722681899997, 21.121945073000063 ], [ -75.616808882999976, 21.070409109000025 ], [ -75.605835797999987, 21.056664129000069 ], [ -75.584163883999963, 21.016109128000039 ], [ -75.579726839999978, 21.006945026000039 ], [ -75.63389991799994, 20.845835961000034 ], [ -75.73806400899997, 20.831109125000069 ], [ -75.767226828999981, 20.826382067000054 ], [ -75.7780639599999, 20.773327134000056 ], [ -75.780154908999975, 20.746109083000078 ], [ -75.767499911999948, 20.716945089000035 ], [ -75.736682000999963, 20.696945030000052 ], [ -75.717508899999984, 20.690136074000065 ], [ -75.551390977999972, 20.683609086000047 ], [ -75.446535883999957, 20.695064131000038 ], [ -75.445699872999967, 20.710691183000051 ], [ -75.461255007999966, 20.71541807400007 ], [ -75.471817882999972, 20.716391045000023 ], [ -75.472226919999969, 20.727082163000034 ], [ -75.463764046999984, 20.732773140000063 ], [ -75.435290889999976, 20.734164200000066 ], [ -75.395572905999984, 20.733327016000032 ], [ -75.236117926999952, 20.723053988000061 ], [ -74.98499996299995, 20.693336117000058 ], [ -74.955563891999986, 20.685273230000064 ], [ -74.746672949999947, 20.593054022000047 ], [ -74.720181944999979, 20.553844987000048 ], [ -74.675563900999975, 20.536109048000071 ], [ -74.63806393699997, 20.512218109000059 ], [ -74.601963917999967, 20.483609165000075 ], [ -74.582508849999954, 20.464164155000049 ], [ -74.581745928999965, 20.449645022000027 ], [ -74.569455041999959, 20.423609155000065 ], [ -74.543626876999951, 20.394444993000036 ], [ -74.498755028999938, 20.350418041000069 ], [ -74.384172903999968, 20.29027319100004 ], [ -74.300281954999946, 20.294445032000056 ], [ -74.288826910999944, 20.30368205700006 ], [ -74.267226913999934, 20.312773069000059 ], [ -74.227363922999984, 20.314927051000041 ], [ -74.142226920999974, 20.25152700600006 ], [ -74.131954898999936, 20.22110907900003 ], [ -74.131255009999961, 20.204435965000073 ], [ -74.132508941999959, 20.193609060000028 ], [ -74.133308910999972, 20.191309066000031 ], [ -74.147508860999949, 20.172500075000073 ], [ -74.24111778799994, 20.080553950000024 ], [ -74.253617887999951, 20.071945065000023 ], [ -74.266681922999965, 20.063609095000061 ], [ -74.284317949999945, 20.056527057000039 ], [ -74.299445943999956, 20.060482142000069 ], [ -74.310835776999966, 20.072218147000058 ], [ -74.319172920999961, 20.078191092000054 ], [ -74.365572957999973, 20.078609013000062 ], [ -74.378617880999968, 20.078053964000048 ], [ -74.486954985999944, 20.065000155000064 ], [ -74.603345925999974, 20.052500055000053 ], [ -74.682226843999956, 20.050273151000056 ], [ -74.703899930999967, 20.05193612100004 ], [ -74.717790923999985, 20.052218088000075 ], [ -74.762217859999964, 20.048053959000072 ], [ -74.800290978999953, 20.038891197000055 ], [ -74.816955040999972, 20.034445101000074 ], [ -74.831390857999963, 20.02694497400006 ], [ -74.960846, 19.95639114200003 ], [ -74.964735872999938, 19.94555401100007 ], [ -74.972781997999959, 19.932218068000054 ], [ -74.984590925999953, 19.920691107000039 ], [ -75.015290986999958, 19.903891091000048 ], [ -75.033335883999939, 19.90083605500007 ], [ -75.085281890999966, 19.893036023000036 ], [ -75.085554972999944, 19.917218149000064 ], [ -75.08723588, 19.965554071000042 ], [ -75.139735762999976, 19.962873203000072 ], [ -75.101390902999981, 19.98583609700006 ], [ -75.094181962999983, 19.992773128000067 ], [ -75.07820890499994, 20.013336116000062 ], [ -75.092790901999933, 20.056391102000077 ], [ -75.164172865999944, 20.014445041000045 ], [ -75.17417298, 20.006664121000028 ], [ -75.178481948999945, 19.996527047000029 ], [ -75.157272883999951, 19.964164183000037 ], [ -75.15918194599999, 19.960691058000066 ], [ -75.15918194599999, 19.963054084000078 ], [ -75.193208952999953, 19.960973193000029 ], [ -75.226963882999939, 19.924445026000058 ], [ -75.223726791999979, 19.901554049000026 ], [ -75.305281871999966, 19.88083599600003 ], [ -75.355563902999961, 19.875554056000055 ], [ -75.36944601099998, 19.875554056000055 ], [ -75.380190939999977, 19.876718134000043 ], [ -75.522508950999963, 19.877082076000022 ], [ -75.540008855999986, 19.878891059000068 ], [ -75.592790873999945, 19.889445048000027 ], [ -75.609454935999963, 19.895273153000062 ], [ -75.659999823999954, 19.918053993000058 ], [ -75.673335766999969, 19.926391137000053 ], [ -75.686108949999948, 19.935554066000066 ], [ -75.699172983999972, 19.943882157000075 ], [ -75.720490845999961, 19.953882103000069 ], [ -75.908335833999956, 19.967500181000048 ], [ -75.944735757999979, 19.958327026000063 ], [ -76.110835909999935, 19.978609052000024 ], [ -76.134735900999942, 19.984718119000036 ], [ -76.215008884999975, 19.990553935000037 ], [ -76.248899936999976, 19.990836070000057 ], [ -76.42195505799998, 19.967218046000028 ], [ -76.455290892999983, 19.960000054000034 ], [ -76.468899917999977, 19.952500095000062 ], [ -76.484726795999961, 19.946945072000062 ], [ -76.496673018999957, 19.944718 ], [ -76.5702909399999, 19.938327134000076 ], [ -76.625835800999937, 19.944718 ], [ -76.796672901999955, 19.929164205000063 ], [ -76.906399893999946, 19.904444967000074 ], [ -76.930555029999937, 19.893327043000056 ], [ -76.987790855999947, 19.880273067000076 ], [ -77.008199951999984, 19.876809162000029 ], [ -77.033863998999948, 19.890773077000063 ], [ -77.075008916999934, 19.881109078000065 ], [ -77.126682008999978, 19.886945062000052 ], [ -77.198626901999944, 19.908336014000042 ], [ -77.293335869999964, 19.905282152000041 ], [ -77.308064047999949, 19.90235401800004 ], [ -77.333346046999964, 19.888609037000037 ], [ -77.338899895999987, 19.880273067000076 ], [ -77.313472889999957, 19.876036015000068 ], [ -77.352917790999982, 19.856800050000061 ], [ -77.648899891999974, 19.823327087000052 ], [ -77.681117915999948, 19.821945079000045 ], [ -77.725835872999937, 19.836382069000024 ], [ -77.738346030999935, 19.852217999000061 ], [ -77.742373032999978, 19.870973178000042 ], [ -77.710008827999957, 19.915554006000036 ], [ -77.596672923999961, 20.046664239000052 ], [ -77.396663949999947, 20.200273176000053 ], [ -77.379181981999977, 20.211391100000071 ], [ -77.366672996999966, 20.216664156000036 ], [ -77.340290956999979, 20.221945090000077 ], [ -77.329726908999987, 20.225554002000024 ], [ -77.304454967999959, 20.235273154000026 ], [ -77.278899885999977, 20.245282153000062 ], [ -77.193617876999951, 20.285827095000059 ], [ -77.170972991999975, 20.300553931000024 ], [ -77.114590945999964, 20.367364237000061 ], [ -77.08389088499996, 20.448053970000046 ], [ -77.078472989999966, 20.46721801800004 ], [ -77.19695504799995, 20.634027112000069 ], [ -77.236390895999989, 20.66305397800005 ], [ -77.31418199899997, 20.708882201000051 ], [ -77.323626894999961, 20.713891059000048 ], [ -77.33663577599998, 20.716691117000039 ], [ -77.357226927999989, 20.718327097000042 ], [ -77.370008826999936, 20.716945089000035 ], [ -77.461399902999972, 20.685273230000064 ], [ -77.530008965999968, 20.682218026000044 ], [ -77.682508808999955, 20.689718153000058 ], [ -77.742508818999966, 20.693882115000065 ], [ -77.772090902999935, 20.696945030000052 ], [ -77.78639093299995, 20.701382074000037 ], [ -77.832263914999942, 20.719009049000078 ], [ -77.857926787999986, 20.72944502100006 ], [ -77.874726803999977, 20.730000071000063 ], [ -77.900554968999984, 20.727773167000066 ], [ -77.909317912999938, 20.718473110000048 ], [ -77.918335834999937, 20.702218085000027 ], [ -77.931672951999985, 20.692564144000073 ], [ -78.048063891999959, 20.698891140000057 ], [ -78.072235791999958, 20.713891059000048 ], [ -78.163617814999952, 20.792773150000073 ], [ -78.212235870999962, 20.840827104000027 ], [ -78.273345980999977, 20.903609067000048 ], [ -78.336399852999989, 20.948891126000035 ], [ -78.495146058999978, 21.031800051000062 ], [ -78.508617956999956, 21.167218079000065 ], [ -78.53722690099994, 21.288327025000058 ], [ -78.565846071999943, 21.390273096000044 ], [ -78.594999839999957, 21.46444506000006 ], [ -78.603055015999985, 21.484164158000056 ], [ -78.622508910999954, 21.51360911300003 ], [ -78.633055020999961, 21.524436018000074 ], [ -78.647245918999943, 21.534454069000049 ] ] ], [ [ [ -82.897226903999979, 21.432782086000032 ], [ -82.956681921999973, 21.448054081000066 ], [ -82.996126823999987, 21.453327136000041 ], [ -83.072990887999936, 21.46270916800006 ], [ -83.149508946999958, 21.528473078000047 ], [ -83.164463937999983, 21.554445075000046 ], [ -83.191399854999986, 21.623400143000026 ], [ -83.114317860999961, 21.576527032000058 ], [ -83.109590970999989, 21.563536087000045 ], [ -83.084163964999959, 21.548054042000047 ], [ -83.073899988999983, 21.543609118000063 ], [ -83.061399888999972, 21.541382214000066 ], [ -83.021390885999949, 21.542500025000038 ], [ -82.95529086199997, 21.562218117000043 ], [ -82.947782017999941, 21.568882065000025 ], [ -82.935072872999967, 21.586600068000052 ], [ -82.939182016999951, 21.600000049000073 ], [ -82.948063984999976, 21.605554065000035 ], [ -83.013626895999948, 21.677217997000071 ], [ -83.075563963999969, 21.764164149000067 ], [ -83.089446071999987, 21.78555392800007 ], [ -83.087508846999981, 21.808327056000053 ], [ -83.079181928999958, 21.831664118000049 ], [ -83.072235845999955, 21.841945026000076 ], [ -82.974454909999963, 21.942773118000048 ], [ -82.865281961999983, 21.932500090000076 ], [ -82.823764047999987, 21.927082196000072 ], [ -82.715835812999956, 21.890273068000056 ], [ -82.69971791599994, 21.833609055000068 ], [ -82.666399850999937, 21.800827096000035 ], [ -82.614726925999946, 21.768327105000026 ], [ -82.606672922999962, 21.761391080000067 ], [ -82.598072922999961, 21.748882095000056 ], [ -82.593063897999969, 21.740000128000077 ], [ -82.543064000999948, 21.589718136000045 ], [ -82.544590847999984, 21.573891091000064 ], [ -82.598617913999988, 21.538053928000068 ], [ -82.636126930999978, 21.51805403700007 ], [ -82.700290902999939, 21.48860908100005 ], [ -82.710555045999968, 21.484444952000047 ], [ -82.74334605699994, 21.474164212000062 ], [ -82.865846063999982, 21.437773174000029 ], [ -82.897226903999979, 21.432782086000032 ] ] ], [ [ [ -77.705563904999963, 21.908609152000054 ], [ -77.764726897999935, 21.956664111000066 ], [ -77.800563892999946, 21.965827040000022 ], [ -77.885835843999985, 22.003327005000074 ], [ -77.934590859999958, 22.04430009400005 ], [ -77.941955032999942, 22.054718130000026 ], [ -77.944455018999975, 22.065827001000059 ], [ -77.947235798999941, 22.098326993000057 ], [ -77.937226800999952, 22.102773089000038 ], [ -77.915054990999977, 22.094700143000068 ], [ -77.878708878999987, 22.071791061000056 ], [ -77.858346050999955, 22.075427130000037 ], [ -77.85216389499999, 22.088882096000077 ], [ -77.799454966999974, 22.10160901100005 ], [ -77.732564026999967, 22.07651811900007 ], [ -77.652573009999969, 22.068609122000055 ], [ -77.634735816999978, 22.052218143000061 ], [ -77.621263918999944, 22.028191082000035 ], [ -77.638335843999982, 21.953054026000075 ], [ -77.673063912999964, 21.946391083000037 ], [ -77.693617848999963, 21.922500144000026 ], [ -77.705563904999963, 21.908609152000054 ] ] ], [ [ [ -78.425290942999936, 22.412500170000044 ], [ -78.395708858999967, 22.444027023000046 ], [ -78.397435866999956, 22.45763604900003 ], [ -78.419172991999972, 22.463891128000057 ], [ -78.464735843999961, 22.458327053000062 ], [ -78.474163975999943, 22.45305399700004 ], [ -78.489172946999986, 22.445418084000039 ], [ -78.536954991999949, 22.448054025000033 ], [ -78.653063964999944, 22.486945050000031 ], [ -78.69236402699994, 22.50180901400006 ], [ -78.696399913999983, 22.511664120000034 ], [ -78.693482004999964, 22.533191195000029 ], [ -78.675281875999985, 22.556800166000073 ], [ -78.64223588699997, 22.553053958000078 ], [ -78.600426786999947, 22.544864168000061 ], [ -78.583345976999965, 22.529718069000069 ], [ -78.571673002999944, 22.526391124000043 ], [ -78.551390976999983, 22.523609171000032 ], [ -78.536663972999975, 22.523053953000044 ], [ -78.459454909999977, 22.527500050000071 ], [ -78.448626831999945, 22.538327122000055 ], [ -78.425708863999944, 22.554864114000054 ], [ -78.400835901999983, 22.558745103000035 ], [ -78.390835787999947, 22.558053931000074 ], [ -78.349726911999937, 22.539718015000062 ], [ -78.341399825999986, 22.533882199000061 ], [ -78.277717813999971, 22.44277309000006 ], [ -78.295972927999969, 22.435554092000075 ], [ -78.408054899999968, 22.427636044000053 ], [ -78.425290942999936, 22.412500170000044 ] ] ], [ [ [ -77.864726858999973, 22.095554091000054 ], [ -77.895281912999963, 22.097500034000063 ], [ -77.961399874999984, 22.125827011000069 ], [ -77.998608818999969, 22.146109038000077 ], [ -78.044026831999986, 22.188327008000044 ], [ -77.997508945999982, 22.285273106000034 ], [ -77.861263958999984, 22.219164197000055 ], [ -77.829235868999945, 22.151527100000067 ], [ -77.844455057999937, 22.108054024000069 ], [ -77.864726858999973, 22.095554091000054 ] ] ], [ [ [ -78.019454947999975, 22.261945096000034 ], [ -78.057235872999968, 22.267218151000066 ], [ -78.159590980999951, 22.302773179000042 ], [ -78.190635874999941, 22.321591054000066 ], [ -78.174454945999969, 22.337500074000047 ], [ -78.185563984999987, 22.357217998000067 ], [ -78.191955017999987, 22.365000093000049 ], [ -78.264454960999956, 22.408054074000063 ], [ -78.279455046999942, 22.40528217800005 ], [ -78.291808966999952, 22.397500084000058 ], [ -78.308817859999976, 22.410135971000045 ], [ -78.274735867999937, 22.424445053000056 ], [ -78.20528190899995, 22.437082113000031 ], [ -78.16250889, 22.432773144000066 ], [ -78.118617891999975, 22.413891063000051 ], [ -78.099455016999968, 22.397218117000023 ], [ -78.092226798999945, 22.390000125000029 ], [ -78.086672949999979, 22.381382187000042 ], [ -78.022508809999977, 22.276664221000033 ], [ -78.019454947999975, 22.261945096000034 ] ] ], [ [ [ -79.329726795999989, 22.614164235000032 ], [ -79.370008881999979, 22.638335968000035 ], [ -79.471399902999963, 22.691109101000052 ], [ -79.517790887999979, 22.71416419600007 ], [ -79.630764022999983, 22.782709053000076 ], [ -79.632508967999968, 22.800000082000054 ], [ -79.602235879999967, 22.812773096000058 ], [ -79.58035492199997, 22.81131799800005 ], [ -79.566263936999974, 22.801800179000054 ], [ -79.543064001999937, 22.778609129000074 ], [ -79.528899926999941, 22.757500144000062 ], [ -79.521663997999951, 22.750273100000072 ], [ -79.493063937999977, 22.731391186000053 ], [ -79.430846075999966, 22.701664096000059 ], [ -79.375135923999949, 22.674718121000069 ], [ -79.34083583499995, 22.63944506100006 ], [ -79.324172946999965, 22.617218098000023 ], [ -79.329726795999989, 22.614164235000032 ] ] ] ] }
        }
    ]
}