{
    "type": "FeatureCollection",
    "features": [
        {
            "type": "Feature",
            "properties": {
                "WCID": "CUR",
                "COUNTRY": "Curacao"
            },
            "geometry": { "type": "Polygon", "coordinates": [ [ [ -68.74694603599994, 12.040273153000044 ], [ -68.798890868999933, 12.040273153000044 ], [ -68.81695504399994, 12.043336068000031 ], [ -68.829872897999962, 12.048336041000027 ], [ -68.965699962999963, 12.115282135000029 ], [ -69.062499880999951, 12.188327068000035 ], [ -69.134445946999961, 12.273335995000025 ], [ -69.158335878999935, 12.311391177000075 ], [ -69.163617819999956, 12.366391046000047 ], [ -69.146390828999984, 12.383891119000054 ], [ -69.097781992999955, 12.363336010000069 ], [ -69.079590915999972, 12.350273149000031 ], [ -69.06722677099998, 12.331664151000041 ], [ -69.058335750999959, 12.313053979000074 ], [ -69.055554970999935, 12.288891131000071 ], [ -69.047790981999981, 12.269718030000035 ], [ -69.040281969999967, 12.256391140000062 ], [ -69.029726806999975, 12.242773061000037 ], [ -68.997217929999977, 12.216109054000071 ], [ -68.980835835999983, 12.204718047000028 ], [ -68.965564007999944, 12.198891116000027 ], [ -68.91195503199998, 12.181664126000044 ], [ -68.882508902999973, 12.182918058000041 ], [ -68.861681884999939, 12.178891057000044 ], [ -68.851117836999947, 12.17528214500004 ], [ -68.836672967999959, 12.168609144000072 ], [ -68.824172867999948, 12.160273173000064 ], [ -68.753063986999962, 12.065000103000045 ], [ -68.74694603599994, 12.040273153000044 ] ] ] }
        }
    ]
}