{
    "type": "FeatureCollection",
    "features": [
        {
            "type": "Feature",
            "properties": {
                "WCID": "CZE",
                "COUNTRY": "Czech Republic"
            },
            "geometry": { "type": "Polygon", "coordinates": [ [ [ 18.145282262000023, 49.145000099000072 ], [ 18.149445051000043, 49.121391128000027 ], [ 18.121945032000042, 49.082773185000065 ], [ 18.075282139000024, 49.041945102000057 ], [ 17.91110915400003, 48.984991076000028 ], [ 17.841945041000031, 48.92832706300004 ], [ 17.760273285000039, 48.878191212000047 ], [ 17.712218158000042, 48.856109088000039 ], [ 17.677500147000046, 48.851945126000032 ], [ 17.650273211000069, 48.851945126000032 ], [ 17.502782225000033, 48.838882098000056 ], [ 17.411245136000048, 48.824718023000059 ], [ 17.382218103000071, 48.825273240000058 ], [ 17.330827146000047, 48.850273104000053 ], [ 17.238327144000039, 48.872427145000074 ], [ 17.187909158000025, 48.869445032000044 ], [ 17.112218225000049, 48.831800060000035 ], [ 17.041527098000074, 48.76832709200005 ], [ 17.02250017700004, 48.743609195000033 ], [ 16.988327158000061, 48.681664248000061 ], [ 16.946182278000038, 48.619064172000037 ], [ 16.91791816500006, 48.70319115500007 ], [ 16.892500212000073, 48.725827155000047 ], [ 16.871936050000045, 48.725482156000055 ], [ 16.83291812300007, 48.716245131000051 ], [ 16.785554168000033, 48.719854043000055 ], [ 16.711663332000057, 48.746382096000048 ], [ 16.658818115000031, 48.785273121000046 ], [ 16.540554155000052, 48.812354045000063 ], [ 16.458263311000053, 48.811245119000034 ], [ 16.43082716300006, 48.782218085000068 ], [ 16.412982258000056, 48.751873249000027 ], [ 16.382154121000042, 48.73603614600006 ], [ 16.333054106000077, 48.733054032000041 ], [ 16.103336146000061, 48.750000061000037 ], [ 16.081109183000024, 48.754718067000056 ], [ 16.060554074000038, 48.760273257000051 ], [ 16.021663217000025, 48.777218112000071 ], [ 15.964163193000047, 48.804718131000072 ], [ 15.849427176000063, 48.859700063000048 ], [ 15.746391122000034, 48.858609075000061 ], [ 15.685973191000073, 48.864018085000055 ], [ 15.585000258000036, 48.89916424300003 ], [ 15.564436097000055, 48.90916418900008 ], [ 15.54666327700005, 48.912218051000082 ], [ 15.514445085000034, 48.919991093000078 ], [ 15.451663289000066, 48.95110907600008 ], [ 15.392500128000052, 48.973609122000028 ], [ 15.359027166000033, 48.984718161000046 ], [ 15.301391188000025, 48.987782082000081 ], [ 15.156663212000069, 48.999718080000036 ], [ 15.065554104000057, 49.01471816600008 ], [ 15.028609189000065, 49.018745 ], [ 15.00416320100004, 49.011391221000054 ], [ 14.979582264000044, 48.979927065000027 ], [ 14.985000158000048, 48.939164194000057 ], [ 14.958891200000039, 48.794718018000026 ], [ 14.885554073000037, 48.78277313500007 ], [ 14.849445170000024, 48.78638221500006 ], [ 14.823745081000027, 48.785064244000068 ], [ 14.727218078000021, 48.693464124000059 ], [ 14.716663250000067, 48.654300184000078 ], [ 14.719445036000025, 48.604018153000027 ], [ 14.705418089000034, 48.585136072000068 ], [ 14.700282162000065, 48.58138215300005 ], [ 14.654445053000074, 48.608473134000064 ], [ 14.611945116000072, 48.628464141000052 ], [ 14.505554122000035, 48.628327013000046 ], [ 14.446391129000062, 48.618891169000051 ], [ 14.390273281000077, 48.592500077000068 ], [ 14.278327096000055, 48.582500131000074 ], [ 14.184163287000047, 48.596109157000058 ], [ 14.051391258000024, 48.669791115000066 ], [ 13.998609240000064, 48.714027112000053 ], [ 13.883609193000041, 48.763609087000077 ], [ 13.858054111000058, 48.770553997000036 ], [ 13.833609129000024, 48.773609033000071 ], [ 13.818263205000051, 48.779854053000065 ], [ 13.812009132000071, 48.800209170000073 ], [ 13.780136107000033, 48.834018079000032 ], [ 13.761663230000067, 48.845964136000077 ], [ 13.745627141000057, 48.870754117000047 ], [ 13.728127068000049, 48.881318165000039 ], [ 13.699445033000075, 48.879300138000076 ], [ 13.672218097000041, 48.889445091000027 ], [ 13.651945123000075, 48.904436125000075 ], [ 13.626109248000034, 48.947636118000048 ], [ 13.595345148000035, 48.957427020000068 ], [ 13.56482714200007, 48.973664275000033 ], [ 13.509718140000075, 48.972500196000055 ], [ 13.402545114000077, 49.006191088000037 ], [ 13.396109153000054, 49.049164268000027 ], [ 13.318473284000049, 49.100827134000042 ], [ 13.173054136000076, 49.167218178000041 ], [ 13.031109120000053, 49.287773247000075 ], [ 12.959027100000071, 49.334927153000081 ], [ 12.887200224000026, 49.340382095000052 ], [ 12.797218147000024, 49.33985403500003 ], [ 12.67444505800006, 49.425000090000026 ], [ 12.597773274000076, 49.527500205000081 ], [ 12.578609226000026, 49.560554073000048 ], [ 12.554718120000075, 49.616664209000078 ], [ 12.515482263000024, 49.677218095000057 ], [ 12.476109111000028, 49.690827121000041 ], [ 12.455554003000032, 49.695545127000059 ], [ 12.468473198000027, 49.783473135000065 ], [ 12.545973280000055, 49.90958222200004 ], [ 12.491391165000039, 49.975827085000049 ], [ 12.471109138000031, 49.985836083000038 ], [ 12.429445045000023, 49.993891092000069 ], [ 12.307500255000036, 50.04749118400008 ], [ 12.265554027000064, 50.06610906700007 ], [ 12.206145108000044, 50.106209098000079 ], [ 12.193818179000061, 50.136318068000037 ], [ 12.20916326400004, 50.163609041000029 ], [ 12.122082163000073, 50.308464254000057 ], [ 12.093700201000047, 50.322536129000071 ], [ 12.182636049000052, 50.314582205000079 ], [ 12.281109163000053, 50.21846423900007 ], [ 12.323054050000053, 50.206664196000077 ], [ 12.325554037000074, 50.236109151000051 ], [ 12.398609196000052, 50.309164143000032 ], [ 12.486109225000064, 50.37305402700008 ], [ 12.515418226000065, 50.392491158000041 ], [ 12.620973209000056, 50.411945052000078 ], [ 12.671391195000069, 50.411945052000078 ], [ 12.740418180000063, 50.431518137000069 ], [ 12.772218114000054, 50.445000093000033 ], [ 12.825136087000033, 50.453045044000078 ], [ 12.855836148000037, 50.442218139000033 ], [ 12.898336086000029, 50.425273116000028 ], [ 12.917218167000044, 50.414718121000078 ], [ 12.944718185000056, 50.410000115000059 ], [ 12.985554147000073, 50.418327033000025 ], [ 12.991945181000062, 50.421109154000078 ], [ 13.015273191000063, 50.439300064000065 ], [ 13.079445042000032, 50.498054020000041 ], [ 13.187218212000062, 50.502773199000046 ], [ 13.206109178000077, 50.520409059000031 ], [ 13.223227203000022, 50.551418077000051 ], [ 13.249582254000074, 50.589164134000043 ], [ 13.378336166000054, 50.629435994000062 ], [ 13.414863327000035, 50.61138221300007 ], [ 13.436663316000022, 50.605273146000059 ], [ 13.463400246000049, 50.601664234000054 ], [ 13.518473205000078, 50.641873230000044 ], [ 13.510827066000047, 50.65055403100007 ], [ 13.541109206000044, 50.689718139000036 ], [ 13.582218082000054, 50.70944511600004 ], [ 13.634718133000035, 50.722218130000044 ], [ 13.669445028000041, 50.725827043000038 ], [ 13.734163212000055, 50.730827015000045 ], [ 13.89110915200007, 50.768882197000039 ], [ 13.903609085000028, 50.788191085000051 ], [ 13.990691191000053, 50.814445049000028 ], [ 14.155554007000035, 50.843045109000059 ], [ 14.311391190000052, 50.882218101000035 ], [ 14.368327111000042, 50.935000119000051 ], [ 14.32124512300004, 50.94610915800007 ], [ 14.258054122000033, 50.99513608400008 ], [ 14.285554141000034, 51.037500066000064 ], [ 14.306245036000064, 51.052491100000054 ], [ 14.49166329600007, 51.036664223000059 ], [ 14.569163212000035, 51.005554119000067 ], [ 14.597218112000064, 50.982500197000036 ], [ 14.628336095000066, 50.923609113000055 ], [ 14.631391132000033, 50.881100123000067 ], [ 14.619236198000067, 50.858254072000079 ], [ 14.65166326700006, 50.847218123000061 ], [ 14.717782234000026, 50.829164174000027 ], [ 14.739718178000032, 50.823882234000052 ], [ 14.771527165000066, 50.818327044000057 ], [ 14.802918231000035, 50.819718105000049 ], [ 14.825000187000057, 50.856382226000051 ], [ 14.828336185000069, 50.865827122000042 ], [ 14.966663236000045, 50.859164179000061 ], [ 15.003891124000063, 50.867500150000069 ], [ 15.019163287000026, 50.950554082000053 ], [ 15.016391224000074, 50.974091136000027 ], [ 15.176945071000034, 51.014718053000081 ], [ 15.239445067000077, 50.991945093000027 ], [ 15.275273177000031, 50.975000070000078 ], [ 15.290418103000036, 50.948953976000041 ], [ 15.272500108000031, 50.92450916100006 ], [ 15.282773304000045, 50.892082092000066 ], [ 15.311663210000063, 50.860345022000047 ], [ 15.362845123000056, 50.840618045000042 ], [ 15.379718229000048, 50.779445071000055 ], [ 15.488336127000025, 50.786664237000082 ], [ 15.60666328700006, 50.772773244000064 ], [ 15.787500167000076, 50.744164132000037 ], [ 15.946945088000064, 50.689436004000072 ], [ 16.02443611800004, 50.63000009600006 ], [ 16.071391205000054, 50.635554113000069 ], [ 16.118054098000073, 50.657800187000078 ], [ 16.137500113000044, 50.656109054000069 ], [ 16.237500242000067, 50.670554091000042 ], [ 16.332009218000053, 50.66402710300008 ], [ 16.370000194000056, 50.644164171000057 ], [ 16.430273287000034, 50.601527106000049 ], [ 16.447363317000054, 50.578818183000067 ], [ 16.406663309000066, 50.523045 ], [ 16.358918145000075, 50.497909181000068 ], [ 16.315000157000043, 50.504718136000065 ], [ 16.207736104000048, 50.439018096000041 ], [ 16.219027198000049, 50.410273198000027 ], [ 16.266109186000051, 50.389718089000041 ], [ 16.303054101000043, 50.378054 ], [ 16.371945131000075, 50.361109144000068 ], [ 16.441391211000052, 50.316664270000047 ], [ 16.45860914800005, 50.303600068000037 ], [ 16.548054114000024, 50.227082177000057 ], [ 16.562218189000077, 50.208191211000042 ], [ 16.565973282000073, 50.170345074000068 ], [ 16.58777327100006, 50.140000070000042 ], [ 16.614436105000038, 50.119718044000081 ], [ 16.640000239000074, 50.108891139000036 ], [ 16.715345167000066, 50.098327091000044 ], [ 16.786663261000058, 50.140545061000068 ], [ 16.802936056000021, 50.169654070000036 ], [ 16.811245036000059, 50.179436086000067 ], [ 16.84694507100005, 50.201800178000042 ], [ 16.911391177000041, 50.222354113000051 ], [ 16.968609234000041, 50.222773208000035 ], [ 17.002218151000022, 50.216945103000057 ], [ 16.972773196000048, 50.310000154000079 ], [ 16.93750013500005, 50.340554035000082 ], [ 16.868745060000037, 50.411182131000032 ], [ 16.890973196000061, 50.438673097000049 ], [ 16.910827075000043, 50.44012702200007 ], [ 16.941391182000075, 50.435000147000039 ], [ 17.057782290000034, 50.410553991000029 ], [ 17.11805404200004, 50.396664172000044 ], [ 17.205273276000071, 50.360973190000038 ], [ 17.226945022000052, 50.345273215000077 ], [ 17.283609203000026, 50.320273182000051 ], [ 17.378327056000046, 50.279445100000032 ], [ 17.433054010000035, 50.270273118000034 ], [ 17.626800194000054, 50.265545054000029 ], [ 17.661109168000053, 50.272354010000072 ], [ 17.693473205000032, 50.300000208000029 ], [ 17.697009195000078, 50.320273182000051 ], [ 17.724445175000028, 50.319018076000077 ], [ 17.753054120000058, 50.297773137000036 ], [ 17.762918111000033, 50.233327030000055 ], [ 17.763682205000066, 50.209373227000071 ], [ 17.695273302000032, 50.179027049000069 ], [ 17.64277325200004, 50.171945012000037 ], [ 17.606318175000069, 50.162700108000081 ], [ 17.657773170000041, 50.108053955000059 ], [ 17.840136059000031, 49.989582123000048 ], [ 17.876245130000029, 49.97895403800004 ], [ 17.920691178000027, 49.977364158000057 ], [ 18.009445139000036, 50.011109198000042 ], [ 18.05316330200003, 50.055927066000038 ], [ 18.094163214000048, 50.038053999000056 ], [ 18.270273203000045, 49.957773136000071 ], [ 18.350273272000038, 49.938891223000041 ], [ 18.552709143000072, 49.922427153000058 ], [ 18.578745178000077, 49.912218163000034 ], [ 18.579345155000055, 49.814991103000068 ], [ 18.634163304000026, 49.737782207000066 ], [ 18.786945116000027, 49.681936101000076 ], [ 18.810827169000049, 49.673327048000033 ], [ 18.839445166000075, 49.594991122000067 ], [ 18.847773258000075, 49.554164213000035 ], [ 18.852218181000069, 49.527773120000063 ], [ 18.851245042000073, 49.517354079000029 ], [ 18.792773220000072, 49.513882127000045 ], [ 18.655554089000077, 49.504164148000029 ], [ 18.565900247000059, 49.493673191000028 ], [ 18.544373172000064, 49.461800166000046 ], [ 18.383191185000044, 49.333053965000033 ], [ 18.312500225000065, 49.305691074000038 ], [ 18.275691265000034, 49.300973236000061 ], [ 18.211318081000059, 49.286382187000072 ], [ 18.17624518100007, 49.244300171000077 ], [ 18.174163283000041, 49.210273165000046 ], [ 18.158118141000045, 49.164718024000081 ], [ 18.145282262000023, 49.145000099000072 ] ] ] }
        }
    ]
}