{
    "type": "FeatureCollection",
    "features": [
        {
            "type": "Feature",
            "properties": {
                "WCID": "CZK",
                "COUNTRY": "Czechoslovakia"
            },
            "geometry": { "type": "MultiPolygon", "coordinates": [ [ [ [ 18.844195398894531, 49.564540468171877 ], [ 18.972125086394531, 49.546210847810549 ], [ 18.986033472625, 49.443751893953127 ], [ 19.179312738982421, 49.465320192292971 ], [ 19.261565241423828, 49.573184572175784 ], [ 19.348418268767578, 49.566173158601565 ], [ 19.376227411833984, 49.616344057039065 ], [ 19.49343970736621, 49.627120576814455 ], [ 19.581105265227539, 49.519244752839846 ], [ 19.613717112151367, 49.443255983308596 ], [ 19.762906107512695, 49.454536043123049 ], [ 19.792792353240234, 49.373664461091799 ], [ 19.780903849211914, 49.335929475740237 ], [ 19.782160791960937, 49.244300447419924 ], [ 19.957100901213867, 49.282035432771487 ], [ 20.038085016814453, 49.228141389802737 ], [ 20.105381998625976, 49.288863740876955 ], [ 20.152379068938476, 49.368278108552737 ], [ 20.403084787932617, 49.459926210359377 ], [ 20.478842768279296, 49.434802614167971 ], [ 20.696087870208007, 49.455592714265627 ], [ 20.903170618621093, 49.34132345767383 ], [ 21.071120295134765, 49.422183595613284 ], [ 21.104210886565429, 49.483920656160159 ], [ 21.332753214446289, 49.465518556550784 ], [ 21.585009607878906, 49.499579988435549 ], [ 21.642890009490234, 49.441012941316409 ], [ 21.959158930388671, 49.357493959382815 ], [ 22.005814585295898, 49.260470949128909 ], [ 22.196431192961914, 49.215037904695315 ], [ 22.570443186370117, 49.066680513337893 ], [ 22.09947112521289, 48.404590211824221 ], [ 21.816264185515625, 48.370444856599612 ], [ 21.620141062346679, 48.43464621158008 ], [ 21.379544291106445, 48.596503816560549 ], [ 20.901715311614257, 48.580916963533205 ], [ 20.579073938933593, 48.559577547029299 ], [ 20.118067774382812, 48.217826448396487 ], [ 19.92614463290332, 48.189536653474612 ], [ 19.660315546599609, 48.221881471589846 ], [ 19.436102900115234, 48.194598756746096 ], [ 19.093541178313476, 48.134067140535159 ], [ 18.978966745940429, 48.133456788972659 ], [ 18.828471216765625, 47.87797125430469 ], [ 18.085612330046875, 47.893973909333987 ], [ 17.899113688079101, 47.906001649812502 ], [ 17.621508631316406, 47.982726655916018 ], [ 17.441786799041015, 48.059993349031252 ], [ 17.331217798796875, 47.994678102449221 ], [ 16.988965067473632, 48.240634523347659 ], [ 16.919251474944335, 48.357684694246096 ], [ 16.962897333708984, 48.61903341861133 ], [ 16.938786539641601, 48.661044679597659 ], [ 16.914334330168945, 48.70365484805469 ], [ 16.669154200164062, 48.793784700349612 ], [ 16.069630655852539, 48.712195955232424 ], [ 15.611516031829101, 48.81425055117969 ], [ 14.993143114653808, 48.96778830142383 ], [ 14.657484087554199, 48.619723878816409 ], [ 14.38850978335498, 48.546477876619143 ], [ 14.170937571135742, 48.590999208406252 ], [ 14.011806521025878, 48.648913942292971 ], [ 13.946682962981445, 48.655101381257815 ], [ 13.745481524077636, 48.939948640779299 ], [ 13.652069124785644, 48.956100069001955 ], [ 13.578151735869628, 49.036891542390627 ], [ 13.479734453765136, 48.999183259919924 ], [ 13.39694312533496, 49.089534364656252 ], [ 13.203111681548339, 49.166171632722659 ], [ 12.945256266204101, 49.397918306306643 ], [ 12.860805544463378, 49.365573488191409 ], [ 12.645775827971679, 49.484584413484377 ], [ 12.536298784819824, 49.56257589908008 ], [ 12.519705805388671, 49.66758307071094 ], [ 12.448309931365234, 49.706145845369143 ], [ 12.484350237456542, 49.888846956208987 ], [ 12.554163012114746, 50.001620851472659 ], [ 12.368390116301757, 50.045638643220705 ], [ 12.252341303435546, 50.215892396882815 ], [ 12.2353592248833, 50.240806184724612 ], [ 12.344750437346679, 50.316737733796877 ], [ 12.461618456450683, 50.398124299958987 ], [ 12.593851122466308, 50.383563600496096 ], [ 12.783669504729492, 50.474105440095705 ], [ 12.98234466036914, 50.474105440095705 ], [ 13.01750091036914, 50.555549226716799 ], [ 13.189395937529785, 50.560977540925784 ], [ 13.232996019927246, 50.663768373445315 ], [ 13.394154581633789, 50.691344819978518 ], [ 13.47326377352832, 50.658740602449221 ], [ 13.524158510771972, 50.75654562564258 ], [ 13.85478118380664, 50.767417512849612 ], [ 13.910657915679199, 50.843509279207034 ], [ 14.146485361663085, 50.865256868318362 ], [ 14.274748835173828, 50.908755861238284 ], [ 14.388769182769042, 50.946826539949221 ], [ 14.261660608855468, 51.044738374666018 ], [ 14.45779803713916, 51.077384553865237 ], [ 14.596383127776367, 51.022975526765627 ], [ 14.610322985259277, 50.897880159333987 ], [ 14.764811548796875, 50.865256868318362 ], [ 14.828880343047363, 50.91691168399219 ], [ 14.997266802397949, 50.91691168399219 ], [ 15.008268389312011, 50.984893403962893 ], [ 14.980959925261718, 51.017535768464846 ], [ 15.009285959807617, 51.055621705964846 ], [ 15.171886477080566, 51.063785158113284 ], [ 15.26701262911914, 51.022975526765627 ], [ 15.308753046599609, 50.906035982087893 ], [ 15.472163233367187, 50.832637392 ], [ 15.562799486724121, 50.821288667634768 ], [ 15.81834319552539, 50.797309480623049 ], [ 15.87748626193164, 50.715789400056643 ], [ 16.002932581511718, 50.732093416169924 ], [ 16.000857386199218, 50.65602072329883 ], [ 16.210207972136718, 50.685908876375002 ], [ 16.237784418669921, 50.715789400056643 ], [ 16.35314658602832, 50.704917512849612 ], [ 16.442826304045898, 50.623431764558596 ], [ 16.39859107455371, 50.569118104890627 ], [ 16.30474570712207, 50.558261476472659 ], [ 16.204402002898437, 50.463248811677737 ], [ 16.451422724333984, 50.35200461001758 ], [ 16.584954294768554, 50.181151948884768 ], [ 16.728022608367187, 50.148624025300784 ], [ 16.82705787142871, 50.232669435457034 ], [ 17.01153281649707, 50.286902986482424 ], [ 16.884440455046875, 50.422545991853518 ], [ 16.885588678923828, 50.487693391755862 ], [ 17.014424357024414, 50.476825319246096 ], [ 17.243329081145507, 50.389987550691409 ], [ 17.359746012297851, 50.335723482087893 ], [ 17.678759607878906, 50.338267885164065 ], [ 17.597117457, 50.21097906680469 ], [ 17.745572123137695, 50.248939119294924 ], [ 17.744708094207031, 50.135070405916018 ], [ 17.750657114592773, 50.035976015046877 ], [ 17.882494959441406, 50.030109010652346 ], [ 18.048035654631835, 50.102550111726565 ], [ 18.187768015471679, 50.02125509829883 ], [ 18.548720392791015, 49.961726747468752 ], [ 18.539956125823242, 49.849979005769534 ], [ 18.624680552092773, 49.756614290193362 ], [ 18.796315226165039, 49.713447175935549 ], [ 18.844195398894531, 49.564540468171877 ] ] ] ] }
        }
    ]
}