{
    "type": "FeatureCollection",
    "features": [
        {
            "type": "Feature",
            "properties": {
                "WCID": "DAN",
                "COUNTRY": "Denmark"
            },
            "geometry": { "type": "MultiPolygon", "coordinates": [ [ [ [ 9.610273208000024, 55.394436148000068 ], [ 9.597573284000021, 55.371518181000056 ], [ 9.671454061000077, 55.27958211300006 ], [ 9.706182130000059, 55.263464217000035 ], [ 9.710763343000053, 55.24110012500006 ], [ 9.677154090000045, 55.191173151000044 ], [ 9.636245038000027, 55.181245122000064 ], [ 9.613473251000073, 55.192500174000031 ], [ 9.574582226000075, 55.189509176000058 ], [ 9.489445056000022, 55.151936121000062 ], [ 9.46152711600007, 55.122144993000063 ], [ 9.507500178000043, 55.050282243000026 ], [ 9.548609223000028, 55.032491151000045 ], [ 9.636391218000028, 55.016391191000082 ], [ 9.725627139000039, 54.989927008000052 ], [ 9.746663202000036, 54.947773244000075 ], [ 9.766109217000064, 54.896382119000066 ], [ 9.735518120000052, 54.830800096000075 ], [ 9.624163195000051, 54.853609099000039 ], [ 9.614163249000057, 54.890545129000031 ], [ 9.642845116000046, 54.906109150000077 ], [ 9.631873205000034, 54.923536132000038 ], [ 9.59750019300003, 54.927773184000046 ], [ 9.502782173000071, 54.868327051000051 ], [ 9.45187317500006, 54.833536117000051 ], [ 9.44535406600005, 54.825400139000067 ], [ 9.414718210000046, 54.833327073000078 ], [ 9.377218078000055, 54.827636096000049 ], [ 9.350836037000022, 54.810554112000034 ], [ 9.248336090000066, 54.812636009000073 ], [ 9.230836185000044, 54.829300071000034 ], [ 9.228891248000025, 54.849582097000052 ], [ 9.168891238000072, 54.865000105000036 ], [ 8.941109163000021, 54.905545048000079 ], [ 8.920000178000066, 54.908054087000039 ], [ 8.835091163000072, 54.913791164000031 ], [ 8.78582719800005, 54.906109150000077 ], [ 8.75889111400005, 54.89805397300006 ], [ 8.71944503900005, 54.891109063000044 ], [ 8.692773153000076, 54.895827069000063 ], [ 8.664545082000075, 54.913091107000071 ], [ 8.654718139000067, 54.981945089000078 ], [ 8.676109091000058, 55.114164248000066 ], [ 8.560136072000034, 55.091727067000079 ], [ 8.492082227000026, 55.062700201000041 ], [ 8.46971813600004, 55.079300057000069 ], [ 8.457636125000022, 55.127218056000061 ], [ 8.475136030000044, 55.179582153000069 ], [ 8.497363329000052, 55.196245041000054 ], [ 8.563054148000049, 55.193745054000033 ], [ 8.590073213000039, 55.182591088000038 ], [ 8.55930022900003, 55.159373216000063 ], [ 8.576963246000048, 55.142327107000028 ], [ 8.638027087000069, 55.131745122000041 ], [ 8.689027112000076, 55.140064161000055 ], [ 8.689445034000073, 55.160273265000058 ], [ 8.661391139000045, 55.203327079000076 ], [ 8.658054136000032, 55.258609083000067 ], [ 8.661800176000042, 55.317082245000051 ], [ 8.638054077000049, 55.402773124000078 ], [ 8.618191146000072, 55.431109154000069 ], [ 8.594582174000038, 55.442082238000069 ], [ 8.53610917900005, 55.449164276000033 ], [ 8.474027104000072, 55.454027121000081 ], [ 8.444863278000071, 55.452082184000062 ], [ 8.307500145000063, 55.553327025000044 ], [ 8.256945032000033, 55.491100111000037 ], [ 8.092918227000041, 55.556209059000082 ], [ 8.123054019000051, 55.598327117000053 ], [ 8.13944516600003, 55.62471804200004 ], [ 8.180418088000067, 55.716800122000052 ], [ 8.185554015000037, 55.743045034000033 ], [ 8.183609078000075, 55.755273225000053 ], [ 8.16639114000003, 55.848327103000031 ], [ 8.153327106000063, 55.899164184000028 ], [ 8.143054078000034, 55.938044983000054 ], [ 8.134445025000048, 55.95944498700004 ], [ 8.127709160000052, 55.98381805300005 ], [ 8.148473146000072, 55.973473108000064 ], [ 8.16013606100006, 55.948191109000049 ], [ 8.168054110000071, 55.920553962000042 ], [ 8.173336050000046, 55.897500208000054 ], [ 8.182218185000067, 55.839436083000066 ], [ 8.191391173000056, 55.810691184000063 ], [ 8.276663291000034, 55.835000212000068 ], [ 8.323891125000046, 55.85610919700008 ], [ 8.39569117800005, 55.894718087000058 ], [ 8.385273143000063, 55.923336084000027 ], [ 8.316945042000043, 56.014018050000061 ], [ 8.311391193000077, 56.051182236000045 ], [ 8.262918143000036, 56.078882247000081 ], [ 8.223891164000065, 56.092773239000053 ], [ 8.141454140000064, 56.10902709100003 ], [ 8.146109114000069, 56.071727119000059 ], [ 8.126391190000049, 55.997464127000057 ], [ 8.108327182000039, 56.017773143000056 ], [ 8.101391157000023, 56.061800095000081 ], [ 8.105554114000029, 56.118045013000028 ], [ 8.12277322500006, 56.349164259000077 ], [ 8.12000015600006, 56.450273146000029 ], [ 8.121182172000033, 56.548263294000037 ], [ 8.160691111000062, 56.645545003000052 ], [ 8.175554069000043, 56.667773140000065 ], [ 8.194718118000026, 56.691382111000053 ], [ 8.220727163000049, 56.707427086000052 ], [ 8.237782157000026, 56.687773199000048 ], [ 8.217363338000041, 56.65943599600007 ], [ 8.205482158000052, 56.638882228000057 ], [ 8.249718155000039, 56.605000061000055 ], [ 8.327218070000072, 56.579991144000076 ], [ 8.396109100000047, 56.581663166000055 ], [ 8.415836077000051, 56.578327169000033 ], [ 8.470836114000065, 56.561100178000061 ], [ 8.519163318000039, 56.543054108000035 ], [ 8.592218142000036, 56.50388212200005 ], [ 8.643536177000044, 56.474300206000066 ], [ 8.740209193000055, 56.490127084000051 ], [ 8.75691818100006, 56.549000063000051 ], [ 8.762573284000041, 56.560582177000072 ], [ 8.713891190000027, 56.584782240000038 ], [ 8.68082709600003, 56.617844992000073 ], [ 8.841945046000035, 56.722636049000073 ], [ 8.867918217000067, 56.756663223000032 ], [ 8.960000129000036, 56.805273233000037 ], [ 9.072782157000063, 56.807618154000068 ], [ 9.110836165000023, 56.792282121000028 ], [ 9.141736051000066, 56.697845062000056 ], [ 9.054309113000045, 56.62930020400006 ], [ 9.044718204000048, 56.595618029000036 ], [ 9.062918165000042, 56.565753979000078 ], [ 9.091873282000051, 56.571800181000071 ], [ 9.102154022000036, 56.603154031000031 ], [ 9.17777320600004, 56.626663258000065 ], [ 9.218336085000033, 56.633745128000044 ], [ 9.248891140000069, 56.633327038000061 ], [ 9.278309105000062, 56.61312715400004 ], [ 9.251245113000039, 56.581800127000065 ], [ 9.272918201000039, 56.553054054000029 ], [ 9.318263291000051, 56.525409196000055 ], [ 9.373573291000071, 56.557082229000059 ], [ 9.352918102000046, 56.568463177000069 ], [ 9.323054052000032, 56.676382193000052 ], [ 9.320000189000041, 56.681391218000044 ], [ 9.297500143000036, 56.703191207000032 ], [ 9.267327136000063, 56.696109170000057 ], [ 9.171836136000024, 56.674645127000076 ], [ 9.165000191000047, 56.892491127000028 ], [ 9.178200180000033, 56.916027008000071 ], [ 9.302573206000034, 56.999854086000028 ], [ 9.365554157000076, 57.012218064000081 ], [ 9.417636118000075, 57.019163142000082 ], [ 9.472500201000059, 57.019163142000082 ], [ 9.519445061000056, 57.01582714400007 ], [ 9.555136043000061, 57.005963153000039 ], [ 9.686109148000071, 57.038609157000053 ], [ 9.769445047000033, 57.053745030000073 ], [ 9.807218094000064, 57.050554040000065 ], [ 9.853609078000034, 57.045554067000069 ], [ 9.950791211000023, 57.058509136000055 ], [ 9.974273280000034, 57.071727062000036 ], [ 10.123609123000051, 57.018327131000035 ], [ 10.152218068000025, 57.005273154000065 ], [ 10.179445171000054, 56.994163277000041 ], [ 10.211391119000041, 56.985827139000037 ], [ 10.237082155000053, 56.982218059000047 ], [ 10.311891144000072, 56.981309126000042 ], [ 10.285136109000064, 56.95763611600006 ], [ 10.269509224000046, 56.912982198000066 ], [ 10.281109108000066, 56.825554086000068 ], [ 10.286527170000056, 56.80027326000004 ], [ 10.305273296000053, 56.74805400300005 ], [ 10.240554107000037, 56.717773204000082 ], [ 10.156945126000039, 56.720273191000047 ], [ 9.866391145000023, 56.650273235000043 ], [ 9.886391204000063, 56.641936091000048 ], [ 9.933054098000071, 56.641663176000066 ], [ 10.003609103000031, 56.659163249000073 ], [ 10.077218139000024, 56.686100171000078 ], [ 10.177218100000061, 56.696391137000035 ], [ 10.31610908600004, 56.696109170000057 ], [ 10.343054054000049, 56.692636044000039 ], [ 10.356945047000067, 56.676527032000081 ], [ 10.361945020000064, 56.645000180000068 ], [ 10.328745140000024, 56.616263160000074 ], [ 10.307945112000027, 56.610445113000083 ], [ 10.279300125000077, 56.596800213000051 ], [ 10.245554080000034, 56.573327028000051 ], [ 10.214718064000067, 56.54430016200007 ], [ 10.187773263000054, 56.468609062000041 ], [ 10.228473270000052, 56.481109162000052 ], [ 10.224163296000029, 56.506945037000037 ], [ 10.231873305000022, 56.548745085000064 ], [ 10.308663273000036, 56.578163219000032 ], [ 10.330082221000055, 56.568073251000044 ], [ 10.364027085000032, 56.557145094000077 ], [ 10.420273176000023, 56.52610908500003 ], [ 10.50889118300006, 56.510827032000066 ], [ 10.53028213500005, 56.508327045000044 ], [ 10.585000205000028, 56.511382249000064 ], [ 10.646109141000068, 56.521663156000045 ], [ 10.765273150000041, 56.532491234000076 ], [ 10.786945063000076, 56.534163256000056 ], [ 10.84763607800005, 56.522353993000081 ], [ 10.866663333000076, 56.512363267000069 ], [ 10.961945121000042, 56.442218137000054 ], [ 10.92139112600006, 56.343609069000081 ], [ 10.907500133000042, 56.328609150000034 ], [ 10.745000176000076, 56.163891174000071 ], [ 10.683891240000037, 56.19437313800006 ], [ 10.683891240000037, 56.219436034000069 ], [ 10.641945179000061, 56.229436148000048 ], [ 10.616391271000055, 56.225482236000062 ], [ 10.589718211000047, 56.207218069000078 ], [ 10.552427123000029, 56.157244995000042 ], [ 10.574236165000059, 56.12096426200003 ], [ 10.548818211000025, 56.100409153000044 ], [ 10.519718087000058, 56.099718149000068 ], [ 10.390000256000064, 56.161945063000076 ], [ 10.35569111500007, 56.197491206000052 ], [ 10.437363206000043, 56.219927046000066 ], [ 10.479445054000053, 56.220554013000083 ], [ 10.50492721300003, 56.271036036000055 ], [ 10.448609205000025, 56.291936144000033 ], [ 10.400554078000027, 56.290836103000061 ], [ 10.239363206000064, 56.172609191000049 ], [ 10.21777326800003, 56.141800165000063 ], [ 10.238400126000045, 56.118745069000056 ], [ 10.258745016000034, 56.08763613900004 ], [ 10.279718215000059, 56.018882237000071 ], [ 10.250836188000051, 55.917354087000035 ], [ 10.184582272000057, 55.828191089000029 ], [ 10.143054133000021, 55.841173148000053 ], [ 10.128400219000071, 55.865900098000054 ], [ 10.099718185000029, 55.877918071000067 ], [ 10.055554104000066, 55.87846423600007 ], [ 10.012291246000075, 55.874618115000033 ], [ 9.982500118000075, 55.871664165000027 ], [ 9.869582136000076, 55.843745051000042 ], [ 9.887218163000057, 55.834300155000051 ], [ 9.922782243000029, 55.828609178000079 ], [ 9.956391160000067, 55.825000098000032 ], [ 10.000000191000026, 55.821636105000039 ], [ 10.044445065000048, 55.81569115700006 ], [ 10.045827073000055, 55.750273252000056 ], [ 9.992773146000047, 55.704991193000069 ], [ 9.831663244000026, 55.671391161000031 ], [ 9.806945179000024, 55.669854088000079 ], [ 9.730127048000043, 55.687064147000058 ], [ 9.679863289000025, 55.706245126000056 ], [ 9.644300215000044, 55.711391112000058 ], [ 9.554582167000035, 55.702982219000035 ], [ 9.577773217000072, 55.693609072000072 ], [ 9.616663236000022, 55.695000132000075 ], [ 9.646109197000044, 55.689718025000047 ], [ 9.721718155000076, 55.653109057000052 ], [ 9.819163312000057, 55.604718150000053 ], [ 9.704163264000044, 55.531109115000049 ], [ 9.589718099000038, 55.418191132000061 ], [ 9.600836191000042, 55.39958213400007 ], [ 9.610273208000024, 55.394436148000068 ] ] ], [ [ [ 12.339454082000032, 55.590209076000065 ], [ 12.269445074000032, 55.560000194000054 ], [ 12.253336062000074, 55.55250006700004 ], [ 12.244445042000052, 55.543609047000075 ], [ 12.205827099000032, 55.502218035000055 ], [ 12.192363248000049, 55.482427021000035 ], [ 12.191663191000032, 55.461664208000059 ], [ 12.197918103000063, 55.448464220000062 ], [ 12.206663278000065, 55.438327146000063 ], [ 12.22791810800004, 55.426109181000072 ], [ 12.297782277000067, 55.403054085000065 ], [ 12.343609159000039, 55.401664198000049 ], [ 12.363891186000046, 55.398891129000049 ], [ 12.376663194000059, 55.395273165000049 ], [ 12.399445040000046, 55.381100205000052 ], [ 12.433336092000047, 55.359582183000043 ], [ 12.444163331000027, 55.348327131000076 ], [ 12.452773222000076, 55.333473225000034 ], [ 12.462218118000067, 55.289582227000039 ], [ 12.44624506100007, 55.274436128000048 ], [ 12.425836132000029, 55.261664119000045 ], [ 12.41250018900007, 55.255827129000068 ], [ 12.329582212000048, 55.234164268000029 ], [ 12.315554091000024, 55.232773207000037 ], [ 12.293891230000042, 55.233054001000028 ], [ 12.272500110000067, 55.233891186000051 ], [ 12.243891165000036, 55.236935996000057 ], [ 12.203336165000053, 55.228054028000031 ], [ 12.176109229000076, 55.220554069000059 ], [ 12.036109150000073, 55.173336126000038 ], [ 12.025554154000076, 55.16944507900007 ], [ 12.015073255000061, 55.153227102000074 ], [ 12.061800186000028, 55.13180010800005 ], [ 12.075000175000071, 55.128882199000032 ], [ 12.091527108000037, 55.129164167000056 ], [ 12.115000125000051, 55.132773247000046 ], [ 12.130554088000054, 55.13360909000005 ], [ 12.149445054000068, 55.130273260000081 ], [ 12.17874517000007, 55.11847321700003 ], [ 12.171245043000056, 55.000209089000066 ], [ 12.158609156000068, 54.992773167000053 ], [ 12.071945139000036, 54.968609146000063 ], [ 12.041109122000023, 54.966382242000066 ], [ 12.013336189000029, 54.968327011000042 ], [ 11.995000105000031, 54.971382215000062 ], [ 11.978336044000059, 54.979164142000059 ], [ 11.951663319000033, 54.999582123000039 ], [ 11.941109162000032, 55.002627100000041 ], [ 11.912082128000065, 55.004018161000033 ], [ 11.896036148000064, 54.98784511100007 ], [ 11.900909219000027, 54.978827021000029 ], [ 11.859718199000042, 55.013882152000065 ], [ 11.840273190000062, 55.023327048000056 ], [ 11.730554077000022, 55.060554098000068 ], [ 11.78305412800006, 55.132500164000078 ], [ 11.79778213700007, 55.15582716800003 ], [ 11.741109240000071, 55.198882155000035 ], [ 11.730836044000057, 55.203609046000054 ], [ 11.717782236000062, 55.206664250000074 ], [ 11.694509211000025, 55.20760017300006 ], [ 11.683336134000058, 55.204164263000052 ], [ 11.658336102000021, 55.187218066000071 ], [ 11.612218200000029, 55.187218066000071 ], [ 11.553054033000024, 55.190827146000061 ], [ 11.54305408700003, 55.192773257000056 ], [ 11.518891240000073, 55.200000134000049 ], [ 11.453891257000066, 55.212491181000075 ], [ 11.427773247000061, 55.215827011000044 ], [ 11.41694516900003, 55.215827011000044 ], [ 11.40027322800006, 55.21221809900004 ], [ 11.350827208000055, 55.201382142000057 ], [ 11.323054107000075, 55.190554064000082 ], [ 11.306109083000024, 55.188891094000041 ], [ 11.272782133000021, 55.192773257000056 ], [ 11.257773162000035, 55.19541808200006 ], [ 11.245418069000038, 55.202073146000032 ], [ 11.187773206000031, 55.338882235000028 ], [ 11.217636083000059, 55.396382091000078 ], [ 11.203609136000068, 55.44888214100007 ], [ 11.149163310000063, 55.567500153000083 ], [ 11.144445137000048, 55.577500099000076 ], [ 11.086391237000043, 55.666382136000038 ], [ 11.075282198000025, 55.672773169000038 ], [ 10.994163312000069, 55.692500146000043 ], [ 10.879718147000062, 55.73430019400007 ], [ 10.89721822000007, 55.739164213000038 ], [ 10.94083613600003, 55.73888224600006 ], [ 10.953054101000021, 55.738054114000079 ], [ 11.129445051000062, 55.72166414000003 ], [ 11.138609153000061, 55.713609131000055 ], [ 11.152773229000047, 55.707773147000069 ], [ 11.168609158000038, 55.702773174000072 ], [ 11.189163261000033, 55.699164262000068 ], [ 11.201109150000036, 55.698053995000066 ], [ 11.21110909500004, 55.698882127000047 ], [ 11.343336133000037, 55.747500183000056 ], [ 11.486945125000034, 55.84166416000005 ], [ 11.498191124000073, 55.853473256000029 ], [ 11.506391140000062, 55.867218068000057 ], [ 11.511663189000046, 55.879436033000047 ], [ 11.516109119000021, 55.895136009000055 ], [ 11.509027081000056, 55.916518076000045 ], [ 11.491663298000049, 55.930273114000045 ], [ 11.474445025000023, 55.938191163000056 ], [ 11.449163193000061, 55.942500132000077 ], [ 11.379718119000074, 55.946936003000076 ], [ 11.359718228000077, 55.949164248000045 ], [ 11.277427049000039, 55.976382132000026 ], [ 11.273336177000033, 55.991664185000047 ], [ 11.312773199000048, 55.981109190000041 ], [ 11.409163242000034, 55.961391098000036 ], [ 11.606391268000039, 55.936382181000056 ], [ 11.664445168000043, 55.941664121000031 ], [ 11.706391229000076, 55.950827050000044 ], [ 11.741245027000048, 55.960964124000043 ], [ 11.752782214000035, 55.964436076000027 ], [ 11.768336176000048, 55.963473162000071 ], [ 11.779300208000052, 55.952427155000066 ], [ 11.739718179000022, 55.921391147000065 ], [ 11.670273273000021, 55.890545073000055 ], [ 11.670554067000069, 55.814164142000038 ], [ 11.717500101000041, 55.793327065000028 ], [ 11.733263276000059, 55.793818077000083 ], [ 11.745282254000074, 55.784164137000062 ], [ 11.765554055000052, 55.758609055000079 ], [ 11.799863196000047, 55.685554063000041 ], [ 11.794436082000061, 55.661664130000077 ], [ 11.823327161000066, 55.679091113000027 ], [ 11.832082226000068, 55.707018105000031 ], [ 11.843609187000027, 55.764445039000066 ], [ 11.904027119000034, 55.926800157000059 ], [ 11.914163187000042, 55.929718065000031 ], [ 11.925000150000074, 55.928891106000037 ], [ 11.941109162000032, 55.924436125000057 ], [ 11.959445078000044, 55.917218133000063 ], [ 11.989863340000056, 55.902909050000062 ], [ 12.000136033000047, 55.891800179000029 ], [ 12.035273306000022, 55.806391100000042 ], [ 12.040554073000067, 55.793327065000028 ], [ 12.056245163000028, 55.746800127000029 ], [ 12.055418205000024, 55.73305397300004 ], [ 12.048191160000044, 55.722500151000077 ], [ 12.028609190000054, 55.715000192000048 ], [ 12.009718224000039, 55.715273106000041 ], [ 11.970554117000063, 55.71750017800008 ], [ 11.936663233000047, 55.676936125000054 ], [ 11.935836106000068, 55.653327154000067 ], [ 12.05958216700003, 55.65569118600007 ], [ 12.092218113000058, 55.698327078000034 ], [ 12.093891140000039, 55.71110914500008 ], [ 12.091527108000037, 55.725273220000076 ], [ 12.087773189000075, 55.73888224600006 ], [ 12.072218221000071, 55.764536066000062 ], [ 12.04097316800005, 55.921664229000044 ], [ 12.011109117000046, 55.957773133000046 ], [ 11.979163337000045, 55.956664207000074 ], [ 11.933891170000038, 55.950000091000049 ], [ 11.886663336000026, 55.936945109000078 ], [ 11.871245160000058, 55.936664148000034 ], [ 11.851109147000045, 55.945827077000047 ], [ 11.847082145000059, 55.955554108000058 ], [ 11.862636108000061, 55.968191168000033 ], [ 11.919163327000035, 55.99443608100006 ], [ 12.174163286000066, 56.103609196000036 ], [ 12.200282135000066, 56.112218081000037 ], [ 12.275000096000042, 56.12721816800007 ], [ 12.290554059000044, 56.128882143000055 ], [ 12.301663266000048, 56.128609061000077 ], [ 12.312500228000033, 56.12721816800007 ], [ 12.331391194000048, 56.124164137000037 ], [ 12.514163287000031, 56.087773267000046 ], [ 12.533609135000063, 56.080827016000057 ], [ 12.617291207000051, 56.040136061000055 ], [ 12.593891112000051, 56.004718161000028 ], [ 12.584163243000035, 55.999445106000053 ], [ 12.570273256000064, 55.994018159000063 ], [ 12.527773151000076, 55.945827077000047 ], [ 12.51624518400007, 55.922500073000037 ], [ 12.519163260000028, 55.911382149000076 ], [ 12.558873197000025, 55.867236006000041 ], [ 12.566945137000062, 55.85750009000003 ], [ 12.575136101000055, 55.846800087000076 ], [ 12.597500192000041, 55.79610918700007 ], [ 12.600000179000062, 55.767218108000066 ], [ 12.600273261000041, 55.75443604000003 ], [ 12.584163243000035, 55.73527316600007 ], [ 12.597982152000043, 55.702564130000042 ], [ 12.561391121000042, 55.666936012000065 ], [ 12.550000114000056, 55.657218033000049 ], [ 12.540836180000042, 55.650836052000045 ], [ 12.524163233000024, 55.639445046000048 ], [ 12.502782171000035, 55.631382158000065 ], [ 12.49284509000006, 55.603609057000028 ], [ 12.442573284000048, 55.607636058000082 ], [ 12.432500248000053, 55.615554107000037 ], [ 12.421663286000069, 55.616391124000074 ], [ 12.403891136000027, 55.616664206000053 ], [ 12.391391204000058, 55.613609170000075 ], [ 12.380836041000066, 55.609991206000075 ], [ 12.344445170000029, 55.593045009000036 ], [ 12.339454082000032, 55.590209076000065 ] ] ], [ [ [ 8.415800202000071, 56.678127137000047 ], [ 8.443463333000068, 56.67418211100005 ], [ 8.488382287000036, 56.670345043000054 ], [ 8.516945131000057, 56.668191229000058 ], [ 8.543336056000044, 56.678054047000046 ], [ 8.579063248000068, 56.687673119000067 ], [ 8.607218061000026, 56.630553969000061 ], [ 8.598191254000028, 56.607218080000052 ], [ 8.545900248000066, 56.585173172000054 ], [ 8.478054106000059, 56.631382101000042 ], [ 8.454118073000075, 56.646827099000063 ], [ 8.398282192000067, 56.672045061000063 ], [ 8.368327114000067, 56.677218036000056 ], [ 8.244163300000025, 56.704300133000061 ], [ 8.235273286000051, 56.74624502100005 ], [ 8.236109129000056, 56.77221802400004 ], [ 8.245836160000067, 56.806663288000038 ], [ 8.260136190000026, 56.827773111000056 ], [ 8.290554116000067, 56.860273102000065 ], [ 8.336663301000044, 56.905545103000065 ], [ 8.378891162000059, 56.945545053000046 ], [ 8.450554087000057, 57.00500007200003 ], [ 8.577218223000045, 57.096109181000031 ], [ 8.618473280000046, 57.121527134000075 ], [ 8.646945097000071, 57.12319111000005 ], [ 8.713891190000027, 57.106109126000035 ], [ 8.737218194000036, 57.102218079000068 ], [ 8.766109106000044, 57.101109153000039 ], [ 8.805000131000043, 57.103882222000038 ], [ 8.84666321900005, 57.108327146000079 ], [ 8.894163297000034, 57.119991234000054 ], [ 9.017218185000047, 57.153609204000077 ], [ 9.079718182000022, 57.145273234000058 ], [ 9.161391111000057, 57.137500192000061 ], [ 9.196109122000053, 57.136109131000069 ], [ 9.243891167000072, 57.136936090000063 ], [ 9.265273234000063, 57.138882200000069 ], [ 9.391318115000047, 57.152145053000027 ], [ 9.466245121000043, 57.178891203000035 ], [ 9.495836090000068, 57.190273157000036 ], [ 9.543745037000065, 57.215691111000069 ], [ 9.580554165000024, 57.241100180000046 ], [ 9.64944502700007, 57.303327094000053 ], [ 9.707782235000025, 57.365000132000034 ], [ 9.725973144000022, 57.387353998000037 ], [ 9.768191114000047, 57.440136015000064 ], [ 9.793336153000041, 57.462218139000072 ], [ 9.957709131000058, 57.586244993000037 ], [ 10.000000191000026, 57.589718119000054 ], [ 10.043609222000043, 57.588609193000082 ], [ 10.104163275000076, 57.589718119000054 ], [ 10.128609096000048, 57.590273168000067 ], [ 10.161109088000046, 57.592218105000029 ], [ 10.181109147000029, 57.594991174000029 ], [ 10.218336196000052, 57.602218051000079 ], [ 10.266945032000024, 57.613054008000063 ], [ 10.295273183000063, 57.623191082000062 ], [ 10.408336172000077, 57.673609068000076 ], [ 10.453336096000044, 57.697491121000041 ], [ 10.510000109000032, 57.725273107000078 ], [ 10.540836125000055, 57.738882133000061 ], [ 10.569163269000057, 57.745973223000078 ], [ 10.605273179000051, 57.74416323500003 ], [ 10.645000215000039, 57.737500125000054 ], [ 10.645954076000066, 57.736263291000057 ], [ 10.621945120000021, 57.727773261000038 ], [ 10.569163269000057, 57.706663270000035 ], [ 10.526391256000068, 57.683609181000065 ], [ 10.505554012000061, 57.666663152000069 ], [ 10.481109197000023, 57.645827082000039 ], [ 10.458191230000068, 57.625409101000059 ], [ 10.442636094000022, 57.609163296000077 ], [ 10.431800137000039, 57.585691117000067 ], [ 10.435836191000021, 57.551382143000069 ], [ 10.44610921900005, 57.532145005000075 ], [ 10.528054057000077, 57.413891103000083 ], [ 10.53027325000005, 57.222563266000066 ], [ 10.448054156000069, 57.180691133000039 ], [ 10.419027122000045, 57.150273207000055 ], [ 10.336618094000073, 56.991663291000066 ], [ 10.245000204000064, 56.989718186000061 ], [ 10.223336169000049, 56.991936038000063 ], [ 10.193054029000052, 57.002773168000033 ], [ 10.151945153000042, 57.024718164000035 ], [ 10.119718076000026, 57.04166318700004 ], [ 10.02639111600007, 57.084991089000027 ], [ 10.004718197000045, 57.08961806700006 ], [ 9.500000219000071, 57.046391084000049 ], [ 9.289445134000061, 57.004718105000052 ], [ 9.269718158000046, 56.998327071000062 ], [ 9.249582144000044, 56.99582708500003 ], [ 9.227636142000051, 56.999300210000058 ], [ 9.203609081000025, 57.011663182000063 ], [ 9.18139117000004, 57.02389120600003 ], [ 9.159163201000069, 57.035273160000031 ], [ 9.140554035000036, 57.04277311900006 ], [ 9.115545118000057, 57.05277323200005 ], [ 9.115554003000057, 57.038673195000058 ], [ 9.030327147000037, 57.015653974000031 ], [ 8.88582715900003, 56.997500113000058 ], [ 8.82716322400006, 56.971073145000048 ], [ 8.767773249000072, 56.951036038000041 ], [ 8.730000202000042, 56.957082240000034 ], [ 8.676600103000055, 56.948118130000069 ], [ 8.618191146000072, 56.879436145000057 ], [ 8.613473140000053, 56.853191232000029 ], [ 8.567218110000056, 56.816182112000035 ], [ 8.533054143000072, 56.803891225000029 ], [ 8.507782202000044, 56.798882199000047 ], [ 8.486318160000053, 56.785753960000079 ], [ 8.463054020000072, 56.697773145000042 ], [ 8.415800202000071, 56.678127137000047 ] ] ], [ [ [ 10.000300095000057, 55.541264126000044 ], [ 10.073891194000055, 55.556664196000042 ], [ 10.124718217000066, 55.568054029000052 ], [ 10.148609155000031, 55.57416426900005 ], [ 10.171245155000065, 55.581527100000073 ], [ 10.212500212000066, 55.598882166000067 ], [ 10.294300212000053, 55.615827022000076 ], [ 10.318473285000039, 55.614436129000069 ], [ 10.40236322800007, 55.587218077000045 ], [ 10.484718109000028, 55.532491123000057 ], [ 10.473609238000051, 55.515000102000045 ], [ 10.448745160000044, 55.480136079000033 ], [ 10.423473219000073, 55.463327010000057 ], [ 10.425209111000072, 55.44152702100007 ], [ 10.473745024000038, 55.437636142000031 ], [ 10.603891171000043, 55.48610013800004 ], [ 10.614163193000024, 55.519436141000028 ], [ 10.617500196000037, 55.563891073000036 ], [ 10.616036046000033, 55.610518092000063 ], [ 10.660273216000064, 55.587635999000042 ], [ 10.745345175000068, 55.491664213000035 ], [ 10.790554143000065, 55.362782226000036 ], [ 10.83145414300003, 55.29937312800007 ], [ 10.81374502500006, 55.195827119000057 ], [ 10.783327099000076, 55.124091104000058 ], [ 10.734863270000062, 55.065273110000078 ], [ 10.665554150000048, 55.060554098000068 ], [ 10.621809165000059, 55.060691226000074 ], [ 10.591527193000047, 55.055409118000057 ], [ 10.529445118000069, 55.029445 ], [ 10.519445172000076, 55.028609156000073 ], [ 10.497773259000041, 55.02888223900004 ], [ 10.152773285000023, 55.08444503700008 ], [ 10.135273212000072, 55.117218111000057 ], [ 10.151945153000042, 55.129791133000026 ], [ 10.111036101000025, 55.183054105000053 ], [ 10.00583617500007, 55.193327133000082 ], [ 9.896800187000053, 55.282773104000057 ], [ 9.88777321300006, 55.339436111000055 ], [ 9.810836058000064, 55.436664176000079 ], [ 9.768054154000026, 55.466944975000047 ], [ 9.728891220000037, 55.474164141000074 ], [ 9.679718114000025, 55.497082108000029 ], [ 9.748609144000056, 55.540273217000049 ], [ 9.826109227000074, 55.544854095000062 ], [ 9.843127173000028, 55.520345074000033 ], [ 9.87402705900007, 55.50790918000007 ], [ 9.900136185000065, 55.505691161000072 ], [ 9.928745129000049, 55.51236416100005 ], [ 10.000300095000057, 55.541264126000044 ] ] ], [ [ [ 10.989891224000075, 54.790845073000071 ], [ 11.025273249000065, 54.814436107000063 ], [ 11.014027082000041, 54.893054 ], [ 11.029718172000059, 54.912491131000081 ], [ 11.042218105000075, 54.92304512000004 ], [ 11.057782125000074, 54.935000061000039 ], [ 11.071391151000057, 54.940827160000026 ], [ 11.118891229000042, 54.950827106000077 ], [ 11.136391134000064, 54.95389119500004 ], [ 11.164445029000035, 54.95666426400004 ], [ 11.193145168000058, 54.957400195000048 ], [ 11.239718207000067, 54.957218140000066 ], [ 11.275554029000034, 54.949718180000048 ], [ 11.288327211000023, 54.94305406400008 ], [ 11.336800260000075, 54.914436068000043 ], [ 11.349163232000024, 54.894027139000059 ], [ 11.361109121000027, 54.88389107100005 ], [ 11.393327145000057, 54.868045083000027 ], [ 11.408891166000046, 54.86250011900006 ], [ 11.513891267000076, 54.829718160000027 ], [ 11.564445040000066, 54.821936066000035 ], [ 11.642500172000041, 54.877773120000029 ], [ 11.644027187000063, 54.904373258000078 ], [ 11.656945041000029, 54.90388224600008 ], [ 11.708609081000077, 54.875273134000054 ], [ 11.735282141000027, 54.855000160000031 ], [ 11.847218099000031, 54.767918053000074 ], [ 11.861945103000039, 54.744582164000064 ], [ 11.857218213000067, 54.686382084000059 ], [ 11.844163231000039, 54.669445107000058 ], [ 11.833891209000058, 54.661109137000039 ], [ 11.780282232000047, 54.640418073000035 ], [ 11.736391234000052, 54.645273207000059 ], [ 11.722500241000034, 54.651109191000046 ], [ 11.693891129000065, 54.655545062000044 ], [ 11.640554062000035, 54.662500197000043 ], [ 11.58360908800006, 54.663464116000057 ], [ 11.522500152000077, 54.641936036000061 ], [ 11.469445052000026, 54.621382101000052 ], [ 11.454927093000038, 54.619854080000039 ], [ 11.377218133000042, 54.646664268000052 ], [ 11.350273164000043, 54.658882233000043 ], [ 11.315282238000066, 54.675554006000027 ], [ 11.278054015000066, 54.699718027000074 ], [ 11.262218086000075, 54.707218154000032 ], [ 11.245836159000021, 54.711664251000059 ], [ 11.19055415400004, 54.725554070000044 ], [ 11.144445137000048, 54.736936024000045 ], [ 11.125554004000037, 54.740273195000043 ], [ 11.099163246000046, 54.74249121400004 ], [ 11.028891214000055, 54.757354005000082 ], [ 11.019718227000055, 54.762773241000048 ], [ 10.993054051000058, 54.785000204000028 ], [ 10.989891224000075, 54.790845073000071 ] ] ], [ [ [ 15.042500182000026, 54.994718104000071 ], [ 14.942500221000046, 55.013327103000051 ], [ 14.881945161000033, 55.02888223900004 ], [ 14.746945055000026, 55.065273110000078 ], [ 14.72944515000006, 55.072773237000035 ], [ 14.678745029000027, 55.100827131000074 ], [ 14.698891269000057, 55.21500005200005 ], [ 14.745273200000042, 55.294027150000034 ], [ 14.765973149000047, 55.305273150000062 ], [ 14.802082220000045, 55.279027064000047 ], [ 14.812773170000071, 55.269164246000059 ], [ 14.822636155000055, 55.258882165000045 ], [ 14.838609213000041, 55.25054502100005 ], [ 14.887218217000054, 55.229436036000038 ], [ 14.997500258000059, 55.187218066000071 ], [ 15.069300144000067, 55.161109109000051 ], [ 15.090827218000072, 55.155273125000065 ], [ 15.123054127000046, 55.148891144000061 ], [ 15.137636124000039, 55.141391184000042 ], [ 15.148609209000028, 55.129164167000056 ], [ 15.14916325300004, 55.08582704500003 ], [ 15.105282145000047, 55.023191094000026 ], [ 15.076663310000072, 55.001109138000061 ], [ 15.056527129000074, 54.995691075000082 ], [ 15.042500182000026, 54.994718104000071 ] ] ], [ [ [ 11.850591145000067, 54.954782191000049 ], [ 11.86503618200004, 54.947564199000055 ], [ 11.99694504200005, 54.90388224600008 ], [ 12.020000137000068, 54.896382119000066 ], [ 12.038054086000045, 54.892491072000041 ], [ 12.060836099000028, 54.891109063000044 ], [ 12.082363341000075, 54.893609050000066 ], [ 12.099582285000054, 54.891382146000069 ], [ 12.11055402900007, 54.88750015100004 ], [ 12.119445049000035, 54.88221804300008 ], [ 12.136663322000061, 54.868609185000082 ], [ 12.168191180000065, 54.837700079000058 ], [ 12.158336074000033, 54.828609067000059 ], [ 12.11971813100007, 54.806391156000075 ], [ 12.107218199000044, 54.799718155000051 ], [ 12.088609200000064, 54.793609089000029 ], [ 12.075136129000043, 54.787491138000064 ], [ 12.055273198000066, 54.774718123000071 ], [ 11.981391247000033, 54.710273190000066 ], [ 11.969718106000073, 54.699436060000039 ], [ 11.961945064000076, 54.680545094000081 ], [ 11.95860923400005, 54.663327156000037 ], [ 11.960000127000058, 54.647773193000035 ], [ 11.963054158000034, 54.62971807100007 ], [ 11.967782222000039, 54.609445097000048 ], [ 11.974445164000031, 54.586935999000048 ], [ 11.979027215000031, 54.570200188000058 ], [ 11.966800198000044, 54.561936134000064 ], [ 11.944718074000036, 54.567500209000059 ], [ 11.926245030000075, 54.574445119000075 ], [ 11.871945049000033, 54.651382106000028 ], [ 11.871109206000028, 54.667218035000076 ], [ 11.877782207000052, 54.687773144000062 ], [ 11.891945108000073, 54.701109088000067 ], [ 11.899163268000052, 54.718609160000028 ], [ 11.856109119000052, 54.774164247000044 ], [ 11.801945093000029, 54.839164230000051 ], [ 11.792773280000063, 54.844718079000074 ], [ 11.781945034000046, 54.848882209000067 ], [ 11.753745127000059, 54.85694509700005 ], [ 11.710973280000076, 54.939164191000032 ], [ 11.73221822000005, 54.954436018000081 ], [ 11.746527135000065, 54.960000093000076 ], [ 11.766945115000055, 54.961664236000047 ], [ 11.846663217000071, 54.956109046000051 ], [ 11.850591145000067, 54.954782191000049 ] ] ], [ [ [ 8.655282241000066, 56.674163168000064 ], [ 8.63694515100002, 56.697218095000039 ], [ 8.603054099000076, 56.72582704000007 ], [ 8.55930911400003, 56.738054057000056 ], [ 8.542773295000075, 56.738609107000059 ], [ 8.51736322000005, 56.732009196000035 ], [ 8.509445172000028, 56.738609107000059 ], [ 8.546109125000044, 56.793327009000052 ], [ 8.617009130000042, 56.830845078000038 ], [ 8.653400168000076, 56.889854012000058 ], [ 8.66889126600006, 56.892773261000059 ], [ 8.696945161000031, 56.89221804400006 ], [ 8.736109101000068, 56.894445116000043 ], [ 8.815418166000029, 56.905827070000043 ], [ 8.826391251000075, 56.914718090000065 ], [ 8.839163260000021, 56.935553992000052 ], [ 8.858536185000048, 56.954091074000075 ], [ 8.899718152000048, 56.955273258000034 ], [ 8.910827191000067, 56.948327007000046 ], [ 8.924718184000028, 56.920554074000052 ], [ 8.878891134000071, 56.798609117000069 ], [ 8.831391224000072, 56.743327112000031 ], [ 8.768473305000043, 56.692909127000064 ], [ 8.745000121000032, 56.687218150000035 ], [ 8.735000175000039, 56.685554007000064 ], [ 8.655282241000066, 56.674163168000064 ] ] ], [ [ [ 10.000000191000026, 54.983718030000034 ], [ 10.004718197000045, 54.979718185000081 ], [ 10.043054004000055, 54.939027063000026 ], [ 10.069163298000035, 54.895264140000052 ], [ 10.072500133000062, 54.885409202000062 ], [ 10.069300258000055, 54.873882241000047 ], [ 9.988891152000065, 54.859991080000043 ], [ 9.978609239000036, 54.858609072000036 ], [ 9.956391160000067, 54.858054022000033 ], [ 9.931663205000063, 54.861382141000036 ], [ 9.895836101000043, 54.87166422100006 ], [ 9.804163225000025, 54.899436149000053 ], [ 9.782918118000055, 54.909509185000047 ], [ 9.772500251000054, 54.92889116300006 ], [ 9.758336175000068, 54.961391154000069 ], [ 9.760763239000028, 54.979853972000058 ], [ 9.781391271000075, 54.969164196000065 ], [ 9.819163312000057, 54.946664150000061 ], [ 9.829163257000062, 54.941936086000055 ], [ 9.841736112000035, 54.941800132000083 ], [ 9.837500234000061, 54.97347316500003 ], [ 9.79624517700006, 55.013054020000027 ], [ 9.782773279000025, 55.015545122000049 ], [ 9.741945028000032, 55.012218177000079 ], [ 9.718054090000066, 55.009436056000027 ], [ 9.698745035000059, 55.010136112000055 ], [ 9.677918184000021, 55.016800060000037 ], [ 9.63145411000005, 55.049018085000057 ], [ 9.639445081000076, 55.058609161000049 ], [ 9.664718196000024, 55.067773264000039 ], [ 9.712363280000034, 55.081664257000057 ], [ 9.75416332900005, 55.08444503700008 ], [ 9.771945033000065, 55.080827072000034 ], [ 9.792500142000051, 55.075000141000032 ], [ 9.969027047000054, 55.010691162000057 ], [ 10.000000191000026, 54.983718030000034 ] ] ], [ [ [ 10.714718204000064, 54.725000194000074 ], [ 10.700418174000049, 54.727364226000077 ], [ 10.688327111000035, 54.737500126000043 ], [ 10.675000220000072, 54.753882221000026 ], [ 10.655554037000059, 54.80250010900005 ], [ 10.651945125000054, 54.837218120000045 ], [ 10.681945130000031, 54.908609136000052 ], [ 10.693609219000052, 54.922218162000036 ], [ 10.736663200000066, 54.959718126000041 ], [ 10.769863248000036, 54.978336010000078 ], [ 10.797500226000068, 54.988253980000081 ], [ 10.850554153000076, 55.045000136000056 ], [ 10.888745122000046, 55.108891193000034 ], [ 10.909445070000061, 55.141109049000079 ], [ 10.929027207000047, 55.157082107000065 ], [ 10.940136079000069, 55.160964269000033 ], [ 10.952082135000069, 55.159300126000062 ], [ 10.959091250000029, 55.147909120000065 ], [ 10.936945088000073, 55.090000059000033 ], [ 10.931109105000075, 55.075827099000037 ], [ 10.910554163000029, 55.028327021000052 ], [ 10.896800131000077, 54.999436110000033 ], [ 10.886109181000052, 54.988882120000028 ], [ 10.876945078000062, 54.983327098000075 ], [ 10.85777315100006, 54.967773135000073 ], [ 10.838891238000031, 54.943327147000048 ], [ 10.786945063000076, 54.84389112000008 ], [ 10.756945058000042, 54.777218110000035 ], [ 10.714718204000064, 54.725000194000074 ] ] ], [ [ [ 12.183609188000048, 54.88027310700005 ], [ 12.163609129000065, 54.883045002000074 ], [ 12.150836114000072, 54.886109091000037 ], [ 12.115836136000041, 54.904164213000058 ], [ 12.134027213000024, 54.954027149000069 ], [ 12.177773204000061, 54.982500139000081 ], [ 12.311945179000077, 55.035273105000044 ], [ 12.395282251000026, 55.032491151000045 ], [ 12.452218173000063, 55.026936128000045 ], [ 12.506663328000059, 55.015827089000027 ], [ 12.533327168000028, 55.005200177000063 ], [ 12.556454012000074, 54.963745128000028 ], [ 12.546391202000052, 54.948191165000082 ], [ 12.536663333000035, 54.945000175000075 ], [ 12.520554153000035, 54.944164164000028 ], [ 12.501663187000077, 54.94721802600003 ], [ 12.468336070000021, 54.95666426400004 ], [ 12.404163213000061, 54.963054124000053 ], [ 12.377218076000077, 54.963054124000053 ], [ 12.361663276000058, 54.962218113000063 ], [ 12.338054137000029, 54.958882115000051 ], [ 12.310418164000055, 54.949718180000048 ], [ 12.264163301000053, 54.919164132000049 ], [ 12.183609188000048, 54.88027310700005 ] ] ], [ [ [ 10.666891232000069, 55.892582210000057 ], [ 10.666245154000023, 55.872082087000081 ], [ 10.610973208000075, 55.761527131000037 ], [ 10.600273206000054, 55.75750012900005 ], [ 10.58916332900003, 55.75750012900005 ], [ 10.544718119000038, 55.761109041000054 ], [ 10.527773264000075, 55.767491190000044 ], [ 10.511663246000069, 55.805000207000035 ], [ 10.516391142000032, 55.970835994000026 ], [ 10.523609134000026, 55.98138210500008 ], [ 10.544163237000021, 55.994300126000041 ], [ 10.558891247000076, 55.997082247000037 ], [ 10.559163324000053, 55.986800167000069 ], [ 10.556663337000032, 55.969718183000055 ], [ 10.560554049000075, 55.952773160000049 ], [ 10.621945120000021, 55.870973161000052 ], [ 10.635273184000027, 55.864582127000062 ], [ 10.654863200000023, 55.864718082000081 ], [ 10.664582185000029, 55.873336020000067 ], [ 10.666891232000069, 55.892582210000057 ] ] ], [ [ [ 10.982218095000064, 57.221663217000071 ], [ 10.961945121000042, 57.238054029000068 ], [ 10.95000023800003, 57.245827071000065 ], [ 10.933891226000071, 57.250273168000035 ], [ 10.922500219000028, 57.250827044000062 ], [ 10.907773215000077, 57.24832705700004 ], [ 10.896109127000045, 57.244718145000036 ], [ 10.879863322000062, 57.246663249000051 ], [ 10.86500019600004, 57.252218104000065 ], [ 10.85763619100004, 57.264582250000046 ], [ 10.919718098000033, 57.30193603400005 ], [ 11.025836178000077, 57.32027312300005 ], [ 11.147363213000062, 57.331527169000083 ], [ 11.189791233000051, 57.325409051000065 ], [ 11.196391144000074, 57.312500082000042 ], [ 11.079163187000063, 57.250273168000035 ], [ 11.058336169000029, 57.240827098000068 ], [ 11.023891241000058, 57.229718059000049 ], [ 10.997500148000029, 57.22332702500006 ], [ 10.982218095000064, 57.221663217000071 ] ] ], [ [ [ 10.407218194000052, 54.821391075000065 ], [ 10.399445152000055, 54.824164144000065 ], [ 10.245691208000039, 54.905964143000062 ], [ 10.19083617800004, 54.95805398300007 ], [ 10.186736086000053, 54.974436078000053 ], [ 10.285554031000061, 54.936100102000069 ], [ 10.306663184000058, 54.926936 ], [ 10.440836164000075, 54.863882127000068 ], [ 10.432782161000034, 54.841664216000026 ], [ 10.407218194000052, 54.821391075000065 ] ] ], [ [ [ 10.565282281000066, 54.946109101000047 ], [ 10.55250021300003, 54.94846424800005 ], [ 10.515000249000025, 54.981109078000031 ], [ 10.501800260000039, 55.006727024000043 ], [ 10.627218175000053, 55.043609075000063 ], [ 10.675836063000077, 54.991936150000072 ], [ 10.669791202000056, 54.977145109000048 ], [ 10.615000210000062, 54.95027323000005 ], [ 10.565282281000066, 54.946109101000047 ] ] ] ] }
        }
    ]
}