{
    "type": "FeatureCollection",
    "features": [
        {
            "type": "Feature",
            "properties": {
                "WCID": "DDR",
                "COUNTRY": "East Germany"
            },
            "geometry": { "type": "MultiPolygon", "coordinates": [ [ [ [ 10.437767325705437, 54.297488988691981 ], [ 10.445974382964355, 54.29203375430469 ], [ 10.648594889250976, 54.258975587800784 ], [ 11.03860572299121, 54.313251100496096 ], [ 11.0730057092583, 54.219630800203127 ], [ 11.041366610137207, 54.152698121980471 ], [ 11.015887293425781, 54.096656404451174 ], [ 10.716716799346191, 53.963931642488284 ], [ 10.858920130339843, 53.877185426667971 ], [ 11.15137771090625, 53.938415132478518 ], [ 11.202488932219726, 53.856784425691409 ], [ 11.407822641936523, 53.859290681794924 ], [ 11.565019640532714, 54.035384736970705 ], [ 12.04107383212207, 54.096656404451174 ], [ 12.311884913054687, 54.201942048982424 ], [ 12.652518305388671, 54.32142599673633 ], [ 12.764800104705078, 54.270328126863284 ], [ 12.943138155547363, 54.346984468416018 ], [ 13.025811228362304, 54.265216432527346 ], [ 13.06376555880664, 54.193687044099612 ], [ 13.349167856780273, 54.063487611726565 ], [ 13.431016001311523, 54.030246339753909 ], [ 13.667614969817382, 54.084167085603518 ], [ 13.737782511321289, 54.03028830142383 ], [ 13.764326128569824, 53.877185426667971 ], [ 13.780499491301757, 53.775176607087893 ], [ 13.850170168486816, 53.72928961367969 ], [ 14.009740862456542, 53.673209749177737 ], [ 14.17686370333789, 53.683406434968752 ], [ 14.189576181975585, 53.624793611482424 ], [ 14.280191454497558, 53.61341818423633 ], [ 14.423893007842285, 53.237781129792971 ], [ 14.325622591582519, 53.00382574649219 ], [ 14.149859461394531, 52.937747560457034 ], [ 14.126813921538574, 52.790408693269534 ], [ 14.3025617929375, 52.744700990632815 ], [ 14.609737429229003, 52.551803194001955 ], [ 14.512125048247558, 52.374270997957034 ], [ 14.554434809294921, 52.293159089998049 ], [ 14.694947275725585, 52.227267824128909 ], [ 14.685793909636718, 52.090480409578127 ], [ 14.744869265166503, 52.044906221345705 ], [ 14.691414866057617, 51.91328390689258 ], [ 14.595318827239257, 51.857616029695315 ], [ 14.592119249907714, 51.771609865144534 ], [ 14.738754305449707, 51.650241456941409 ], [ 14.687341723052246, 51.533988557771487 ], [ 14.897498163787109, 51.449267946199221 ], [ 15.024198565093261, 51.230968080476565 ], [ 14.828880343047363, 50.91691168399219 ], [ 14.764811548796875, 50.865256868318362 ], [ 14.610322985259277, 50.897880159333987 ], [ 14.596383127776367, 51.022975526765627 ], [ 14.45779803713916, 51.077384553865237 ], [ 14.261660608855468, 51.044738374666018 ], [ 14.388769182769042, 50.946826539949221 ], [ 14.274748835173828, 50.908755861238284 ], [ 14.146485361663085, 50.865256868318362 ], [ 13.910657915679199, 50.843509279207034 ], [ 13.85478118380664, 50.767417512849612 ], [ 13.524158510771972, 50.75654562564258 ], [ 13.47326377352832, 50.658740602449221 ], [ 13.394154581633789, 50.691344819978518 ], [ 13.232996019927246, 50.663768373445315 ], [ 13.189395937529785, 50.560977540925784 ], [ 13.01750091036914, 50.555549226716799 ], [ 12.98234466036914, 50.474105440095705 ], [ 12.783669504729492, 50.474105440095705 ], [ 12.593851122466308, 50.383563600496096 ], [ 12.461618456450683, 50.398124299958987 ], [ 12.344750437346679, 50.316737733796877 ], [ 12.2353592248833, 50.240806184724612 ], [ 11.825813826230815, 50.563924442741708 ], [ 11.466363735041616, 50.467149418190772 ], [ 11.176038661388803, 50.522449432219879 ], [ 11.120738647359696, 50.190649348045234 ], [ 10.74746355266322, 50.356549390132557 ], [ 10.553913503561343, 50.190649348045234 ], [ 10.166813405357592, 50.494799425205322 ], [ 9.904138338719331, 50.48097442169805 ], [ 9.890313335212054, 50.77129949535086 ], [ 10.028563370284823, 51.241349614598278 ], [ 9.848838324690224, 51.338124639149214 ], [ 9.835013321182947, 51.628449712802031 ], [ 10.166813405357592, 51.780524751382075 ], [ 10.44331347550313, 51.725224737352967 ], [ 10.512438493039513, 51.89112477944029 ], [ 10.401838464981299, 52.001724807498505 ], [ 10.470963482517682, 52.430299916224087 ], [ 10.595388514083174, 52.513249937267751 ], [ 10.705988542141389, 52.983300056515162 ], [ 10.51935099479315, 53.121550091587935 ], [ 10.547001001807704, 53.356575151211636 ], [ 10.934101100011457, 53.425700168748023 ], [ 10.39492596322766, 53.70220023889356 ], [ 10.491700987778596, 53.840450273966326 ], [ 10.353450952705829, 54.034000323068206 ], [ 10.437767325705437, 54.297488988691981 ] ] ], [ [ [ 14.145425829497558, 53.826453767732424 ], [ 14.068350824919921, 53.843474946931643 ], [ 14.028717074004394, 53.865481935457034 ], [ 13.827770266143066, 53.829719148591799 ], [ 13.777402910796386, 53.94862326236133 ], [ 13.778410944548828, 54.044406496003909 ], [ 14.069946322051269, 53.917769990876955 ], [ 14.145425829497558, 53.826453767732424 ] ] ] ] }
        }
    ]
}