{
    "type": "FeatureCollection",
    "features": [
        {
            "type": "Feature",
            "properties": {
                "WCID": "ESP",
                "COUNTRY": "Spain"
            },
            "geometry": { "type": "MultiPolygon", "coordinates": [ [ [ [ -2.914717737999979, 35.273609123000028 ], [ -2.939236815999948, 35.264436135000039 ], [ -2.965072858999974, 35.281318127000077 ], [ -2.966181784999947, 35.316627062000066 ], [ -2.946945987999925, 35.329164209000055 ], [ -2.930554840999946, 35.295553951000045 ], [ -2.914717737999979, 35.273609123000028 ] ] ], [ [ [ -5.307645991999948, 35.885791146000031 ], [ -5.345836792999933, 35.841664114000025 ], [ -5.354446012999972, 35.847218130000044 ], [ -5.377217799999926, 35.871518106000053 ], [ -5.392363898999974, 35.90055402400003 ], [ -5.395554889999971, 35.916335975000038 ], [ -5.360281828999973, 35.916245115000038 ], [ -5.307645991999948, 35.885791146000031 ] ] ], [ [ [ 1.575418185000046, 38.689582190000067 ], [ 1.587363235000055, 38.669854040000075 ], [ 1.572782244000052, 38.654853953000043 ], [ 1.556391265000059, 38.654164123000044 ], [ 1.522709090000035, 38.655691138000066 ], [ 1.50528227500007, 38.669445003000078 ], [ 1.494445144000053, 38.675554069000043 ], [ 1.459863256000062, 38.686245019000069 ], [ 1.443891204000067, 38.68278212000007 ], [ 1.390282228000046, 38.643326992000027 ], [ 1.386391180000032, 38.647773089000054 ], [ 1.385553996000056, 38.658053996000035 ], [ 1.383609227000022, 38.683054028000072 ], [ 1.383054009000034, 38.693882106000046 ], [ 1.383054009000034, 38.718054006000045 ], [ 1.399163189000035, 38.737782157000026 ], [ 1.44528226500006, 38.741100049000067 ], [ 1.575418185000046, 38.689582190000067 ] ] ], [ [ [ 1.531663309000066, 38.951944980000064 ], [ 1.405836190000059, 38.845553986000027 ], [ 1.371945138000058, 38.830827149000072 ], [ 1.368054091000033, 38.85110917600008 ], [ 1.359582166000052, 38.862773097000058 ], [ 1.349582220000059, 38.869718007000074 ], [ 1.27389112000003, 38.878882109000074 ], [ 1.250554057000045, 38.860827154000049 ], [ 1.222500162000074, 38.874164104000045 ], [ 1.211945167000067, 38.898327119000044 ], [ 1.227782270000034, 38.948054101000025 ], [ 1.242500222000047, 38.96804510700008 ], [ 1.294163256000047, 39.031391173000031 ], [ 1.303609158000029, 39.038609165000025 ], [ 1.329163233000031, 39.055273227000043 ], [ 1.362500242000067, 39.072773132000066 ], [ 1.472782283000072, 39.105273124000064 ], [ 1.519718091000072, 39.118327100000045 ], [ 1.545836102000067, 39.118044965000024 ], [ 1.602918204000048, 39.093882117000078 ], [ 1.609163224000042, 39.081382185000052 ], [ 1.61500021400002, 39.028327085000058 ], [ 1.531663309000066, 38.951944980000064 ] ] ], [ [ [ 3.180836124000052, 39.759991126000045 ], [ 3.244582174000072, 39.735409183000058 ], [ 3.267918063000025, 39.735691151000026 ], [ 3.293336184000054, 39.745827051000049 ], [ 3.331109231000028, 39.765200144000062 ], [ 3.382782155000029, 39.77332707000005 ], [ 3.439718077000066, 39.750273148000076 ], [ 3.480000163000057, 39.716382096000075 ], [ 3.463609183000074, 39.661382226000057 ], [ 3.447500171000058, 39.640273241000045 ], [ 3.37458214000003, 39.550973115000033 ], [ 3.331945074000032, 39.526382120000051 ], [ 3.320282159000044, 39.520554015000073 ], [ 3.305554149000045, 39.502218099000061 ], [ 3.288054076000037, 39.467500088000065 ], [ 3.266945091000025, 39.41277313300003 ], [ 3.241945059000045, 39.364436039000054 ], [ 3.081945088000055, 39.273044963000075 ], [ 3.060282227000073, 39.263336037000045 ], [ 3.029163238000024, 39.283053961000064 ], [ 2.985554040000068, 39.318600104000041 ], [ 2.829718199000069, 39.353336052000031 ], [ 2.791663185000061, 39.363745034000033 ], [ 2.749791219000031, 39.40075398700003 ], [ 2.72778218600007, 39.473054105000074 ], [ 2.747782245000053, 39.49920011100005 ], [ 2.734027206000064, 39.525691116000075 ], [ 2.694445010000038, 39.551936028000057 ], [ 2.667291164000062, 39.561727097000073 ], [ 2.544445152000037, 39.522500125000079 ], [ 2.436945064000042, 39.521664114000032 ], [ 2.389163187000065, 39.524991059000058 ], [ 2.364163323000071, 39.555827075000025 ], [ 2.386109157000021, 39.612782107000044 ], [ 2.53860916800005, 39.700273251000056 ], [ 2.683891188000075, 39.793882178000047 ], [ 2.77778225000003, 39.844718086000057 ], [ 2.987782285000037, 39.911109130000057 ], [ 3.071391267000024, 39.921945086000051 ], [ 3.091809080000075, 39.897500104000073 ], [ 3.124445026000046, 39.812218095000048 ], [ 3.139927072000035, 39.786944980000044 ], [ 3.180836124000052, 39.759991126000045 ] ] ], [ [ [ 4.273336069000038, 39.961391161000051 ], [ 4.315554039000062, 39.878882221000026 ], [ 4.316945099000066, 39.84610914700005 ], [ 4.313891237000064, 39.831936019000068 ], [ 4.293400166000026, 39.809927153000046 ], [ 4.276391105000073, 39.806391163000058 ], [ 4.259863333000055, 39.809718108000027 ], [ 4.238336091000065, 39.816109142000073 ], [ 4.116391134000025, 39.868327057000045 ], [ 4.100836166000022, 39.877773127000069 ], [ 4.089582119000056, 39.887636113000042 ], [ 4.082218115000046, 39.897354091000068 ], [ 4.041109238000047, 39.915554053000051 ], [ 4.028609138000036, 39.920000150000078 ], [ 3.984718140000041, 39.93027317800005 ], [ 3.965554092000048, 39.933609175000072 ], [ 3.938336041000071, 39.932491197000047 ], [ 3.92416324800007, 39.929164252000078 ], [ 3.911109104000047, 39.925827081000079 ], [ 3.882982120000065, 39.920273232000056 ], [ 3.826663274000055, 39.922491084000058 ], [ 3.79694506800007, 40.017218157000059 ], [ 3.833745144000034, 40.054582167000035 ], [ 3.868336085000067, 40.058053951000034 ], [ 3.93750019700002, 40.058882083000071 ], [ 4.122500200000047, 40.056109182000057 ], [ 4.17444503400003, 40.05028208300007 ], [ 4.241391127000043, 39.993609185000025 ], [ 4.273336069000038, 39.961391161000051 ] ] ], [ [ [ -7.858263828999952, 43.76430020500004 ], [ -7.850554992999946, 43.714718062000031 ], [ -7.802499864999959, 43.726936027000079 ], [ -7.724445906999961, 43.74750018900005 ], [ -7.685554880999973, 43.748600062000037 ], [ -7.516663890999951, 43.734445039000036 ], [ -7.463608789999967, 43.726391204000038 ], [ -7.363608828999929, 43.674164235000035 ], [ -7.33347287, 43.638609040000063 ], [ -7.295972905999975, 43.59610910300006 ], [ -7.247363901999961, 43.562218051000059 ], [ -7.204717783999968, 43.564853992000053 ], [ -7.038472959999979, 43.550273168000047 ], [ -7.044817725999962, 43.49040006000007 ], [ -7.019163904999971, 43.53971817300004 ], [ -6.999445980999951, 43.560827158000052 ], [ -6.943336682999927, 43.577773187000048 ], [ -6.766663932999961, 43.567773241000054 ], [ -6.600836694999941, 43.558327004000034 ], [ -6.481390886999975, 43.554991174000065 ], [ -6.342781867999975, 43.556936111000027 ], [ -6.29583667199995, 43.569445095000049 ], [ -6.10180885699998, 43.561800129000062 ], [ -6.075836690999949, 43.565827131000049 ], [ -5.944726793999962, 43.593891084000063 ], [ -5.88333672899995, 43.623327154000037 ], [ -5.854163849999964, 43.648045052000043 ], [ -5.77860887199995, 43.617218088000072 ], [ -5.75360884, 43.590409074000036 ], [ -5.733336703999953, 43.576382126000055 ], [ -5.677499817999944, 43.544854100000066 ], [ -5.645836674999941, 43.544991061000076 ], [ -5.609999847999973, 43.550282221000032 ], [ -5.548890911999933, 43.552218105000065 ], [ -5.459717855999941, 43.553891133000036 ], [ -5.398054875999946, 43.552500072000043 ], [ -5.279863838999972, 43.529436092000026 ], [ -5.259163889999968, 43.518327053000064 ], [ -5.234445992999952, 43.495554093000067 ], [ -5.202572799999928, 43.478400192000038 ], [ -5.0563909, 43.469991132000075 ], [ -4.979999910999936, 43.46110916400005 ], [ -4.881945891999976, 43.448609064000038 ], [ -4.753754908999952, 43.425691097000026 ], [ -4.733336759999929, 43.419164109000064 ], [ -4.647081946999947, 43.407636142000058 ], [ -4.594717850999928, 43.403054091000058 ], [ -4.514554837999981, 43.396345048000057 ], [ -4.501108755999951, 43.401109154000039 ], [ -4.424717766999947, 43.401664204000042 ], [ -4.389999755999952, 43.397773157000074 ], [ -4.315554876999954, 43.390545106000047 ], [ -4.273054939999952, 43.390545106000047 ], [ -4.218336701999931, 43.396945025000036 ], [ -4.121945988999926, 43.416382155000065 ], [ -4.05139081599998, 43.442500166000059 ], [ -3.944717853999975, 43.467773113000078 ], [ -3.810281849999967, 43.492491177000034 ], [ -3.787499836999928, 43.489582154000061 ], [ -3.766390851999972, 43.469991132000075 ], [ -3.585554977999948, 43.510273217000076 ], [ -3.549863828999946, 43.506936047000067 ], [ -3.451390882999931, 43.465554088000033 ], [ -3.325281796999946, 43.418327092000027 ], [ -3.224717733999967, 43.396945025000036 ], [ -3.15059086399998, 43.353564149000078 ], [ -3.022217825999974, 43.357500124000069 ], [ -3.002499900999965, 43.383327114000053 ], [ -2.934581842999933, 43.435691210000073 ], [ -2.856390922999935, 43.432782187000043 ], [ -2.807781919999968, 43.430273148000026 ], [ -2.735554891999925, 43.426382101000058 ], [ -2.565281892999963, 43.390273197000056 ], [ -2.510554937999927, 43.377636137000025 ], [ -2.48763680299993, 43.358882132000076 ], [ -2.458472808999943, 43.337918154000079 ], [ -2.350972888999934, 43.30513602700006 ], [ -2.29555493, 43.296109053000066 ], [ -2.163336777999973, 43.291109080000069 ], [ -2.121945933999939, 43.296664270000065 ], [ -1.974717803999965, 43.332500091000043 ], [ -1.839163821999932, 43.380554045000054 ], [ -1.786045856999976, 43.390409152000075 ], [ -1.780872881999926, 43.359927020000043 ], [ -1.776945959999978, 43.342500205000078 ], [ -1.730372920999969, 43.298982202000047 ], [ -1.702081817999954, 43.305973212000026 ], [ -1.655554878999965, 43.309436111000025 ], [ -1.503608743999962, 43.287773250000043 ], [ -1.408890890999942, 43.273045073000048 ], [ -1.385136744999954, 43.25256422800004 ], [ -1.383890858999962, 43.209718118000069 ], [ -1.423126714999967, 43.123264151000058 ], [ -1.466736751999974, 43.092045082000027 ], [ -1.439517861999946, 43.049373148000029 ], [ -1.398054933999958, 43.038054058000057 ], [ -1.348263913999972, 43.036173159000043 ], [ -1.300281876999975, 43.071664149000071 ], [ -1.200554830999977, 43.045827100000054 ], [ -1.072781936999945, 43.006382199000029 ], [ -0.993608825999956, 42.976109111000028 ], [ -0.94028181699997, 42.954164115000026 ], [ -0.818608768999979, 42.946109106000051 ], [ -0.788754943999947, 42.954718159000038 ], [ -0.75409979799997, 42.964373106000039 ], [ -0.723472826999966, 42.92985408100003 ], [ -0.723317760999976, 42.918945034000046 ], [ -0.730626780999955, 42.901036092000027 ], [ -0.715836744999933, 42.884582081000076 ], [ -0.555836773999943, 42.780000069000039 ], [ -0.39194592399997, 42.796391216000075 ], [ -0.317845875999978, 42.832354107000072 ], [ -0.308736758999942, 42.848382150000077 ], [ -0.303190788999927, 42.841800176000049 ], [ -0.262499833999925, 42.81750020100003 ], [ -0.2055548599999, 42.794164144000035 ], [ -0.179999778999957, 42.784436107000033 ], [ -0.151945883999929, 42.776654013000041 ], [ -0.123608847999947, 42.757500191000076 ], [ -0.057917860999964, 42.699791123000068 ], [ 0.002782205000074, 42.686073132000047 ], [ 0.111945095000067, 42.709445063000032 ], [ 0.144163287000026, 42.722218078000026 ], [ 0.180900163000047, 42.734509133000074 ], [ 0.269163280000043, 42.707564164000075 ], [ 0.432782221000025, 42.686664224000026 ], [ 0.505418118000023, 42.69166419700008 ], [ 0.560000233000039, 42.695827153000039 ], [ 0.595554087000039, 42.695000194000045 ], [ 0.661663331000057, 42.691936106000071 ], [ 0.675509230000046, 42.688482091000026 ], [ 0.681527101000029, 42.700691171000074 ], [ 0.682636027000058, 42.721245107000072 ], [ 0.661809177000066, 42.75110915700003 ], [ 0.651945018000049, 42.785000042000036 ], [ 0.667782121000073, 42.839164236000045 ], [ 0.692782153000053, 42.853609105000032 ], [ 0.716109157000062, 42.858882160000064 ], [ 0.823609077000071, 42.833053996000046 ], [ 0.89694503100003, 42.813045052000064 ], [ 1.088336067000057, 42.78485402900003 ], [ 1.126663325000038, 42.764718015000028 ], [ 1.143818064000072, 42.733300128000053 ], [ 1.17389115900005, 42.709718146000057 ], [ 1.325000110000076, 42.717491188000054 ], [ 1.359163238000065, 42.715273168000067 ], [ 1.390282228000046, 42.688327026000024 ], [ 1.41721814400006, 42.650836114000072 ], [ 1.445836141000029, 42.601944976000027 ], [ 1.434445134000043, 42.576382183000078 ], [ 1.421391158000063, 42.545827128000042 ], [ 1.424163221000072, 42.49332707700006 ], [ 1.451527118000058, 42.446245089000058 ], [ 1.512218132000044, 42.436382103000028 ], [ 1.537500131000058, 42.436664238000048 ], [ 1.657782119000046, 42.469582151000054 ], [ 1.718891222000025, 42.503054108000072 ], [ 1.723609228000043, 42.509436089000076 ], [ 1.780000158000064, 42.488327104000064 ], [ 1.851391174000071, 42.469991188000051 ], [ 1.906391211000027, 42.446936093000033 ], [ 1.959163339000042, 42.410827022000035 ], [ 1.972782255000027, 42.379436123000062 ], [ 1.99624504600007, 42.362500153000042 ], [ 2.020554074000074, 42.352635994000025 ], [ 2.062218168000072, 42.356944963000046 ], [ 2.093609234000041, 42.364164128000027 ], [ 2.12333615600005, 42.395764239000073 ], [ 2.144582269000068, 42.419300120000059 ], [ 2.273182122000037, 42.435609124000052 ], [ 2.332218213000033, 42.418054066000025 ], [ 2.440836112000056, 42.378473210000038 ], [ 2.477218098000037, 42.348191071000031 ], [ 2.533891163000021, 42.332909185000062 ], [ 2.670418117000054, 42.349582131000034 ], [ 2.657082173000049, 42.381936110000026 ], [ 2.678336165000076, 42.401664260000075 ], [ 2.72471809700005, 42.419445127000074 ], [ 2.950000186000068, 42.480554063000056 ], [ 3.047982120000029, 42.465964187000054 ], [ 3.084027153000022, 42.434718128000043 ], [ 3.106109110000034, 42.429164111000034 ], [ 3.164718059000052, 42.434435993000079 ], [ 3.177654018000055, 42.436809077000078 ], [ 3.169163318000074, 42.426109075000056 ], [ 3.159163204000038, 42.380691062000039 ], [ 3.168473152000047, 42.359718031000057 ], [ 3.200309129000061, 42.344927157000029 ], [ 3.226109130000054, 42.349582131000034 ], [ 3.273054158000036, 42.341945044000056 ], [ 3.317991217000042, 42.320482175000052 ], [ 3.283191232000036, 42.262909061000073 ], [ 3.264582233000056, 42.242082211000024 ], [ 3.213745152000058, 42.233745067000029 ], [ 3.185554129000025, 42.252082157000075 ], [ 3.154718113000058, 42.260135992000073 ], [ 3.118054160000042, 42.225127130000033 ], [ 3.111454082000023, 42.198818012000061 ], [ 3.117082194000034, 42.144436056000075 ], [ 3.146873155000037, 42.116591206000066 ], [ 3.179100231000064, 42.10596412600006 ], [ 3.211109211000064, 42.066518052000049 ], [ 3.220554107000055, 41.946936121000078 ], [ 3.201663309000025, 41.892773101000046 ], [ 3.17528227400004, 41.867491101000041 ], [ 3.123609182000052, 41.848609188000069 ], [ 3.01194513300004, 41.773044990000074 ], [ 2.937427163000052, 41.719091182000057 ], [ 2.717500105000056, 41.627491061000057 ], [ 2.676663305000034, 41.61278216200003 ], [ 2.605836055000054, 41.590827108000042 ], [ 2.557782269000029, 41.577218082000059 ], [ 2.537782210000046, 41.570273173000032 ], [ 2.267082276000053, 41.459854003000032 ], [ 2.24708221700007, 41.442427021000071 ], [ 2.164718115000028, 41.342500150000035 ], [ 2.151245044000063, 41.311945095000056 ], [ 2.117363212000043, 41.289300043000026 ], [ 2.07833606500003, 41.275273095000045 ], [ 2.054163327000026, 41.268609147000063 ], [ 2.005136066000034, 41.263191085000074 ], [ 1.890000232000034, 41.251109074000055 ], [ 1.761663236000061, 41.218609083000047 ], [ 1.701391149000074, 41.205554101000075 ], [ 1.675836068000024, 41.201664227000037 ], [ 1.651391253000043, 41.199164241000062 ], [ 1.616391107000027, 41.195827070000064 ], [ 1.531945109000048, 41.185000166000066 ], [ 1.498336024000025, 41.178600079000034 ], [ 1.322500123000054, 41.129436026000064 ], [ 1.205000090000055, 41.101391184000079 ], [ 1.039445096000065, 41.062491107000028 ], [ 0.993054112000038, 41.048045064000064 ], [ 0.964445168000054, 41.032773236000025 ], [ 0.939863225000067, 41.012082173000067 ], [ 0.924718132000066, 40.991100090000032 ], [ 0.899445017000062, 40.980273186000034 ], [ 0.703609225000037, 40.796873120000043 ], [ 0.73055402600005, 40.771109162000073 ], [ 0.848054060000038, 40.729436015000033 ], [ 0.870282196000062, 40.732491219000053 ], [ 0.896600199000034, 40.725764239000057 ], [ 0.885282283000038, 40.702773181000055 ], [ 0.857918219000055, 40.680273136000039 ], [ 0.689718064000033, 40.571664122000072 ], [ 0.664309163000041, 40.562773102000051 ], [ 0.636391223000032, 40.561800131000041 ], [ 0.621427179000023, 40.584373099000061 ], [ 0.709163242000045, 40.595836022000071 ], [ 0.734718156000042, 40.640000102000045 ], [ 0.69666330900003, 40.637500116000069 ], [ 0.610136084000032, 40.625000184000044 ], [ 0.589163221000035, 40.612782219000053 ], [ 0.541945111000075, 40.569164135000051 ], [ 0.519163266000021, 40.533882190000043 ], [ 0.51893611600002, 40.528736037000044 ], [ 0.458336129000031, 40.447218173000067 ], [ 0.356391232000021, 40.300827060000074 ], [ 0.280554119000044, 40.236654036000061 ], [ 0.213054149000072, 40.183600109000054 ], [ 0.047500162000063, 40.033736038000029 ], [ 0.03278221000005, 40.007764208000026 ], [ -0.037217745999953, 39.893327090000071 ], [ -0.084445914999947, 39.851391087000025 ], [ -0.111526837999975, 39.823609101000045 ], [ -0.179163934999963, 39.736109072000033 ], [ -0.317636663999963, 39.514853985000059 ], [ -0.326108756999929, 39.494718139000042 ], [ -0.337636722999946, 39.438053959000058 ], [ -0.241108881999935, 39.143882181000038 ], [ -0.194999864999943, 39.053600199000073 ], [ -0.182499764999932, 39.029164102000038 ], [ -0.143336662999957, 38.978336073000037 ], [ -0.092217782999967, 38.929718017000027 ], [ -0.064999898999929, 38.904991067000026 ], [ -0.041117844999974, 38.889209117000064 ], [ 0.008891104000043, 38.862209163000045 ], [ 0.04854505000003, 38.859709176000024 ], [ 0.077082245000042, 38.857627111000056 ], [ 0.147782257000074, 38.828326995000054 ], [ 0.19847315800007, 38.803745053000057 ], [ 0.215282227000046, 38.758045072000073 ], [ 0.207218165000029, 38.732209029000046 ], [ 0.164163178000024, 38.697491186000036 ], [ 0.144163287000026, 38.684709119000047 ], [ 0.041663172000028, 38.638045052000052 ], [ -0.01208192699994, 38.625554005000026 ], [ -0.052781933999938, 38.593327096000053 ], [ -0.145136760999947, 38.536945050000043 ], [ -0.294581903999926, 38.484027078000054 ], [ -0.31999985799996, 38.471527146000028 ], [ -0.379308863999938, 38.436245033000034 ], [ -0.511663976999955, 38.325000079000063 ], [ -0.600281815999949, 38.185273249000034 ], [ -0.65666386099997, 38.046945024000024 ], [ -0.750554923999971, 37.889718122000033 ], [ -0.759999819999962, 37.859435983000026 ], [ -0.761017717999948, 37.845954027000062 ], [ -0.801390830999935, 37.801382083000078 ], [ -0.841945998999961, 37.748882200000025 ], [ -0.858336810999958, 37.71554502400005 ], [ -0.809446007999952, 37.660973134000074 ], [ -0.786945961999947, 37.647773145000031 ], [ -0.721626795999953, 37.639373137000064 ], [ -0.702499795999927, 37.624444968000034 ], [ -0.723472826999966, 37.602218005000054 ], [ -0.744163889999925, 37.593891087000031 ], [ -0.918336820999968, 37.551800186000037 ], [ -0.952499781999961, 37.555827020000038 ], [ -0.977917735999938, 37.574864166000054 ], [ -1.048336786999926, 37.579164250000076 ], [ -1.238608838999937, 37.575273203000052 ], [ -1.327499760999956, 37.558054092000077 ], [ -1.350836822999952, 37.549435987000038 ], [ -1.448336797999957, 37.490964165000037 ], [ -1.46736388599993, 37.47235399300007 ], [ -1.484717777999947, 37.43860912100007 ], [ -1.509445900999935, 37.421945060000041 ], [ -1.56778193599996, 37.399718096000072 ], [ -1.633417769999937, 37.376864167000065 ], [ -1.643608822999965, 37.372773127000073 ], [ -1.684026862999929, 37.345973165000032 ], [ -1.794581819999962, 37.227491108000038 ], [ -1.813263907999954, 37.190418118000025 ], [ -1.823608852999939, 37.150836089000052 ], [ -1.826663888999974, 37.125000046000025 ], [ -1.846663948999947, 37.081936006000035 ], [ -1.902217861999929, 36.972218067000028 ], [ -1.932081911999944, 36.939309038000033 ], [ -1.992636803999972, 36.890000146000034 ], [ -2.058754932999932, 36.808053966000045 ], [ -2.061526828999945, 36.779782142000045 ], [ -2.122917731999962, 36.733464248000075 ], [ -2.192081843999972, 36.720409099000051 ], [ -2.217217830999971, 36.74555397000006 ], [ -2.231108823999932, 36.764445103000071 ], [ -2.291317877999973, 36.825618077000058 ], [ -2.347081841999966, 36.840545073000044 ], [ -2.481945993999943, 36.829991084000028 ], [ -2.557917720999967, 36.813054107000028 ], [ -2.58430881299995, 36.786527060000026 ], [ -2.598336766999978, 36.758609119000027 ], [ -2.611108774999934, 36.72958208600005 ], [ -2.644863872999963, 36.697773098000027 ], [ -2.692499904999977, 36.685273166000059 ], [ -2.722499909999954, 36.681664254000054 ], [ -2.76889089499997, 36.678327083000056 ], [ -2.87347290699995, 36.706591196000034 ], [ -2.892081904999941, 36.729164164000053 ], [ -2.923472802999925, 36.74735406800005 ], [ -3.12499990799995, 36.750273149000066 ], [ -3.230836690999979, 36.748053956000035 ], [ -3.259163834999924, 36.746935978000067 ], [ -3.336945884999977, 36.737218167000037 ], [ -3.359926716999951, 36.719509050000056 ], [ -3.425554839999961, 36.693609137000067 ], [ -3.459999767999932, 36.691936109000039 ], [ -3.483190817999969, 36.695554073000039 ], [ -3.529445847999966, 36.715827047000062 ], [ -3.601526862999947, 36.746382102000041 ], [ -3.639717830999928, 36.740553997000063 ], [ -3.672499789999961, 36.732082072000026 ], [ -3.69444595899995, 36.728336032000072 ], [ -3.725554889999955, 36.728609114000051 ], [ -3.785554899999966, 36.742491055000073 ], [ -3.816390915999932, 36.75000006700003 ], [ -3.84889090799993, 36.752491168000063 ], [ -4.024726807999969, 36.741391182000029 ], [ -4.170490786999949, 36.719864107000035 ], [ -4.239717763999977, 36.713336113000025 ], [ -4.324717805999967, 36.71054510700003 ], [ -4.359726835999936, 36.717500075000032 ], [ -4.399863914999969, 36.721453987000075 ], [ -4.435554896999975, 36.697082094000052 ], [ -4.461945989999947, 36.655827037000051 ], [ -4.490136676999953, 36.615273210000055 ], [ -4.639717774999951, 36.508326999000076 ], [ -4.711526712999955, 36.488191153000059 ], [ -4.757781909999949, 36.485691166000038 ], [ -4.787917869999944, 36.488745029000029 ], [ -4.822917847999975, 36.49763604900005 ], [ -4.852499762999969, 36.500827039000058 ], [ -4.878054844999951, 36.500827039000058 ], [ -4.913890833999972, 36.498882103000028 ], [ -4.939999791999981, 36.491664110000045 ], [ -5.080136831999937, 36.446518006000076 ], [ -5.172636832999956, 36.411873086000071 ], [ -5.2191639399999, 36.370553991000065 ], [ -5.312499783999954, 36.23110912900006 ], [ -5.326108809999937, 36.197491159000037 ], [ -5.333336692999978, 36.171944962000055 ], [ -5.334508817999961, 36.162564104000069 ], [ -5.355799857999955, 36.163309088000062 ], [ -5.388336729999935, 36.178891213000043 ], [ -5.425490856999943, 36.173745060000044 ], [ -5.444581814999935, 36.138745082000071 ], [ -5.426045906999946, 36.075345037000034 ], [ -5.448890783999957, 36.052218025000059 ], [ -5.613608759999977, 36.006100123000067 ], [ -5.802217842999937, 36.077218057000039 ], [ -5.816663885999958, 36.09166409900007 ], [ -5.832781949999969, 36.11208208000005 ], [ -5.847217766999961, 36.127909125000031 ], [ -5.88180887599998, 36.162354054000048 ], [ -5.914863916999934, 36.180136094000034 ], [ -6.025554994999936, 36.18443601000007 ], [ -6.032672906999949, 36.181153992000077 ], [ -6.044163825999931, 36.186109038000041 ], [ -6.158336746999964, 36.305273214000067 ], [ -6.226945976999957, 36.404718126000034 ], [ -6.262217863999979, 36.475827007000078 ], [ -6.237217831999942, 36.463809034000064 ], [ -6.217636699999957, 36.468891150000047 ], [ -6.174717835999957, 36.514436065000041 ], [ -6.234445936999975, 36.578191168000046 ], [ -6.29749980899993, 36.613882150000052 ], [ -6.337226844999975, 36.620553977000043 ], [ -6.365136738999979, 36.616664103000062 ], [ -6.395208828999955, 36.629644989000042 ], [ -6.432499915999927, 36.692354030000047 ], [ -6.44360878699996, 36.718891136000025 ], [ -6.439445998999929, 36.741527136000059 ], [ -6.355554882999968, 36.860835984000062 ], [ -6.578890860999934, 37.019436010000049 ], [ -6.725836687999958, 37.091945004000024 ], [ -6.904726786999959, 37.165554040000075 ], [ -6.95992681599995, 37.221836006000046 ], [ -6.978717869999969, 37.212609039000029 ], [ -6.972226755999941, 37.177745015000028 ], [ -6.996836693999967, 37.191073247000077 ], [ -7.053336756999954, 37.213053950000074 ], [ -7.080281893999938, 37.217500047000044 ], [ -7.127226753999935, 37.220554077000031 ], [ -7.173336776999975, 37.217218080000066 ], [ -7.258608895999942, 37.208053977000077 ], [ -7.28471785399995, 37.204991062000033 ], [ -7.337499871999967, 37.187354029000062 ], [ -7.356390836999935, 37.175827068000046 ], [ -7.391390814999966, 37.175273192000077 ], [ -7.409445937999976, 37.201664117000064 ], [ -7.431854955999938, 37.253191197000035 ], [ -7.434717878999948, 37.366945023000028 ], [ -7.447217810999973, 37.41860906200003 ], [ -7.461390938999955, 37.45721812000005 ], [ -7.471390884999948, 37.48138214100004 ], [ -7.484726827999964, 37.498882214000048 ], [ -7.503054864999967, 37.522500070000035 ], [ -7.512536808999926, 37.528545099000041 ], [ -7.524445984999943, 37.552500075000069 ], [ -7.446945901999925, 37.699436012000035 ], [ -7.42305496299997, 37.743891112000028 ], [ -7.386945891999972, 37.76971810200007 ], [ -7.319999798999959, 37.815273243000036 ], [ -7.281663822999974, 37.865554101000043 ], [ -7.252781796999955, 37.930973179000034 ], [ -7.251945952999961, 37.959444996000059 ], [ -7.253545890999931, 37.98367322200005 ], [ -7.21083674099998, 37.996936075000065 ], [ -7.123608788999945, 38.009991057000036 ], [ -7.004026858999964, 38.031109095000033 ], [ -6.951663935999932, 38.140000076000035 ], [ -6.941526861999932, 38.170409117000077 ], [ -6.933745940999927, 38.209073161000049 ], [ -6.94757289699993, 38.217427068000063 ], [ -6.993336746999944, 38.209444982000036 ], [ -7.016808757999968, 38.193809044000034 ], [ -7.087781852999967, 38.177009028000043 ], [ -7.102217836999955, 38.189164129000062 ], [ -7.129999822999935, 38.22582707600003 ], [ -7.144999908999978, 38.246109103000038 ], [ -7.169717805999937, 38.284436026000037 ], [ -7.192217851999942, 38.320273188000044 ], [ -7.277636821999977, 38.419445017000044 ], [ -7.296526781999944, 38.431382188000043 ], [ -7.31708189099993, 38.444718131000059 ], [ -7.267217780999943, 38.703327002000037 ], [ -7.257154970999977, 38.723400152000067 ], [ -7.207354898999938, 38.749264191000066 ], [ -7.164163956999971, 38.78194506300008 ], [ -7.084163887999978, 38.835544988000038 ], [ -7.059999866999931, 38.860545020000075 ], [ -6.955872824999972, 39.023191157000042 ], [ -6.961108831999979, 39.05666412000005 ], [ -6.982781918999933, 39.091382131000046 ], [ -7.013190792999978, 39.111800112000026 ], [ -7.053263833999949, 39.119918153000071 ], [ -7.102781938999954, 39.104718074000061 ], [ -7.124863895999965, 39.106382217000032 ], [ -7.145836757999973, 39.113882176000061 ], [ -7.242781850999961, 39.21305400500006 ], [ -7.313608764999969, 39.344718114000045 ], [ -7.322781919999954, 39.388327145000062 ], [ -7.375690839999947, 39.493745 ], [ -7.502781949999928, 39.602773109000054 ], [ -7.524999860999969, 39.636664161000056 ], [ -7.532508872999927, 39.66941812400006 ], [ -7.411108906999971, 39.648744998000041 ], [ -7.332845903999953, 39.645273214000042 ], [ -7.30721773199997, 39.656664220000039 ], [ -7.263608868999938, 39.672082228000079 ], [ -7.205554968999934, 39.667218042000059 ], [ -7.157708885999966, 39.660345049000057 ], [ -7.052872901999933, 39.663753969000027 ], [ -7.017217794999965, 39.67500013700004 ], [ -6.989717775999964, 39.724718066000037 ], [ -6.870690894999939, 40.015973109000072 ], [ -6.882499822999932, 40.044164132000049 ], [ -6.928890807999949, 40.101664155000037 ], [ -6.94694593, 40.113191116000053 ], [ -6.982636744999979, 40.119164228000045 ], [ -7.008890876999942, 40.132773086000043 ], [ -7.027217740999959, 40.187773123000056 ], [ -7.00833683299993, 40.226800103000073 ], [ -6.946526834999929, 40.258982085000071 ], [ -6.910281808999969, 40.256382186000053 ], [ -6.878336699999977, 40.261800080000057 ], [ -6.862299771999972, 40.271518059000073 ], [ -6.831108865999965, 40.317218039000068 ], [ -6.815554903999953, 40.38777321200007 ], [ -6.796108887999935, 40.524436121000065 ], [ -6.819445950999977, 40.733327062000058 ], [ -6.80173683299995, 40.857009085000072 ], [ -6.862917853999932, 40.952636039000026 ], [ -6.891390842999954, 40.974718163000034 ], [ -6.930554950999976, 41.015553957000066 ], [ -6.92440883699993, 41.030964254000025 ], [ -6.841663861999962, 41.030136122000044 ], [ -6.805554957999959, 41.045553962000042 ], [ -6.774445858999968, 41.070691122000028 ], [ -6.754308839999965, 41.107491198000048 ], [ -6.75333670699996, 41.136664244000031 ], [ -6.688472845999968, 41.210273112000039 ], [ -6.643890843999941, 41.244718041000056 ], [ -6.618054967999967, 41.246382184000026 ], [ -6.589163888999963, 41.241936087000056 ], [ -6.558336757999939, 41.242218054000034 ], [ -6.510281797999937, 41.265000067000074 ], [ -6.438054937999937, 41.318882126000062 ], [ -6.357781786999965, 41.380553990000067 ], [ -6.29583667199995, 41.436100192000026 ], [ -6.212290889999963, 41.536527127000056 ], [ -6.190454858999942, 41.57963609400008 ], [ -6.256108797999957, 41.640409083000065 ], [ -6.303608875999942, 41.663327050000078 ], [ -6.347217738999973, 41.672218070000042 ], [ -6.429445885999939, 41.680000164000035 ], [ -6.460972905999938, 41.670691055000077 ], [ -6.501808867999955, 41.659436003000053 ], [ -6.54562677499996, 41.687009112000055 ], [ -6.547499794999965, 41.765000039000029 ], [ -6.52805495299998, 41.839436033000027 ], [ -6.548608888999979, 41.921944974000041 ], [ -6.602290787999948, 41.949164199000052 ], [ -6.697217852999927, 41.936664266000037 ], [ -6.906108794999966, 41.944718102000024 ], [ -6.940417768999964, 41.951109135000081 ], [ -6.982845956999938, 41.973864159000073 ], [ -7.008754922999969, 41.954582093000056 ], [ -7.056108819999963, 41.951109135000081 ], [ -7.075836802999959, 41.959164144000056 ], [ -7.098890891999929, 41.983609127000079 ], [ -7.131181838999964, 41.99380906500005 ], [ -7.184999859999948, 41.977354048000052 ], [ -7.178608825999959, 41.931591203000039 ], [ -7.186945969999954, 41.898327117000065 ], [ -7.200554995999937, 41.883609166000042 ], [ -7.207346013999938, 41.883835980000072 ], [ -7.268336764999958, 41.863609107000059 ], [ -7.331108837999977, 41.844991056000026 ], [ -7.418608866999932, 41.822773145000042 ], [ -7.60916389199997, 41.83569116700005 ], [ -7.598054852999951, 41.86527325000003 ], [ -7.692781925999952, 41.903882140000064 ], [ -7.759445883999945, 41.89750015900006 ], [ -7.858054951999975, 41.860000195000055 ], [ -7.876663950999955, 41.85263602200007 ], [ -7.926663846999929, 41.877773182000055 ], [ -8.035281912999949, 41.827218068000036 ], [ -8.055063875999963, 41.81951811700003 ], [ -8.067499769999927, 41.81527318600007 ], [ -8.087781796999934, 41.80943602800005 ], [ -8.13610883299998, 41.809164119000059 ], [ -8.163808843999959, 41.817182080000066 ], [ -8.161663914999963, 41.827500203000056 ], [ -8.165490923999926, 41.858609134000062 ], [ -8.193681946999959, 41.873400176000075 ], [ -8.218336811999961, 41.907491220000054 ], [ -8.20875495599995, 41.928745044000038 ], [ -8.165281878999963, 41.974445024000033 ], [ -8.134726824999973, 41.998882128000048 ], [ -8.102226832999975, 42.010964138000077 ], [ -8.084654843999942, 42.022982111000033 ], [ -8.083754962999933, 42.060482076000028 ], [ -8.197836687999938, 42.15067319800005 ], [ -8.251945896999928, 42.138609125000073 ], [ -8.310554845999945, 42.103609147000043 ], [ -8.446108828999968, 42.084718013000042 ], [ -8.47360884699998, 42.084718013000042 ], [ -8.518054894999977, 42.083044986000061 ], [ -8.613890893999951, 42.056382152000026 ], [ -8.63999985199996, 42.045273112000075 ], [ -8.74118182899997, 41.967836061000071 ], [ -8.745008837999933, 41.952500196000074 ], [ -8.764999844999977, 41.935000123000066 ], [ -8.783890810999935, 41.922773106000079 ], [ -8.816445954999949, 41.920191144000057 ], [ -8.848045897999953, 41.899582224000028 ], [ -8.875136711999971, 41.879509074000055 ], [ -8.888336699999968, 41.933609063000063 ], [ -8.897499796999966, 42.110554057000058 ], [ -8.810836784999935, 42.186945046000062 ], [ -8.76639090499998, 42.216273158000035 ], [ -8.722781874999953, 42.240273229000024 ], [ -8.644163980999963, 42.28832701500005 ], [ -8.579863886999931, 42.349018029000035 ], [ -8.599999900999933, 42.353609133000077 ], [ -8.62597290399998, 42.345273162000069 ], [ -8.653299920999928, 42.302736010000046 ], [ -8.68360888199993, 42.279718130000049 ], [ -8.760836720999976, 42.25916419400005 ], [ -8.794108852999955, 42.253382190000025 ], [ -8.864863850999939, 42.249645035000071 ], [ -8.852781840999967, 42.296109109000042 ], [ -8.821945991999939, 42.328327133000073 ], [ -8.793608788999961, 42.33777320300004 ], [ -8.692217767999978, 42.400836128000037 ], [ -8.671945966999942, 42.414444986000035 ], [ -8.656108863999975, 42.427773218000027 ], [ -8.696108814999945, 42.437636036000072 ], [ -8.746945895999943, 42.412636004000035 ], [ -8.78041785299996, 42.396953966000069 ], [ -8.840836789999969, 42.391391064000061 ], [ -8.880554941999947, 42.421664152000062 ], [ -8.906108849999953, 42.475136 ], [ -8.888754956999946, 42.498473231000048 ], [ -8.860726710999927, 42.487418171000058 ], [ -8.868608884999958, 42.459791083000027 ], [ -8.836108893999949, 42.461936012000081 ], [ -8.814445864999925, 42.491664108000066 ], [ -8.809717800999977, 42.519436035000069 ], [ -8.831872847999932, 42.549164131000055 ], [ -8.811808750999944, 42.576036010000053 ], [ -8.778890837999938, 42.596109159000036 ], [ -8.746945895999943, 42.638054047000026 ], [ -8.719717785999933, 42.67528210200004 ], [ -8.720499817999951, 42.698491089000072 ], [ -8.851390779999974, 42.661109142000043 ], [ -8.920836691999966, 42.626800168000045 ], [ -8.937426824999932, 42.600345038000057 ], [ -8.99555498899997, 42.532491185000026 ], [ -9.029372950999971, 42.52416426700006 ], [ -9.061390814999982, 42.57943604500008 ], [ -9.056663924999953, 42.609991100000059 ], [ -9.03472680699997, 42.670827121000059 ], [ -9.022499789999927, 42.699582078000049 ], [ -9.006390777999968, 42.720836070000075 ], [ -8.915836718999969, 42.789027043000033 ], [ -9.008608796999965, 42.776382104000049 ], [ -9.08667281399994, 42.740273201000036 ], [ -9.105836694999937, 42.752491166000027 ], [ -9.123336767999945, 42.768882145000077 ], [ -9.132381846999976, 42.799791083000059 ], [ -9.12444586099997, 42.840000079000049 ], [ -9.14389087099994, 42.893327088000035 ], [ -9.162781836999955, 42.925827080000033 ], [ -9.188199789999942, 42.951245033000077 ], [ -9.26389089099996, 42.913745069000072 ], [ -9.293336683999939, 42.922491082000079 ], [ -9.259163832999945, 43.047218160000057 ], [ -9.208199849999971, 43.155136002000063 ], [ -9.169726745999981, 43.185827011000072 ], [ -9.132081942999946, 43.196173130000034 ], [ -9.089445882999939, 43.190554070000076 ], [ -9.035281856999973, 43.203891186000078 ], [ -8.944026735999955, 43.235000117000027 ], [ -8.97749986599996, 43.278609148000044 ], [ -8.950281814999926, 43.293609066000045 ], [ -8.876390811999954, 43.319718024000053 ], [ -8.824445978999961, 43.327218151000068 ], [ -8.782781884999963, 43.303053963000025 ], [ -8.72416388299996, 43.291109080000069 ], [ -8.701390921999973, 43.287218033000045 ], [ -8.689445871999965, 43.292218173000037 ], [ -8.657499756999925, 43.30332704500006 ], [ -8.405555001999971, 43.384718175000046 ], [ -8.329726772999948, 43.403882223000039 ], [ -8.265554922999968, 43.552773155000068 ], [ -8.006672968999965, 43.703891158000033 ], [ -7.898054902999945, 43.764164251000068 ], [ -7.858263828999952, 43.76430020500004 ] ] ] ] }
        }
    ]
}