{
    "type": "FeatureCollection",
    "features": [
        {
            "type": "Feature",
            "properties": {
                "WCID": "FIN",
                "COUNTRY": "Finland"
            },
            "geometry": { "type": "MultiPolygon", "coordinates": [ [ [ [ 23.017291157000045, 60.10121811700003 ], [ 23.042773316000023, 60.118745012000034 ], [ 23.025136116000056, 60.128609171000051 ], [ 22.967500138000048, 60.111936056000047 ], [ 22.906109234000041, 60.126391151000064 ], [ 22.874445086000037, 60.14555402600007 ], [ 22.869718196000065, 60.179163279000079 ], [ 22.904300252000041, 60.215827064000052 ], [ 22.926800130000061, 60.230973163000044 ], [ 22.967773220000026, 60.250273166000056 ], [ 23.01721823500003, 60.282218108000052 ], [ 23.084654166000064, 60.345200064000039 ], [ 23.06139120000006, 60.353191203000051 ], [ 22.919163211000068, 60.304163272000039 ], [ 22.801109133000068, 60.258473182000046 ], [ 22.760554133000028, 60.244163262000029 ], [ 22.734582303000025, 60.237353971000061 ], [ 22.699163230000067, 60.229163175000053 ], [ 22.662773197000035, 60.222218098000042 ], [ 22.565473215000054, 60.211936017000028 ], [ 22.449300204000053, 60.242354112000044 ], [ 22.462773275000075, 60.26388219200004 ], [ 22.484163222000063, 60.283191079000062 ], [ 22.536109229000033, 60.312491195000064 ], [ 22.626591203000032, 60.380445129000066 ], [ 22.483609178000052, 60.391936047000058 ], [ 22.276945140000066, 60.385827149000079 ], [ 22.259163268000066, 60.39804511400007 ], [ 22.236663222000061, 60.408336079000037 ], [ 22.175827201000061, 60.431391174000055 ], [ 22.114718098000026, 60.448882195000067 ], [ 22.083609167000077, 60.44388222200007 ], [ 22.014445054000078, 60.46527317400006 ], [ 21.971109106000029, 60.488054014000056 ], [ 21.945827107000071, 60.516527171000064 ], [ 21.869718085000045, 60.52416325300004 ], [ 21.842709246000027, 60.518673106000051 ], [ 21.863054136000073, 60.471936117000041 ], [ 21.803054126000063, 60.482500164000044 ], [ 21.801800194000066, 60.565136007000035 ], [ 21.829718134000075, 60.58846317900003 ], [ 21.824445079000043, 60.619163240000034 ], [ 21.77069126300006, 60.601382206000039 ], [ 21.66416330800007, 60.552500120000047 ], [ 21.588054118000059, 60.509445133000042 ], [ 21.576945079000041, 60.562491181000041 ], [ 21.551527125000064, 60.569582104000062 ], [ 21.51048228600007, 60.574436064000054 ], [ 21.481663292000064, 60.56736324600007 ], [ 21.452773218000061, 60.562491181000041 ], [ 21.424163268000029, 60.579300082000032 ], [ 21.358609241000067, 60.653609175000042 ], [ 21.357009136000045, 60.679300211000054 ], [ 21.386109092000027, 60.686382248000029 ], [ 21.392500126000073, 60.755554072000052 ], [ 21.355554037000047, 60.81499115400004 ], [ 21.32832710100007, 60.865273185000035 ], [ 21.387773235000054, 60.940827158000047 ], [ 21.405554102000053, 61.030545038000071 ], [ 21.444445127000051, 61.167218172000048 ], [ 21.493891147000056, 61.235545100000081 ], [ 21.544445088000032, 61.276382235000028 ], [ 21.554445033000036, 61.309436103000053 ], [ 21.53055409500007, 61.447218163000059 ], [ 21.511800257000061, 61.512700105000079 ], [ 21.468891283000062, 61.556518181000058 ], [ 21.49832718600004, 61.573463204000063 ], [ 21.60333617200007, 61.544718137000075 ], [ 21.663891231000036, 61.540273214000081 ], [ 21.601391235000051, 61.601663279000036 ], [ 21.535273274000076, 61.653327151000042 ], [ 21.472427105000065, 61.761036116000071 ], [ 21.488745162000043, 61.800418153000066 ], [ 21.41055407500005, 61.89054507000003 ], [ 21.363327079000044, 61.929444980000028 ], [ 21.299600140000052, 61.941827062000073 ], [ 21.284582284000066, 61.946382124000081 ], [ 21.253327173000059, 62.005554002000054 ], [ 21.285554082000033, 62.069445059000032 ], [ 21.305827223000051, 62.108891134000032 ], [ 21.333882291000066, 62.153882172000067 ], [ 21.380273276000025, 62.182353989000035 ], [ 21.389309135000076, 62.206245095000043 ], [ 21.371663217000048, 62.259991200000059 ], [ 21.332218148000038, 62.350553976000072 ], [ 21.259163324000042, 62.37582709000003 ], [ 21.155554116000076, 62.412773178000066 ], [ 21.111663286000066, 62.451663198000062 ], [ 21.115000121000037, 62.491391239000052 ], [ 21.125273317000051, 62.547491150000042 ], [ 21.065973196000073, 62.597982226000056 ], [ 21.10562714200006, 62.767354003000037 ], [ 21.133891255000037, 62.789854049000041 ], [ 21.298054014000058, 62.860836028000051 ], [ 21.345836059000078, 62.854582123000057 ], [ 21.37326332300006, 62.862145114000043 ], [ 21.396382288000041, 62.886663186000078 ], [ 21.433327203000033, 62.943327031000081 ], [ 21.445827135000059, 62.967500105000056 ], [ 21.450554025000031, 63.006382245000054 ], [ 21.43555410700003, 63.03471810700006 ], [ 21.500827172000072, 63.066518042000041 ], [ 21.528609158000052, 63.062773175000075 ], [ 21.551245158000029, 63.044791143000054 ], [ 21.620000234000031, 63.018609095000045 ], [ 21.676600208000025, 63.020136110000067 ], [ 21.682782197000051, 63.029718134000063 ], [ 21.677773172000059, 63.03388209600007 ], [ 21.655136166000034, 63.047773257000074 ], [ 21.611382296000045, 63.068054110000048 ], [ 21.569509157000027, 63.078609105000055 ], [ 21.518609212000058, 63.12527317200005 ], [ 21.501663351000047, 63.159718100000077 ], [ 21.496873261000076, 63.203536008000071 ], [ 21.538473317000069, 63.23027327300008 ], [ 21.567427093000049, 63.221318048000057 ], [ 21.640418214000078, 63.19250022600005 ], [ 21.69028215700007, 63.209163282000077 ], [ 21.877773261000073, 63.255963304000034 ], [ 21.892773180000063, 63.206109084000047 ], [ 21.966663345000029, 63.18305398900003 ], [ 22.086109153000052, 63.222773146000065 ], [ 22.179718081000033, 63.230827149000049 ], [ 22.216945130000056, 63.236382172000049 ], [ 22.340000186000054, 63.276527130000034 ], [ 22.369582270000024, 63.313191083000049 ], [ 22.355554149000056, 63.339718130000051 ], [ 22.323745161000033, 63.368045107000057 ], [ 22.298609175000024, 63.375827034000054 ], [ 22.271945167000069, 63.386109114000078 ], [ 22.200554151000063, 63.419300110000052 ], [ 22.187845174000074, 63.445136153000078 ], [ 22.288191140000038, 63.525691104000032 ], [ 22.33333607000003, 63.519991075000064 ], [ 22.376109090000057, 63.489718155000048 ], [ 22.396382232000065, 63.472500217000061 ], [ 22.429445152000028, 63.498882258000037 ], [ 22.489436109000053, 63.565827177000074 ], [ 22.505273212000077, 63.583609050000064 ], [ 22.504982193000046, 63.611973243000079 ], [ 22.589163323000037, 63.695545008000067 ], [ 22.665836112000022, 63.69874505100006 ], [ 22.70124512700005, 63.683463165000035 ], [ 22.706945156000074, 63.659436105000054 ], [ 22.740136152000048, 63.619854076000081 ], [ 22.780554024000025, 63.625827020000031 ], [ 22.824445190000063, 63.641391208000073 ], [ 22.900000168000076, 63.69860909700003 ], [ 22.926318171000048, 63.762773236000044 ], [ 22.923336057000029, 63.801109044000043 ], [ 23.066391173000056, 63.850827141000082 ], [ 23.147918089000029, 63.878054077000058 ], [ 23.200691222000046, 63.885973132000061 ], [ 23.318882260000066, 63.896663244000081 ], [ 23.370418224000048, 63.941245078000065 ], [ 23.371391196000047, 63.986936006000064 ], [ 23.38513617600006, 64.045754 ], [ 23.427636113000062, 64.04942711700005 ], [ 23.511391275000051, 64.03637314100007 ], [ 23.602218081000046, 64.064436089000083 ], [ 23.608327147000068, 64.098327141000027 ], [ 23.652218145000063, 64.140827078000029 ], [ 23.694163200000048, 64.15860006500003 ], [ 23.711663273000056, 64.162900149000052 ], [ 23.722218101000067, 64.184153974000083 ], [ 23.855273271000044, 64.243882242000041 ], [ 23.92666328100006, 64.269163236000054 ], [ 23.926936196000042, 64.290963225000041 ], [ 23.995836111000074, 64.38346322700005 ], [ 24.12000026000004, 64.436382205000029 ], [ 24.209718141000053, 64.472763185000076 ], [ 24.278054121000025, 64.496936091000066 ], [ 24.33930018500007, 64.521663208000064 ], [ 24.359163284000033, 64.543045108000058 ], [ 24.374091286000066, 64.585963302000039 ], [ 24.371182262000048, 64.619291091000036 ], [ 24.425000116000035, 64.675282204000041 ], [ 24.535409227000059, 64.746800122000082 ], [ 24.539582241000062, 64.799153993000061 ], [ 24.731109232000051, 64.854427112000053 ], [ 24.803336092000052, 64.869154116000061 ], [ 25.000000184000044, 64.892209211000079 ], [ 25.084445176000031, 64.911663274000034 ], [ 25.116245111000069, 64.907491097000047 ], [ 25.180273296000053, 64.86694514900006 ], [ 25.193891207000036, 64.845545145000074 ], [ 25.230409148000035, 64.81930006500005 ], [ 25.253609250000068, 64.814291207000053 ], [ 25.297500248000063, 64.814436046000083 ], [ 25.319445076000079, 64.817763159000037 ], [ 25.340000185000065, 64.821927121000044 ], [ 25.361945181000067, 64.829436133000058 ], [ 25.365073307000046, 64.89804502800007 ], [ 25.342918093000037, 64.90790918700003 ], [ 25.310136134000061, 64.903054053000062 ], [ 25.230136065000067, 64.929709176000074 ], [ 25.189300271000036, 64.964018150000072 ], [ 25.213327164000077, 64.988191223000058 ], [ 25.321591179000052, 64.980618174000028 ], [ 25.368054080000036, 64.958600087000036 ], [ 25.414163264000024, 64.94443601200004 ], [ 25.444236192000062, 64.953391237000062 ], [ 25.413054171000056, 65.03416328000003 ], [ 25.370554066000068, 65.079436119000036 ], [ 25.353891178000026, 65.092353972000069 ], [ 25.291391181000051, 65.109436124000069 ], [ 25.267500243000029, 65.170000068000036 ], [ 25.293054151000035, 65.266391117000069 ], [ 25.301109160000067, 65.293609168000046 ], [ 25.325000266000075, 65.345827084000064 ], [ 25.355273186000034, 65.410827067000071 ], [ 25.357218123000052, 65.448182192000047 ], [ 25.351245179000045, 65.478745125000046 ], [ 25.303745101000061, 65.515136164000069 ], [ 25.215136146000077, 65.554300104000049 ], [ 25.189582238000071, 65.559582212000066 ], [ 25.161527170000056, 65.555827119000071 ], [ 25.132082215000025, 65.554300104000049 ], [ 25.101800242000024, 65.569300190000035 ], [ 25.092736052000078, 65.591873158000055 ], [ 25.080763342000068, 65.605891221000036 ], [ 24.891245158000061, 65.648391158000038 ], [ 24.796109215000058, 65.658327066000084 ], [ 24.771663227000033, 65.656663258000037 ], [ 24.748609137000074, 65.648182113000075 ], [ 24.669163280000078, 65.654709101000037 ], [ 24.559445173000029, 65.726727084000061 ], [ 24.553536098000052, 65.762000145000059 ], [ 24.559163205000061, 65.79012713000003 ], [ 24.630000178000046, 65.854427056000077 ], [ 24.689163339000061, 65.896100202000071 ], [ 24.626527220000071, 65.887636156000042 ], [ 24.562082287000067, 65.824718071000063 ], [ 24.538609102000066, 65.795273115000043 ], [ 24.448954086000072, 65.794273154000052 ], [ 24.414718203000064, 65.767354001000058 ], [ 24.220273304000045, 65.773463235000065 ], [ 24.175000130000058, 65.791518190000033 ], [ 24.167009159000031, 65.814027121000038 ], [ 24.16409125000007, 65.832636119000028 ], [ 24.03139113800006, 66.02026317800005 ], [ 23.967782216000046, 66.072491152000055 ], [ 23.948609115000068, 66.101382232000049 ], [ 23.935554134000029, 66.128463155000077 ], [ 23.919027200000073, 66.14416329800008 ], [ 23.886391254000046, 66.156663230000049 ], [ 23.856109114000049, 66.160273148000044 ], [ 23.814300181000078, 66.16818214400007 ], [ 23.754718092000076, 66.185000098000046 ], [ 23.726109148000035, 66.198254066000061 ], [ 23.684718137000061, 66.263318087000073 ], [ 23.662500226000077, 66.312209058000064 ], [ 23.639718213000037, 66.433318171000053 ], [ 23.65603610200003, 66.457209110000065 ], [ 23.72527330500003, 66.500827025000035 ], [ 23.807218143000057, 66.53776322300007 ], [ 23.826945120000062, 66.543882180000082 ], [ 23.874163230000079, 66.555345103000036 ], [ 23.889718199000072, 66.575827122000078 ], [ 23.902773181000043, 66.680263289000038 ], [ 23.900836123000033, 66.712491204000059 ], [ 23.892082231000074, 66.744782150000049 ], [ 23.942500217000031, 66.787909054000067 ], [ 24.000763329000051, 66.802282174000084 ], [ 23.940691234000042, 66.87977320400006 ], [ 23.866945071000032, 66.931109176000064 ], [ 23.787773301000072, 66.981382155000063 ], [ 23.751109180000071, 66.995973205000041 ], [ 23.731109121000031, 67.008327124000061 ], [ 23.681109224000068, 67.047482179000042 ], [ 23.573327169000038, 67.157009179000056 ], [ 23.590554160000067, 67.240682198000059 ], [ 23.610000175000039, 67.261373261000074 ], [ 23.630273317000047, 67.267491213000028 ], [ 23.68305416100003, 67.275545048000083 ], [ 23.70805402600007, 67.278045034000058 ], [ 23.74319113100006, 67.286318141000038 ], [ 23.780345091000072, 67.326309207000065 ], [ 23.765136128000051, 67.416873156000065 ], [ 23.735000168000056, 67.426100123000083 ], [ 23.581945107000024, 67.450000114000034 ], [ 23.542909243000054, 67.452627170000028 ], [ 23.519718193000074, 67.44331806100007 ], [ 23.493745189000037, 67.437218047000044 ], [ 23.46930020700006, 67.442909191000069 ], [ 23.448327176000078, 67.452500100000066 ], [ 23.430827104000059, 67.479782189000048 ], [ 23.471945033000054, 67.556382223000071 ], [ 23.507773310000061, 67.665545113000064 ], [ 23.491391216000068, 67.712491147000037 ], [ 23.470554140000047, 67.819854107000083 ], [ 23.488818139000045, 67.870963265000057 ], [ 23.51110914000003, 67.883609210000031 ], [ 23.545554068000058, 67.890000076000035 ], [ 23.60208229400007, 67.896382224000035 ], [ 23.655691271000023, 67.921173212000042 ], [ 23.659791195000025, 67.945891109000058 ], [ 23.63833620500003, 67.958054089000029 ], [ 23.531663243000025, 67.992491138000048 ], [ 23.394445117000032, 68.042500087000064 ], [ 23.372218154000052, 68.060127062000049 ], [ 23.353336073000037, 68.083600079000064 ], [ 23.055418088000067, 68.291100128000039 ], [ 22.969445074000078, 68.317763297000056 ], [ 22.936391207000042, 68.322218111000041 ], [ 22.905000141000073, 68.329991153000037 ], [ 22.863609130000043, 68.357500224000034 ], [ 22.82666320900006, 68.38596315500007 ], [ 22.666800198000033, 68.421654137000075 ], [ 22.581663196000022, 68.427218045000075 ], [ 22.500000157000045, 68.440127181000037 ], [ 22.430554078000057, 68.451663195000037 ], [ 22.37194512800005, 68.463609083000051 ], [ 22.159163307000028, 68.464991091000059 ], [ 22.048609189000047, 68.481518193000056 ], [ 22.028745084000036, 68.502345043000048 ], [ 22.000827144000027, 68.521518144000083 ], [ 21.95944518500005, 68.543882235000069 ], [ 21.933891277000043, 68.555263183000079 ], [ 21.889300222000031, 68.571245125000075 ], [ 21.864718112000048, 68.573609157000078 ], [ 21.816945119000025, 68.570400230000075 ], [ 21.765418207000039, 68.57568217000005 ], [ 21.726945104000038, 68.58735413800008 ], [ 21.706591161000063, 68.614991116000056 ], [ 21.642773194000029, 68.642491135000057 ], [ 21.623054096000033, 68.649427160000073 ], [ 21.593191219000062, 68.657345041000042 ], [ 21.550554154000054, 68.661654010000063 ], [ 21.494163224000033, 68.669854026000053 ], [ 21.453891196000029, 68.686727132000044 ], [ 21.420554020000054, 68.724154006000049 ], [ 21.212218128000075, 68.817909114000031 ], [ 21.081391204000056, 68.866654072000074 ], [ 21.058891158000051, 68.873318188000042 ], [ 21.024718139000072, 68.877491202000044 ], [ 20.990836139000066, 68.879436139000063 ], [ 20.952082242000074, 68.880682193000041 ], [ 20.900827072000027, 68.892073199000038 ], [ 20.885900243000037, 68.918191210000032 ], [ 20.930973257000062, 68.949227050000047 ], [ 20.930691122000042, 68.970691093000028 ], [ 20.908882248000054, 68.985544999000069 ], [ 20.875554125000065, 69.001245141000084 ], [ 20.846382252000069, 69.011936091000052 ], [ 20.791663344000028, 69.023327098000038 ], [ 20.744163266000044, 69.031100140000035 ], [ 20.650063327000055, 69.043791179000038 ], [ 20.604163354000036, 69.053054020000047 ], [ 20.580927210000027, 69.060300176000055 ], [ 20.609445127000072, 69.069445 ], [ 20.675000159000035, 69.087218155000073 ], [ 20.69750020500004, 69.092773177000083 ], [ 20.731109122000078, 69.096100123000042 ], [ 20.773891194000043, 69.093600136000077 ], [ 20.829027186000076, 69.084991083000034 ], [ 20.935554135000075, 69.058609211000032 ], [ 20.980554059000042, 69.045273267000084 ], [ 21.033054109000034, 69.033327044000032 ], [ 21.063473209000051, 69.03680016900006 ], [ 21.07944509400005, 69.051518121000072 ], [ 21.109163299000045, 69.097418093000044 ], [ 21.072636138000064, 69.122082178000028 ], [ 21.053609218000076, 69.140544997000063 ], [ 21.042218212000023, 69.160827023000081 ], [ 21.030273161000025, 69.210545120000063 ], [ 21.047082230000058, 69.223745109000049 ], [ 21.320827142000041, 69.326109102000032 ], [ 21.681945180000071, 69.284718090000069 ], [ 21.994600228000024, 69.078373235000072 ], [ 22.041382144000067, 69.052218177000043 ], [ 22.19899126100006, 68.937700089000032 ], [ 22.278891250000072, 68.881653991000064 ], [ 22.347636100000045, 68.843609203000028 ], [ 22.366800148000038, 68.795409068000083 ], [ 22.398327168000037, 68.711109083000053 ], [ 22.500000157000045, 68.728991203000078 ], [ 22.550000221000062, 68.737782143000061 ], [ 22.802773276000039, 68.691373221000049 ], [ 22.863609130000043, 68.693054128000028 ], [ 23.068191270000057, 68.693600125000046 ], [ 23.099163241000042, 68.674709159000031 ], [ 23.139445159000047, 68.649154078000038 ], [ 23.164718106000066, 68.637500215000046 ], [ 23.196391138000024, 68.629854075000083 ], [ 23.26055410400005, 68.636382236000031 ], [ 23.286663230000045, 68.644427019000034 ], [ 23.333054047000076, 68.659436158000062 ], [ 23.407773182000028, 68.680827110000052 ], [ 23.467218142000036, 68.691663235000078 ], [ 23.517500174000077, 68.698609150000038 ], [ 23.583054033000053, 68.705273266000063 ], [ 23.671945122000068, 68.711109083000053 ], [ 23.705063195000037, 68.716863259000036 ], [ 23.740836152000043, 68.742491096000037 ], [ 23.762500187000057, 68.759427067000047 ], [ 23.796109104000038, 68.789291117000062 ], [ 23.824509171000045, 68.826309122000055 ], [ 23.856391249000069, 68.832491111000081 ], [ 23.899436177000041, 68.833882172000074 ], [ 23.976391269000032, 68.832491111000081 ], [ 24.036945155000069, 68.82527311900003 ], [ 24.060827209000024, 68.818736073000082 ], [ 24.09041817700006, 68.802418183000043 ], [ 24.120554137000056, 68.783600140000033 ], [ 24.206109228000059, 68.749027136000052 ], [ 24.354100111000037, 68.710200149000059 ], [ 24.41694510700006, 68.701663181000072 ], [ 24.45027323000005, 68.698882233000063 ], [ 24.513336155000047, 68.695827029000043 ], [ 24.578891188000057, 68.691373221000049 ], [ 24.628891252000074, 68.687209092000046 ], [ 24.690282155000034, 68.676373135000063 ], [ 24.75444512100006, 68.660263284000052 ], [ 24.773327202000075, 68.652773216000071 ], [ 24.804718100000059, 68.636653978000083 ], [ 24.831663237000043, 68.617209136000042 ], [ 24.854473245000065, 68.593182243000058 ], [ 24.934918226000036, 68.580809212000077 ], [ 25.076382288000048, 68.621382150000045 ], [ 25.105073208000078, 68.637909084000057 ], [ 25.105000118000078, 68.669782109000039 ], [ 25.154718215000059, 68.767773263000038 ], [ 25.169854088000022, 68.789027087000079 ], [ 25.18832713200004, 68.803327117000038 ], [ 25.214445142000045, 68.817491192000034 ], [ 25.23416323400005, 68.82527311900003 ], [ 25.363891124000077, 68.873882122000055 ], [ 25.384718141000064, 68.880554117000031 ], [ 25.406945105000034, 68.886382222000066 ], [ 25.437773242000048, 68.891109113000084 ], [ 25.481800194000073, 68.891518150000081 ], [ 25.508054159000039, 68.888318107000032 ], [ 25.562773235000066, 68.879436139000063 ], [ 25.585554074000072, 68.878873210000052 ], [ 25.617773272000079, 68.882763252000075 ], [ 25.639863275000039, 68.894300103000035 ], [ 25.652773250000052, 68.906391166000049 ], [ 25.661391187000049, 68.911653996000041 ], [ 25.692218151000077, 68.933882132000065 ], [ 25.761109181000052, 68.98916329900004 ], [ 25.768327173000046, 69.045273267000084 ], [ 25.732218102000047, 69.109163151000075 ], [ 25.708054081000057, 69.209018105000041 ], [ 25.713336188000028, 69.255263244000048 ], [ 25.739436094000041, 69.318327175000036 ], [ 25.752363335000041, 69.339154025000028 ], [ 25.770554077000043, 69.353882203000069 ], [ 25.811663289000023, 69.368609207000077 ], [ 25.833745078000049, 69.385273268000049 ], [ 25.874163285000066, 69.486373270000058 ], [ 25.953327176000073, 69.584163258000046 ], [ 25.970691127000066, 69.618809185000032 ], [ 25.969445073000031, 69.642491246000077 ], [ 25.944509246000052, 69.665200169000059 ], [ 25.959300120000023, 69.685682188000044 ], [ 25.98332718100005, 69.704300071000034 ], [ 26.004445051000062, 69.711936153000067 ], [ 26.10055413200007, 69.726382195000042 ], [ 26.134445184000072, 69.734982195000043 ], [ 26.155827084000066, 69.742491207000057 ], [ 26.174163336000049, 69.751663189000055 ], [ 26.373745168000028, 69.852209147000053 ], [ 26.398609246000035, 69.868745133000061 ], [ 26.420136152000055, 69.895963184000038 ], [ 26.442918165000037, 69.92082709400006 ], [ 26.476800165000043, 69.936382230000049 ], [ 26.609163324000065, 69.950963221000052 ], [ 26.806582291000041, 69.952054042000043 ], [ 26.865209177000054, 69.939373229000068 ], [ 26.894300249000025, 69.925418198000045 ], [ 27.045827121000059, 69.90777311800008 ], [ 27.074854155000025, 69.909573216000069 ], [ 27.20610922700007, 69.933318142000076 ], [ 27.28624508300004, 69.94860908000004 ], [ 27.30603609800005, 69.964918084000033 ], [ 27.298263223000049, 69.986244999000064 ], [ 27.421391202000052, 70.016663261000076 ], [ 27.570409203000054, 70.066382196000063 ], [ 27.599445122000077, 70.072491095000032 ], [ 27.873054079000042, 70.088045057000045 ], [ 27.910691172000043, 70.088609159000043 ], [ 27.937745105000033, 70.083036032000052 ], [ 27.971145146000026, 70.045509078000066 ], [ 27.976245198000072, 70.011518113000079 ], [ 27.991391130000068, 69.997909088000029 ], [ 28.10208220800007, 69.934573248000049 ], [ 28.15916330400006, 69.913882184000045 ], [ 28.197218151000072, 69.906391110000072 ], [ 28.226663274000032, 69.90221809600007 ], [ 28.276109126000051, 69.896654021000074 ], [ 28.316800249000039, 69.889163281000037 ], [ 28.341945120000048, 69.877209179000033 ], [ 28.363818200000026, 69.84103607000003 ], [ 28.379718167000078, 69.827500134000047 ], [ 28.405000166000036, 69.821654092000074 ], [ 28.694718136000063, 69.768600165000066 ], [ 28.744163318000062, 69.75971819800003 ], [ 28.909718144000067, 69.733891207000056 ], [ 28.946109182000043, 69.728609099000039 ], [ 29.000827085000026, 69.721518177000064 ], [ 29.102782208000065, 69.705973267000047 ], [ 29.127500273000066, 69.685818142000073 ], [ 29.180000156000062, 69.63068215100003 ], [ 29.298473161000061, 69.485336093000058 ], [ 29.285554134000051, 69.463609194000071 ], [ 29.269163322000054, 69.451936053000054 ], [ 29.122218165000049, 69.370818173000032 ], [ 29.064163260000043, 69.343891142000075 ], [ 29.033336129000077, 69.330554025000083 ], [ 28.99708221800006, 69.315554106000036 ], [ 28.926800127000035, 69.28638223300004 ], [ 28.902773234000051, 69.274991227000044 ], [ 28.825418158000048, 69.23616323400006 ], [ 28.796663201000058, 69.188327042000083 ], [ 28.782918221000045, 69.155136046000052 ], [ 28.785063318000027, 69.124082101000056 ], [ 28.802218224000057, 69.105545019000033 ], [ 28.827500223000072, 69.093600136000077 ], [ 28.857773311000074, 69.082218182000076 ], [ 28.890554096000074, 69.071382225000036 ], [ 28.957336071000043, 69.051618200000064 ], [ 28.913327224000057, 69.043318105000083 ], [ 28.877782255000056, 69.036100112000042 ], [ 28.855554118000043, 69.029709079000042 ], [ 28.74639122800005, 68.997209087000044 ], [ 28.45180018800005, 68.916518182000061 ], [ 28.435554048000029, 68.902636074000043 ], [ 28.439863352000032, 68.882354047000035 ], [ 28.470827108000037, 68.874436166000066 ], [ 28.509163251000075, 68.872773197000072 ], [ 28.565000137000027, 68.874436166000066 ], [ 28.705827175000024, 68.878327046000038 ], [ 28.737782175000063, 68.875827059000073 ], [ 28.792773160000024, 68.857773278000082 ], [ 28.817354097000077, 68.84700018500007 ], [ 28.799718237000036, 68.810136072000034 ], [ 28.761663223000028, 68.754854068000043 ], [ 28.738609134000058, 68.734163172000081 ], [ 28.655000152000071, 68.679991099000063 ], [ 28.518054103000054, 68.583882186000039 ], [ 28.459854023000048, 68.534854087000042 ], [ 28.56000016400003, 68.385818148000055 ], [ 28.663054155000054, 68.239436088000048 ], [ 28.695000271000026, 68.19540913600008 ], [ 28.82332720900007, 68.172482116000083 ], [ 29.160000265000065, 68.116654114000028 ], [ 29.356945150000058, 68.082491153000035 ], [ 29.38360915800007, 68.062482209000052 ], [ 29.539445167000054, 67.93889121400008 ], [ 29.691663211000048, 67.81527322900007 ], [ 29.727500206000059, 67.803327173000071 ], [ 29.902500263000036, 67.740827177000028 ], [ 30.028609182000025, 67.694718160000036 ], [ 29.977773274000072, 67.572491236000076 ], [ 29.95971815200005, 67.538609068000028 ], [ 29.932782235000047, 67.513882119000073 ], [ 29.900000277000061, 67.492491166000036 ], [ 29.881663355000057, 67.483600146000072 ], [ 29.745554155000036, 67.416382144000067 ], [ 29.525273213000048, 67.293882138000072 ], [ 29.156945061000044, 67.030818117000081 ], [ 29.134163216000047, 67.013609064000036 ], [ 29.090136096000037, 66.972909057000038 ], [ 29.081527211000036, 66.951100183000051 ], [ 29.075136177000047, 66.903600105000066 ], [ 29.076109148000057, 66.877491147000057 ], [ 29.093818098000042, 66.851518144000067 ], [ 29.128745154000057, 66.820400161000066 ], [ 29.211936213000058, 66.77068223100008 ], [ 29.252918188000024, 66.750827179000055 ], [ 29.273327116000075, 66.738327079000044 ], [ 29.324445159000049, 66.704573155000048 ], [ 29.354863253000076, 66.677909147000037 ], [ 29.385545042000047, 66.628309068000078 ], [ 29.414163207000058, 66.599991143000068 ], [ 29.554445086000044, 66.470273144000032 ], [ 29.567927209000061, 66.428573176000043 ], [ 29.577154176000079, 66.403045084000041 ], [ 29.590273195000066, 66.382763225000076 ], [ 29.631945168000072, 66.329436048000048 ], [ 29.776527131000023, 66.209718163000048 ], [ 29.799163299000043, 66.192491173000064 ], [ 29.826109106000047, 66.175554028000079 ], [ 29.850000212000054, 66.163609146000056 ], [ 29.876391138000031, 66.15221813900007 ], [ 29.903745143000037, 66.133882223000057 ], [ 29.918891242000029, 66.112782123000045 ], [ 29.948327145000064, 66.049709140000061 ], [ 30.032218094000029, 65.922209160000079 ], [ 30.093891132000067, 65.838054014000079 ], [ 30.102500185000054, 65.818600119000052 ], [ 30.134927086000062, 65.708882180000046 ], [ 30.120200250000039, 65.668118135000043 ], [ 30.076663303000032, 65.675418102000037 ], [ 30.030273325000053, 65.690545090000057 ], [ 29.99250027800008, 65.685273209000059 ], [ 29.818882229000053, 65.653318041000034 ], [ 29.834163277000073, 65.588336163000065 ], [ 29.798054038000032, 65.537491203000059 ], [ 29.770273226000029, 65.526654072000042 ], [ 29.746109204000049, 65.514436107000051 ], [ 29.738327110000057, 65.481109157000049 ], [ 29.73971817100005, 65.455554076000055 ], [ 29.745554155000036, 65.414718114000038 ], [ 29.748609191000071, 65.346100166000042 ], [ 29.706109254000069, 65.319718126000055 ], [ 29.671109108000053, 65.302900172000079 ], [ 29.613054035000062, 65.271236024000075 ], [ 29.602045076000024, 65.244436062000034 ], [ 29.633054094000045, 65.225963186000058 ], [ 29.658891143000062, 65.223327077000079 ], [ 29.737218184000028, 65.226654022000048 ], [ 29.787500216000069, 65.226382113000057 ], [ 29.820691211000053, 65.223463199000037 ], [ 29.848327185000073, 65.218045137000047 ], [ 29.870418193000035, 65.202000163000037 ], [ 29.869445054000039, 65.119991119000076 ], [ 29.836663263000048, 65.106936137000048 ], [ 29.806945058000053, 65.099154043000055 ], [ 29.773891190000029, 65.094709120000061 ], [ 29.72639128000003, 65.09250015300006 ], [ 29.674163306000025, 65.081800150000049 ], [ 29.64597328900004, 65.071936159000074 ], [ 29.621182302000079, 65.052354022000031 ], [ 29.608127152000066, 65.005963205000057 ], [ 29.640827136000041, 64.920963163000067 ], [ 29.652773192000041, 64.904709144000037 ], [ 29.671945119000043, 64.887209071000029 ], [ 29.714445056000045, 64.852218145000052 ], [ 29.733609105000028, 64.837209174000066 ], [ 29.755000224000071, 64.822491223000043 ], [ 29.774436182000045, 64.809709156000054 ], [ 29.808891168000059, 64.794018065000046 ], [ 29.843054129000052, 64.792500103000066 ], [ 29.891663300000062, 64.793045094000036 ], [ 29.926391202000048, 64.794709069000078 ], [ 29.95027325600006, 64.795545080000068 ], [ 30.048054024000066, 64.795545080000068 ], [ 30.081109233000063, 64.792636057000038 ], [ 30.121109183000044, 64.784154074000071 ], [ 30.142773218000059, 64.772073237000029 ], [ 30.206873320000057, 64.663318043000061 ], [ 30.176454052000054, 64.63138215400005 ], [ 30.141663286000039, 64.619427045000066 ], [ 30.072500180000077, 64.604427126000076 ], [ 30.026945039000054, 64.597627056000078 ], [ 29.976454130000036, 64.578945135000083 ], [ 29.986945088000027, 64.553054106000047 ], [ 30.010527070000023, 64.512263239000049 ], [ 30.048882156000047, 64.502491114000065 ], [ 30.068609133000052, 64.494718072000069 ], [ 30.087909135000075, 64.480691124000032 ], [ 30.085691284000063, 64.459991176000074 ], [ 30.061527095000031, 64.405345023000052 ], [ 30.12916335400007, 64.364218042000061 ], [ 30.163191199000039, 64.352763165000056 ], [ 30.196945123000035, 64.348873124000079 ], [ 30.32166331600007, 64.329436161000046 ], [ 30.359445080000057, 64.319718182000031 ], [ 30.389718168000059, 64.309436102000063 ], [ 30.563536209000063, 64.240891076000082 ], [ 30.577354112000023, 64.223736003000056 ], [ 30.612773185000037, 64.094154126000035 ], [ 30.610273198000073, 64.070400148000033 ], [ 30.595273280000072, 64.046936016000075 ], [ 30.551245154000071, 64.015273209000043 ], [ 30.528609154000037, 64.000000208000074 ], [ 30.480273232000059, 63.973327148000067 ], [ 30.398054138000077, 63.930545076000044 ], [ 30.26347329500004, 63.822627066000052 ], [ 30.210554149000075, 63.800827077000065 ], [ 30.135000176000062, 63.780000227000073 ], [ 30.114718150000044, 63.775273169000059 ], [ 30.063054110000053, 63.766663278000067 ], [ 30.033054105000076, 63.760827126000038 ], [ 30.008891257000073, 63.754582105000054 ], [ 29.996709167000063, 63.748027122000053 ], [ 29.998954176000041, 63.73533608200006 ], [ 30.206391193000059, 63.612782096000046 ], [ 30.245554127000048, 63.59326315800007 ], [ 30.308891140000071, 63.572491126000045 ], [ 30.357500144000028, 63.56000007800003 ], [ 30.395418197000026, 63.548045137000031 ], [ 30.457218137000041, 63.503609148000066 ], [ 30.478400212000054, 63.480973148000032 ], [ 30.648891141000036, 63.439718091000032 ], [ 30.714718082000047, 63.424436037000078 ], [ 30.912218185000029, 63.353609123000069 ], [ 31.186391245000038, 63.238327109000068 ], [ 31.219718195000041, 63.223054108000042 ], [ 31.242636162000053, 63.204509147000067 ], [ 31.383054163000054, 63.069163203000073 ], [ 31.519582290000073, 62.982636146000061 ], [ 31.581963264000024, 62.907900079000058 ], [ 31.52166334900005, 62.853336069000079 ], [ 31.50139121400008, 62.835545144000037 ], [ 31.47402715000004, 62.812636061000035 ], [ 31.430000197000027, 62.758891130000052 ], [ 31.321945060000076, 62.615273254000044 ], [ 31.310554053000033, 62.598053975000028 ], [ 31.294163242000025, 62.564163258000065 ], [ 31.28028230700005, 62.536109196000041 ], [ 31.258191130000057, 62.508254120000061 ], [ 31.082773319000069, 62.413053972000057 ], [ 30.96416335400005, 62.339163304000067 ], [ 30.834445188000075, 62.271382206000055 ], [ 30.792500132000043, 62.253882133000047 ], [ 30.704163255000026, 62.210545012000068 ], [ 30.632500162000042, 62.166109190000043 ], [ 30.396109201000058, 62.016663209000058 ], [ 30.300554164000062, 61.956109155000036 ], [ 30.203891206000037, 61.89054507000003 ], [ 30.155100148000031, 61.85634506100007 ], [ 30.142173241000023, 61.846953976000066 ], [ 29.99847322200003, 61.734436146000064 ], [ 29.801945085000057, 61.603745008000033 ], [ 29.683327073000044, 61.533882181000081 ], [ 29.652500277000058, 61.517773168000076 ], [ 29.497500112000068, 61.436663168000052 ], [ 29.355273296000064, 61.359718134000047 ], [ 29.334163305000061, 61.34527326500006 ], [ 29.301936061000049, 61.318327123000074 ], [ 29.28507318000004, 61.302863182000067 ], [ 29.274300255000071, 61.292082211000036 ], [ 29.249718145000031, 61.275836071000072 ], [ 29.213609241000029, 61.253327140000067 ], [ 29.165827196000066, 61.232082201000082 ], [ 29.07194518600005, 61.199436029000083 ], [ 28.970836132000045, 61.162773249000054 ], [ 28.816663260000041, 61.10513609700007 ], [ 28.720000135000078, 61.045273215000066 ], [ 28.674163362000058, 61.001663179000047 ], [ 28.645554083000036, 60.971109130000059 ], [ 28.619645117000061, 60.96000009100004 ], [ 28.577773320000063, 60.961663228000077 ], [ 28.529509147000056, 60.954582196000047 ], [ 28.466391237000039, 60.92528224800003 ], [ 28.388882269000078, 60.886663299000077 ], [ 28.341945120000048, 60.858254012000032 ], [ 28.329445188000079, 60.841518033000057 ], [ 28.298609172000056, 60.820545003000063 ], [ 28.269445178000069, 60.804163243000062 ], [ 28.246391256000038, 60.793327119000082 ], [ 28.093891245000066, 60.71221812400006 ], [ 27.884718168000063, 60.589163235000058 ], [ 27.807827114000077, 60.546400106000078 ], [ 27.806663203000028, 60.54860907300008 ], [ 27.778191219000064, 60.571309111000062 ], [ 27.742563269000073, 60.566453977000037 ], [ 27.734163261000049, 60.535554091000051 ], [ 27.738054141000077, 60.511382191000052 ], [ 27.671109221000052, 60.50443610800005 ], [ 27.606663282000056, 60.506100083000035 ], [ 27.47444512900006, 60.50443610800005 ], [ 27.473054068000067, 60.476391098000079 ], [ 27.295554025000058, 60.50388223200008 ], [ 27.271391177000055, 60.533609155000079 ], [ 27.219163203000051, 60.583745006000072 ], [ 27.02450925900007, 60.531527090000054 ], [ 26.958191138000075, 60.444573226000045 ], [ 26.905282218000025, 60.476109131000044 ], [ 26.811109189000035, 60.472773133000032 ], [ 26.739436205000061, 60.448882195000067 ], [ 26.666945148000025, 60.426663278000035 ], [ 26.563609189000033, 60.428054004000046 ], [ 26.500136054000052, 60.445000200000038 ], [ 26.478227100000026, 60.477909061000048 ], [ 26.570000223000079, 60.579854126000043 ], [ 26.595000255000059, 60.598054088000083 ], [ 26.62305415000003, 60.606945108000048 ], [ 26.658609177000073, 60.608191162000082 ], [ 26.695691220000072, 60.591936137000062 ], [ 26.749718118000033, 60.575336113000048 ], [ 26.721945185000038, 60.617773186000079 ], [ 26.691945180000062, 60.642500135000034 ], [ 26.652354098000046, 60.646382130000063 ], [ 26.611391234000052, 60.638609088000067 ], [ 26.54609117900003, 60.58191808600003 ], [ 26.526945068000032, 60.565273135000041 ], [ 26.456391236000059, 60.496800194000059 ], [ 26.469373296000072, 60.458191136000039 ], [ 26.473191253000039, 60.427636082000049 ], [ 26.416527072000065, 60.391663300000062 ], [ 26.14610910600004, 60.393882158000054 ], [ 26.055063197000038, 60.422773237000058 ], [ 26.10513618300007, 60.319782110000062 ], [ 26.07874509100003, 60.294027036000045 ], [ 26.041736138000033, 60.305718115000047 ], [ 25.996109248000039, 60.344718104000037 ], [ 25.888882243000069, 60.389718028000061 ], [ 25.838191174000031, 60.398463203000063 ], [ 25.870973301000049, 60.382909073000064 ], [ 25.913054143000068, 60.35694512200007 ], [ 25.921663196000054, 60.243745005000051 ], [ 25.887218100000041, 60.244645053000056 ], [ 25.871873182000058, 60.271663280000041 ], [ 25.745963249000056, 60.304000160000044 ], [ 25.794027094000057, 60.267918078000037 ], [ 25.836318154000026, 60.269027172000051 ], [ 25.77486321300006, 60.233609104000038 ], [ 25.720554180000079, 60.248053973000083 ], [ 25.674163196000052, 60.275273198000036 ], [ 25.651182197000026, 60.295209052000075 ], [ 25.655136108000079, 60.336518089000037 ], [ 25.689463355000044, 60.348582162000071 ], [ 25.657500140000025, 60.36124503800005 ], [ 25.576109178000024, 60.328891227000042 ], [ 25.545273162000058, 60.311100135000061 ], [ 25.484163220000028, 60.247082176000049 ], [ 25.367773286000045, 60.255827015000079 ], [ 25.19652714800003, 60.240973109000038 ], [ 25.150063241000055, 60.22076316700003 ], [ 25.194654128000025, 60.208609072000058 ], [ 25.191663297000048, 60.184300212000039 ], [ 25.065827125000055, 60.156109189000063 ], [ 24.954154023000058, 60.136118182000075 ], [ 24.850827117000051, 60.136654121000049 ], [ 24.751109124000038, 60.136936089000073 ], [ 24.603336170000034, 60.121936002000041 ], [ 24.608473271000037, 60.092500099000063 ], [ 24.589300171000048, 60.054863175000037 ], [ 24.472500194000077, 59.990418074000047 ], [ 24.421100184000068, 59.987218031000054 ], [ 24.421391204000031, 60.027218149000078 ], [ 24.360836144000075, 60.069300165000072 ], [ 24.333054158000039, 60.071936106000067 ], [ 24.287918112000057, 60.065273163000029 ], [ 24.216945185000043, 60.039444999000068 ], [ 24.074163320000025, 60.015273267000055 ], [ 23.797218197000063, 59.96193603100005 ], [ 23.701936074000059, 59.954436072000078 ], [ 23.623191279000025, 59.952082098000062 ], [ 23.561354123000058, 59.970673160000047 ], [ 23.509791170000028, 59.968491183000083 ], [ 23.431591198000035, 59.953818158000047 ], [ 23.479445160000068, 59.996663262000027 ], [ 23.521945097000071, 60.019163308000032 ], [ 23.540000219000035, 60.028191120000031 ], [ 23.53750023300006, 60.067563267000082 ], [ 23.493891202000043, 60.058327080000083 ], [ 23.365827121000052, 59.942218107000031 ], [ 23.249300226000059, 59.837918062000028 ], [ 23.193882267000049, 59.827773109000077 ], [ 22.900273251000044, 59.806800079000027 ], [ 22.934718179000072, 59.840554003000079 ], [ 23.08693605600007, 59.879163229000028 ], [ 23.115000176000024, 59.884436116000074 ], [ 23.160827226000038, 59.884854038000071 ], [ 23.257218107000028, 59.919444979000048 ], [ 23.296663343000034, 59.958609086000081 ], [ 23.325573198000029, 60.000000098000044 ], [ 23.335691161000057, 60.02395406800008 ], [ 23.314236171000061, 60.017745090000062 ], [ 23.297009181000078, 60.000000098000044 ], [ 23.280273202000046, 59.979436104000058 ], [ 23.250545106000061, 59.945273143000065 ], [ 23.227500237000072, 59.92902717100003 ], [ 23.109227224000051, 59.925654125000051 ], [ 23.111109129000056, 59.970273175000045 ], [ 23.166936125000063, 59.985273262000078 ], [ 23.202500205000035, 59.993327097000076 ], [ 23.221645142000057, 60.00166323500008 ], [ 23.254863295000064, 60.037082140000052 ], [ 23.191945042000043, 60.047773258000063 ], [ 23.146663318000037, 60.046109115000036 ], [ 23.126391183000067, 60.044163172000083 ], [ 23.105554107000046, 60.037918151000042 ], [ 23.078891272000078, 60.031800200000077 ], [ 23.04944514400006, 60.036109169000042 ], [ 22.991245063000065, 60.057354109000073 ], [ 22.998054019000051, 60.086245020000035 ], [ 23.017291157000045, 60.10121811700003 ] ] ], [ [ [ 19.94388228300005, 60.042773117000081 ], [ 19.938609227000029, 60.059163259000059 ], [ 19.926245082000037, 60.08651810300006 ], [ 19.918054118000043, 60.09277318200003 ], [ 19.908054173000039, 60.095273168000062 ], [ 19.894718229000034, 60.097218105000081 ], [ 19.871663302000059, 60.088045118000082 ], [ 19.863609131000032, 60.076518157000066 ], [ 19.847500119000074, 60.075827153000034 ], [ 19.771663341000078, 60.080827126000031 ], [ 19.750827103000063, 60.094991201000028 ], [ 19.721663277000061, 60.126109184000029 ], [ 19.697636048000049, 60.161245117000078 ], [ 19.648473169000056, 60.259582108000075 ], [ 19.748891219000029, 60.304718154000057 ], [ 19.782827198000064, 60.292663300000072 ], [ 19.776945113000068, 60.26110912300004 ], [ 19.762918166000077, 60.242636079000079 ], [ 19.79416321900004, 60.189018050000072 ], [ 19.812918230000037, 60.186663238000051 ], [ 19.933054037000034, 60.279854076000049 ], [ 19.937354121000055, 60.291800132000049 ], [ 19.931109100000072, 60.303891195000062 ], [ 19.895418118000066, 60.34152711400003 ], [ 19.88027319300005, 60.339027127000065 ], [ 19.873473290000049, 60.326382188000082 ], [ 19.865000192000025, 60.314991182000028 ], [ 19.836609177000071, 60.320991116000073 ], [ 19.781391210000038, 60.351800142000059 ], [ 19.808327127000041, 60.377491178000071 ], [ 19.825000241000055, 60.392218182000079 ], [ 19.857218097000043, 60.403609189000065 ], [ 19.868609104000029, 60.403609189000065 ], [ 19.905827101000057, 60.399991224000075 ], [ 20.084718205000058, 60.350273127000037 ], [ 20.277500135000025, 60.274163267000063 ], [ 20.217782260000035, 60.20832710500008 ], [ 20.166945179000038, 60.163054099000078 ], [ 20.085691177000058, 60.175554031000047 ], [ 20.103473217000044, 60.218463173000032 ], [ 20.122773219000067, 60.226109145000066 ], [ 20.12028228500003, 60.240000138000028 ], [ 20.064163264000058, 60.298609087000045 ], [ 20.046945159000074, 60.30778224200003 ], [ 20.036945045000039, 60.310553970000058 ], [ 20.025273245000051, 60.310553970000058 ], [ 19.914027117000046, 60.214436004000049 ], [ 19.92889124900006, 60.190273156000046 ], [ 19.941663258000062, 60.18250011400005 ], [ 19.987500198000077, 60.170273264000059 ], [ 20.025773309000044, 60.154273217000082 ], [ 20.052082259000031, 60.098473211000055 ], [ 20.04763616300005, 60.087636081000028 ], [ 20.021663327000056, 60.085827099000028 ], [ 19.999445081000033, 60.089436011000032 ], [ 19.968327097000042, 60.090273195000066 ], [ 19.954582285000072, 60.08735411400005 ], [ 19.947773162000033, 60.078609106000044 ], [ 19.94388228300005, 60.042773117000081 ] ] ], [ [ [ 22.60110921100005, 59.983327151000083 ], [ 22.600800254000035, 60.002500084000076 ], [ 22.572500267000066, 60.027500116000056 ], [ 22.525000189000025, 60.004582149000044 ], [ 22.511663240000075, 60.00166323500008 ], [ 22.471118130000036, 59.998473250000075 ], [ 22.471136068000078, 60.072082118000083 ], [ 22.424163212000053, 60.108327144000043 ], [ 22.415273197000033, 60.152218142000038 ], [ 22.430273284000066, 60.194444997000062 ], [ 22.446663257000068, 60.215827064000052 ], [ 22.457500220000043, 60.221382255000037 ], [ 22.47312710500006, 60.216382114000055 ], [ 22.587773268000035, 60.202500174000079 ], [ 22.64527329200007, 60.210827091000056 ], [ 22.732500238000057, 60.219991194000045 ], [ 22.824445190000063, 60.227218071000038 ], [ 22.835000185000069, 60.193882236000036 ], [ 22.847636072000057, 60.122082183000032 ], [ 22.837500172000034, 60.093744980000054 ], [ 22.731391145000032, 60.00235407100007 ], [ 22.679163338000023, 59.999718131000066 ], [ 22.633327068000028, 60.004718103000073 ], [ 22.60110921100005, 59.983327151000083 ] ] ], [ [ [ 25.000000184000044, 65.025845079000078 ], [ 24.961109159000046, 65.024427029000037 ], [ 24.84666332300003, 65.003600179000046 ], [ 24.820273236000048, 64.963882195000053 ], [ 24.735000112000023, 64.944445065000082 ], [ 24.722773262000032, 64.944154045000062 ], [ 24.707500261000064, 64.946382122000045 ], [ 24.599582251000072, 64.963873143000058 ], [ 24.585827213000073, 64.972491080000054 ], [ 24.56805405800003, 64.990554082000074 ], [ 24.551663246000032, 65.024991131000036 ], [ 24.558609161000049, 65.033463223000069 ], [ 24.620273315000077, 65.057773257000065 ], [ 24.645836108000026, 65.063600189000056 ], [ 24.678054132000057, 65.068882129000031 ], [ 24.700836145000039, 65.071382115000063 ], [ 24.808609147000027, 65.078045058000043 ], [ 24.833609180000053, 65.078600107000057 ], [ 24.848054049000041, 65.077209047000053 ], [ 25.018891150000059, 65.043609182000068 ], [ 25.032500175000052, 65.038318189000051 ], [ 25.025273298000059, 65.028736165000055 ], [ 25.000000184000044, 65.025845079000078 ] ] ], [ [ [ 21.246945192000055, 63.14471818100003 ], [ 21.250136182000062, 63.154436160000046 ], [ 21.190554094000049, 63.189163223000037 ], [ 21.182500258000061, 63.182773195000038 ], [ 21.175827090000041, 63.175000154000031 ], [ 21.165273268000078, 63.173609093000039 ], [ 21.148191284000063, 63.176382162000039 ], [ 21.132773276000023, 63.192218091000029 ], [ 21.098891277000064, 63.236109089000081 ], [ 21.080482270000061, 63.277291224000066 ], [ 21.295973290000063, 63.241391197000041 ], [ 21.348327161000043, 63.254163206000044 ], [ 21.370554124000023, 63.256382231000032 ], [ 21.415973310000027, 63.249163233000047 ], [ 21.424027146000071, 63.194573239000079 ], [ 21.305273179000039, 63.152500108000083 ], [ 21.279445183000064, 63.148327094000081 ], [ 21.246945192000055, 63.14471818100003 ] ] ], [ [ [ 21.972218200000043, 60.323609119000082 ], [ 21.959718100000032, 60.324718045000054 ], [ 21.946391209000069, 60.326945117000037 ], [ 21.899436122000054, 60.335273208000046 ], [ 21.818882177000035, 60.358054048000042 ], [ 21.793191141000023, 60.370553980000068 ], [ 21.785273260000054, 60.376936129000057 ], [ 21.784718210000051, 60.387773259000028 ], [ 21.80624511700006, 60.462500105000061 ], [ 21.816109108000035, 60.467773161000082 ], [ 21.826663265000036, 60.466382100000033 ], [ 21.896382260000053, 60.444444983000039 ], [ 21.933327175000045, 60.416663165000045 ], [ 21.996663350000063, 60.358891232000076 ], [ 21.998327157000062, 60.33443602400007 ], [ 21.98277319500005, 60.324163163000037 ], [ 21.972218200000043, 60.323609119000082 ] ] ], [ [ [ 22.868327135000072, 63.770553990000053 ], [ 22.853336101000025, 63.776936138000053 ], [ 22.816945063000048, 63.780545050000057 ], [ 22.77027328500003, 63.784163183000032 ], [ 22.750827102000073, 63.779718092000053 ], [ 22.706663357000025, 63.775273169000059 ], [ 22.673891121000054, 63.791727180000066 ], [ 22.680273270000043, 63.80694502800003 ], [ 22.70305410900005, 63.820545001000028 ], [ 22.806109106000065, 63.876936099000034 ], [ 22.866663327000026, 63.874163198000076 ], [ 22.880554153000048, 63.872773143000074 ], [ 22.894863235000059, 63.869027103000064 ], [ 22.917636195000057, 63.830418045000044 ], [ 22.914445037000064, 63.819163161000063 ], [ 22.883891156000061, 63.813327177000076 ], [ 22.87500013600004, 63.803053981000062 ], [ 22.868327135000072, 63.770553990000053 ] ] ], [ [ [ 20.110000205000063, 60.088054003000082 ], [ 20.123054013000058, 60.080554043000063 ], [ 20.163609181000027, 60.068600108000055 ], [ 20.193054137000047, 60.064718113000083 ], [ 20.20860910500005, 60.061800205000054 ], [ 20.226763301000062, 60.001391158000047 ], [ 20.207082257000025, 59.978473191000035 ], [ 20.133191254000053, 59.993327097000076 ], [ 20.001663268000073, 60.053191153000057 ], [ 20.005554147000055, 60.064445031000048 ], [ 20.094163269000035, 60.093045091000079 ], [ 20.105973203000076, 60.093609193000077 ], [ 20.110000205000063, 60.088054003000082 ] ] ], [ [ [ 19.57527317000006, 60.121936002000041 ], [ 19.562773237000044, 60.122773187000064 ], [ 19.546945187000063, 60.126663228000041 ], [ 19.523327163000033, 60.150836134000031 ], [ 19.511391165000077, 60.178336152000043 ], [ 19.538327081000034, 60.227773120000052 ], [ 19.568327087000057, 60.250545075000048 ], [ 19.584718233000046, 60.255827015000079 ], [ 19.601945056000034, 60.255827015000079 ], [ 19.61194517000007, 60.253054114000065 ], [ 19.627218171000038, 60.243891185000052 ], [ 19.667636043000073, 60.19096315400003 ], [ 19.673882238000033, 60.17304499200003 ], [ 19.674863255000048, 60.15360920300003 ], [ 19.604445043000055, 60.153053985000042 ], [ 19.57527317000006, 60.121936002000041 ] ] ], [ [ [ 23.040554124000039, 59.897218183000064 ], [ 23.018054078000034, 59.899991084000078 ], [ 22.945827218000034, 59.90221815600006 ], [ 22.927773269000056, 59.898609076000071 ], [ 22.917500241000027, 59.898327109000036 ], [ 22.881245157000023, 59.903609049000067 ], [ 22.847500117000038, 59.919444979000048 ], [ 22.803891254000064, 59.951245081000081 ], [ 22.811945090000052, 59.970000093000067 ], [ 22.827082137000048, 59.973473218000038 ], [ 22.83027329500004, 59.963891194000041 ], [ 22.838327130000039, 59.954853994000075 ], [ 22.940282254000067, 59.956663144000061 ], [ 22.981936122000036, 59.958609086000081 ], [ 23.001936181000076, 59.960545138000043 ], [ 23.054163317000075, 59.958609086000081 ], [ 23.071109178000029, 59.949436099000081 ], [ 23.053054056000065, 59.900963218000072 ], [ 23.040554124000039, 59.897218183000064 ] ] ], [ [ [ 22.213336050000066, 60.241663275000064 ], [ 22.218891240000062, 60.269718176000083 ], [ 22.209163204000049, 60.272500129000036 ], [ 22.143054127000028, 60.279436154000052 ], [ 22.180000215000064, 60.27096322400007 ], [ 22.173327215000029, 60.261527045000037 ], [ 22.151109136000059, 60.256100098000047 ], [ 22.129163302000052, 60.255827015000079 ], [ 22.072145070000033, 60.265618084000039 ], [ 22.072500128000058, 60.292009177000068 ], [ 22.096109099000046, 60.30778224200003 ], [ 22.205827206000038, 60.309163245000036 ], [ 22.217218213000024, 60.308882115000074 ], [ 22.241945162000036, 60.306391181000038 ], [ 22.318054017000065, 60.29332714700007 ], [ 22.341663324000024, 60.28569123300008 ], [ 22.333327186000076, 60.265409207000062 ], [ 22.32027320900005, 60.261936081000044 ], [ 22.310554057000047, 60.265000170000064 ], [ 22.297218114000032, 60.266936054000041 ], [ 22.281527191000066, 60.266109096000037 ], [ 22.230836123000074, 60.251245132000065 ], [ 22.213336050000066, 60.241663275000064 ] ] ], [ [ [ 21.739163237000071, 60.109991120000075 ], [ 21.727773236000075, 60.110273254000049 ], [ 21.699300246000064, 60.114163296000072 ], [ 21.704445058000033, 60.16693609400005 ], [ 21.71221810000003, 60.181109054000046 ], [ 21.723327139000048, 60.186382109000078 ], [ 21.827218147000053, 60.190827032000072 ], [ 21.856391194000025, 60.191663211000048 ], [ 21.872773288000076, 60.184718134000036 ], [ 21.885000138000066, 60.17430009800006 ], [ 21.864718112000048, 60.155000096000038 ], [ 21.785000177000029, 60.118891192000035 ], [ 21.748891274000073, 60.111382180000078 ], [ 21.739163237000071, 60.109991120000075 ] ] ], [ [ [ 23.402218159000029, 59.900836148000053 ], [ 23.391109120000067, 59.901382145000071 ], [ 23.376663245000032, 59.904718143000082 ], [ 23.370418224000048, 59.914163206000069 ], [ 23.383882243000073, 59.925827128000037 ], [ 23.523054023000043, 59.959163298000078 ], [ 23.538327191000064, 59.960273229000052 ], [ 23.54943606300003, 59.959718180000039 ], [ 23.72638223000007, 59.931309060000046 ], [ 23.705827122000073, 59.92721818800004 ], [ 23.649436191000063, 59.92082715500004 ], [ 23.616391209000028, 59.925554045000069 ], [ 23.596663226000032, 59.923882191000075 ], [ 23.507218093000063, 59.915554099000076 ], [ 23.402218159000029, 59.900836148000053 ] ] ] ] }
        }
    ]
}