{
    "type": "FeatureCollection",
    "features": [
        {
            "type": "Feature",
            "properties": {
                "WCID": "GEO",
                "COUNTRY": "Georgia"
            },
            "geometry": { "type": "Polygon", "coordinates": [ [ [ 42.590936142000032, 41.57875398200008 ], [ 42.557909264000045, 41.501800064000065 ], [ 42.483327090000046, 41.43832709600008 ], [ 42.472209165000038, 41.433327124000073 ], [ 42.455273195000075, 41.43470913200008 ], [ 42.366936149000026, 41.460273098000073 ], [ 42.311936112000069, 41.476664245000052 ], [ 42.280136177000031, 41.489573214000075 ], [ 42.174709269000061, 41.507500094000079 ], [ 42.097773289000031, 41.507500094000079 ], [ 41.979436071000066, 41.518045031000042 ], [ 41.958463375000065, 41.516800151000041 ], [ 41.910127119000038, 41.488254070000039 ], [ 41.883045190000075, 41.458318103000067 ], [ 41.83012721700004, 41.43012708100008 ], [ 41.759718225000029, 41.468600184000024 ], [ 41.72470919400007, 41.492491123000036 ], [ 41.569154147000063, 41.518045031000042 ], [ 41.53155410200003, 41.523873136000077 ], [ 41.616100181000036, 41.634436139000059 ], [ 41.646382320000043, 41.644227040000033 ], [ 41.683873232000053, 41.671653968000044 ], [ 41.728736196000057, 41.723327060000031 ], [ 41.77387324700004, 41.815545095000061 ], [ 41.776091267000027, 41.841927135000049 ], [ 41.774727196000072, 41.885627025000076 ], [ 41.760818098000072, 41.961373111000057 ], [ 41.659145109000065, 42.125818173000027 ], [ 41.652900256000066, 42.147627047000071 ], [ 41.656091247000063, 42.175827122000044 ], [ 41.646663282000077, 42.220264117000056 ], [ 41.632763236000073, 42.271936036000056 ], [ 41.592900246000056, 42.354427039000029 ], [ 41.547618187000069, 42.405773237000062 ], [ 41.536382246000073, 42.452764198000068 ], [ 41.528873234000059, 42.48664502400004 ], [ 41.525545116000046, 42.52110017800004 ], [ 41.525054104000048, 42.550200134000079 ], [ 41.500545084000066, 42.624982134000049 ], [ 41.484436072000051, 42.668736004000039 ], [ 41.469982318000064, 42.694153957000026 ], [ 41.456100210000045, 42.714291145000061 ], [ 41.440818156000034, 42.729853992000074 ], [ 41.419563326000059, 42.741654035000067 ], [ 41.371373250000033, 42.757764221000059 ], [ 41.215609158000063, 42.799573154000029 ], [ 41.190754133000041, 42.796173119000059 ], [ 41.159082273000081, 42.78978208500007 ], [ 41.098182214000076, 42.84679109700005 ], [ 41.084982225000033, 42.890544967000039 ], [ 41.075409254000078, 42.923182086000054 ], [ 41.026100194000037, 42.978182123000067 ], [ 41.002627177000079, 42.987700110000048 ], [ 40.961654087000056, 42.97499113300006 ], [ 40.936445178000042, 42.973591187000068 ], [ 40.908873242000027, 43.001936102000059 ], [ 40.87693618000003, 43.044718174000025 ], [ 40.859991157000024, 43.059153991000073 ], [ 40.83707318900008, 43.069853993000038 ], [ 40.802073211000049, 43.07860017400003 ], [ 40.726654187000065, 43.089291123000066 ], [ 40.661373243000071, 43.09192706400006 ], [ 40.360545061000039, 43.163318081000057 ], [ 40.271927222000045, 43.246800160000078 ], [ 40.254436201000033, 43.274436133000052 ], [ 40.218436095000072, 43.316409184000065 ], [ 40.109154182000054, 43.353882159000079 ], [ 40.051382249000028, 43.370273138000073 ], [ 40.002963347000048, 43.379264238000076 ], [ 40.009163274000059, 43.411936059000027 ], [ 40.021100277000073, 43.444154083000058 ], [ 40.08123607400006, 43.550973225000064 ], [ 40.098463232000029, 43.562354005000032 ], [ 40.126654087000077, 43.572218164000049 ], [ 40.169991209000045, 43.581244971000046 ], [ 40.211373335000076, 43.584718097000064 ], [ 40.25339114600007, 43.582518015000062 ], [ 40.294718119000038, 43.576100159000077 ], [ 40.324436157000036, 43.569709125000031 ], [ 40.352700270000071, 43.559436097000059 ], [ 40.488882225000054, 43.517773177000038 ], [ 40.518591210000068, 43.51165405200004 ], [ 40.54305413000003, 43.508609074000049 ], [ 40.577209212000071, 43.512291077000043 ], [ 40.608182188000058, 43.528600081000036 ], [ 40.643109244000073, 43.543882135000047 ], [ 40.680400163000058, 43.546244993000073 ], [ 40.695973237000032, 43.543018128000028 ], [ 40.718882319000045, 43.519573107000042 ], [ 40.74373617100008, 43.506936047000067 ], [ 40.810818218000065, 43.486927103000028 ], [ 40.834163328000045, 43.483327075000034 ], [ 40.863882204000049, 43.477209124000069 ], [ 40.890263238000045, 43.465400196000076 ], [ 40.96110021100003, 43.423609032000059 ], [ 41.014018183000076, 43.390682234000053 ], [ 41.04096332000006, 43.376100070000064 ], [ 41.06888226600006, 43.372909079000067 ], [ 41.126800211000045, 43.384154073000047 ], [ 41.168054095000059, 43.387218161000078 ], [ 41.193045074000054, 43.384718175000046 ], [ 41.213609236000025, 43.378873139000063 ], [ 41.435545101000059, 43.296100168000066 ], [ 41.564991191000047, 43.232200058000046 ], [ 41.597482297000056, 43.221509109000067 ], [ 42.031100278000054, 43.187482102000047 ], [ 42.111173270000052, 43.197282223000059 ], [ 42.169154079000066, 43.230954005000058 ], [ 42.189018184000076, 43.236382125000034 ], [ 42.270818183000074, 43.238045095000075 ], [ 42.363882287000081, 43.237491219000049 ], [ 42.379845118000048, 43.239018066000028 ], [ 42.42415403800004, 43.238464190000059 ], [ 42.460263277000081, 43.229982207000035 ], [ 42.483882307000044, 43.219427044000042 ], [ 42.53297327000007, 43.181927079000047 ], [ 42.619436122000025, 43.145409139000037 ], [ 42.645818162000069, 43.144718135000062 ], [ 42.669991236000044, 43.15929107900007 ], [ 42.694991268000081, 43.180264110000053 ], [ 42.769436147000079, 43.185818127000061 ], [ 42.855200283000045, 43.177764123000031 ], [ 42.94886335800004, 43.121653987000059 ], [ 43.010473196000078, 43.063664125000059 ], [ 43.139291146000062, 42.966791117000071 ], [ 43.183873315000028, 42.944427026000028 ], [ 43.207218257000079, 42.934018043000037 ], [ 43.377763333000075, 42.900536028000033 ], [ 43.392891159000044, 42.900127159000078 ], [ 43.447200192000025, 42.889154074000032 ], [ 43.532491254000035, 42.868318171000055 ], [ 43.560545149000063, 42.860827097000026 ], [ 43.597763314000076, 42.846518015000072 ], [ 43.621518130000027, 42.833182071000067 ], [ 43.641173190000075, 42.809991189000073 ], [ 43.670827190000068, 42.791100056000062 ], [ 43.704718242000069, 42.780818143000033 ], [ 43.756382282000061, 42.775827055000036 ], [ 43.829154133000031, 42.749364213000035 ], [ 43.833945061000065, 42.729227026000046 ], [ 43.806100211000057, 42.702209134000043 ], [ 43.76277331600005, 42.673044972000071 ], [ 43.73966323500008, 42.649573129000032 ], [ 43.777282222000053, 42.604018156000052 ], [ 43.911936156000081, 42.583318040000051 ], [ 44.195200228000033, 42.627053973000045 ], [ 44.223182206000047, 42.638464257000066 ], [ 44.241100200000062, 42.655954104000045 ], [ 44.369427138000049, 42.70804511800003 ], [ 44.499718124000026, 42.750827022000067 ], [ 44.527209258000028, 42.756653954000058 ], [ 44.558045106000066, 42.759718042000031 ], [ 44.593882268000073, 42.758327149000081 ], [ 44.629436122000072, 42.752218083000059 ], [ 44.638263272000074, 42.748809163000033 ], [ 44.648882306000075, 42.74860011800007 ], [ 44.678182254000035, 42.741791163000073 ], [ 44.705273236000039, 42.72720916600008 ], [ 44.750963325000043, 42.692909077000024 ], [ 44.765545155000041, 42.670536101000039 ], [ 44.808327227000063, 42.665264219000051 ], [ 44.859573177000073, 42.74679113600007 ], [ 44.89374519100005, 42.761664153000027 ], [ 44.931100148000041, 42.761109103000081 ], [ 44.954991254000049, 42.750409101000059 ], [ 44.974291257000061, 42.736936030000038 ], [ 45.009991291000063, 42.714564227000039 ], [ 45.04582711300003, 42.696091183000078 ], [ 45.066163286000062, 42.693527159000041 ], [ 45.091473281000049, 42.69741803800008 ], [ 45.120273333000057, 42.706936025000061 ], [ 45.143045120000068, 42.708600168000032 ], [ 45.165118191000033, 42.703327112000068 ], [ 45.212209232000077, 42.676100176000034 ], [ 45.241936155000076, 42.650827062000076 ], [ 45.319427185000052, 42.578044985000076 ], [ 45.333609198000033, 42.558736097000065 ], [ 45.342209198000035, 42.54068214800003 ], [ 45.367636204000064, 42.527209077000066 ], [ 45.432209213000078, 42.53749115800008 ], [ 45.488182222000034, 42.547636110000042 ], [ 45.526927234000027, 42.550818048000053 ], [ 45.55277333500004, 42.550264172000027 ], [ 45.576100172000054, 42.546100043000081 ], [ 45.700536231000058, 42.516109090000043 ], [ 45.727627212000073, 42.504854038000076 ], [ 45.750827147000052, 42.487753950000069 ], [ 45.76027321600003, 42.477909069000077 ], [ 45.757627217000049, 42.465264130000037 ], [ 45.707500251000056, 42.356100067000057 ], [ 45.689709159000074, 42.319153979000077 ], [ 45.650682179000057, 42.251936144000069 ], [ 45.637973202000069, 42.220191194000051 ], [ 45.655127102000051, 42.199991143000034 ], [ 45.986927087000026, 42.028600166000047 ], [ 46.054154142000073, 42.024991086000057 ], [ 46.239227235000044, 42.000964193000073 ], [ 46.400118202000044, 41.938045101000057 ], [ 46.425827176000041, 41.922627093000074 ], [ 46.446382285000027, 41.904427131000034 ], [ 46.451754079000068, 41.897054074000039 ], [ 46.435827122000035, 41.861800124000069 ], [ 46.41470925200008, 41.831800119000036 ], [ 46.350545112000077, 41.773318072000052 ], [ 46.324782159000051, 41.756454018000056 ], [ 46.290818185000035, 41.757773162000035 ], [ 46.25638230900006, 41.764573232000032 ], [ 46.230463285000042, 41.762473230000069 ], [ 46.209709190000069, 41.74665406500003 ], [ 46.198045101000048, 41.724991203000059 ], [ 46.194427136000058, 41.698045061000073 ], [ 46.196091279000029, 41.677491126000064 ], [ 46.216100223000069, 41.624982190000026 ], [ 46.233327214000042, 41.598591097000053 ], [ 46.33193611400003, 41.483464148000053 ], [ 46.502636087000042, 41.396236028000033 ], [ 46.55303613600006, 41.386936139000056 ], [ 46.593318221000061, 41.379436012000042 ], [ 46.621091155000045, 41.36500019600004 ], [ 46.689636180000036, 41.317345053000054 ], [ 46.710818255000049, 41.258327066000049 ], [ 46.69720017700007, 41.211653947000059 ], [ 46.666654175000076, 41.150545011000077 ], [ 46.622491268000033, 41.100545115000045 ], [ 46.51470921300006, 41.048045064000064 ], [ 46.492763378000063, 41.051800157000059 ], [ 46.378318213000057, 41.10415402700005 ], [ 46.359709215000066, 41.116936094000039 ], [ 46.340827134000051, 41.129991076000067 ], [ 46.294154182000057, 41.162764150000044 ], [ 46.274009116000059, 41.178318112000056 ], [ 46.239991162000081, 41.204709037000043 ], [ 46.135609142000078, 41.20255405000006 ], [ 46.091518152000049, 41.178873162000059 ], [ 46.062200266000048, 41.171927079000056 ], [ 46.039573318000066, 41.170273162000058 ], [ 45.996936086000062, 41.17360915900008 ], [ 45.966100237000035, 41.17915395600005 ], [ 45.922491207000064, 41.18915406900004 ], [ 45.895545064000032, 41.197491213000035 ], [ 45.869709189000048, 41.206091213000036 ], [ 45.850818223000033, 41.21277309900006 ], [ 45.804573251000079, 41.230400074000045 ], [ 45.748045193000053, 41.260273177000045 ], [ 45.711173201000065, 41.287218146000043 ], [ 45.712973299000055, 41.311791204000031 ], [ 45.716927210000051, 41.348591111000076 ], [ 45.61110920200008, 41.381927114000064 ], [ 45.34159128400006, 41.460964102000048 ], [ 45.306654171000048, 41.461100057000067 ], [ 45.285400179000078, 41.457209177000038 ], [ 45.260963243000049, 41.449291129000073 ], [ 45.186100274000069, 41.404982209000025 ], [ 45.141373266000073, 41.376654059000032 ], [ 45.051382303000025, 41.316373087000045 ], [ 45.022945188000051, 41.29705397400005 ], [ 44.978600226000026, 41.270264238000038 ], [ 44.869709245000081, 41.216645035000056 ], [ 44.848873175000051, 41.213054060000047 ], [ 44.824718206000057, 41.212491132000025 ], [ 44.728600240000048, 41.212209164000058 ], [ 44.56623606900007, 41.185264195000059 ], [ 44.484154103000037, 41.18776418200008 ], [ 44.429991250000057, 41.19221815800006 ], [ 44.340545112000029, 41.212491132000025 ], [ 44.248873242000059, 41.223591118000058 ], [ 44.172700182000028, 41.196864247000065 ], [ 44.144709152000075, 41.184991113000081 ], [ 44.122763317000079, 41.18192702500005 ], [ 43.992763352000054, 41.164144985000064 ], [ 43.892491147000044, 41.165409143000034 ], [ 43.856518197000071, 41.160127035000073 ], [ 43.833609115000058, 41.14554503800008 ], [ 43.791373207000049, 41.118664107000029 ], [ 43.756245154000055, 41.112627125000074 ], [ 43.734427228000072, 41.113600097000074 ], [ 43.637500240000065, 41.123044993000065 ], [ 43.59970925600004, 41.129718161000028 ], [ 43.570136225000056, 41.135545093000076 ], [ 43.546391299000049, 41.13499121600006 ], [ 43.460773176000032, 41.112964245000057 ], [ 43.474363258000039, 41.137982215000079 ], [ 43.455482183000072, 41.168045084000028 ], [ 43.42999130700008, 41.183464266000044 ], [ 43.37846322200005, 41.201664227000037 ], [ 43.349709270000062, 41.201936136000029 ], [ 43.23360013000007, 41.190273221000041 ], [ 43.126382177000039, 41.32000010400003 ], [ 43.039718159000074, 41.374164130000054 ], [ 43.01610918800003, 41.39332700500006 ], [ 42.89277333800004, 41.506945044000076 ], [ 42.831018157000074, 41.582418047000033 ], [ 42.681391294000036, 41.594718155000066 ], [ 42.651663366000037, 41.592764166000052 ], [ 42.604163288000052, 41.584718042000077 ], [ 42.590936142000032, 41.57875398200008 ] ] ] }
        }
    ]
}