{
    "type": "FeatureCollection",
    "features": [
        {
            "type": "Feature",
            "properties": {
                "WCID": "GER",
                "COUNTRY": "Germany"
            },
            "geometry": { "type": "MultiPolygon", "coordinates": [ [ [ [ 7.697218132000046, 47.543327027000032 ], [ 7.656109088000051, 47.550554072000068 ], [ 7.62110911000002, 47.561100183000065 ], [ 7.668818065000039, 47.57603606400005 ], [ 7.675691225000037, 47.60500006500007 ], [ 7.640554120000047, 47.603882087000045 ], [ 7.588273172000072, 47.584482172000037 ], [ 7.588763178000022, 47.598918156000082 ], [ 7.56416329800004, 47.639164200000039 ], [ 7.527636137000059, 47.662426999000047 ], [ 7.512082175000046, 47.695136035000075 ], [ 7.526663333000045, 47.788053958000035 ], [ 7.557218221000028, 47.86278214500004 ], [ 7.584163189000037, 47.903327088000026 ], [ 7.623191175000045, 47.973053961000062 ], [ 7.619773202000033, 47.996527146000062 ], [ 7.58389111300005, 48.027218155000071 ], [ 7.570491132000029, 48.044109031000062 ], [ 7.569309116000056, 48.087218165000081 ], [ 7.57838219100006, 48.117200065000077 ], [ 7.607727066000052, 48.164182141000026 ], [ 7.693336138000063, 48.276382130000059 ], [ 7.748709169000051, 48.335791215000029 ], [ 7.74305406700006, 48.371109035000075 ], [ 7.736663201000056, 48.394027003000076 ], [ 7.745400162000067, 48.424944994000043 ], [ 7.802218066000023, 48.57582713000005 ], [ 7.880000116000076, 48.664164176000043 ], [ 7.961945122000031, 48.724164186000053 ], [ 8.092218170000024, 48.803600153000048 ], [ 8.105136192000032, 48.81944513500008 ], [ 8.111391271000059, 48.84360915600007 ], [ 8.12166329300004, 48.865000108000061 ], [ 8.137500229000068, 48.893191131000037 ], [ 8.198327197000026, 48.955418045000044 ], [ 8.226082193000025, 48.964418030000047 ], [ 8.15555401000006, 48.976391076000027 ], [ 8.045827186000054, 49.008191178000061 ], [ 7.935973292000028, 49.048882133000063 ], [ 7.821391167000058, 49.046391199000027 ], [ 7.737500218000037, 49.042773234000038 ], [ 7.66889115500004, 49.042218017000039 ], [ 7.652091139000049, 49.044936101000076 ], [ 7.628054020000036, 49.067218049000076 ], [ 7.48694501500006, 49.164164147000065 ], [ 7.425554112000043, 49.17645402900007 ], [ 7.378609083000072, 49.172364163000054 ], [ 7.369018175000065, 49.168782241000031 ], [ 7.364027086000021, 49.151936124000031 ], [ 7.289718162000042, 49.111664264000069 ], [ 7.151663187000054, 49.121109161000049 ], [ 7.090554084000075, 49.127491142000054 ], [ 7.019445034000057, 49.187491152000064 ], [ 6.929863276000049, 49.220200188000035 ], [ 6.84607324600006, 49.212045099000079 ], [ 6.856354153000041, 49.181764132000069 ], [ 6.834100200000023, 49.155064250000066 ], [ 6.729236053000022, 49.167636099000049 ], [ 6.71507315100007, 49.18729115900004 ], [ 6.68694516000005, 49.244991175000052 ], [ 6.59471807400007, 49.363053970000067 ], [ 6.541245052000022, 49.423882112000058 ], [ 6.508336191000069, 49.442773245000069 ], [ 6.468336072000056, 49.461391129000049 ], [ 6.41374507200004, 49.475691158000075 ], [ 6.362173233000021, 49.459391207000067 ], [ 6.362782263000042, 49.489164230000029 ], [ 6.356491141000049, 49.525864225000078 ], [ 6.420836162000057, 49.665836141000057 ], [ 6.472500202000049, 49.692982108000081 ], [ 6.505836037000051, 49.706627008000055 ], [ 6.524027114000035, 49.807700188000069 ], [ 6.48194509800004, 49.811100056000043 ], [ 6.429718130000026, 49.808882204000042 ], [ 6.395554163000043, 49.817773224000064 ], [ 6.321109116000059, 49.848327105000067 ], [ 6.315936141000066, 49.855318116000035 ], [ 6.252782188000026, 49.88235411200003 ], [ 6.234163299000045, 49.897500211000079 ], [ 6.174163289000035, 49.951109188000032 ], [ 6.140554036000026, 49.993891092000069 ], [ 6.130554091000022, 50.013882099000057 ], [ 6.113054018000071, 50.057354002000068 ], [ 6.118336126000031, 50.090827132000072 ], [ 6.129163198000072, 50.119164167000065 ], [ 6.13440909600007, 50.12784496900008 ], [ 6.139718193000022, 50.154445107000072 ], [ 6.166663330000063, 50.224718145000054 ], [ 6.280836083000054, 50.28360906100005 ], [ 6.349718061000033, 50.312773223000079 ], [ 6.398200162000023, 50.323173153000027 ], [ 6.373400122000021, 50.443191111000033 ], [ 6.339163233000022, 50.486936096000079 ], [ 6.313473202000068, 50.497218176000047 ], [ 6.264718186000039, 50.497773226000049 ], [ 6.247773163000033, 50.589164134000043 ], [ 6.270418215000063, 50.619853970000065 ], [ 6.167218212000023, 50.656391189000033 ], [ 6.054718151000031, 50.723609191000037 ], [ 6.011800124000047, 50.75727326100008 ], [ 6.008054084000037, 50.802218032000042 ], [ 6.016663305000066, 50.841664274000038 ], [ 6.05816328100002, 50.850482204000059 ], [ 6.08444507400003, 50.872082201000069 ], [ 6.080836161000036, 50.914718093000033 ], [ 6.024927191000074, 50.977982183000051 ], [ 5.943745105000062, 50.98430012700004 ], [ 5.902009095000039, 50.973118165000074 ], [ 5.869445066000026, 51.018882183000073 ], [ 5.865000142000042, 51.045345025000074 ], [ 5.905554137000024, 51.06311818000006 ], [ 6.00305411100004, 51.084164133000058 ], [ 6.097500223000054, 51.131100109000045 ], [ 6.08444507400003, 51.174264228000027 ], [ 6.071663342000022, 51.214091176000068 ], [ 6.077636118000044, 51.241382150000049 ], [ 6.143054023000047, 51.29527326200008 ], [ 6.222500216000071, 51.363191153000059 ], [ 6.222082127000022, 51.467354070000056 ], [ 6.204863183000043, 51.513464260000035 ], [ 6.158609159000036, 51.558327056000053 ], [ 6.134027048000064, 51.570827156000064 ], [ 6.093609176000029, 51.605827134000037 ], [ 6.028891160000057, 51.706664111000066 ], [ 5.952054086000032, 51.747527063000064 ], [ 5.982745095000041, 51.767218165000031 ], [ 5.963609210000072, 51.806664240000032 ], [ 6.00305411100004, 51.829991077000045 ], [ 6.123609181000063, 51.888054029000045 ], [ 6.182218130000024, 51.895273194000026 ], [ 6.351109121000036, 51.848054078000075 ], [ 6.462782223000033, 51.853609100000028 ], [ 6.527500239000062, 51.874445003000062 ], [ 6.59471807400007, 51.896109038000077 ], [ 6.684654051000052, 51.911664174000066 ], [ 6.722500188000026, 51.897909135000077 ], [ 6.746391127000038, 51.906109151000067 ], [ 6.783054074000063, 51.924718150000047 ], [ 6.828954047000025, 51.975754050000035 ], [ 6.797500117000027, 52.008745053000041 ], [ 6.728609087000052, 52.035273106000034 ], [ 6.736391181000045, 52.076664117000064 ], [ 6.759427165000034, 52.114564234000056 ], [ 6.85603614300004, 52.120482193000043 ], [ 6.875073290000046, 52.142354099000045 ], [ 6.90263617200003, 52.172218149000059 ], [ 6.964718080000068, 52.190273104000028 ], [ 7.04221816200004, 52.231664115000058 ], [ 7.053091167000048, 52.237764129000027 ], [ 7.029100149000044, 52.278264144000048 ], [ 7.035136125000065, 52.305827027000078 ], [ 7.058118130000025, 52.337636015000044 ], [ 7.070418070000073, 52.355827091000037 ], [ 7.06298214800006, 52.390964197000073 ], [ 6.984027135000076, 52.45735406700004 ], [ 6.954236174000073, 52.437218054000027 ], [ 6.75889122600006, 52.460964153000077 ], [ 6.704027144000065, 52.488191089000054 ], [ 6.689582275000021, 52.55055395800008 ], [ 6.722500188000026, 52.559436093000045 ], [ 6.758127132000027, 52.564645111000061 ], [ 6.727773243000058, 52.61860914500005 ], [ 6.718918098000074, 52.626782171000059 ], [ 6.720836045000055, 52.629436049000049 ], [ 6.76576321400006, 52.651173174000064 ], [ 6.906218095000042, 52.648118138000029 ], [ 7.033745064000072, 52.633191142000044 ], [ 7.053473214000064, 52.649582121000037 ], [ 7.063609115000077, 52.721382174000041 ], [ 7.065000175000023, 52.760418038000068 ], [ 7.066245056000071, 52.79250010800007 ], [ 7.073336146000031, 52.819718160000036 ], [ 7.091063200000065, 52.836909108000043 ], [ 7.133054021000021, 52.888882104000061 ], [ 7.179718088000072, 52.934164163000048 ], [ 7.196182157000067, 52.962500193000039 ], [ 7.210973199000023, 53.008882124000081 ], [ 7.207218106000028, 53.176109140000051 ], [ 7.208363242000075, 53.242809140000077 ], [ 7.255836162000037, 53.316036129000054 ], [ 7.324863314000027, 53.316936010000063 ], [ 7.350900188000026, 53.30725407400007 ], [ 7.337082285000065, 53.323053961000028 ], [ 7.226945083000032, 53.336391078000077 ], [ 7.183891270000061, 53.340827116000071 ], [ 7.126391246000026, 53.340000158000066 ], [ 7.082918170000028, 53.337082082000052 ], [ 7.049927166000032, 53.341109084000038 ], [ 7.018954022000059, 53.375345135000032 ], [ 7.015000111000063, 53.409854101000064 ], [ 7.021945021000022, 53.442500105000079 ], [ 7.032363223000061, 53.482354043000043 ], [ 7.093536029000063, 53.588191161000054 ], [ 7.184718060000023, 53.642218060000062 ], [ 7.232082184000035, 53.667218092000041 ], [ 7.295836113000064, 53.685273214000063 ], [ 7.341109119000066, 53.688609044000032 ], [ 7.468745053000021, 53.685964218000038 ], [ 7.513473235000049, 53.672082110000076 ], [ 7.581663203000062, 53.68139122000008 ], [ 7.698336110000071, 53.700273133000053 ], [ 7.84333616300006, 53.714164126000071 ], [ 7.882500102000051, 53.717500123000036 ], [ 7.907500134000031, 53.719445060000055 ], [ 7.949163223000028, 53.717500123000036 ], [ 7.981663214000037, 53.715273219000039 ], [ 8.014309218000051, 53.708327136000037 ], [ 8.024963288000038, 53.689618057000075 ], [ 8.052082265000024, 53.631382103000078 ], [ 8.123891203000028, 53.584718036000027 ], [ 8.161245155000074, 53.558682168000075 ], [ 8.16660018500005, 53.528882156000066 ], [ 8.129445052000051, 53.509718107000026 ], [ 8.09374501800005, 53.503053991000058 ], [ 8.062427210000067, 53.500900178000052 ], [ 8.072982205000073, 53.468191141000034 ], [ 8.097773193000023, 53.444445042000041 ], [ 8.210273253000025, 53.403044978000082 ], [ 8.23444515400007, 53.400554044000046 ], [ 8.246245029000022, 53.401800098000081 ], [ 8.286036103000072, 53.420891223000069 ], [ 8.311873152000032, 53.456318176000082 ], [ 8.319927155000073, 53.50555397800008 ], [ 8.305000159000031, 53.524853980000046 ], [ 8.268191199000057, 53.520273103000079 ], [ 8.233682233000025, 53.523118088000047 ], [ 8.236945140000046, 53.55778212000007 ], [ 8.243054039000071, 53.586109097000076 ], [ 8.26958225900006, 53.607491164000066 ], [ 8.30610908500006, 53.616945113000043 ], [ 8.332218210000065, 53.615273258000059 ], [ 8.494445085000052, 53.554991113000028 ], [ 8.513336051000067, 53.509582153000053 ], [ 8.49492721200005, 53.48923608900003 ], [ 8.484027050000066, 53.462082243000054 ], [ 8.484718222000026, 53.412218133000067 ], [ 8.489718195000023, 53.377354109000066 ], [ 8.503891155000076, 53.36235402300008 ], [ 8.505418170000041, 53.429718038000033 ], [ 8.497363329000052, 53.456527053000059 ], [ 8.504373282000074, 53.483191228000067 ], [ 8.560863286000028, 53.515436074000036 ], [ 8.565518092000048, 53.529053985000075 ], [ 8.51173611300004, 53.617218028000082 ], [ 8.490827121000052, 53.648882176000029 ], [ 8.484100140000066, 53.68631810200003 ], [ 8.548054062000062, 53.818327043000068 ], [ 8.57736323000006, 53.855000216000064 ], [ 8.604582287000028, 53.879018057000053 ], [ 8.659027107000043, 53.892636135000032 ], [ 8.682218157000023, 53.893891073000077 ], [ 8.711600248000025, 53.870345134000047 ], [ 8.756391127000029, 53.846664246000046 ], [ 8.775554002000035, 53.840554006000048 ], [ 8.797218204000046, 53.835827115000029 ], [ 8.853054085000053, 53.829718049000064 ], [ 8.907500246000041, 53.828045021000037 ], [ 9.020554015000073, 53.846664246000046 ], [ 9.105273263000072, 53.863327134000031 ], [ 9.128891120000048, 53.86610020300003 ], [ 9.215973227000063, 53.864853981000067 ], [ 9.283400106000045, 53.855545040000038 ], [ 9.322363215000053, 53.828191202000028 ], [ 9.351391255000067, 53.79804501600006 ], [ 9.379445149000048, 53.760827019000033 ], [ 9.412363230000039, 53.72750006900003 ], [ 9.555000256000028, 53.604436128000032 ], [ 9.57791822400003, 53.588609083000051 ], [ 9.672782257000051, 53.555544990000044 ], [ 9.695836179000025, 53.550282160000052 ], [ 9.764745146000053, 53.543727009000065 ], [ 9.809373249000032, 53.533745 ], [ 9.829063345000066, 53.541700097000046 ], [ 9.77902707100003, 53.562082204000035 ], [ 9.741082195000047, 53.565000112000064 ], [ 9.724163324000074, 53.565553988000033 ], [ 9.69944509100003, 53.568327057000033 ], [ 9.672782257000051, 53.575273140000036 ], [ 9.575282283000035, 53.613609115000031 ], [ 9.55389116300006, 53.627636063000068 ], [ 9.434163219000027, 53.744018118000042 ], [ 9.417218196000022, 53.771109100000047 ], [ 9.407773300000031, 53.792218085000059 ], [ 9.393745179000064, 53.822636011000043 ], [ 9.332773204000034, 53.855000216000064 ], [ 9.282363264000026, 53.875553984000078 ], [ 9.234445097000048, 53.886382229000048 ], [ 9.213054145000058, 53.889718059000074 ], [ 9.063054120000061, 53.89804497700004 ], [ 8.984163312000021, 53.891873214000043 ], [ 8.947500197000068, 53.907218132000082 ], [ 8.927500137000038, 53.919718064000051 ], [ 8.906800189000023, 53.934718150000037 ], [ 8.88305409000003, 53.961109076000071 ], [ 8.850000222000062, 54.008891121000033 ], [ 8.844273203000057, 54.034753986000055 ], [ 8.885691204000068, 54.044718057000068 ], [ 8.926663288000043, 54.037218098000039 ], [ 8.953054046000034, 54.026382141000056 ], [ 8.975000215000023, 54.018191177000062 ], [ 9.001800177000064, 54.027082197000027 ], [ 9.011945130000072, 54.046936076000065 ], [ 9.017218185000047, 54.085000143000059 ], [ 8.971109168000055, 54.131664209000064 ], [ 8.852363248000074, 54.127982207000059 ], [ 8.827363216000037, 54.151664269000037 ], [ 8.812773173000039, 54.175000158000046 ], [ 8.819863257000065, 54.198609129000033 ], [ 8.84562704800004, 54.254164216000049 ], [ 8.883609139000043, 54.294164167000076 ], [ 8.830000163000022, 54.293327150000039 ], [ 8.690209128000049, 54.26756419700007 ], [ 8.66250023300006, 54.26819116300004 ], [ 8.637636155000052, 54.276100160000055 ], [ 8.609582260000025, 54.30500012400006 ], [ 8.60048219600003, 54.32638219100005 ], [ 8.621945065000034, 54.378609159000064 ], [ 8.64242708300003, 54.397082203000082 ], [ 8.768609092000077, 54.410827016000042 ], [ 8.826527205000048, 54.414718063000066 ], [ 8.844927159000065, 54.405409121000048 ], [ 8.886945137000055, 54.41416418700004 ], [ 8.994718140000032, 54.451945113000079 ], [ 9.013954104000049, 54.474991155000055 ], [ 9.011245073000055, 54.503464145000066 ], [ 8.964027130000034, 54.542353997000077 ], [ 8.943609149000054, 54.547909187000073 ], [ 8.918891252000037, 54.561109176000059 ], [ 8.850827181000056, 54.620827051000049 ], [ 8.809582182000042, 54.676936014000034 ], [ 8.754445017000023, 54.711664251000059 ], [ 8.734445125000036, 54.72110914700005 ], [ 8.696945161000031, 54.746936137000034 ], [ 8.651318103000051, 54.806727103000071 ], [ 8.641391248000048, 54.832218147000049 ], [ 8.576182220000021, 54.85738212900003 ], [ 8.545609228000046, 54.870609107000064 ], [ 8.390109166000059, 54.866935990000059 ], [ 8.300900235000029, 54.856454085000053 ], [ 8.294445164000024, 54.825273237000033 ], [ 8.296600151000064, 54.778609170000038 ], [ 8.290836084000034, 54.742809056000056 ], [ 8.280554003000077, 54.774991206000038 ], [ 8.282082192000075, 54.82666413000004 ], [ 8.293336070000066, 54.900553960000082 ], [ 8.307218178000028, 54.933054119000076 ], [ 8.37333613900006, 55.033336047000034 ], [ 8.388191219000021, 55.049164265000059 ], [ 8.408054150000055, 55.056527096000082 ], [ 8.454236090000052, 55.050973247000059 ], [ 8.438327070000071, 55.024164233000079 ], [ 8.407636061000062, 55.009300101000065 ], [ 8.371945079000056, 54.994164228000045 ], [ 8.353191241000047, 54.96610916000003 ], [ 8.420418128000051, 54.91964508500007 ], [ 8.461218215000031, 54.899973261000071 ], [ 8.490463178000027, 54.900553960000082 ], [ 8.60048219600003, 54.910773176000077 ], [ 8.664545082000075, 54.913091107000071 ], [ 8.692773153000076, 54.895827069000063 ], [ 8.71944503900005, 54.891109063000044 ], [ 8.75889111400005, 54.89805397300006 ], [ 8.78582719800005, 54.906109150000077 ], [ 8.835091163000072, 54.913791164000031 ], [ 8.920000178000066, 54.908054087000039 ], [ 8.941109163000021, 54.905545048000079 ], [ 9.168891238000072, 54.865000105000036 ], [ 9.228891248000025, 54.849582097000052 ], [ 9.230836185000044, 54.829300071000034 ], [ 9.248336090000066, 54.812636009000073 ], [ 9.350836037000022, 54.810554112000034 ], [ 9.377218078000055, 54.827636096000049 ], [ 9.414718210000046, 54.833327073000078 ], [ 9.44535406600005, 54.825400139000067 ], [ 9.439445159000059, 54.807982209000045 ], [ 9.578336145000037, 54.825554031000081 ], [ 9.660554066000032, 54.812218088000066 ], [ 9.785554059000049, 54.786109130000057 ], [ 9.902154044000042, 54.791109103000053 ], [ 9.935836051000024, 54.781945 ], [ 9.972009160000027, 54.760754040000052 ], [ 10.037363195000069, 54.668236101000048 ], [ 10.040000142000054, 54.633073179000064 ], [ 10.032500182000035, 54.555273192000072 ], [ 10.004300107000063, 54.52373611400003 ], [ 9.970554062000076, 54.507500199000049 ], [ 9.893054147000043, 54.481945118000056 ], [ 9.871109151000041, 54.477491142000076 ], [ 9.845554069000059, 54.476727048000043 ], [ 9.866036088000044, 54.457291090000069 ], [ 9.893327062000026, 54.453891223000028 ], [ 10.00666330100006, 54.474236114000064 ], [ 10.106109218000029, 54.489436025000032 ], [ 10.126945121000062, 54.489718159000063 ], [ 10.368327169000054, 54.435553966000043 ], [ 10.609718102000045, 54.360544984000057 ], [ 10.64624509500004, 54.337427025000068 ], [ 10.690554015000032, 54.309300208000082 ], [ 10.772500194000031, 54.307218143000057 ], [ 10.795000240000036, 54.312354070000026 ], [ 10.831873238000071, 54.330344987000046 ], [ 10.885273170000062, 54.36193604500005 ], [ 10.946454022000069, 54.384509181000055 ], [ 10.979445026000064, 54.380554096000026 ], [ 10.958263286000033, 54.37895399100006 ], [ 10.986945153000022, 54.371935991000043 ], [ 11.016945158000055, 54.369991222000067 ], [ 11.04471809100005, 54.369718139000042 ], [ 11.073891138000022, 54.376391140000067 ], [ 11.093954061000034, 54.205482122000035 ], [ 11.06000014500006, 54.177218177000043 ], [ 10.880554158000052, 54.090764210000032 ], [ 10.832218070000067, 54.09082707400006 ], [ 10.801391274000025, 54.089436014000057 ], [ 10.762218114000063, 54.056518100000062 ], [ 10.757363315000077, 54.035827037000047 ], [ 10.777082246000077, 54.006664217000036 ], [ 10.795554116000062, 53.995554004000041 ], [ 10.822218124000074, 53.994164117000082 ], [ 10.86139111600005, 53.993891202000043 ], [ 10.879791237000063, 53.985900063000031 ], [ 10.890136182000049, 53.954300120000028 ], [ 10.863609135000047, 53.916936110000051 ], [ 10.818536121000022, 53.890054006000071 ], [ 10.898891248000041, 53.931109071000037 ], [ 10.904436045000068, 53.957345098000076 ], [ 10.964718189000052, 53.980273124000064 ], [ 11.013054111000031, 53.99528209500005 ], [ 11.055391271000076, 54.007354047000035 ], [ 11.094718155000066, 54.013609126000063 ], [ 11.183536154000024, 54.011936098000035 ], [ 11.251627048000046, 53.938782200000048 ], [ 11.412773160000029, 53.919718064000051 ], [ 11.480836058000023, 53.960273232000077 ], [ 11.492773229000022, 53.994582206000075 ], [ 11.522082230000024, 54.033264186000054 ], [ 11.544718231000047, 54.026382141000056 ], [ 11.554718176000051, 54.026936017000082 ], [ 11.576809185000059, 54.034300190000067 ], [ 11.626354112000058, 54.082391192000046 ], [ 11.626109193000048, 54.111173138000026 ], [ 11.687500096000065, 54.153253980000045 ], [ 11.747500106000075, 54.156391159000066 ], [ 11.986109085000066, 54.173336015000075 ], [ 12.129718077000064, 54.191109170000061 ], [ 12.326945097000078, 54.286664207000058 ], [ 12.349863232000075, 54.30319114100007 ], [ 12.436945172000037, 54.391109092000079 ], [ 12.480554035000068, 54.444164192000073 ], [ 12.526945019000038, 54.47416419700005 ], [ 12.540554045000022, 54.458882143000039 ], [ 12.638609236000036, 54.448945062000064 ], [ 12.660445100000061, 54.446109129000035 ], [ 12.680773227000032, 54.444945050000058 ], [ 12.803336098000045, 54.442500216000042 ], [ 12.900691233000032, 54.44235403600004 ], [ 12.921527135000076, 54.427464256000064 ], [ 12.880554046000043, 54.411944994000066 ], [ 12.758336174000021, 54.413045035000039 ], [ 12.729236050000054, 54.423364164000077 ], [ 12.703800159000025, 54.429673222000076 ], [ 12.670691138000052, 54.41461815100007 ], [ 12.643218110000078, 54.413891104000072 ], [ 12.463891146000037, 54.395136093000076 ], [ 12.425836132000029, 54.372500093000042 ], [ 12.365691115000061, 54.305200116000037 ], [ 12.374373258000048, 54.262427096000067 ], [ 12.408191220000049, 54.248744980000026 ], [ 12.451600259000031, 54.249718119000079 ], [ 12.423954060000028, 54.258953971000039 ], [ 12.419163299000047, 54.281454016000055 ], [ 12.480136113000071, 54.331936040000073 ], [ 12.549718147000021, 54.360544984000057 ], [ 12.581945056000052, 54.368327079000039 ], [ 12.624718076000022, 54.372773175000077 ], [ 12.682782201000066, 54.376109173000032 ], [ 12.764718155000025, 54.372500093000042 ], [ 13.023891128000059, 54.399718144000076 ], [ 13.118609149000065, 54.276454044000047 ], [ 13.212500211000076, 54.251936138000076 ], [ 13.285136108000074, 54.234864213000037 ], [ 13.379163292000044, 54.174436056000047 ], [ 13.454582148000043, 54.097082153000031 ], [ 13.487082140000041, 54.087354116000029 ], [ 13.499718194000025, 54.086109069000031 ], [ 13.484027104000063, 54.11944507100003 ], [ 13.710827155000061, 54.170827143000054 ], [ 13.788891172000035, 54.109718040000075 ], [ 13.799027073000047, 54.084164132000069 ], [ 13.786109219000025, 54.050000165000029 ], [ 13.829718082000056, 53.986382190000029 ], [ 13.865273277000028, 53.904164269000034 ], [ 13.821109197000055, 53.876391168000055 ], [ 13.808536174000039, 53.854782119000049 ], [ 13.959163333000049, 53.774991094000029 ], [ 14.22389116100004, 53.700827009000079 ], [ 14.256391153000038, 53.697354051000048 ], [ 14.275627118000045, 53.699064127000042 ], [ 14.309718162000024, 53.555544990000044 ], [ 14.413263333000032, 53.338954096000066 ], [ 14.412773159000039, 53.304445130000033 ], [ 14.391691164000065, 53.144164198000055 ], [ 14.380273167000041, 53.110136018000048 ], [ 14.34736330100003, 53.048882243000037 ], [ 14.293736052000042, 53.018773106000026 ], [ 14.225418176000062, 52.988882233000027 ], [ 14.200282190000053, 52.984718103000034 ], [ 14.168891124000027, 52.973327097000038 ], [ 14.147636126000066, 52.959236112000042 ], [ 14.149163309000073, 52.862782199000037 ], [ 14.205418117000022, 52.818609066000079 ], [ 14.355000220000022, 52.74832714300004 ], [ 14.383336082000028, 52.730827070000032 ], [ 14.448327181000025, 52.675282210000034 ], [ 14.478745107000066, 52.652500197000052 ], [ 14.514445142000056, 52.639164253000047 ], [ 14.554582220000043, 52.627218030000051 ], [ 14.595782292000024, 52.606827038000063 ], [ 14.639582263000023, 52.572982087000071 ], [ 14.633536061000029, 52.490554115000066 ], [ 14.585136102000035, 52.439853995000078 ], [ 14.563191273000029, 52.433191220000026 ], [ 14.543954135000035, 52.421873136000045 ], [ 14.534445033000054, 52.396245132000047 ], [ 14.579863214000056, 52.288327122000055 ], [ 14.598891140000035, 52.272773160000042 ], [ 14.655836114000067, 52.260273227000027 ], [ 14.692500235000068, 52.254436070000054 ], [ 14.707918075000066, 52.245618140000033 ], [ 14.760763293000025, 52.069864215000052 ], [ 14.717554079000024, 51.943109051000079 ], [ 14.689863288000026, 51.896945049000067 ], [ 14.645418079000024, 51.86527318900005 ], [ 14.610136134000072, 51.848191206000081 ], [ 14.600973205000059, 51.820064221000052 ], [ 14.667982162000044, 51.723882217000039 ], [ 14.698054084000034, 51.702218182000081 ], [ 14.722082151000052, 51.690964136000048 ], [ 14.756109157000026, 51.666736077000053 ], [ 14.759236110000074, 51.60749110900008 ], [ 14.715000113000031, 51.554718144000049 ], [ 14.739445095000065, 51.526527121000072 ], [ 14.837500120000072, 51.498600128000078 ], [ 14.92110910100007, 51.481945119000045 ], [ 14.953054043000066, 51.469991184000037 ], [ 14.97555408900007, 51.440827022000065 ], [ 14.981836157000032, 51.368045113000051 ], [ 14.971663209000042, 51.357218041000067 ], [ 14.983336183000063, 51.333609069000033 ], [ 15.002636185000028, 51.316800168000043 ], [ 15.033818206000035, 51.286664209000037 ], [ 15.032218101000069, 51.239164131000052 ], [ 14.994445054000039, 51.118609061000029 ], [ 14.978891259000022, 51.078327143000081 ], [ 14.965554143000077, 51.052218018000076 ], [ 14.93110921400006, 51.00249120400008 ], [ 14.896945080000023, 50.959445102000075 ], [ 14.82618220300003, 50.883054112000082 ], [ 14.828336185000069, 50.865827122000042 ], [ 14.825000187000057, 50.856382226000051 ], [ 14.802918231000035, 50.819718105000049 ], [ 14.771527165000066, 50.818327044000057 ], [ 14.739718178000032, 50.823882234000052 ], [ 14.717782234000026, 50.829164174000027 ], [ 14.65166326700006, 50.847218123000061 ], [ 14.619236198000067, 50.858254072000079 ], [ 14.631391132000033, 50.881100123000067 ], [ 14.628336095000066, 50.923609113000055 ], [ 14.597218112000064, 50.982500197000036 ], [ 14.569163212000035, 51.005554119000067 ], [ 14.49166329600007, 51.036664223000059 ], [ 14.306245036000064, 51.052491100000054 ], [ 14.285554141000034, 51.037500066000064 ], [ 14.258054122000033, 50.99513608400008 ], [ 14.32124512300004, 50.94610915800007 ], [ 14.368327111000042, 50.935000119000051 ], [ 14.311391190000052, 50.882218101000035 ], [ 14.155554007000035, 50.843045109000059 ], [ 13.990691191000053, 50.814445049000028 ], [ 13.903609085000028, 50.788191085000051 ], [ 13.89110915200007, 50.768882197000039 ], [ 13.734163212000055, 50.730827015000045 ], [ 13.669445028000041, 50.725827043000038 ], [ 13.634718133000035, 50.722218130000044 ], [ 13.582218082000054, 50.70944511600004 ], [ 13.541109206000044, 50.689718139000036 ], [ 13.510827066000047, 50.65055403100007 ], [ 13.518473205000078, 50.641873230000044 ], [ 13.463400246000049, 50.601664234000054 ], [ 13.436663316000022, 50.605273146000059 ], [ 13.414863327000035, 50.61138221300007 ], [ 13.378336166000054, 50.629435994000062 ], [ 13.249582254000074, 50.589164134000043 ], [ 13.223227203000022, 50.551418077000051 ], [ 13.206109178000077, 50.520409059000031 ], [ 13.187218212000062, 50.502773199000046 ], [ 13.079445042000032, 50.498054020000041 ], [ 13.015273191000063, 50.439300064000065 ], [ 12.991945181000062, 50.421109154000078 ], [ 12.985554147000073, 50.418327033000025 ], [ 12.944718185000056, 50.410000115000059 ], [ 12.917218167000044, 50.414718121000078 ], [ 12.898336086000029, 50.425273116000028 ], [ 12.855836148000037, 50.442218139000033 ], [ 12.825136087000033, 50.453045044000078 ], [ 12.772218114000054, 50.445000093000033 ], [ 12.740418180000063, 50.431518137000069 ], [ 12.671391195000069, 50.411945052000078 ], [ 12.620973209000056, 50.411945052000078 ], [ 12.515418226000065, 50.392491158000041 ], [ 12.486109225000064, 50.37305402700008 ], [ 12.398609196000052, 50.309164143000032 ], [ 12.325554037000074, 50.236109151000051 ], [ 12.323054050000053, 50.206664196000077 ], [ 12.281109163000053, 50.21846423900007 ], [ 12.182636049000052, 50.314582205000079 ], [ 12.093700201000047, 50.322536129000071 ], [ 12.122082163000073, 50.308464254000057 ], [ 12.20916326400004, 50.163609041000029 ], [ 12.193818179000061, 50.136318068000037 ], [ 12.206145108000044, 50.106209098000079 ], [ 12.265554027000064, 50.06610906700007 ], [ 12.307500255000036, 50.04749118400008 ], [ 12.429445045000023, 49.993891092000069 ], [ 12.471109138000031, 49.985836083000038 ], [ 12.491391165000039, 49.975827085000049 ], [ 12.545973280000055, 49.90958222200004 ], [ 12.468473198000027, 49.783473135000065 ], [ 12.455554003000032, 49.695545127000059 ], [ 12.476109111000028, 49.690827121000041 ], [ 12.515482263000024, 49.677218095000057 ], [ 12.554718120000075, 49.616664209000078 ], [ 12.578609226000026, 49.560554073000048 ], [ 12.597773274000076, 49.527500205000081 ], [ 12.67444505800006, 49.425000090000026 ], [ 12.797218147000024, 49.33985403500003 ], [ 12.887200224000026, 49.340382095000052 ], [ 12.959027100000071, 49.334927153000081 ], [ 13.031109120000053, 49.287773247000075 ], [ 13.173054136000076, 49.167218178000041 ], [ 13.318473284000049, 49.100827134000042 ], [ 13.396109153000054, 49.049164268000027 ], [ 13.402545114000077, 49.006191088000037 ], [ 13.509718140000075, 48.972500196000055 ], [ 13.56482714200007, 48.973664275000033 ], [ 13.595345148000035, 48.957427020000068 ], [ 13.626109248000034, 48.947636118000048 ], [ 13.651945123000075, 48.904436125000075 ], [ 13.672218097000041, 48.889445091000027 ], [ 13.699445033000075, 48.879300138000076 ], [ 13.728127068000049, 48.881318165000039 ], [ 13.745627141000057, 48.870754117000047 ], [ 13.761663230000067, 48.845964136000077 ], [ 13.780136107000033, 48.834018079000032 ], [ 13.812009132000071, 48.800209170000073 ], [ 13.818263205000051, 48.779854053000065 ], [ 13.833609129000024, 48.773609033000071 ], [ 13.814718163000066, 48.738054005000038 ], [ 13.825418165000031, 48.631109134000042 ], [ 13.803745078000077, 48.582636085000047 ], [ 13.726000244000033, 48.515591086000029 ], [ 13.676945155000055, 48.53229119000008 ], [ 13.654718192000075, 48.551664115000051 ], [ 13.60277319100004, 48.568054088000054 ], [ 13.51860916000004, 48.584582196000042 ], [ 13.443227184000023, 48.56023612000007 ], [ 13.457500224000057, 48.515554038000062 ], [ 13.437918087000071, 48.429436017000057 ], [ 13.421873280000057, 48.391036004000057 ], [ 13.395000228000072, 48.366100177000078 ], [ 13.335000218000062, 48.328609098000072 ], [ 13.313054048000026, 48.315827031000026 ], [ 13.285273236000023, 48.305273209000063 ], [ 13.25805401100007, 48.298882175000074 ], [ 13.154445138000028, 48.292218059000049 ], [ 13.017773177000038, 48.259436101000063 ], [ 12.871245104000025, 48.202909048000038 ], [ 12.759718182000029, 48.121727131000057 ], [ 12.766245170000047, 48.082218024000042 ], [ 12.799163251000039, 48.054582219000054 ], [ 12.837500232000025, 48.030000108000081 ], [ 12.857045154000048, 48.01193610100006 ], [ 12.865345082000033, 47.994600146000039 ], [ 12.918891194000025, 47.95777324900007 ], [ 12.966663349000044, 47.906945052000026 ], [ 13.008891210000058, 47.854164208000043 ], [ 12.97055406100003, 47.810554004000039 ], [ 12.944163303000039, 47.788745130000052 ], [ 12.913954086000047, 47.725000085000033 ], [ 12.993745110000077, 47.714164129000039 ], [ 13.023054111000022, 47.724164242000029 ], [ 13.05833605600003, 47.706109120000065 ], [ 13.07750010500007, 47.687354108000079 ], [ 13.100136105000047, 47.642918119000058 ], [ 13.053336084000023, 47.497564183000065 ], [ 13.012500122000063, 47.469791082000029 ], [ 12.957873247000066, 47.477018126000075 ], [ 12.806663210000067, 47.554718034000075 ], [ 12.78819117200004, 47.583536023000079 ], [ 12.805973212000026, 47.614853998000058 ], [ 12.827845118000027, 47.621245032000047 ], [ 12.736945054000046, 47.682709193000051 ], [ 12.66583617200007, 47.685000135000053 ], [ 12.603400214000033, 47.672291158000064 ], [ 12.576391207000029, 47.644164173000036 ], [ 12.566663338000069, 47.641936095000062 ], [ 12.51444508700007, 47.633253952000075 ], [ 12.455000126000073, 47.66777314400008 ], [ 12.201109093000071, 47.657491064000055 ], [ 12.207318072000021, 47.633373143000028 ], [ 12.201554005000048, 47.612991204000082 ], [ 12.141391218000024, 47.611109132000081 ], [ 12.111109246000069, 47.614718044000028 ], [ 12.060000256000023, 47.620554028000072 ], [ 12.006391112000074, 47.62444507500004 ], [ 11.920000177000077, 47.614164168000059 ], [ 11.683054167000023, 47.584718039000052 ], [ 11.579863215000046, 47.524091062000025 ], [ 11.554445094000073, 47.515545042000042 ], [ 11.505282214000033, 47.509164234000082 ], [ 11.45750016900007, 47.512218097000073 ], [ 11.296391272000051, 47.428891082000064 ], [ 11.104027097000028, 47.396527045000028 ], [ 11.028609079000034, 47.39527311300003 ], [ 11.008336105000069, 47.395827156000053 ], [ 10.97666324000005, 47.40027325300008 ], [ 10.909445070000061, 47.51805408000007 ], [ 10.690836150000052, 47.553891075000081 ], [ 10.569445069000039, 47.540273165000031 ], [ 10.481800201000055, 47.586518136000052 ], [ 10.43368220900004, 47.580482160000031 ], [ 10.436391240000034, 47.529164126000069 ], [ 10.466182201000038, 47.482909096000071 ], [ 10.473745024000038, 47.437636090000069 ], [ 10.429718072000071, 47.396109124000077 ], [ 10.336663189000035, 47.312700134000067 ], [ 10.274445159000038, 47.288891171000046 ], [ 10.228891192000049, 47.276036013000066 ], [ 10.173336105000033, 47.274718043000064 ], [ 10.211663196000075, 47.322491203000027 ], [ 10.231736177000073, 47.373745032000045 ], [ 10.043054004000055, 47.495282126000063 ], [ 9.955000100000063, 47.539718115000028 ], [ 9.810973186000069, 47.59416410800003 ], [ 9.775418159000026, 47.59124502700007 ], [ 9.746245112000054, 47.565827073000037 ], [ 9.732791152000061, 47.541118061000077 ], [ 9.692527171000052, 47.529518177000057 ], [ 9.651509154000053, 47.529518177000057 ], [ 9.608773183000039, 47.529518177000057 ], [ 9.57791822400003, 47.53741812100003 ], [ 9.566727209000021, 47.540454046000036 ], [ 9.478318080000065, 47.575854009000068 ], [ 9.26110022000006, 47.66284508800004 ], [ 9.082636090000051, 47.68541805600006 ], [ 9.033336082000062, 47.688327080000079 ], [ 9.000836091000053, 47.68082712000006 ], [ 8.979445138000074, 47.670136003000039 ], [ 8.947773279000046, 47.657491064000055 ], [ 8.925973290000059, 47.651800087000026 ], [ 8.898891193000054, 47.650827115000027 ], [ 8.883300182000028, 47.654145008000057 ], [ 8.855836038000064, 47.698882243000071 ], [ 8.83528227100004, 47.718045117000031 ], [ 8.80548225800004, 47.736036034000051 ], [ 8.774373159000049, 47.715973111000039 ], [ 8.800136112000075, 47.68172700100007 ], [ 8.753336091000051, 47.69360918700005 ], [ 8.720218186000068, 47.696627008000064 ], [ 8.732254096000077, 47.708291097000028 ], [ 8.73645410000006, 47.757073103000039 ], [ 8.685554155000034, 47.786664238000071 ], [ 8.661391139000045, 47.798045019000028 ], [ 8.611663319000058, 47.803882176000059 ], [ 8.562918194000076, 47.806664130000058 ], [ 8.47708214000005, 47.770618091000074 ], [ 8.40694505700003, 47.701800151000043 ], [ 8.419027067000059, 47.673882210000045 ], [ 8.485418111000058, 47.647082081000065 ], [ 8.522082232000059, 47.651664132000064 ], [ 8.540554102000044, 47.664300186000048 ], [ 8.580554053000071, 47.66860915500007 ], [ 8.610254154000074, 47.667736096000056 ], [ 8.624963220000041, 47.65620913500004 ], [ 8.593054153000026, 47.600553969000032 ], [ 8.576418087000036, 47.591373102000034 ], [ 8.569427077000057, 47.598536109000065 ], [ 8.562918194000076, 47.618400046000033 ], [ 8.523473292000062, 47.632700076000049 ], [ 8.471245151000062, 47.607354039000029 ], [ 8.435836136000034, 47.573609167000029 ], [ 8.390836045000071, 47.579991148000033 ], [ 8.289100192000035, 47.609091105000061 ], [ 8.24083618700007, 47.619436050000047 ], [ 8.195763341000031, 47.620344983000052 ], [ 8.101836069000058, 47.571073139000077 ], [ 8.033336138000038, 47.556109094000078 ], [ 7.917709125000044, 47.554227022000077 ], [ 7.769718074000025, 47.553327141000068 ], [ 7.697218132000046, 47.543327027000032 ] ] ], [ [ [ 13.268054124000059, 54.255000059000054 ], [ 13.253336173000037, 54.25721807900004 ], [ 13.15610911300007, 54.305545115000029 ], [ 13.118818194000028, 54.336727136000036 ], [ 13.133954067000047, 54.371382115000074 ], [ 13.154027216000031, 54.375273162000042 ], [ 13.200554155000077, 54.372773175000077 ], [ 13.220136125000067, 54.369718139000042 ], [ 13.235836100000029, 54.371664250000038 ], [ 13.263891168000043, 54.380000052000071 ], [ 13.238982164000049, 54.411473261000026 ], [ 13.207791258000043, 54.42810915900003 ], [ 13.164636191000056, 54.434345128000075 ], [ 13.228609223000035, 54.465000094000061 ], [ 13.232227188000024, 54.485818060000042 ], [ 13.167236090000074, 54.51337323100006 ], [ 13.146963283000048, 54.545609193000075 ], [ 13.231391177000035, 54.552500123000073 ], [ 13.255618230000039, 54.551318107000043 ], [ 13.303973262000056, 54.550282104000075 ], [ 13.337763228000028, 54.56640016800003 ], [ 13.367400129000032, 54.580436001000066 ], [ 13.377800227000023, 54.558082135000063 ], [ 13.394954127000062, 54.541964238000048 ], [ 13.420427066000059, 54.52169109700003 ], [ 13.447463230000039, 54.488936128000034 ], [ 13.483854101000077, 54.483735995000075 ], [ 13.50309124000006, 54.493100090000041 ], [ 13.516609238000058, 54.51337323100006 ], [ 13.502573238000025, 54.549764270000082 ], [ 13.459418171000038, 54.550800105000064 ], [ 13.426145033000068, 54.570045123000057 ], [ 13.383518194000033, 54.578354104000027 ], [ 13.374673274000031, 54.610073237000051 ], [ 13.355436136000037, 54.604354097000055 ], [ 13.329718110000044, 54.582773211000074 ], [ 13.310554062000051, 54.57332714100005 ], [ 13.284136147000027, 54.564300166000066 ], [ 13.248745069000051, 54.557782231000033 ], [ 13.226527158000067, 54.641182168000057 ], [ 13.244718068000054, 54.656664213000056 ], [ 13.26333611900003, 54.666664159000049 ], [ 13.278609120000056, 54.671391217000064 ], [ 13.292218145000049, 54.673336154000026 ], [ 13.364445173000036, 54.679445053000052 ], [ 13.383891188000064, 54.680827061000059 ], [ 13.427082130000031, 54.68250008900003 ], [ 13.441600257000061, 54.674782200000038 ], [ 13.425554109000075, 54.658609150000075 ], [ 13.393891134000057, 54.650691102000053 ], [ 13.384300225000061, 54.641936036000061 ], [ 13.391309173000025, 54.606953995000026 ], [ 13.40742707000004, 54.588754034000033 ], [ 13.433427063000067, 54.577836102000049 ], [ 13.456300103000046, 54.573153971000067 ], [ 13.481773210000028, 54.574718034000057 ], [ 13.516091236000022, 54.576800099000081 ], [ 13.593054039000037, 54.584718147000046 ], [ 13.617773277000026, 54.586109040000053 ], [ 13.638473226000031, 54.584927024000081 ], [ 13.674509207000028, 54.566591108000068 ], [ 13.679163342000038, 54.542500177000079 ], [ 13.676527066000062, 54.529436143000055 ], [ 13.668609185000037, 54.521518094000044 ], [ 13.644163197000069, 54.514164148000077 ], [ 13.587363230000051, 54.483191171000044 ], [ 13.577363284000057, 54.467354068000077 ], [ 13.577282147000062, 54.456936033000034 ], [ 13.583609143000047, 54.441664205000052 ], [ 13.61902721000007, 54.40332705700007 ], [ 13.631109221000031, 54.401109037000026 ], [ 13.646391274000052, 54.401382120000051 ], [ 13.671391139000036, 54.401527127000065 ], [ 13.702500237000038, 54.388054055000055 ], [ 13.710691201000031, 54.380973191000066 ], [ 13.731109181000022, 54.354718053000056 ], [ 13.743891249000058, 54.331109082000069 ], [ 13.729163239000059, 54.275136073000056 ], [ 13.713054059000058, 54.271936030000063 ], [ 13.695345109000073, 54.282009066000057 ], [ 13.710836040000061, 54.296945115000028 ], [ 13.712500183000031, 54.32263615100004 ], [ 13.686945101000049, 54.348745109000049 ], [ 13.506391195000049, 54.34221812100003 ], [ 13.46944510700007, 54.328327128000069 ], [ 13.357636050000053, 54.273191136000037 ], [ 13.357500263000077, 54.259718065000072 ], [ 13.406945110000038, 54.265136127000062 ], [ 13.420973231000062, 54.260273115000075 ], [ 13.427636174000043, 54.247918022000079 ], [ 13.426945169000021, 54.235827126000061 ], [ 13.395418149000022, 54.22166422500004 ], [ 13.318609238000022, 54.248600141000054 ], [ 13.268054124000059, 54.255000059000054 ] ] ], [ [ [ 14.21582710000007, 53.899991087000046 ], [ 14.218891188000043, 53.869018111000059 ], [ 14.193473234000066, 53.875000108000052 ], [ 14.082500189000029, 53.873327080000081 ], [ 14.039373285000067, 53.869782205000035 ], [ 14.000273216000039, 53.851800173000072 ], [ 13.949163220000059, 53.843609042000082 ], [ 13.885273168000026, 53.840136084000051 ], [ 13.829191195000021, 53.859509177000064 ], [ 13.871945104000076, 53.878053970000053 ], [ 13.929163328000072, 53.897500153000067 ], [ 13.939627128000041, 53.914864272000045 ], [ 13.95757328600007, 53.941109184000027 ], [ 13.98206319600007, 53.962554116000035 ], [ 14.012691173000064, 53.949427049000064 ], [ 14.03960010000003, 53.942645084000048 ], [ 14.056000131000076, 53.98486422700006 ], [ 14.047691151000038, 54.005427048000058 ], [ 14.014000258000067, 54.014173228000061 ], [ 14.003282151000064, 54.033200149000038 ], [ 13.97988222400005, 54.056609128000048 ], [ 13.954073171000061, 54.060545102000049 ], [ 13.924100156000065, 54.059018087000027 ], [ 13.919145110000045, 54.031573221000031 ], [ 13.900418094000031, 54.011936098000035 ], [ 13.859027083000058, 53.999435998000081 ], [ 13.822773172000041, 54.03666422200007 ], [ 13.808682187000045, 54.071618099000034 ], [ 13.810809179000046, 54.104473148000068 ], [ 13.758054150000078, 54.147353959000043 ], [ 13.768473191000055, 54.165827171000046 ], [ 13.812773226000047, 54.166736104000051 ], [ 13.827082141000062, 54.142564204000053 ], [ 13.866109120000033, 54.106664177000027 ], [ 13.892382196000028, 54.090300188000072 ], [ 13.929791133000037, 54.079582248000065 ], [ 13.965445067000076, 54.073236142000042 ], [ 14.001318104000063, 54.06536419300005 ], [ 14.105000235000034, 53.998600155000076 ], [ 14.184027165000032, 53.946382239000059 ], [ 14.214163292000023, 53.932491079000044 ], [ 14.225554131000024, 53.928600199000073 ], [ 14.21582710000007, 53.899991087000046 ] ] ], [ [ [ 11.243745041000068, 54.494445050000081 ], [ 11.273927101000027, 54.45873613100008 ], [ 11.302218204000042, 54.424018120000028 ], [ 11.31250011700007, 54.408336082000062 ], [ 11.139163197000073, 54.406664228000068 ], [ 11.123891202000038, 54.40694502100007 ], [ 11.021045082000057, 54.438754009000036 ], [ 11.009027109000044, 54.447218055000064 ], [ 11.006109201000072, 54.457636090000051 ], [ 11.011391141000047, 54.476944977000073 ], [ 11.018609133000041, 54.490827085000035 ], [ 11.028745033000064, 54.504582124000081 ], [ 11.043891132000056, 54.518327104000036 ], [ 11.066800215000058, 54.534582129000057 ], [ 11.184163288000036, 54.520000132000064 ], [ 11.232218080000052, 54.503054103000068 ], [ 11.243745041000068, 54.494445050000081 ] ] ], [ [ [ 8.563609198000051, 54.684164232000057 ], [ 8.488336187000073, 54.685554119000074 ], [ 8.478336073000037, 54.686945012000081 ], [ 8.398336172000029, 54.710200100000066 ], [ 8.40986330000004, 54.732636108000065 ], [ 8.425836190000041, 54.742218132000062 ], [ 8.444718103000071, 54.748327030000041 ], [ 8.461663294000061, 54.751936110000031 ], [ 8.538609166000072, 54.755273114000033 ], [ 8.55110909800004, 54.753882221000026 ], [ 8.569718096000031, 54.750273141000037 ], [ 8.585136104000071, 54.744509074000064 ], [ 8.594863303000068, 54.719854041000076 ], [ 8.570000231000051, 54.687354049000078 ], [ 8.563609198000051, 54.684164232000057 ] ] ], [ [ [ 8.678591140000037, 47.693344990000071 ], [ 8.673954103000028, 47.702854091000063 ], [ 8.705482129000075, 47.711036002000071 ], [ 8.710254115000055, 47.696809063000046 ], [ 8.678591140000037, 47.693344990000071 ] ] ], [ [ [ 10.979445026000064, 54.380554096000026 ], [ 10.995000162000053, 54.381944989000033 ], [ 11.016454146000058, 54.379164209000066 ], [ 10.994582240000057, 54.377491181000039 ], [ 10.979445026000064, 54.380554096000026 ] ] ] ] }
        }
    ]
}