{
    "type": "FeatureCollection",
    "features": [
        {
            "type": "Feature",
            "properties": {
                "WCID": "GRE",
                "COUNTRY": "Greece"
            },
            "geometry": { "type": "MultiPolygon", "coordinates": [ [ [ [ 21.083045121000055, 39.05666412000005 ], [ 21.045273248000058, 39.013326998000025 ], [ 20.933054148000053, 39.058054007000067 ], [ 20.82082717000003, 39.113609094000026 ], [ 20.774718153000038, 39.085273232000077 ], [ 20.75750021500005, 39.020554043000061 ], [ 20.787500220000027, 38.997773204000055 ], [ 20.827636125000026, 38.96485394900003 ], [ 20.733327142000064, 38.953400079000062 ], [ 20.705063196000026, 38.991382170000065 ], [ 20.713818094000032, 39.01208211800008 ], [ 20.699300135000044, 39.054027006000069 ], [ 20.682218152000075, 39.075000204000048 ], [ 20.534445030000029, 39.185827069000027 ], [ 20.473609177000071, 39.274718158000042 ], [ 20.385554099000046, 39.284436137000057 ], [ 20.34597324300006, 39.288054102000046 ], [ 20.295827166000038, 39.321800147000033 ], [ 20.214718171000072, 39.438882091000039 ], [ 20.245282278000047, 39.441382078000061 ], [ 20.227773153000044, 39.519436037000048 ], [ 20.17381817200004, 39.628745107000043 ], [ 20.05777323600006, 39.681800039000052 ], [ 20.010027066000077, 39.691200176000052 ], [ 20.024582241000076, 39.696664171000066 ], [ 20.097009093000054, 39.675973108000051 ], [ 20.141391270000042, 39.656109171000026 ], [ 20.166663211000071, 39.650273187000039 ], [ 20.196245127000054, 39.645000132000064 ], [ 20.220000111000047, 39.647354105000034 ], [ 20.318091177000042, 39.734091213000056 ], [ 20.298054070000035, 39.771945061000054 ], [ 20.29444515800003, 39.80749120400003 ], [ 20.306127184000047, 39.812118015000067 ], [ 20.378609189000031, 39.788054073000069 ], [ 20.404582193000067, 39.801800059000072 ], [ 20.413327200000026, 39.820135976000074 ], [ 20.411318225000059, 39.844644996000056 ], [ 20.369718169000066, 39.891391205000048 ], [ 20.337218178000057, 39.923191140000029 ], [ 20.31541818900007, 39.991800203000025 ], [ 20.430273229000022, 40.063054092000073 ], [ 20.450000206000027, 40.072491109000055 ], [ 20.461573267000063, 40.074164137000025 ], [ 20.479582289000064, 40.065554078000048 ], [ 20.555827098000066, 40.066382210000029 ], [ 20.583336169000063, 40.070544998000059 ], [ 20.604718236000053, 40.07527323000005 ], [ 20.621391183000071, 40.085273176000044 ], [ 20.667082278000066, 40.096245087000057 ], [ 20.721245131000046, 40.225136127000042 ], [ 20.71430022100003, 40.270100176000028 ], [ 20.736800267000035, 40.307218093000074 ], [ 20.758609141000022, 40.311944984000036 ], [ 20.787218085000063, 40.394718122000029 ], [ 20.791927206000025, 40.431545020000044 ], [ 20.83333615500004, 40.462218091000068 ], [ 20.920136127000035, 40.463600100000065 ], [ 20.949582256000042, 40.469644961000029 ], [ 21.042082257000061, 40.564027035000038 ], [ 21.053327083000056, 40.620691215000079 ], [ 21.051454063000051, 40.674445031000062 ], [ 21.026782266000055, 40.70942707100005 ], [ 20.98389123000004, 40.793053990000033 ], [ 20.983491245000039, 40.855891107000048 ], [ 21.121554099000036, 40.857218130000035 ], [ 21.150836110000057, 40.85750009700007 ], [ 21.314718076000077, 40.868609136000032 ], [ 21.349863228000061, 40.873191187000032 ], [ 21.374582299000053, 40.883191133000025 ], [ 21.410136153000053, 40.913882142000034 ], [ 21.528400113000032, 40.907836108000026 ], [ 21.548336135000056, 40.891109182000037 ], [ 21.575763231000053, 40.873118097000031 ], [ 21.600000174000058, 40.872773098000039 ], [ 21.786245058000077, 40.930826998000043 ], [ 21.91082712900004, 41.065582185000039 ], [ 21.916109237000057, 41.095273233000057 ], [ 21.977082218000078, 41.131800058000067 ], [ 22.205554124000059, 41.167773175000036 ], [ 22.259582195000064, 41.170973218000029 ], [ 22.30471807400005, 41.153327133000062 ], [ 22.343327131000024, 41.134435999000061 ], [ 22.442500134000056, 41.121382191000066 ], [ 22.484718104000024, 41.121382191000066 ], [ 22.586736091000034, 41.119854002000068 ], [ 22.737745130000064, 41.156109086000072 ], [ 22.758054146000063, 41.227773185000046 ], [ 22.761545041000034, 41.251736041000072 ], [ 22.762036053000031, 41.306635998000047 ], [ 22.776800105000063, 41.328054107000071 ], [ 22.808473306000053, 41.347773205000067 ], [ 22.926391261000049, 41.343044974000065 ], [ 22.935600123000029, 41.342127155000071 ], [ 22.975554141000032, 41.335545014000047 ], [ 23.094445067000038, 41.320545096000046 ], [ 23.120000149000077, 41.320827063000024 ], [ 23.185136086000057, 41.323744971000053 ], [ 23.20791809900004, 41.333045028000072 ], [ 23.228327195000077, 41.354091149000055 ], [ 23.229863263000027, 41.376245022000035 ], [ 23.287145189000057, 41.40416413500003 ], [ 23.44055413500007, 41.409436017000075 ], [ 23.545000192000032, 41.394436099000075 ], [ 23.598054119000039, 41.380827073000034 ], [ 23.633473192000054, 41.377773210000043 ], [ 23.738327113000025, 41.408609059000071 ], [ 23.796391239000059, 41.436664127000029 ], [ 23.886391254000046, 41.451945007000063 ], [ 23.976663345000077, 41.440827083000045 ], [ 24.066391284000076, 41.485273130000053 ], [ 24.064027084000031, 41.521727033000047 ], [ 24.09319124600006, 41.548264139000025 ], [ 24.157218090000072, 41.541109179000046 ], [ 24.199991277000038, 41.543782168000064 ], [ 24.215273163000063, 41.554991119000078 ], [ 24.258191190000048, 41.569582168000068 ], [ 24.306245144000059, 41.54750004400006 ], [ 24.46610916000003, 41.551936083000044 ], [ 24.565973166000049, 41.496382170000061 ], [ 24.609300230000031, 41.432564203000027 ], [ 24.767773186000056, 41.370554045000063 ], [ 24.809445158000074, 41.352218128000061 ], [ 24.812500195000041, 41.37832708600007 ], [ 24.818473306000044, 41.403745040000047 ], [ 24.901391284000056, 41.411945056000036 ], [ 25.036509240000044, 41.370436027000039 ], [ 25.061191262000023, 41.36257313200008 ], [ 25.163054017000036, 41.31749106500007 ], [ 25.185836198000061, 41.305273100000079 ], [ 25.190827118000072, 41.301453970000068 ], [ 25.241663194000068, 41.253600176000077 ], [ 25.282354149000071, 41.243045013000028 ], [ 25.340409222000062, 41.249853968000025 ], [ 25.503609236000045, 41.28944505000004 ], [ 25.561245046000067, 41.31937313800006 ], [ 25.653045159000044, 41.317773200000033 ], [ 25.814163275000055, 41.33610006400005 ], [ 25.883882270000072, 41.309436056000038 ], [ 25.905554016000053, 41.311100199000066 ], [ 25.983473194000055, 41.320273187000055 ], [ 26.140000207000071, 41.354718115000026 ], [ 26.198054107000075, 41.439436022000052 ], [ 26.182773227000041, 41.54012715500005 ], [ 26.129782164000062, 41.630618014000049 ], [ 26.101100129000031, 41.628045105000069 ], [ 26.068600138000079, 41.660273188000076 ], [ 26.065963359000023, 41.691654027000027 ], [ 26.077636165000058, 41.714300086000037 ], [ 26.138609146000078, 41.739154105000068 ], [ 26.172500198000023, 41.747773216000041 ], [ 26.232863312000063, 41.739518047000047 ], [ 26.271109099000057, 41.712909025000044 ], [ 26.301936062000038, 41.707909052000048 ], [ 26.361100229000044, 41.711054110000077 ], [ 26.398327111000071, 41.690818016000037 ], [ 26.51944510900006, 41.633609180000064 ], [ 26.570273305000057, 41.611382217000028 ], [ 26.60444515100005, 41.546100099000057 ], [ 26.636382214000037, 41.413464192000049 ], [ 26.635763294000071, 41.364718061000076 ], [ 26.624718125000072, 41.343882158000042 ], [ 26.607500187000028, 41.33096413700008 ], [ 26.415273307000064, 41.259435992000078 ], [ 26.372845119000033, 41.254436019000025 ], [ 26.325000210000042, 41.234709042000077 ], [ 26.323891284000069, 41.093036103000031 ], [ 26.372982247000039, 41.027354001000049 ], [ 26.360409225000069, 40.953882093000061 ], [ 26.287491193000051, 40.901927034000039 ], [ 26.25110920700007, 40.888609028000076 ], [ 26.213609243000064, 40.877209136000033 ], [ 26.173327157000074, 40.818600187000072 ], [ 26.120200140000065, 40.747700182000074 ], [ 26.090545134000024, 40.736109184000043 ], [ 26.059509126000023, 40.734264159000077 ], [ 26.044718084000067, 40.735827049000079 ], [ 26.036663243000078, 40.750273091000054 ], [ 26.028327105000074, 40.792218147000028 ], [ 26.041945183000053, 40.807209181000076 ], [ 26.022782140000061, 40.829718111000034 ], [ 25.911663250000061, 40.847773233000055 ], [ 25.805545170000073, 40.852482187000078 ], [ 25.771109127000045, 40.851382146000049 ], [ 25.748609249000026, 40.848054027000046 ], [ 25.719991252000057, 40.845836008000049 ], [ 25.682218205000027, 40.852218157000038 ], [ 25.580554101000075, 40.869427042000041 ], [ 25.501391216000059, 40.886654032000081 ], [ 25.41943615200006, 40.905264205000037 ], [ 25.351945068000077, 40.938873122000075 ], [ 25.306318177000037, 40.945618039000067 ], [ 25.235554127000057, 40.938327125000058 ], [ 25.176391134000028, 40.941936037000062 ], [ 25.133954061000054, 40.968218165000053 ], [ 25.163609235000024, 40.991653966000058 ], [ 25.141800193000051, 41.010336055000039 ], [ 25.074509101000046, 41.007618139000044 ], [ 25.037700141000073, 41.004554051000071 ], [ 24.887500123000052, 40.915553997000075 ], [ 24.858609212000033, 40.895000061000076 ], [ 24.80134505500007, 40.851964185000043 ], [ 24.780282170000078, 40.851945074000071 ], [ 24.62645413000007, 40.861173214000075 ], [ 24.599163324000074, 40.898327006000045 ], [ 24.564582273000042, 40.950618012000064 ], [ 24.507773254000028, 40.954991186000029 ], [ 24.431109182000057, 40.944164114000046 ], [ 24.394300222000027, 40.935554056000058 ], [ 24.337218120000045, 40.895273144000043 ], [ 24.317354015000035, 40.876527017000058 ], [ 24.313609148000069, 40.838609131000055 ], [ 24.152918173000046, 40.740964150000025 ], [ 24.09041817700006, 40.717636140000025 ], [ 24.060273165000069, 40.716944968000064 ], [ 23.991800224000031, 40.729027146000078 ], [ 23.966109188000075, 40.73750007700005 ], [ 23.912082290000058, 40.75694508600003 ], [ 23.886663330000033, 40.775273123000034 ], [ 23.841391162000036, 40.786800084000049 ], [ 23.722009224000033, 40.744644979000043 ], [ 23.696391278000078, 40.712773127000048 ], [ 23.689373278000062, 40.679436119000059 ], [ 23.795000178000066, 40.583053955000025 ], [ 23.82082716900004, 40.499718056000063 ], [ 23.827009158000067, 40.461318043000063 ], [ 23.858609100000024, 40.421945058000063 ], [ 23.882982166000033, 40.400273145000028 ], [ 23.922773240000026, 40.38416413200008 ], [ 23.961109215000079, 40.37860911000007 ], [ 24.003891287000044, 40.385127046000036 ], [ 24.175554174000069, 40.349853985000038 ], [ 24.239582191000068, 40.312909070000046 ], [ 24.381527207000033, 40.182082146000027 ], [ 24.394091177000064, 40.14801809100004 ], [ 24.309718101000044, 40.119373105000079 ], [ 24.292845163000038, 40.131382193000036 ], [ 24.28471823700005, 40.154445 ], [ 24.162500198000032, 40.278536059000032 ], [ 24.119027121000045, 40.289991103000034 ], [ 24.09555410400003, 40.287773252000079 ], [ 24.049445087000038, 40.292918064000048 ], [ 24.029718110000033, 40.300282236000044 ], [ 23.997636208000074, 40.315273102000049 ], [ 23.967363289000048, 40.332909130000075 ], [ 23.952082241000028, 40.348882187000072 ], [ 23.930554161000032, 40.361244992000024 ], [ 23.90777315400004, 40.367218104000074 ], [ 23.841391162000036, 40.372218076000024 ], [ 23.729718228000024, 40.351245046000031 ], [ 23.69923609600005, 40.320973132000063 ], [ 23.691109170000061, 40.297773197000026 ], [ 23.70208225500005, 40.268464196000025 ], [ 23.724718087000042, 40.240827050000064 ], [ 23.787427129000037, 40.19221804600005 ], [ 23.880000220000056, 40.173882130000038 ], [ 23.908054115000027, 40.163473148000037 ], [ 23.974445159000027, 40.129164174000039 ], [ 23.990973266000026, 40.112500112000077 ], [ 24.01437319300004, 40.013954076000061 ], [ 23.988536144000022, 39.952636096000049 ], [ 23.942218082000068, 39.943327154000031 ], [ 23.932218136000074, 39.943054071000063 ], [ 23.900000112000043, 39.968045051000047 ], [ 23.826945120000062, 40.025553960000025 ], [ 23.790554081000039, 40.088264174000074 ], [ 23.762500187000057, 40.124718077000068 ], [ 23.725554098000032, 40.16805402500006 ], [ 23.703054053000074, 40.191664170000024 ], [ 23.671109111000078, 40.218327004000059 ], [ 23.645973292000065, 40.23082710400007 ], [ 23.401036143000056, 40.279854029000035 ], [ 23.376663245000032, 40.265545115000066 ], [ 23.353609156000061, 40.24528219900003 ], [ 23.332154166000066, 40.209964212000045 ], [ 23.368054025000049, 40.143882125000061 ], [ 23.479718242000047, 40.045273225000074 ], [ 23.50485406100006, 40.028882078000038 ], [ 23.604309198000067, 39.997082143000057 ], [ 23.675554034000072, 39.971382222000045 ], [ 23.74666325100003, 39.925273205000053 ], [ 23.718473234000044, 39.913891083000067 ], [ 23.643609092000077, 39.916109103000053 ], [ 23.604027063000046, 39.920691154000053 ], [ 23.436945055000024, 39.971109140000067 ], [ 23.379445031000046, 39.992773174000035 ], [ 23.322500225000056, 40.123054102000026 ], [ 23.324027072000035, 40.182082146000027 ], [ 23.312909148000074, 40.218254082000044 ], [ 23.294582285000047, 40.235836129000063 ], [ 23.263054091000072, 40.248882227000024 ], [ 23.177500173000055, 40.273045074000038 ], [ 23.110836047000078, 40.299164258000076 ], [ 22.899436066000078, 40.396664232000035 ], [ 22.843609238000056, 40.475000159000047 ], [ 22.868745057000069, 40.503327136000053 ], [ 22.888882244000058, 40.503882185000066 ], [ 22.922218079000061, 40.512500123000052 ], [ 22.946663229000023, 40.519718115000046 ], [ 22.977045114000077, 40.549164244000053 ], [ 22.944927169000039, 40.62651814600008 ], [ 22.901454093000041, 40.644436141000028 ], [ 22.863263292000056, 40.629027018000045 ], [ 22.856663214000037, 40.594853998000076 ], [ 22.815136080000059, 40.568745040000067 ], [ 22.704445170000042, 40.518327054000054 ], [ 22.652773251000042, 40.510273219000055 ], [ 22.585209244000055, 40.465000045000068 ], [ 22.616109130000041, 40.400554106000072 ], [ 22.630000123000059, 40.383044981000069 ], [ 22.608327204000034, 40.28458209300004 ], [ 22.548191239000062, 40.149373110000056 ], [ 22.568882302000077, 40.057218108000029 ], [ 22.595000145000029, 40.012218016000077 ], [ 22.615836048000062, 39.995553954000059 ], [ 22.625827109000056, 39.989173147000031 ], [ 22.70284506400003, 39.957909151000081 ], [ 22.856873265000047, 39.781391131000078 ], [ 22.860554094000065, 39.751109159000066 ], [ 22.866245071000037, 39.726527048000037 ], [ 22.913054144000057, 39.618891174000055 ], [ 22.926945137000075, 39.589027123000051 ], [ 22.942082184000071, 39.575409045000072 ], [ 23.023054051000031, 39.52832705700007 ], [ 23.118054039000071, 39.456936040000073 ], [ 23.138054098000055, 39.439991185000054 ], [ 23.263191219000078, 39.326382198000033 ], [ 23.276391208000064, 39.310000104000039 ], [ 23.327500198000052, 39.225418151000042 ], [ 23.343682300000069, 39.18180006800003 ], [ 23.32055411500005, 39.15124501300005 ], [ 23.20610911700004, 39.105273124000064 ], [ 23.161109193000073, 39.093609035000043 ], [ 23.122500135000053, 39.087773219000042 ], [ 23.084163322000052, 39.085754018000046 ], [ 23.05486320600005, 39.097909119000064 ], [ 23.07715403900005, 39.142491121000035 ], [ 23.114100127000029, 39.142218038000067 ], [ 23.104100182000025, 39.107109096000045 ], [ 23.174445137000077, 39.130273156000044 ], [ 23.212082229000032, 39.152218152000046 ], [ 23.221527125000023, 39.182291079000038 ], [ 23.178609098000038, 39.255554110000048 ], [ 23.162082165000072, 39.272353959000043 ], [ 23.121245029000079, 39.305273213000078 ], [ 22.995282291000024, 39.352773123000077 ], [ 22.940827078000041, 39.359364149000044 ], [ 22.823891146000051, 39.266109106000044 ], [ 22.817500112000062, 39.242353954000066 ], [ 22.823609179000073, 39.212218162000056 ], [ 22.833882207000045, 39.188045088000024 ], [ 22.855482204000054, 39.157082170000081 ], [ 22.876391197000032, 39.175136119000058 ], [ 22.913327059000039, 39.156391166000049 ], [ 22.969582202000026, 39.11305404400008 ], [ 22.995282291000024, 39.06805395300006 ], [ 22.99500015600006, 39.042773127000032 ], [ 23.034163258000035, 39.03610917900005 ], [ 23.07277315400006, 39.036945022000054 ], [ 23.051391254000066, 39.016391087000045 ], [ 23.009718108000072, 38.977773144000025 ], [ 22.93777321500005, 38.928600039000059 ], [ 22.833054075000064, 38.89110912700005 ], [ 22.750209188000042, 38.87069114600007 ], [ 22.680582227000059, 38.879245046000051 ], [ 22.64981812700006, 38.897600073000035 ], [ 22.614445155000055, 38.909027121000065 ], [ 22.523854048000032, 38.866073220000033 ], [ 22.555827153000052, 38.833327136000037 ], [ 22.581945163000057, 38.825409087000025 ], [ 22.612982177000049, 38.825764145000051 ], [ 22.668554028000074, 38.83043605000006 ], [ 22.713336190000064, 38.823054108000065 ], [ 22.764300173000038, 38.783744993000028 ], [ 22.95360914500003, 38.751664265000045 ], [ 23.066245160000051, 38.687909162000039 ], [ 23.092218163000041, 38.648327133000066 ], [ 23.111382211000034, 38.629027130000054 ], [ 23.133609175000061, 38.632773170000064 ], [ 23.188473257000055, 38.655618048000065 ], [ 23.284163244000069, 38.65374502800006 ], [ 23.317500252000059, 38.644027049000044 ], [ 23.336736049000024, 38.608400105000044 ], [ 23.305554028000074, 38.567500105000079 ], [ 23.336945094000043, 38.537082178000048 ], [ 23.399436206000075, 38.507773177000047 ], [ 23.465827081000043, 38.498882157000025 ], [ 23.534718112000064, 38.499445086000037 ], [ 23.59291819200007, 38.454718077000052 ], [ 23.601945166000064, 38.431109106000065 ], [ 23.65708216400003, 38.360273139000071 ], [ 23.675554034000072, 38.34860905000005 ], [ 23.799163302000068, 38.323882100000048 ], [ 23.851109141000052, 38.313044970000078 ], [ 23.92666328100006, 38.295000074000029 ], [ 23.960554166000065, 38.281664130000024 ], [ 24.074027198000067, 38.195000113000049 ], [ 24.064718088000063, 38.151109115000054 ], [ 24.005554089000043, 38.067773216000035 ], [ 24.010827145000064, 37.971382167000058 ], [ 24.030554121000023, 37.872500185000035 ], [ 24.056663247000074, 37.845273248000069 ], [ 24.086527130000036, 37.798191092000025 ], [ 24.090000255000064, 37.776664186000062 ], [ 24.065836067000077, 37.683191213000043 ], [ 24.033954157000039, 37.652845035000041 ], [ 23.947636144000057, 37.671935993000034 ], [ 23.924445094000077, 37.720273088000056 ], [ 23.90777315400004, 37.761109050000073 ], [ 23.887500180000075, 37.782773084000041 ], [ 23.854445138000074, 37.80819120600006 ], [ 23.819436108000048, 37.823609046000058 ], [ 23.774436184000024, 37.834445003000042 ], [ 23.562845096000046, 37.980518106000034 ], [ 23.590273198000034, 38.003609076000032 ], [ 23.594791212000075, 38.028473154000039 ], [ 23.575136152000027, 38.042909138000027 ], [ 23.511663351000038, 38.039300058000038 ], [ 23.458609257000035, 38.020554099000037 ], [ 23.427082237000036, 38.002491098000064 ], [ 23.415554102000044, 37.985973217000037 ], [ 23.331663321000065, 37.978053994000049 ], [ 23.236800126000048, 37.975409169000045 ], [ 23.176673214000061, 37.951945036000041 ], [ 23.149027183000044, 37.929444991000025 ], [ 23.130273177000049, 37.919445045000032 ], [ 23.109163354000032, 37.915273204000073 ], [ 23.063891186000035, 37.912773218000041 ], [ 23.018891262000068, 37.919718127000067 ], [ 22.991800113000068, 37.882353950000038 ], [ 23.010254046000057, 37.846782159000043 ], [ 23.063054169000054, 37.839436091000039 ], [ 23.083609110000054, 37.838609132000045 ], [ 23.103609170000027, 37.841664168000079 ], [ 23.148609093000061, 37.758044961000053 ], [ 23.165900122000039, 37.614991187000044 ], [ 23.195827204000068, 37.595273095000039 ], [ 23.277500133000046, 37.553327034000063 ], [ 23.331182200000057, 37.532836130000078 ], [ 23.36256320800004, 37.551527104000058 ], [ 23.346663240000055, 37.58639112700007 ], [ 23.32790923500005, 37.605554002000076 ], [ 23.405827071000033, 37.588336064000032 ], [ 23.421800129000076, 37.52722712800005 ], [ 23.445554107000078, 37.504718030000049 ], [ 23.498336125000037, 37.476945097000055 ], [ 23.521391221000044, 37.46000007400005 ], [ 23.517082252000023, 37.432709100000068 ], [ 23.499163252000073, 37.423336120000045 ], [ 23.417636167000069, 37.409718042000065 ], [ 23.386663359000067, 37.41221802900003 ], [ 23.354445167000051, 37.416109076000055 ], [ 23.270554050000044, 37.400836075000029 ], [ 23.230691227000023, 37.378891079000027 ], [ 23.200763307000045, 37.302909126000031 ], [ 23.179718192000053, 37.290409026000077 ], [ 23.151800252000044, 37.296800060000066 ], [ 23.068327225000075, 37.355827098000077 ], [ 23.071800182000061, 37.394718123000075 ], [ 23.096382293000033, 37.391244998000047 ], [ 23.136527083000033, 37.42763603700007 ], [ 23.128891169000042, 37.44805401800005 ], [ 22.979163221000078, 37.515827069000068 ], [ 22.929718206000075, 37.535000170000046 ], [ 22.777354149000075, 37.590135994000036 ], [ 22.752918219000037, 37.585409103000075 ], [ 22.725554155000054, 37.563400070000057 ], [ 22.72805414100003, 37.485553982000056 ], [ 22.758609196000066, 37.40805406700008 ], [ 22.809163304000037, 37.345554070000048 ], [ 22.904409217000023, 37.178045088000033 ], [ 22.895691199000055, 37.136245039000073 ], [ 22.907427205000033, 37.113609039000039 ], [ 22.92000022700006, 37.110836138000025 ], [ 22.93666328300003, 37.119509061000031 ], [ 22.957218225000076, 37.116100141000061 ], [ 23.006382278000046, 37.024718118000067 ], [ 23.009163226000055, 36.990553983000041 ], [ 23.014582294000036, 36.936109163000026 ], [ 23.052773262000073, 36.868609026000058 ], [ 23.090827103000038, 36.822491124000067 ], [ 23.113818160000051, 36.77054511700004 ], [ 23.08693605600007, 36.74832703900006 ], [ 23.058682169000065, 36.740553997000063 ], [ 23.028954072000033, 36.723673179000059 ], [ 23.028609241000026, 36.656664222000074 ], [ 23.03513606100006, 36.629991162000067 ], [ 23.078891272000078, 36.576664153000024 ], [ 23.110000203000027, 36.562491192000039 ], [ 23.201454143000035, 36.440200063000077 ], [ 23.137773304000063, 36.426245032000054 ], [ 23.090000144000044, 36.439991186000043 ], [ 22.969373158000053, 36.52180007000004 ], [ 22.954718238000055, 36.548044982000079 ], [ 22.888054112000077, 36.64721815200005 ], [ 22.782082213000024, 36.79930007400003 ], [ 22.730554128000051, 36.805827062000048 ], [ 22.632500109000034, 36.803609043000051 ], [ 22.592500159000053, 36.790691189000029 ], [ 22.572773182000049, 36.773891173000038 ], [ 22.512773172000038, 36.667773093000051 ], [ 22.480973237000057, 36.599444992000031 ], [ 22.48555411500007, 36.520409177000033 ], [ 22.503645112000072, 36.489218103000042 ], [ 22.507773199000042, 36.453882179000061 ], [ 22.488891286000069, 36.386109127000054 ], [ 22.476663262000045, 36.402773189000072 ], [ 22.397500210000032, 36.473882070000059 ], [ 22.377500151000049, 36.535554103000038 ], [ 22.35610919800007, 36.699436068000068 ], [ 22.296945032000053, 36.814991165000038 ], [ 22.243609138000068, 36.873327032000077 ], [ 22.18555406400003, 36.892773215000034 ], [ 22.14638224600003, 36.950827115000038 ], [ 22.152463316000023, 37.01853612900004 ], [ 22.120827164000048, 37.026664228000072 ], [ 22.059027224000033, 37.029991173000042 ], [ 22.029163341000071, 37.024718118000067 ], [ 21.979445076000047, 37.007218045000059 ], [ 21.945554024000046, 36.992636048000065 ], [ 21.929718095000055, 36.974018164000029 ], [ 21.924236162000057, 36.856664144000035 ], [ 21.93798214800006, 36.813327022000067 ], [ 21.961663204000047, 36.798044968000056 ], [ 21.938054065000074, 36.762218032000078 ], [ 21.875136147000035, 36.723536051000053 ], [ 21.846382196000036, 36.759436078000078 ], [ 21.824027157000046, 36.797082223000075 ], [ 21.76700909300007, 36.797218010000051 ], [ 21.764163269000051, 36.79055406100008 ], [ 21.703609215000029, 36.816664193000065 ], [ 21.691391250000038, 36.843327027000043 ], [ 21.68729115800005, 36.883818157000064 ], [ 21.70708217300006, 36.922491085000047 ], [ 21.710273163000068, 36.944644958000026 ], [ 21.637500139000053, 37.009436064000056 ], [ 21.612218139000049, 37.026936137000064 ], [ 21.581109209000033, 37.063882225000043 ], [ 21.565345028000024, 37.15506425600006 ], [ 21.583054145000062, 37.202709173000073 ], [ 21.605000147000055, 37.224164163000069 ], [ 21.63027326200006, 37.234445070000049 ], [ 21.672363324000059, 37.270964184000036 ], [ 21.695827121000036, 37.316664165000077 ], [ 21.681391137000048, 37.376391092000063 ], [ 21.659718217000034, 37.423882117000062 ], [ 21.649718104000044, 37.441936066000039 ], [ 21.604718180000077, 37.504718030000049 ], [ 21.576391203000071, 37.534445120000044 ], [ 21.557782204000034, 37.549718121000069 ], [ 21.532500205000076, 37.566936059000057 ], [ 21.40110917800007, 37.651664193000045 ], [ 21.285273288000042, 37.783882178000056 ], [ 21.217918158000032, 37.815409030000069 ], [ 21.174163282000052, 37.82610903300008 ], [ 21.146945063000032, 37.82971811200008 ], [ 21.110763237000072, 37.844091065000043 ], [ 21.110973287000036, 37.885691121000036 ], [ 21.131036043000051, 37.93708207800006 ], [ 21.15200924100003, 37.93145396500006 ], [ 21.184163228000045, 37.929027069000028 ], [ 21.211809091000077, 37.942773223000074 ], [ 21.283609145000071, 37.994164180000041 ], [ 21.315827169000045, 38.028882191000037 ], [ 21.367218126000068, 38.114164200000062 ], [ 21.373327193000023, 38.154300105000061 ], [ 21.384445117000041, 38.211391092000042 ], [ 21.445000176000065, 38.20082704400005 ], [ 21.478191172000038, 38.186527014000035 ], [ 21.534718224000073, 38.16054495800006 ], [ 21.603891221000026, 38.150554065000051 ], [ 21.641663262000066, 38.15888215700005 ], [ 21.673473256000023, 38.172145010000065 ], [ 21.719027223000069, 38.221664120000071 ], [ 21.732500127000037, 38.248882172000037 ], [ 21.741527101000031, 38.275136136000071 ], [ 21.77680016100004, 38.305973158000029 ], [ 21.853609240000026, 38.339582076000056 ], [ 21.95860917400006, 38.329436117000057 ], [ 22.025209094000047, 38.297982187000059 ], [ 22.042218155000057, 38.273891089000074 ], [ 22.173191260000067, 38.20263602700004 ], [ 22.220000166000034, 38.183609106000063 ], [ 22.378327109000054, 38.146382224000035 ], [ 22.455554110000037, 38.133327075000068 ], [ 22.536945072000037, 38.113327016000028 ], [ 22.652218201000039, 38.076109186000053 ], [ 22.721454063000067, 38.042845100000079 ], [ 22.761109182000041, 38.006382145000032 ], [ 22.799445158000026, 37.971382167000058 ], [ 22.862773286000049, 37.939582232000078 ], [ 22.90805417100006, 37.938044991000027 ], [ 22.95562717200005, 37.949018076000073 ], [ 22.97638227300007, 37.979927014000054 ], [ 22.949163216000045, 38.00166413900007 ], [ 22.899163319000024, 38.026109122000037 ], [ 22.86003609200003, 38.033082195000077 ], [ 22.881382285000029, 38.050000061000048 ], [ 22.955482165000035, 38.08048219300008 ], [ 23.002363323000054, 38.069854107000026 ], [ 23.021391249000033, 38.060554050000064 ], [ 23.052363219000028, 38.057909057000074 ], [ 23.100136044000067, 38.058745068000064 ], [ 23.114136170000052, 38.060773153000071 ], [ 23.124718155000039, 38.062491108000074 ], [ 23.168891287000065, 38.07443599100003 ], [ 23.215763225000046, 38.100345124000057 ], [ 23.224645193000072, 38.153400057000056 ], [ 23.11832712100005, 38.210409068000047 ], [ 23.025273244000061, 38.217500158000064 ], [ 22.966945088000045, 38.213609111000039 ], [ 22.943054149000034, 38.208054089000029 ], [ 22.944445042000041, 38.186945104000074 ], [ 22.923336057000029, 38.195000113000049 ], [ 22.835282152000048, 38.226391178000029 ], [ 22.773473160000037, 38.238882226000044 ], [ 22.689718166000034, 38.323609186000056 ], [ 22.587773268000035, 38.330554095000025 ], [ 22.53388215700005, 38.344991085000061 ], [ 22.510273185000074, 38.375273225000058 ], [ 22.462354012000048, 38.425973178000049 ], [ 22.408609249000051, 38.446036102000051 ], [ 22.377709195000023, 38.387354062000043 ], [ 22.393745117000037, 38.351873131000048 ], [ 22.374300108000057, 38.33457321800006 ], [ 22.193882156000029, 38.337218044000053 ], [ 22.168327074000047, 38.346936022000079 ], [ 22.125554054000077, 38.371382178000033 ], [ 22.04277320500006, 38.398045012000068 ], [ 21.975554029000023, 38.406664123000041 ], [ 21.947773217000076, 38.409436019000054 ], [ 21.713054111000076, 38.353053973000044 ], [ 21.660273267000036, 38.354718116000072 ], [ 21.636663289000069, 38.354164240000046 ], [ 21.595836045000055, 38.343609077000053 ], [ 21.540000164000048, 38.31596421900008 ], [ 21.463891142000023, 38.366664172000071 ], [ 21.358054024000069, 38.432918088000065 ], [ 21.337218121000035, 38.39180015900007 ], [ 21.266945083000053, 38.339164154000059 ], [ 21.238327086000027, 38.321664249000037 ], [ 21.164163336000058, 38.300064252000027 ], [ 21.108745042000066, 38.355553960000066 ], [ 21.118745156000045, 38.374718008000059 ], [ 21.138536170000066, 38.39340009700004 ], [ 21.109863356000062, 38.431144980000056 ], [ 21.102773271000046, 38.429444963000037 ], [ 21.110518150000075, 38.442836059000058 ], [ 21.086391177000053, 38.503053998000041 ], [ 20.987909179000042, 38.671109146000049 ], [ 20.901109207000047, 38.731944999000063 ], [ 20.809718131000068, 38.759436133000065 ], [ 20.768818131000046, 38.759927145000063 ], [ 20.732773265000048, 38.804436057000032 ], [ 20.749718121000058, 38.90971812500004 ], [ 20.781109187000027, 38.931664127000033 ], [ 20.970273151000072, 38.941935982000075 ], [ 21.031109172000072, 38.921318009000061 ], [ 21.026154127000041, 38.899573173000078 ], [ 21.047636106000027, 38.882073100000071 ], [ 21.085136071000022, 38.864027030000045 ], [ 21.140827112000068, 38.931936036000025 ], [ 21.164509174000045, 38.982082113000047 ], [ 21.144300237000039, 39.008745115000067 ], [ 21.10200917700007, 39.050827130000073 ], [ 21.083045121000055, 39.05666412000005 ] ] ], [ [ [ 23.681945068000061, 35.224445069000069 ], [ 23.594236162000072, 35.232218111000066 ], [ 23.520554036000078, 35.295000075000075 ], [ 23.569163207000031, 35.526664145000041 ], [ 23.583191161000059, 35.571109019000062 ], [ 23.593891163000023, 35.592218004000074 ], [ 23.608536192000031, 35.608745105000025 ], [ 23.610000175000039, 35.567500107000058 ], [ 23.615409185000033, 35.52305405900006 ], [ 23.655482226000061, 35.497982110000066 ], [ 23.718954020000069, 35.508882105000055 ], [ 23.731945132000078, 35.546109154000078 ], [ 23.728609134000067, 35.568936094000037 ], [ 23.711391197000069, 35.604164227000069 ], [ 23.710763224000061, 35.652500149000048 ], [ 23.741873161000058, 35.686318111000048 ], [ 23.771773254000038, 35.66120911400003 ], [ 23.772218165000027, 35.613326989000029 ], [ 23.781945029000042, 35.564436018000038 ], [ 23.791036208000037, 35.54659111400008 ], [ 23.848536064000029, 35.522982142000046 ], [ 23.97138224300005, 35.514718089000041 ], [ 23.995554144000039, 35.515545047000046 ], [ 24.040773170000023, 35.529636032000042 ], [ 24.070573183000079, 35.549300145000075 ], [ 24.080482269000072, 35.576554071000032 ], [ 24.124373267000067, 35.600482225000064 ], [ 24.176391190000061, 35.588891059000048 ], [ 24.20492721200003, 35.539854075000051 ], [ 24.185554119000074, 35.509164240000075 ], [ 24.165691188000039, 35.501527152000051 ], [ 24.134663227000033, 35.500354021000078 ], [ 24.107063296000035, 35.492218043000037 ], [ 24.179027131000055, 35.452354047000028 ], [ 24.272291227000039, 35.36388222000005 ], [ 24.327082220000023, 35.351382120000039 ], [ 24.357082225000056, 35.352354086000048 ], [ 24.464718099000038, 35.361936110000045 ], [ 24.490418188000035, 35.36569120200005 ], [ 24.596454125000037, 35.382982231000028 ], [ 24.623745099000075, 35.395973175000051 ], [ 24.788891223000064, 35.408882144000074 ], [ 24.963336063000042, 35.404445100000032 ], [ 25.045691279000039, 35.379227138000033 ], [ 25.05437325500003, 35.350273194000067 ], [ 25.201382281000065, 35.334444976000043 ], [ 25.280554051000024, 35.333882215000074 ], [ 25.302500221000059, 35.335545017000072 ], [ 25.379509124000037, 35.333882215000074 ], [ 25.400827153000023, 35.311527009000031 ], [ 25.430000200000052, 35.294445025000073 ], [ 25.454300176000061, 35.292082167000046 ], [ 25.491109136000034, 35.298609155000065 ], [ 25.56444508900006, 35.318600162000052 ], [ 25.61805406600007, 35.333326998000075 ], [ 25.660418216000039, 35.34250015300006 ], [ 25.765727107000032, 35.329964178000068 ], [ 25.734300166000025, 35.299927125000067 ], [ 25.728645064000034, 35.261627024000063 ], [ 25.750300214000049, 35.270218140000054 ], [ 25.739309192000064, 35.231873112000073 ], [ 25.717773233000059, 35.21694511000004 ], [ 25.710554067000032, 35.172773151000058 ], [ 25.717500150000035, 35.159164125000075 ], [ 25.72805414000004, 35.141936129000044 ], [ 25.756663252000067, 35.126391051000041 ], [ 25.784027148000064, 35.113891119000073 ], [ 25.81235412500007, 35.111518035000074 ], [ 25.866945126000076, 35.152218042000072 ], [ 25.896109120000062, 35.176936107000074 ], [ 26.03097327200004, 35.224927029000071 ], [ 26.093054173000041, 35.216664149000053 ], [ 26.111945139000056, 35.205273142000067 ], [ 26.217782257000067, 35.240554082000074 ], [ 26.301109104000034, 35.283054019000076 ], [ 26.290554108000038, 35.13110017200006 ], [ 26.275000146000025, 35.087491141000044 ], [ 26.239718200000027, 35.036664119000079 ], [ 26.205554066000047, 35.021664200000032 ], [ 26.135827193000068, 34.997291134000079 ], [ 26.100418178000041, 35.003782080000065 ], [ 25.987500195000052, 35.033054033000042 ], [ 25.591391231000046, 35.007773207000071 ], [ 25.557845178000036, 34.994018169000071 ], [ 25.508891176000077, 34.981664249000062 ], [ 25.335282179000046, 34.984991194000031 ], [ 25.188054050000062, 34.952218120000055 ], [ 25.016945039000063, 34.930827 ], [ 24.928054118000034, 34.930545033000044 ], [ 24.821109247000038, 34.937491116000047 ], [ 24.754300114000046, 34.946245008000062 ], [ 24.76277321300006, 35.015827043000058 ], [ 24.757636112000057, 35.039854103000039 ], [ 24.742082149000055, 35.073744988000044 ], [ 24.723054056000024, 35.090554057000077 ], [ 24.688745082000025, 35.095691157000033 ], [ 24.638609231000032, 35.095273236000025 ], [ 24.588609166000026, 35.096936038000024 ], [ 24.563191213000039, 35.10069113000003 ], [ 24.547773205000055, 35.119436083000039 ], [ 24.531109143000037, 35.139164234000077 ], [ 24.392500124000037, 35.188882163000073 ], [ 24.194436087000042, 35.20027316900007 ], [ 24.139718185000049, 35.199718120000057 ], [ 24.100827160000051, 35.197773183000038 ], [ 24.061945187000049, 35.190409178000039 ], [ 24.035691222000025, 35.19283607400007 ], [ 23.946663340000043, 35.221109072000047 ], [ 23.890273248000028, 35.233891139000036 ], [ 23.82180014000005, 35.246527026000024 ], [ 23.698327162000055, 35.232354066000028 ], [ 23.681945068000061, 35.224445069000069 ] ] ], [ [ [ 24.05000013700004, 38.36582715600008 ], [ 24.055345109000029, 38.381553953000036 ], [ 23.997363294000024, 38.401800105000063 ], [ 23.974300152000069, 38.390973200000076 ], [ 23.938327202000039, 38.386664232000044 ], [ 23.905282220000061, 38.384991204000073 ], [ 23.805827082000064, 38.389164218000076 ], [ 23.773327091000056, 38.392218081000067 ], [ 23.67333618300006, 38.410000121000053 ], [ 23.642218199000069, 38.418882088000032 ], [ 23.620691125000064, 38.468400193000036 ], [ 23.63582716600007, 38.509645024000065 ], [ 23.624718127000051, 38.543053949000068 ], [ 23.597082154000077, 38.571244972000045 ], [ 23.492218174000072, 38.632218121000051 ], [ 23.331391245000077, 38.74249111000006 ], [ 23.198054108000065, 38.831800121000072 ], [ 23.150063354000054, 38.849373116000038 ], [ 23.126391183000067, 38.848818067000025 ], [ 23.098054147000028, 38.839436035000062 ], [ 22.832845030000044, 38.829127132000053 ], [ 22.846945068000025, 38.862082093000026 ], [ 22.930000173000053, 38.891664176000063 ], [ 23.096663254000077, 38.983609128000069 ], [ 23.129718128000036, 39.003327053000078 ], [ 23.279445070000065, 39.036664229000053 ], [ 23.304445102000045, 39.037282142000038 ], [ 23.373500250000063, 38.999127049000037 ], [ 23.446391124000058, 38.87250012800007 ], [ 23.466663260000075, 38.84791801800003 ], [ 23.516109113000027, 38.811382140000035 ], [ 23.591945053000074, 38.76471807300004 ], [ 23.765273255000068, 38.706664173000036 ], [ 23.846663212000067, 38.682218017000025 ], [ 23.948891250000031, 38.663053969000032 ], [ 24.007500200000038, 38.673045030000026 ], [ 24.153891145000046, 38.646664163000025 ], [ 24.153609178000067, 38.57332703700007 ], [ 24.187218095000048, 38.392491163000045 ], [ 24.258263274000058, 38.217282229000034 ], [ 24.299163274000023, 38.189991087000067 ], [ 24.336800198000049, 38.159436033000077 ], [ 24.427773185000035, 38.144164205000038 ], [ 24.465691238000034, 38.138536092000038 ], [ 24.561245102000044, 38.144300160000057 ], [ 24.590691231000051, 38.062218026000039 ], [ 24.587773155000036, 38.036664117000043 ], [ 24.575836152000079, 38.004164126000035 ], [ 24.564163346000043, 37.987218097000039 ], [ 24.51291823400004, 37.95492715000006 ], [ 24.480554029000075, 37.956245120000062 ], [ 24.387218184000062, 37.993609130000038 ], [ 24.326109248000023, 38.044718120000027 ], [ 24.208609215000024, 38.156664137000064 ], [ 24.148609205000071, 38.215273087000071 ], [ 24.110836158000041, 38.288327073000062 ], [ 24.05000013700004, 38.36582715600008 ] ] ], [ [ [ 26.41999114500004, 39.32582714800003 ], [ 26.414718090000065, 39.322491151000065 ], [ 26.393745059000025, 39.30444508100004 ], [ 26.379718112000035, 39.285273154000038 ], [ 26.379582158000062, 39.268600040000081 ], [ 26.405000111000049, 39.253873203000069 ], [ 26.474718100000075, 39.219435986000065 ], [ 26.528327077000029, 39.154164262000052 ], [ 26.606663338000033, 39.053318064000052 ], [ 26.612218193000047, 39.044164188000025 ], [ 26.618609226000046, 39.024018116000036 ], [ 26.615691151000078, 39.01388221600007 ], [ 26.521800256000063, 38.973318163000044 ], [ 26.450554079000028, 38.968318022000062 ], [ 26.390273275000027, 38.971100144000047 ], [ 26.323891284000069, 38.977773144000025 ], [ 26.18749123200007, 39.01721804500005 ], [ 26.136391127000024, 39.040273141000057 ], [ 26.088473295000028, 39.074373238000078 ], [ 26.11131817200004, 39.091036126000063 ], [ 26.167500225000026, 39.102773137000042 ], [ 26.276936198000044, 39.156382114000053 ], [ 26.286109185000043, 39.16776423500005 ], [ 26.291309150000075, 39.182636079000076 ], [ 26.257082151000077, 39.203464102000055 ], [ 26.237909218000027, 39.204300113000045 ], [ 26.199163200000044, 39.201109123000037 ], [ 26.172500198000023, 39.194709037000052 ], [ 26.163191257000051, 39.188053973000081 ], [ 26.157773194000072, 39.169164181000042 ], [ 26.153609233000054, 39.15860013300005 ], [ 26.110973173000048, 39.110964101000036 ], [ 26.081109123000033, 39.087909173000071 ], [ 26.065409147000025, 39.084573176000049 ], [ 26.045273301000066, 39.08942713600004 ], [ 25.988109224000027, 39.105164159000026 ], [ 25.890000221000037, 39.141109113000027 ], [ 25.864163340000061, 39.153600160000053 ], [ 25.834854171000075, 39.180064175000041 ], [ 25.85693612700004, 39.25277316200004 ], [ 25.880273190000025, 39.271109078000052 ], [ 25.907773209000027, 39.286945008000032 ], [ 25.923882221000042, 39.291936096000029 ], [ 25.924509187000069, 39.279300042000045 ], [ 25.950273313000025, 39.273891200000037 ], [ 25.98152708300006, 39.271800083000073 ], [ 26.173536202000037, 39.327209157000027 ], [ 26.170827170000052, 39.345553958000039 ], [ 26.165409108000063, 39.369854101000044 ], [ 26.178327130000071, 39.374982149000061 ], [ 26.224573275000068, 39.383045037000045 ], [ 26.323891284000069, 39.374435984000058 ], [ 26.39610925900007, 39.341100150000045 ], [ 26.41999114500004, 39.32582714800003 ] ] ], [ [ [ 28.207218096000076, 36.442491172000075 ], [ 28.214618143000052, 36.454154088000053 ], [ 28.233891156000027, 36.44137319400005 ], [ 28.238045060000047, 36.431109051000078 ], [ 28.206945182000027, 36.343600137000067 ], [ 28.186936070000058, 36.299991107000039 ], [ 28.141391155000065, 36.210536083000079 ], [ 28.122773271000028, 36.185818018000077 ], [ 28.063609105000069, 36.111927015000049 ], [ 28.009163279000063, 36.068882087000077 ], [ 27.956663228000025, 36.044991148000065 ], [ 27.945827104000045, 36.034709067000051 ], [ 27.931663196000045, 36.018600055000036 ], [ 27.906109120000053, 35.988054053000042 ], [ 27.898891128000059, 35.975553953000031 ], [ 27.892773177000038, 35.960827117000065 ], [ 27.86555412000007, 35.932218005000038 ], [ 27.841109137000046, 35.912627150000048 ], [ 27.799718126000073, 35.893327147000036 ], [ 27.784027203000051, 35.890409072000068 ], [ 27.768609195000067, 35.893609115000061 ], [ 27.731245185000034, 35.913053957000045 ], [ 27.72221821100004, 35.929718018000074 ], [ 27.720273274000078, 35.945136026000057 ], [ 27.730827096000041, 35.978882071000044 ], [ 27.740827209000031, 36.104436108000073 ], [ 27.719718224000076, 36.166100094000058 ], [ 27.788882169000033, 36.251654012000074 ], [ 27.804445184000031, 36.26943605200006 ], [ 27.876109115000077, 36.319709031000059 ], [ 27.895827207000025, 36.33221801600007 ], [ 27.909163318000026, 36.339718143000027 ], [ 28.068336163000026, 36.405000093000069 ], [ 28.107491218000064, 36.418609119000052 ], [ 28.207218096000076, 36.442491172000075 ] ] ], [ [ [ 20.57110915100003, 38.468044968000072 ], [ 20.61250016300005, 38.394164191000073 ], [ 20.680554176000044, 38.277500168000074 ], [ 20.812636207000025, 38.114927121000051 ], [ 20.793473164000034, 38.063254029000063 ], [ 20.735000169000045, 38.060827133000032 ], [ 20.557782261000057, 38.090554055000041 ], [ 20.515000189000034, 38.103191115000072 ], [ 20.377782231000026, 38.156664137000064 ], [ 20.342563317000042, 38.177909077000038 ], [ 20.341527146000033, 38.198882107000031 ], [ 20.356109143000026, 38.231945027000052 ], [ 20.398609248000071, 38.325553955000032 ], [ 20.441800190000038, 38.326518041000043 ], [ 20.480763299000046, 38.308818144000043 ], [ 20.503891149000026, 38.319164262000072 ], [ 20.516391249000037, 38.327773147000073 ], [ 20.536391141000024, 38.344718171000068 ], [ 20.545900242000073, 38.360200049000071 ], [ 20.549163317000023, 38.390973200000076 ], [ 20.53971808600005, 38.409436019000054 ], [ 20.534163231000036, 38.434718018000069 ], [ 20.541873241000076, 38.470554007000032 ], [ 20.562218131000066, 38.471109057000035 ], [ 20.57110915100003, 38.468044968000072 ] ] ], [ [ [ 26.014718079000033, 38.149436087000026 ], [ 25.996109248000039, 38.155264192000061 ], [ 25.968191140000044, 38.165553984000042 ], [ 25.925000199000067, 38.194709093000029 ], [ 25.863327161000029, 38.239844971000025 ], [ 25.863473174000035, 38.249991097000077 ], [ 25.871518124000033, 38.266653986000051 ], [ 25.906382148000034, 38.290273183000068 ], [ 25.918054116000064, 38.294718106000062 ], [ 25.93958219600006, 38.297209040000041 ], [ 25.991663319000054, 38.343882160000078 ], [ 25.988745076000043, 38.383536105000076 ], [ 25.942636058000062, 38.457354018000046 ], [ 25.912218132000078, 38.469436029000065 ], [ 25.885900129000049, 38.475273186000038 ], [ 25.860827175000054, 38.493891069000028 ], [ 25.851945039000043, 38.500827094000044 ], [ 25.845836141000063, 38.509435979000045 ], [ 25.825691242000062, 38.540691091000042 ], [ 25.843609237000067, 38.57054508300007 ], [ 25.851109196000039, 38.578045042000042 ], [ 25.865827147000061, 38.58500017800003 ], [ 25.884718113000076, 38.588873120000073 ], [ 26.001391188000071, 38.601382105000027 ], [ 26.138609146000078, 38.564991066000061 ], [ 26.150827111000069, 38.556109099000025 ], [ 26.159582177000061, 38.542073099000049 ], [ 26.138882229000046, 38.431664155000078 ], [ 26.133473219000052, 38.412918029000025 ], [ 26.14610910600004, 38.363600084000041 ], [ 26.162218118000055, 38.327636019000067 ], [ 26.160691270000029, 38.303326991000063 ], [ 26.102218108000045, 38.246936061000042 ], [ 26.035554149000063, 38.191936024000029 ], [ 26.02639122000005, 38.178609133000066 ], [ 26.014718079000033, 38.149436087000026 ] ] ], [ [ [ 19.855000246000031, 39.818326993000028 ], [ 19.865000192000025, 39.816936100000078 ], [ 19.926109127000075, 39.794445107000058 ], [ 19.948745128000041, 39.779018047000079 ], [ 19.950554110000041, 39.762218030000042 ], [ 19.942773189000036, 39.74416424900005 ], [ 19.927773271000035, 39.729853993000063 ], [ 19.914163239000061, 39.722073240000043 ], [ 19.875554014000045, 39.716109181000036 ], [ 19.842500146000077, 39.701109095000049 ], [ 19.839445110000042, 39.676382145000048 ], [ 19.846663270000022, 39.649164261000067 ], [ 19.924954101000026, 39.622445101000039 ], [ 19.929863214000022, 39.474444998000024 ], [ 20.018054079000024, 39.434435994000069 ], [ 20.030273218000048, 39.432082188000038 ], [ 20.048054084000057, 39.436945033000029 ], [ 20.060418230000039, 39.444718075000026 ], [ 20.072145183000032, 39.452500169000075 ], [ 20.119791273000033, 39.371800043000064 ], [ 20.111663342000043, 39.363054030000058 ], [ 20.079718232000062, 39.368327086000079 ], [ 19.878745172000038, 39.44853603200005 ], [ 19.852354079000065, 39.489653961000045 ], [ 19.846945069000071, 39.519718171000079 ], [ 19.84847325800007, 39.539300141000069 ], [ 19.844163283000057, 39.551936028000057 ], [ 19.820827059000067, 39.578745042000037 ], [ 19.806391242000075, 39.590553971000077 ], [ 19.740273281000043, 39.624718105000056 ], [ 19.674582294000061, 39.675973108000051 ], [ 19.641391131000034, 39.744435990000056 ], [ 19.640000238000027, 39.756664181000076 ], [ 19.650836195000068, 39.772500111000056 ], [ 19.673054105000062, 39.793054046000066 ], [ 19.694582186000048, 39.79471802200004 ], [ 19.79416321900004, 39.790409053000076 ], [ 19.803891256000043, 39.793882178000047 ], [ 19.855000246000031, 39.818326993000028 ] ] ], [ [ [ 25.441663283000025, 40.004718057000048 ], [ 25.391936133000058, 39.952209121000067 ], [ 25.354163254000071, 39.907354037000061 ], [ 25.337218231000065, 39.87804503600006 ], [ 25.339027214000055, 39.849300137000057 ], [ 25.352982244000032, 39.834091174000037 ], [ 25.365273299000023, 39.825554038000064 ], [ 25.373054053000033, 39.812627131000056 ], [ 25.35582706200006, 39.786382219000075 ], [ 25.33888220700004, 39.788882206000039 ], [ 25.313054042000033, 39.795409026000073 ], [ 25.294718126000078, 39.805545094000024 ], [ 25.266936141000031, 39.868045090000066 ], [ 25.279018151000059, 39.893527082000048 ], [ 25.263054146000059, 39.912345125000058 ], [ 25.233054141000025, 39.911309122000034 ], [ 25.210691223000026, 39.893045122000046 ], [ 25.179445164000072, 39.84686418900003 ], [ 25.201663243000041, 39.827491096000074 ], [ 25.224718171000063, 39.804164259000061 ], [ 25.165409165000028, 39.800273212000036 ], [ 25.063891241000078, 39.84527313600006 ], [ 25.054436119000059, 39.860544963000052 ], [ 25.043054165000058, 39.963327045000028 ], [ 25.047636049000062, 39.986654050000027 ], [ 25.136382299000047, 40.005964111000026 ], [ 25.229300222000063, 40.002773120000029 ], [ 25.271936113000038, 39.988318025000069 ], [ 25.368609129000049, 40.005827150000073 ], [ 25.451591144000076, 40.032554022000056 ], [ 25.445554162000064, 40.009718030000045 ], [ 25.441663283000025, 40.004718057000048 ] ] ], [ [ [ 26.818054099000051, 37.636654048000025 ], [ 26.750136207000025, 37.692909024000073 ], [ 26.708473287000061, 37.708318147000057 ], [ 26.686936154000023, 37.704991202000031 ], [ 26.645409188000031, 37.697209108000038 ], [ 26.621936171000073, 37.686109121000072 ], [ 26.613327119000076, 37.680273137000029 ], [ 26.595409124000071, 37.675964168000064 ], [ 26.581109094000055, 37.687209162000045 ], [ 26.572218242000076, 37.732354092000037 ], [ 26.597354061000033, 37.758327096000073 ], [ 26.667636152000057, 37.791236124000079 ], [ 26.729718227000035, 37.808045025000069 ], [ 26.745973251000066, 37.811245068000062 ], [ 26.988891200000069, 37.781936067000061 ], [ 27.028609183000071, 37.771664213000065 ], [ 27.066936106000071, 37.727218165000068 ], [ 27.06367319900005, 37.707354060000057 ], [ 27.039718222000033, 37.702764130000048 ], [ 26.895554181000023, 37.665273218000038 ], [ 26.818054099000051, 37.636654048000025 ] ] ], [ [ [ 20.83610922400004, 37.646382085000027 ], [ 20.831109251000044, 37.646382085000027 ], [ 20.810418187000039, 37.652635990000078 ], [ 20.713609217000055, 37.722773242000073 ], [ 20.703327137000031, 37.732773188000067 ], [ 20.628609175000065, 37.813191179000057 ], [ 20.620000122000022, 37.847500152000066 ], [ 20.621945059000041, 37.860836096000071 ], [ 20.628609175000065, 37.875544995000041 ], [ 20.643327127000077, 37.898327008000024 ], [ 20.678336157000047, 37.920553971000061 ], [ 20.701245072000063, 37.929164197000034 ], [ 20.79416333000006, 37.848882161000063 ], [ 20.863327107000032, 37.829164236000054 ], [ 20.886391255000035, 37.814436059000059 ], [ 20.898054171000069, 37.805273130000046 ], [ 20.992500115000041, 37.725273228000049 ], [ 20.998609181000063, 37.713882222000052 ], [ 20.99444505200006, 37.698609053000041 ], [ 20.943336061000025, 37.719718038000053 ], [ 20.919718205000038, 37.73013607300004 ], [ 20.895836151000026, 37.731109045000039 ], [ 20.870618190000073, 37.725691150000046 ], [ 20.840418193000062, 37.685273110000026 ], [ 20.83610922400004, 37.646382085000027 ] ] ], [ [ [ 25.452773160000049, 36.918318071000044 ], [ 25.435136127000078, 36.92110019200004 ], [ 25.341936069000042, 37.07346424900004 ], [ 25.348191148000069, 37.08750008100003 ], [ 25.503263231000062, 37.189644971000064 ], [ 25.541873294000027, 37.197627057000034 ], [ 25.565554015000032, 37.180827041000043 ], [ 25.576663222000036, 37.168054027000039 ], [ 25.58305408800004, 37.159991139000056 ], [ 25.595836155000029, 37.13581806500008 ], [ 25.600554160000058, 37.117082165000056 ], [ 25.599445067000033, 37.106936038000072 ], [ 25.590273253000078, 37.05720905700008 ], [ 25.587218217000043, 37.044164133000038 ], [ 25.580273307000027, 37.015544963000025 ], [ 25.553254075000041, 36.954573155000048 ], [ 25.486382245000073, 36.927773193000064 ], [ 25.461391266000078, 36.919436049000069 ], [ 25.452773160000049, 36.918318071000044 ] ] ], [ [ [ 24.960282200000051, 37.68555407100007 ], [ 24.947500133000062, 37.693054031000031 ], [ 24.915554018000023, 37.716800130000024 ], [ 24.873054081000078, 37.766391157000044 ], [ 24.830554143000029, 37.814436059000059 ], [ 24.767082181000035, 37.872354004000044 ], [ 24.752782152000066, 37.878327116000037 ], [ 24.736945049000042, 37.881100185000037 ], [ 24.715136175000055, 37.873054061000062 ], [ 24.69360910000006, 37.92693612000005 ], [ 24.690418110000053, 37.953473225000039 ], [ 24.694582239000056, 37.962635986000066 ], [ 24.703327079000076, 37.969718024000031 ], [ 24.743891132000044, 37.990554094000061 ], [ 24.778054093000037, 37.996936075000065 ], [ 24.791663286000073, 37.998327136000057 ], [ 24.962773302000073, 37.872500185000035 ], [ 24.997982157000024, 37.762909147000073 ], [ 24.985836109000047, 37.733609031000071 ], [ 24.960282200000051, 37.68555407100007 ] ] ], [ [ [ 24.643609204000029, 40.570827105000035 ], [ 24.640827082000044, 40.577082184000062 ], [ 24.601663310000049, 40.610273180000036 ], [ 24.591109153000048, 40.616664213000035 ], [ 24.572363194000047, 40.62471804900008 ], [ 24.531663354000045, 40.621109137000076 ], [ 24.512782279000078, 40.638473087000079 ], [ 24.509445108000023, 40.658054051000079 ], [ 24.521663241000056, 40.692773235000061 ], [ 24.53360912900007, 40.714164188000041 ], [ 24.540836174000049, 40.723882166000067 ], [ 24.565554071000065, 40.750545 ], [ 24.598745067000038, 40.777909064000028 ], [ 24.621391125000059, 40.789991075000046 ], [ 24.643191282000032, 40.797218120000025 ], [ 24.654718243000048, 40.796391161000031 ], [ 24.696663298000033, 40.780545005000079 ], [ 24.733327084000052, 40.765545087000078 ], [ 24.761391204000063, 40.749164166000071 ], [ 24.763882138000042, 40.73194505400005 ], [ 24.773327202000075, 40.631664132000026 ], [ 24.76639117700006, 40.611382106000065 ], [ 24.671109222000041, 40.578891167000052 ], [ 24.643609204000029, 40.570827105000035 ] ] ], [ [ [ 20.701382200000069, 38.834718029000044 ], [ 20.712773206000065, 38.830000191000067 ], [ 20.729718229000071, 38.805691163000063 ], [ 20.722082148000027, 38.627145058000053 ], [ 20.643609094000055, 38.581109131000062 ], [ 20.543191211000078, 38.566109044000029 ], [ 20.542218072000026, 38.588336008000056 ], [ 20.558473265000032, 38.685964225000077 ], [ 20.601663200000075, 38.778882148000037 ], [ 20.645691158000034, 38.829582102000074 ], [ 20.655554144000064, 38.835544988000038 ], [ 20.701382200000069, 38.834718029000044 ] ] ], [ [ [ 27.142218170000035, 35.399718041000028 ], [ 27.121663229000035, 35.428600068000037 ], [ 27.066945159000056, 35.594582203000073 ], [ 27.066945159000056, 35.606664214000034 ], [ 27.120282226000029, 35.666936133000036 ], [ 27.161736102000077, 35.725345090000076 ], [ 27.158609149000029, 35.746936035000033 ], [ 27.158609149000029, 35.769436080000048 ], [ 27.160000210000078, 35.795827005000035 ], [ 27.215273162000074, 35.826245100000051 ], [ 27.229718198000057, 35.825409089000061 ], [ 27.230827124000029, 35.811100174000046 ], [ 27.214027108000039, 35.721382126000037 ], [ 27.177500115000043, 35.601109024000039 ], [ 27.202218180000045, 35.47805396800004 ], [ 27.15985402900003, 35.448473225000043 ], [ 27.142218170000035, 35.399718041000028 ] ] ], [ [ [ 25.984163360000025, 37.506945102000032 ], [ 25.978882258000056, 37.511936022000043 ], [ 25.974927173000026, 37.527073237000025 ], [ 25.983045046000029, 37.545553992000066 ], [ 26.046945156000049, 37.616382080000051 ], [ 26.066245158000072, 37.63096424400004 ], [ 26.080827155000065, 37.635545122000053 ], [ 26.312491225000031, 37.679991170000051 ], [ 26.358673165000027, 37.683945081000047 ], [ 26.356936099000052, 37.672491210000032 ], [ 26.323327182000071, 37.634718164000049 ], [ 26.305418240000051, 37.616664215000071 ], [ 26.267491134000068, 37.591100080000047 ], [ 26.214991251000072, 37.558882224000058 ], [ 26.020827145000055, 37.514436009000065 ], [ 25.984163360000025, 37.506945102000032 ] ] ], [ [ [ 22.956945142000052, 36.377491189000068 ], [ 22.970000124000023, 36.354164185000059 ], [ 22.988891257000034, 36.323609131000069 ], [ 23.007636043000048, 36.306664107000074 ], [ 23.020273271000065, 36.30389120600006 ], [ 23.085554047000073, 36.259436106000067 ], [ 23.104300174000059, 36.24624500200008 ], [ 23.108327175000056, 36.236936061000051 ], [ 23.057218185000067, 36.145000161000041 ], [ 23.044091287000072, 36.136245096000039 ], [ 22.997218175000057, 36.141936073000068 ], [ 22.988054073000058, 36.14610908700007 ], [ 22.930000173000053, 36.178054029000066 ], [ 22.922773296000059, 36.185827071000062 ], [ 22.91166325100005, 36.201109124000027 ], [ 22.906391202000066, 36.225827021000043 ], [ 22.895554071000049, 36.322082115000057 ], [ 22.927773269000056, 36.378464161000068 ], [ 22.957009180000057, 36.381318031000035 ], [ 22.956945142000052, 36.377491189000068 ] ] ], [ [ [ 26.971382242000061, 36.672209132000035 ], [ 26.966663231000041, 36.672491099000069 ], [ 26.949718207000046, 36.677218157000027 ], [ 26.920273252000072, 36.711800046000064 ], [ 26.919854157000032, 36.758191198000077 ], [ 27.062500235000073, 36.838045087000069 ], [ 27.152491198000064, 36.881382208000048 ], [ 27.172773224000025, 36.888044983000043 ], [ 27.284445153000036, 36.900553968000054 ], [ 27.343609152000056, 36.883191191000037 ], [ 27.354718191000075, 36.863809045000039 ], [ 27.344163196000068, 36.849444978000065 ], [ 27.32943619200006, 36.842764098000032 ], [ 27.302500275000057, 36.837491210000053 ], [ 27.279445180000039, 36.834164098000031 ], [ 27.243327224000041, 36.826936047000061 ], [ 27.218327192000061, 36.819709170000067 ], [ 27.032082141000046, 36.764853973000072 ], [ 26.992218145000038, 36.751391127000034 ], [ 26.974300150000033, 36.741591174000064 ], [ 26.966391154000064, 36.703609082000071 ], [ 26.965827220000051, 36.681664254000054 ], [ 26.971382242000061, 36.672209132000035 ] ] ], [ [ [ 24.568882190000068, 38.760827026000072 ], [ 24.553336106000074, 38.76832715300003 ], [ 24.534718223000027, 38.783609039000055 ], [ 24.456663258000049, 38.880827046000036 ], [ 24.45027323000005, 38.896945111000036 ], [ 24.451527163000037, 38.951318014000037 ], [ 24.459582172000069, 38.964164119000031 ], [ 24.483191143000056, 38.977354049000041 ], [ 24.504300128000068, 38.971800200000075 ], [ 24.577500127000064, 38.92610910500008 ], [ 24.665554032000045, 38.824164207000024 ], [ 24.681663212000046, 38.802082083000073 ], [ 24.682218094000064, 38.77832709900008 ], [ 24.659163334000027, 38.76749114200004 ], [ 24.646945033000065, 38.764164197000071 ], [ 24.623473190000027, 38.765826999000069 ], [ 24.614718124000035, 38.770964100000072 ], [ 24.59708226500004, 38.788744966000024 ], [ 24.567982141000073, 38.773536003000061 ], [ 24.568882190000068, 38.760827026000072 ] ] ], [ [ [ 25.053882243000032, 37.675818155000059 ], [ 25.078745147000063, 37.650818123000079 ], [ 25.137218142000052, 37.644718109000053 ], [ 25.187773256000071, 37.64151806600006 ], [ 25.214163343000052, 37.632209125000031 ], [ 25.238891131000059, 37.621936097000059 ], [ 25.248891244000049, 37.613182204000054 ], [ 25.255273225000053, 37.586800164000067 ], [ 25.230000111000038, 37.535409039000058 ], [ 25.205827205000048, 37.527218076000054 ], [ 25.195827091000069, 37.527491158000032 ], [ 25.168327073000057, 37.532773098000064 ], [ 25.113891138000042, 37.551100130000066 ], [ 24.995000211000047, 37.64000010400008 ], [ 24.978882146000046, 37.662500149000039 ], [ 24.976391212000067, 37.674027110000054 ], [ 25.010554174000049, 37.677500068000029 ], [ 25.042218154000068, 37.676653999000052 ], [ 25.053882243000032, 37.675818155000059 ] ] ], [ [ [ 25.191382168000075, 36.973882210000056 ], [ 25.165836139000078, 36.979436059000079 ], [ 25.152491143000077, 36.983891208000045 ], [ 25.121800134000068, 36.995418169000061 ], [ 25.105273200000056, 37.011654083000053 ], [ 25.098809244000051, 37.028536074000044 ], [ 25.110000258000071, 37.05720905700008 ], [ 25.132773219000057, 37.093318128000078 ], [ 25.151382217000048, 37.111927126000069 ], [ 25.16332710000006, 37.121664216000056 ], [ 25.223609245000034, 37.140827090000073 ], [ 25.268600116000073, 37.138609071000076 ], [ 25.284445098000049, 37.128318106000052 ], [ 25.268327201000034, 37.052773186000024 ], [ 25.264163239000027, 37.039164160000041 ], [ 25.250273252000056, 37.008327138000027 ], [ 25.191382168000075, 36.973882210000056 ] ] ], [ [ [ 24.330827086000056, 36.649991053000065 ], [ 24.325827113000059, 36.651935990000027 ], [ 24.32291809000003, 36.663609132000033 ], [ 24.342218093000042, 36.736945085000059 ], [ 24.350973158000045, 36.746935978000067 ], [ 24.513336155000047, 36.767491087000053 ], [ 24.531391278000058, 36.766109079000046 ], [ 24.548745170000075, 36.757909063000056 ], [ 24.54944505900005, 36.696109123000042 ], [ 24.539445113000056, 36.677564162000067 ], [ 24.476945117000071, 36.662773121000043 ], [ 24.413609109000049, 36.660273134000079 ], [ 24.330827086000056, 36.649991053000065 ] ] ], [ [ [ 25.657218173000047, 40.493045055000039 ], [ 25.694027133000077, 40.465618127000027 ], [ 25.693745166000042, 40.424509082000043 ], [ 25.660000127000046, 40.412491110000076 ], [ 25.603882279000061, 40.39831815000008 ], [ 25.561945103000028, 40.399573088000068 ], [ 25.515827201000036, 40.42249105500008 ], [ 25.49027329200004, 40.436936092000053 ], [ 25.462500191000061, 40.456373223000071 ], [ 25.443882140000028, 40.475818065000055 ], [ 25.494163334000064, 40.496382226000037 ], [ 25.525554064000062, 40.506945100000053 ], [ 25.542773175000036, 40.510544960000061 ], [ 25.555827151000074, 40.511654054000076 ], [ 25.575409121000064, 40.510682088000067 ], [ 25.657218173000047, 40.493045055000039 ] ] ], [ [ [ 26.466663259000029, 36.576382185000057 ], [ 26.405827070000043, 36.565273146000038 ], [ 26.355409252000072, 36.511791072000051 ], [ 26.342218148000029, 36.506382230000042 ], [ 26.31527317900003, 36.504854041000044 ], [ 26.300827136000066, 36.509436092000044 ], [ 26.287773160000029, 36.519573166000043 ], [ 26.270554049000054, 36.556109044000038 ], [ 26.263327172000061, 36.589573122000047 ], [ 26.382909103000031, 36.640409029000068 ], [ 26.407773180000049, 36.633045024000069 ], [ 26.459436047000054, 36.599436107000031 ], [ 26.471100135000029, 36.578327122000076 ], [ 26.466663259000029, 36.576382185000057 ] ] ], [ [ [ 26.975554083000077, 36.924427137000066 ], [ 26.969718099000033, 36.924427137000066 ], [ 26.946382210000024, 36.928053987000055 ], [ 26.93555413200005, 36.932209064000062 ], [ 26.919163320000052, 36.946664159000079 ], [ 26.887563210000053, 37.073735990000046 ], [ 26.960545112000034, 37.056109183000046 ], [ 26.985827111000049, 37.044164133000038 ], [ 27.049163286000066, 36.992082172000039 ], [ 27.047773231000065, 36.945891179000057 ], [ 26.975554083000077, 36.924427137000066 ] ] ], [ [ [ 24.285273287000052, 37.524718089000032 ], [ 24.276800188000038, 37.528953968000053 ], [ 24.269445068000039, 37.590964126000074 ], [ 24.274854078000033, 37.612773168000047 ], [ 24.283745098000054, 37.631245038000031 ], [ 24.299582201000078, 37.656391083000074 ], [ 24.330827086000056, 37.679300166000075 ], [ 24.350827146000029, 37.682218074000048 ], [ 24.368745140000044, 37.682218074000048 ], [ 24.394163262000063, 37.673336106000079 ], [ 24.411391258000037, 37.653191208000067 ], [ 24.395136065000031, 37.615827030000048 ], [ 24.381382200000075, 37.596936064000033 ], [ 24.368609186000072, 37.583045071000072 ], [ 24.311800166000069, 37.533882192000078 ], [ 24.298609230000068, 37.52638223200006 ], [ 24.285273287000052, 37.524718089000032 ] ] ], [ [ [ 20.719718116000024, 38.305273102000058 ], [ 20.710973276000061, 38.308191178000072 ], [ 20.699445142000059, 38.317500119000044 ], [ 20.670827145000032, 38.353053973000044 ], [ 20.644718187000024, 38.398045012000068 ], [ 20.61430026000005, 38.469718164000028 ], [ 20.652773196000055, 38.500691140000072 ], [ 20.671109112000067, 38.493327135000072 ], [ 20.707218184000055, 38.443327071000056 ], [ 20.743327087000068, 38.372500156000058 ], [ 20.760691206000047, 38.323464179000041 ], [ 20.735554046000061, 38.310000160000072 ], [ 20.719718116000024, 38.305273102000058 ] ] ], [ [ [ 25.357773172000066, 36.645000133000053 ], [ 25.341245065000066, 36.652909129000079 ], [ 25.258609223000065, 36.728882197000075 ], [ 25.263054146000059, 36.764582231000077 ], [ 25.277491136000037, 36.782354045000034 ], [ 25.305554083000061, 36.78874507900008 ], [ 25.326109192000047, 36.775827057000072 ], [ 25.407773237000072, 36.716518051000037 ], [ 25.388191267000025, 36.654300190000072 ], [ 25.357773172000066, 36.645000133000053 ] ] ], [ [ [ 23.501109194000037, 37.999164153000038 ], [ 23.506109167000034, 37.998054054000079 ], [ 23.521945097000071, 37.994300134000071 ], [ 23.539718084000071, 37.984300189000066 ], [ 23.546663329000069, 37.930826999000033 ], [ 23.538745113000061, 37.919300038000074 ], [ 23.462154131000034, 37.87909121000007 ], [ 23.448054094000042, 37.879436042000066 ], [ 23.407354087000044, 37.89430017400008 ], [ 23.403609220000078, 37.906945113000063 ], [ 23.41027316800006, 37.929164197000034 ], [ 23.437500272000023, 37.985836089000031 ], [ 23.489300266000043, 38.000136118000057 ], [ 23.501109194000037, 37.999164153000038 ] ] ], [ [ [ 24.440827161000072, 37.470836030000044 ], [ 24.431945193000047, 37.440964101000077 ], [ 24.445273257000053, 37.431391129000076 ], [ 24.467636175000052, 37.427218115000073 ], [ 24.482909176000078, 37.407354010000063 ], [ 24.482500139000024, 37.395964177000053 ], [ 24.446109101000047, 37.351391060000026 ], [ 24.416382178000049, 37.325554011000065 ], [ 24.401663221000035, 37.314164178000055 ], [ 24.377009194000038, 37.306382084000063 ], [ 24.36708217000006, 37.31124509600005 ], [ 24.370000246000075, 37.429509057000075 ], [ 24.398609191000048, 37.459164230000056 ], [ 24.410273279000023, 37.468326992000073 ], [ 24.441600140000048, 37.478264241000034 ], [ 24.440827161000072, 37.470836030000044 ] ] ], [ [ [ 23.724445173000049, 39.071391124000058 ], [ 23.709445086000073, 39.07388222600008 ], [ 23.660273154000038, 39.08943602100004 ], [ 23.594854076000047, 39.204927080000061 ], [ 23.610836186000029, 39.204991117000077 ], [ 23.787363258000028, 39.118264235000026 ], [ 23.772773215000029, 39.096527111000057 ], [ 23.753891134000071, 39.083609089000049 ], [ 23.736663305000036, 39.074718069000028 ], [ 23.724445173000049, 39.071391124000058 ] ] ] ] }
        }
    ]
}