{
    "type": "FeatureCollection",
    "features": [
        {
            "type": "Feature",
            "properties": {
                "WCID": "GTM",
                "COUNTRY": "Guatemala"
            },
            "geometry": { "type": "Polygon", "coordinates": [ [ [ -89.348308911999936, 14.431982176000076 ], [ -89.435564021999937, 14.414864150000028 ], [ -89.495008981999945, 14.421391138000047 ], [ -89.548482003999936, 14.420836089000034 ], [ -89.570972996999956, 14.414718138000069 ], [ -89.583346026999948, 14.385827058000075 ], [ -89.589172958999939, 14.321244997000065 ], [ -89.565490896999961, 14.316454069000031 ], [ -89.543335850999938, 14.304164187000026 ], [ -89.518163989999948, 14.233853933000034 ], [ -89.57945498, 14.207500056000072 ], [ -89.605146016999981, 14.208191060000047 ], [ -89.626955057999965, 14.209309038000072 ], [ -89.652090876999978, 14.195554 ], [ -89.686399850999976, 14.170000092000066 ], [ -89.710145949999969, 14.145000060000029 ], [ -89.726817890999939, 14.117918130000078 ], [ -89.746672942999965, 14.069582209000032 ], [ -89.739726859999962, 14.041391187000045 ], [ -89.81819991399999, 14.066454083000053 ], [ -89.854445945999942, 14.059444968000037 ], [ -89.889026828999988, 14.044164088000059 ], [ -90.020564035999939, 13.938609104000022 ], [ -90.08653581599998, 13.868473194000046 ], [ -90.103899934999959, 13.823327090000078 ], [ -90.108063896999965, 13.789027001000022 ], [ -90.096390922999944, 13.745836060000045 ], [ -90.105563909999944, 13.747218068000052 ], [ -90.151946009999961, 13.763335965000067 ], [ -90.21750892099999, 13.79166411500006 ], [ -90.237135817999956, 13.801282182000023 ], [ -90.349163977999979, 13.847773078000046 ], [ -90.411117808999961, 13.873054072000059 ], [ -90.46250893399997, 13.891391161000058 ], [ -90.492235856999969, 13.900273129000027 ], [ -90.589445984999941, 13.92471811200005 ], [ -90.612499906999972, 13.929164208000032 ], [ -90.627626894999935, 13.930553928000052 ], [ -90.673335927999972, 13.929445002000023 ], [ -90.771955053999989, 13.926391139000032 ], [ -90.889726828999983, 13.921664081000074 ], [ -90.94389085499995, 13.917773202000035 ], [ -91.015835914999968, 13.913054023000029 ], [ -91.081390947999978, 13.913054023000029 ], [ -91.106126949999975, 13.915835976000039 ], [ -91.184035901999948, 13.926109005000058 ], [ -91.296399840999982, 13.953891158000033 ], [ -91.384735879999937, 13.97889119000007 ], [ -91.493617808999943, 14.029718045000038 ], [ -91.527981934999957, 14.043491189000065 ], [ -91.563608879999947, 14.065000158000032 ], [ -91.58778195299999, 14.078336101000048 ], [ -91.621399922999956, 14.093336020000038 ], [ -91.640017805999946, 14.106391169000062 ], [ -91.658891001999962, 14.122391049000043 ], [ -91.680555036999976, 14.13889116100006 ], [ -91.697235862999946, 14.150000033000026 ], [ -91.77000888699996, 14.191945088000068 ], [ -91.812708983999983, 14.211664186000064 ], [ -91.913617878999958, 14.287773208000033 ], [ -91.960555027999987, 14.324445040000057 ], [ -91.990846052999984, 14.35000012200004 ], [ -92.081117808999977, 14.424718083000073 ], [ -92.164463933999969, 14.483891135000022 ], [ -92.218899868999983, 14.521664182000052 ], [ -92.242146071999969, 14.543718142000046 ], [ -92.246781934999944, 14.550545035000027 ], [ -92.237946067999985, 14.55199108100004 ], [ -92.216672964999987, 14.558054047000041 ], [ -92.187226835999979, 14.588336019000053 ], [ -92.15334601, 14.683054040000059 ], [ -92.15264595299999, 14.703336066000077 ], [ -92.15833592499996, 14.729445024000029 ], [ -92.169172886999945, 14.768609131000062 ], [ -92.182917866999958, 14.810554019000051 ], [ -92.183826800999952, 14.845273203000033 ], [ -92.14973592399997, 14.934718001000022 ], [ -92.093926865999947, 15.025800120000042 ], [ -92.07069088899999, 15.077291157000047 ], [ -92.211399909999955, 15.262218070000074 ], [ -92.107935875999942, 15.437600174000067 ], [ -91.828608951999968, 15.908891122000057 ], [ -91.797499852999977, 15.961109037000028 ], [ -91.72917292599999, 16.075000159000069 ], [ -91.704181945999949, 16.075554035000039 ], [ -91.540008960999955, 16.075836002000074 ], [ -90.991545997999935, 16.075744975000077 ], [ -90.804455044999941, 16.075836002000074 ], [ -90.625835849999987, 16.075554035000039 ], [ -90.45377297899995, 16.074882142000035 ], [ -90.447617812999965, 16.078844938000032 ], [ -90.441954998999961, 16.088336102000028 ], [ -90.43209100699994, 16.13277309700004 ], [ -90.430072979999977, 16.172364179000056 ], [ -90.457326905999935, 16.194436077000034 ], [ -90.458072895999976, 16.256664164000028 ], [ -90.438608942999963, 16.307500072000039 ], [ -90.406535925999947, 16.335000090000051 ], [ -90.384446089999983, 16.37694497800004 ], [ -90.393335936999961, 16.401109167000072 ], [ -90.406399970999985, 16.416382168000041 ], [ -90.486117905999947, 16.46110900900004 ], [ -90.505008870999973, 16.468609136000055 ], [ -90.545290956999963, 16.473326974000031 ], [ -90.59070897, 16.476391063000051 ], [ -90.609172961999946, 16.48916424500004 ], [ -90.645290917999944, 16.520691098000043 ], [ -90.643481935999944, 16.563609124000038 ], [ -90.644181991999972, 16.595273105000047 ], [ -90.658063932999937, 16.644164243000034 ], [ -90.678890949999982, 16.675827050000066 ], [ -90.714282027999957, 16.726464139000029 ], [ -90.748608938999951, 16.756945097000028 ], [ -90.804735838999989, 16.805418147000069 ], [ -90.866672906999952, 16.817773072000023 ], [ -90.919099867999989, 16.82985407700005 ], [ -90.948899879999942, 16.88916408800003 ], [ -90.986681979999958, 16.896109166000031 ], [ -91.063608907999935, 16.924445028000036 ], [ -91.184445944999936, 17.035554028000035 ], [ -91.268481899999983, 17.134026973000061 ], [ -91.332226944999945, 17.188054039000065 ], [ -91.433999845999949, 17.237218093000024 ], [ -91.436954969999988, 17.257500119000042 ], [ -90.983899857999972, 17.25610905800005 ], [ -90.983608838999942, 17.585000020000052 ], [ -90.983064014999968, 17.817773183000043 ], [ -90.982417937999969, 17.820654043000047 ], [ -90.979172967999943, 17.820000087000039 ], [ -90.921672943999965, 17.820000087000039 ], [ -90.77779087, 17.820273170000064 ], [ -90.590835871999957, 17.821109013000068 ], [ -90.238345996999954, 17.821109013000068 ], [ -89.999999873999968, 17.820973226000035 ], [ -89.742235898999979, 17.820827046000034 ], [ -89.43043580599999, 17.819718120000061 ], [ -89.141955004999943, 17.818882109000072 ], [ -89.14222691399999, 17.719445077000046 ], [ -89.143435919999945, 17.341800105000061 ], [ -89.14500886799999, 17.013882114000069 ], [ -89.184172974999967, 16.414444942000046 ], [ -89.20418191899995, 16.104164153000056 ], [ -89.216399883999941, 15.915273103000061 ], [ -89.216172901999983, 15.889853975000051 ], [ -89.169726932999936, 15.910136002000058 ], [ -89.047226925999951, 15.906391135000035 ], [ -88.980835881999951, 15.89805399100004 ], [ -88.910572901999956, 15.893609068000046 ], [ -88.87299096299995, 15.862982097000042 ], [ -88.834726903999979, 15.864717989000042 ], [ -88.812226858999963, 15.865554 ], [ -88.786117900999955, 15.856664153000054 ], [ -88.747926931999984, 15.837218138000026 ], [ -88.67861781299996, 15.778053971000077 ], [ -88.63847302299996, 15.712500112000043 ], [ -88.61806392699998, 15.698536029000024 ], [ -88.598072919999936, 15.706391046000022 ], [ -88.603681921999964, 15.733036110000057 ], [ -88.495846054999959, 15.849509025000032 ], [ -88.549999854999953, 15.897782082000049 ], [ -88.576672914999961, 15.916391081000029 ], [ -88.551390915999946, 15.940836063000063 ], [ -88.406399915999941, 15.837773187000039 ], [ -88.254726862999973, 15.736809140000048 ], [ -88.228626789999964, 15.729591148000054 ], [ -88.214735796999946, 15.724444995000056 ], [ -88.240008911999951, 15.714164088000075 ], [ -88.315463977999968, 15.667336071000022 ], [ -88.32779090799994, 15.63527311200005 ], [ -88.486508949999973, 15.504618016000052 ], [ -88.55250889399997, 15.449718059000077 ], [ -88.668335899999988, 15.350000065000074 ], [ -88.75811781799996, 15.295518030000039 ], [ -88.837235775999943, 15.247217983000041 ], [ -88.98056397299996, 15.135553934000029 ], [ -89.142790847999947, 15.076944984000022 ], [ -89.150372949999962, 15.073482085000023 ], [ -89.15833592599995, 15.056945093000024 ], [ -89.170835857999975, 15.030000124000026 ], [ -89.177435936999984, 14.998535968000056 ], [ -89.154873026999951, 14.98082701800007 ], [ -89.175763913999958, 14.924100141000054 ], [ -89.185991009999952, 14.907609082000022 ], [ -89.206535892999966, 14.893609124000022 ], [ -89.223064, 14.871945090000054 ], [ -89.22173580399999, 14.844445071000052 ], [ -89.154873026999951, 14.733536063000031 ], [ -89.13107294799994, 14.715073077000056 ], [ -89.137790874999951, 14.684718015000044 ], [ -89.197235835999948, 14.585000021000042 ], [ -89.235835840999982, 14.582427112000062 ], [ -89.350490888999957, 14.47152698900004 ], [ -89.348308911999936, 14.431982176000076 ] ] ] }
        }
    ]
}