{
    "type": "FeatureCollection",
    "features": [
        {
            "type": "Feature",
            "properties": {
                "WCID": "HAI",
                "COUNTRY": "Haiti"
            },
            "geometry": { "type": "MultiPolygon", "coordinates": [ [ [ [ -73.111108825999963, 19.626944963000028 ], [ -73.150281985999982, 19.613891154000044 ], [ -73.363617850999958, 19.623054083000056 ], [ -73.376399917999947, 19.624164182000072 ], [ -73.407645976999959, 19.634300083000028 ], [ -73.428345924999974, 19.647218104000046 ], [ -73.447235884999941, 19.663609084000029 ], [ -73.454181967999943, 19.671109043000058 ], [ -73.465290839999966, 19.687773105000076 ], [ -73.461945957999944, 19.720000181000046 ], [ -73.459872944999972, 19.732945025000049 ], [ -73.418064011999945, 19.819718007000063 ], [ -73.405145990999983, 19.831809070000077 ], [ -73.389726808999967, 19.833609168000066 ], [ -73.357790919999957, 19.834718094000038 ], [ -73.344999967999968, 19.832500074000052 ], [ -73.329181974999983, 19.837500047000049 ], [ -73.288346013999956, 19.852500134000024 ], [ -73.273899970999935, 19.858891167000024 ], [ -73.19084603899995, 19.902773113000023 ], [ -73.154726909999965, 19.922218122000061 ], [ -73.033617795999987, 19.912500144000035 ], [ -72.984999907999963, 19.914445081000054 ], [ -72.896955054999978, 19.923882098000036 ], [ -72.844726913999978, 19.933609129000047 ], [ -72.817508861999954, 19.941391055000054 ], [ -72.798335761999965, 19.942773231000047 ], [ -72.784454994999976, 19.942218014000048 ], [ -72.685008909999965, 19.920273185000042 ], [ -72.673617902999979, 19.916664106000042 ], [ -72.579446047999966, 19.884427138000035 ], [ -72.540008857999965, 19.845554050000032 ], [ -72.493054944999983, 19.820554018000053 ], [ -72.317508889999942, 19.762773201000073 ], [ -72.206672972999968, 19.774309047000031 ], [ -72.205072866999956, 19.74500004600003 ], [ -72.190563960999953, 19.738891147000061 ], [ -72.097499856999946, 19.722500168000067 ], [ -72.058064007999974, 19.72083602500004 ], [ -71.980835833999947, 19.723609094000039 ], [ -71.818890926999984, 19.711936120000075 ], [ -71.75418196399994, 19.705827054000054 ], [ -71.748064011999986, 19.699164111000073 ], [ -71.736535877999984, 19.686109129000045 ], [ -71.733063925999943, 19.679153994000046 ], [ -71.735290997999982, 19.654718064000065 ], [ -71.737790983999957, 19.627218045000063 ], [ -71.734999977999962, 19.610273190000044 ], [ -71.726390924999976, 19.585553951000065 ], [ -71.722226795999973, 19.576109055000074 ], [ -71.717790924999974, 19.566664159000027 ], [ -71.707781926999985, 19.549445047000063 ], [ -71.704454981999959, 19.539445102000059 ], [ -71.691955048999944, 19.498336057000074 ], [ -71.691681966999965, 19.485835958000052 ], [ -71.697646025999973, 19.402909095000041 ], [ -71.723617855999976, 19.360000121000041 ], [ -71.744735893999973, 19.285826983000049 ], [ -71.715564020999977, 19.257773089000068 ], [ -71.696117837999964, 19.241664244000049 ], [ -71.687790919999941, 19.235554004000051 ], [ -71.672226898999952, 19.22888217700006 ], [ -71.660281848999944, 19.225826973000039 ], [ -71.62918197099998, 19.21971807500006 ], [ -71.629308872999957, 19.203745017000074 ], [ -71.634590979999984, 19.161391093000077 ], [ -71.639872919999959, 19.136945104000063 ], [ -71.654446032999942, 19.119445031000055 ], [ -71.749999896999952, 19.019718153000042 ], [ -71.777508799999964, 18.95597310900007 ], [ -71.71674603699995, 18.878264149000074 ], [ -71.708617937999975, 18.790273108000065 ], [ -71.709163934999935, 18.780282215000057 ], [ -71.715835761999983, 18.749718108000025 ], [ -71.725146044999974, 18.718744964000052 ], [ -71.732226908999962, 18.707500138000057 ], [ -71.736681890999989, 18.705273066000075 ], [ -71.756117847999974, 18.704164140000046 ], [ -71.766108908999968, 18.700836022000033 ], [ -71.775281895999967, 18.696109131000071 ], [ -71.78973581799994, 18.674445097000046 ], [ -71.823626869999941, 18.628891129000067 ], [ -71.831681878999973, 18.622500096000067 ], [ -71.853345912999941, 18.616664112000024 ], [ -71.901682001999973, 18.608609103000049 ], [ -71.91222677199994, 18.61291807200007 ], [ -71.924317834999954, 18.62729119200003 ], [ -71.970563979999952, 18.624164239000038 ], [ -71.979735792999975, 18.619445060000032 ], [ -72.00306397099996, 18.600827009000056 ], [ -71.996946019999939, 18.592500091000034 ], [ -71.949173026999972, 18.547218032000046 ], [ -71.89722685299995, 18.492773212000031 ], [ -71.886535902999981, 18.477144986000042 ], [ -71.906955056999948, 18.455973137000058 ], [ -71.90881785199997, 18.441454004000036 ], [ -71.899172962999955, 18.431391194000071 ], [ -71.810564008999961, 18.375827055000059 ], [ -71.778899860999957, 18.356664180000053 ], [ -71.743054986999937, 18.340553994000061 ], [ -71.71667294699995, 18.330273087000023 ], [ -71.694735829999956, 18.322218078000049 ], [ -71.715517919999968, 18.292527030000031 ], [ -71.721390951999979, 18.284445032000065 ], [ -71.769245919999946, 18.200482166000029 ], [ -71.765835825999943, 18.18055402400006 ], [ -71.753890943999977, 18.145554046000029 ], [ -71.749172937999958, 18.092082197000025 ], [ -71.767863911999939, 18.038500043000056 ], [ -71.796108913999944, 18.047773110000037 ], [ -71.805281900999944, 18.053336011000056 ], [ -71.816254985999933, 18.066664243000048 ], [ -71.820281986999987, 18.085554036000076 ], [ -71.835281905999977, 18.111664167000072 ], [ -71.905981917999952, 18.172635975000048 ], [ -71.926681866999957, 18.184718153000063 ], [ -72.072364037999989, 18.240000157000054 ], [ -72.091946007999979, 18.236109110000029 ], [ -72.138335818999963, 18.228053934000059 ], [ -72.18639983099996, 18.221382106000078 ], [ -72.228055039999958, 18.215827084000068 ], [ -72.292781940999987, 18.222500085000036 ], [ -72.330564039999956, 18.227082136000035 ], [ -72.355563903999951, 18.229444994000062 ], [ -72.382235790999971, 18.229444994000062 ], [ -72.522781866999935, 18.209445103000064 ], [ -72.545835788999966, 18.183054010000035 ], [ -72.659455001999959, 18.179445098000031 ], [ -72.700008828999955, 18.181109073000073 ], [ -72.711672916999987, 18.179164136000054 ], [ -72.738890968999954, 18.173609114000044 ], [ -72.756390873999976, 18.167500048000022 ], [ -72.774735842999974, 18.156391176000056 ], [ -72.787508856999978, 18.148327115000029 ], [ -72.801390964999939, 18.141109122000046 ], [ -72.815835833999984, 18.138473182000041 ], [ -72.889308915999948, 18.14194496600004 ], [ -72.983890981999934, 18.169682192000039 ], [ -73.007235755999943, 18.177500161000069 ], [ -73.026672885999972, 18.180827106000038 ], [ -73.150008903999947, 18.19832701100006 ], [ -73.266681978999941, 18.219445049000058 ], [ -73.311608811999974, 18.242500144000076 ], [ -73.386399863999941, 18.26194498600006 ], [ -73.451399846999948, 18.256945013000063 ], [ -73.485290898999949, 18.24971813600007 ], [ -73.786117907999937, 18.171664177000025 ], [ -73.799726933999978, 18.164445011000055 ], [ -73.819172948999949, 18.148609082000064 ], [ -73.826955042999941, 18.142218048000075 ], [ -73.833346076999987, 18.134445006000078 ], [ -73.838346049999984, 18.12500011000003 ], [ -73.840572953999981, 18.111109117000069 ], [ -73.83445500199997, 18.100000078000051 ], [ -73.822790913999938, 18.090273215000025 ], [ -73.804454996999937, 18.066945037000039 ], [ -73.795835885999963, 18.054582065000034 ], [ -73.789935864999961, 18.034100046000049 ], [ -73.798063963999937, 18.025835993000044 ], [ -73.809173002999955, 18.023054039000044 ], [ -73.881672944999934, 18.022782130000053 ], [ -73.901599913999974, 18.03714502400004 ], [ -73.908064037999964, 18.057500141000048 ], [ -73.911663897999972, 18.067500087000042 ], [ -73.927781962999973, 18.092782086000057 ], [ -73.950146053999958, 18.125691114000062 ], [ -73.96055503599996, 18.136391117000073 ], [ -74.052781955999933, 18.211664128000052 ], [ -74.098072898999988, 18.245000130000051 ], [ -74.191117891999966, 18.294582105000075 ], [ -74.233608943999968, 18.306391033000068 ], [ -74.26194598, 18.307782094000061 ], [ -74.277645954999969, 18.306391033000068 ], [ -74.30473576299994, 18.28694501800004 ], [ -74.321745996999937, 18.282291050000026 ], [ -74.361954992999983, 18.289445004000072 ], [ -74.372508814999946, 18.293609134000064 ], [ -74.446672899999953, 18.341936003000058 ], [ -74.451126875999989, 18.357500023000057 ], [ -74.467790937999951, 18.450836036000055 ], [ -74.422364039999934, 18.610136118000071 ], [ -74.384590992999961, 18.636664171000064 ], [ -74.270982006999986, 18.665273115000048 ], [ -74.236681917999988, 18.667218052000067 ], [ -74.174864039999989, 18.666391094000062 ], [ -74.149173003999977, 18.65833608500003 ], [ -74.127226834999988, 18.650835958000073 ], [ -74.085555028999977, 18.627218101000039 ], [ -74.048335858999963, 18.606109116000027 ], [ -74.03361790699995, 18.598891124000033 ], [ -74.022226900999954, 18.595273160000033 ], [ -73.787226833999966, 18.532218113000056 ], [ -73.744445934999987, 18.538891114000023 ], [ -73.731808874999956, 18.543473165000023 ], [ -73.722781899999973, 18.555973098000038 ], [ -73.716817840999965, 18.564164229000028 ], [ -73.696117892999951, 18.571391106000078 ], [ -73.607790905999934, 18.58528209900004 ], [ -73.591117790999988, 18.58527321400004 ], [ -73.577435842999989, 18.577500172000043 ], [ -73.604390869999975, 18.552553952000039 ], [ -73.64805505399994, 18.547218032000046 ], [ -73.67750889399997, 18.557782080000038 ], [ -73.693890988999954, 18.553335983000068 ], [ -73.707508898999947, 18.543817997000076 ], [ -73.666399854999952, 18.50389113600005 ], [ -73.655145975999972, 18.497218136000072 ], [ -73.60444602299998, 18.498053979000076 ], [ -73.574290952999945, 18.507500049000043 ], [ -73.523899956999969, 18.521945085000027 ], [ -73.506954933999964, 18.525553997000031 ], [ -73.430008894999958, 18.516664151000043 ], [ -73.404173018999984, 18.513336032000041 ], [ -73.364455035999981, 18.506944999000041 ], [ -73.347781920999978, 18.501664232000053 ], [ -73.217226905999951, 18.476944994000064 ], [ -73.069454957999938, 18.453609105000055 ], [ -73.036435791999963, 18.456218056000068 ], [ -72.995699909999985, 18.465409148000049 ], [ -72.973072961999947, 18.464445062000038 ], [ -72.96055492499994, 18.462217990000056 ], [ -72.923335754999982, 18.453891072000033 ], [ -72.863890961999971, 18.443882074000044 ], [ -72.736672949999956, 18.424582071000032 ], [ -72.690563931999975, 18.452773094000065 ], [ -72.682782005999968, 18.459164127000065 ], [ -72.676954906999981, 18.467500098000073 ], [ -72.664464026999951, 18.490554020000047 ], [ -72.659181918999934, 18.515000176000058 ], [ -72.654726769999968, 18.52527320400003 ], [ -72.637645959999986, 18.547218032000046 ], [ -72.624726932999977, 18.555554002000065 ], [ -72.591808851999986, 18.563744966000058 ], [ -72.581682003999958, 18.56360901100004 ], [ -72.458345986999973, 18.550554030000058 ], [ -72.422226856999941, 18.546391074000041 ], [ -72.395281887999943, 18.538891114000023 ], [ -72.368763892999937, 18.525691125000037 ], [ -72.346735915999943, 18.535973206000051 ], [ -72.321254930999942, 18.666382209000062 ], [ -72.329726854999933, 18.683473077000031 ], [ -72.382781955999974, 18.706945088000055 ], [ -72.395845989999941, 18.709164113000043 ], [ -72.416673007999975, 18.710282092000057 ], [ -72.436399816999938, 18.715209142000049 ], [ -72.546954940999967, 18.781664223000064 ], [ -72.559172905999958, 18.790836037000076 ], [ -72.564181930999951, 18.799718004000056 ], [ -72.566945947999955, 18.813327030000039 ], [ -72.573063898999976, 18.824444954000057 ], [ -72.613890975999936, 18.875273150000055 ], [ -72.640290952999976, 18.905553949000023 ], [ -72.652508917999967, 18.915554063000059 ], [ -72.683899815999951, 18.93500007800003 ], [ -72.725846044999969, 18.965273165000042 ], [ -72.800290923999967, 19.033053929000062 ], [ -72.761399898999969, 19.161944969000047 ], [ -72.801117882999961, 19.221109135000063 ], [ -72.774735842999974, 19.281664195000076 ], [ -72.725846044999969, 19.374444990000029 ], [ -72.723346058999937, 19.455000109000025 ], [ -73.014454920999981, 19.598327133000055 ], [ -73.057781984999963, 19.613327052000045 ], [ -73.105281894999962, 19.626391086000069 ], [ -73.111108825999963, 19.626944963000028 ] ] ], [ [ [ -72.825835779999977, 18.695554082000058 ], [ -72.850008853999952, 18.726944980000042 ], [ -72.931945980999956, 18.741391190000058 ], [ -73.064181902999962, 18.778891154000064 ], [ -73.218063922999988, 18.83416410600006 ], [ -73.2469459499999, 18.85639106900004 ], [ -73.287508828999989, 18.900000100000057 ], [ -73.294446026999935, 18.907500060000075 ], [ -73.298617867999951, 18.916664162000075 ], [ -73.299999875999958, 18.927218152000023 ], [ -73.28737287499996, 18.944582102000027 ], [ -73.262508964999938, 18.958327082000039 ], [ -73.224454955999988, 18.968609163000053 ], [ -73.202090864999946, 18.969445006000058 ], [ -73.072781902999964, 18.923054022000031 ], [ -72.998063941999987, 18.893891034000035 ], [ -72.857226845999946, 18.83500011700005 ], [ -72.848890874999938, 18.828891051000028 ], [ -72.826808918999973, 18.808336110000027 ], [ -72.815417912999976, 18.788891100000058 ], [ -72.811108943999955, 18.776391168000032 ], [ -72.799454912999977, 18.734718022000038 ], [ -72.815563924999935, 18.698891085000071 ], [ -72.825835779999977, 18.695554082000058 ] ] ], [ [ [ -72.640290952999976, 19.985273168000049 ], [ -72.693899929999986, 19.98777315500007 ], [ -72.876108926999962, 20.025000037000041 ], [ -72.942781937999939, 20.041945060000046 ], [ -72.95431795099995, 20.048473221000052 ], [ -72.954590865999933, 20.058609122000064 ], [ -72.925290916999984, 20.074445051000055 ], [ -72.915555000999973, 20.078327046000027 ], [ -72.862499900999978, 20.087500033000026 ], [ -72.810417939999979, 20.091453945000069 ], [ -72.794172972999945, 20.087218066000048 ], [ -72.682508922999943, 20.042218142000024 ], [ -72.658063940999966, 20.030000177000034 ], [ -72.622226778999959, 20.004164134000064 ], [ -72.625772993999988, 19.989718092000032 ], [ -72.640290952999976, 19.985273168000049 ] ] ] ] }
        }
    ]
}