{
    "type": "FeatureCollection",
    "features": [
        {
            "type": "Feature",
            "properties": {
                "WCID": "HON",
                "COUNTRY": "Honduras"
            },
            "geometry": { "type": "MultiPolygon", "coordinates": [ [ [ [ -86.764208891999942, 13.710691075000057 ], [ -86.750835900999959, 13.567782140000077 ], [ -86.727054932999977, 13.465473132000056 ], [ -86.710846007999976, 13.434164209000073 ], [ -86.696117830999981, 13.353891058000045 ], [ -86.696054966999952, 13.298818098000027 ], [ -86.735772949999955, 13.263609075000033 ], [ -86.745281883999951, 13.260827122000023 ], [ -86.775699977999977, 13.283745089000035 ], [ -86.817508911999937, 13.29840017600003 ], [ -86.85999996399994, 13.283336052000038 ], [ -86.902581875999942, 13.248609157000033 ], [ -86.918063921999988, 13.195000013000026 ], [ -86.913346083999954, 13.163326980000022 ], [ -86.924726864999968, 13.082773202000055 ], [ -86.955699840999955, 13.036664185000063 ], [ -87.022781888999987, 12.988191136000069 ], [ -87.048755059999962, 12.985173148000058 ], [ -87.093063978999965, 12.99860900300007 ], [ -87.301390985999944, 12.986600083000042 ], [ -87.315563946999987, 13.029445019000036 ], [ -87.341399989999957, 13.089718112000071 ], [ -87.36056403799995, 13.109164127000042 ], [ -87.442508875999977, 13.195000013000026 ], [ -87.511808942999949, 13.277291191000074 ], [ -87.500563949999957, 13.298054004000051 ], [ -87.444308973999966, 13.349927088000072 ], [ -87.380008879999934, 13.373753989000022 ], [ -87.380563929999937, 13.390209006000077 ], [ -87.398335910999947, 13.412364220000029 ], [ -87.449308946999963, 13.41458207200003 ], [ -87.474445938999963, 13.387636097000041 ], [ -87.471399955999971, 13.361109050000039 ], [ -87.531399965999981, 13.346391098000026 ], [ -87.556826803999968, 13.364164086000073 ], [ -87.606655038999975, 13.379427029000055 ], [ -87.614026922999983, 13.405745031000038 ], [ -87.614726811999958, 13.440309150000076 ], [ -87.637626841999975, 13.459082099000057 ], [ -87.651217930999962, 13.420835977000024 ], [ -87.659999985999946, 13.385391088000063 ], [ -87.681054991999986, 13.362582085000042 ], [ -87.71055493199998, 13.353609090000077 ], [ -87.738064002999977, 13.355418073000067 ], [ -87.764172960999986, 13.369164226000066 ], [ -87.81558202299999, 13.40538209500005 ], [ -87.750290852999967, 13.443054056000051 ], [ -87.713345937999975, 13.471109124000066 ], [ -87.711090870999953, 13.481654061000029 ], [ -87.715317864999975, 13.504754083000023 ], [ -87.754864018999967, 13.514636012000039 ], [ -87.78339098899994, 13.52416422400006 ], [ -87.776945975999979, 13.572427055000048 ], [ -87.725008853999952, 13.733327075000034 ], [ -87.694672901999979, 13.81900906900006 ], [ -87.707646076999936, 13.822500131000027 ], [ -87.72570891, 13.834582142000045 ], [ -87.750290852999967, 13.864164225000025 ], [ -87.800845966999987, 13.896945011000071 ], [ -87.897508923999965, 13.899091113000054 ], [ -87.908335828999952, 13.895827032000057 ], [ -87.94056391099997, 13.895000074000052 ], [ -87.953335919999972, 13.896109 ], [ -88.005863965999936, 13.875044941000056 ], [ -88.040435796999986, 13.931173183000055 ], [ -88.060008881999977, 13.963891104000027 ], [ -88.1219459499999, 13.990553938000062 ], [ -88.161663932999943, 13.976945080000064 ], [ -88.196882007999989, 13.987618092000048 ], [ -88.234999886999958, 13.940273080000054 ], [ -88.259608818999936, 13.905282154000076 ], [ -88.319308924999973, 13.888744995000025 ], [ -88.345226942999943, 13.874864228000035 ], [ -88.352235889999974, 13.867773138000075 ], [ -88.375972936999972, 13.882500141000037 ], [ -88.40334605399994, 13.884026989000063 ], [ -88.431673030999946, 13.870135996000045 ], [ -88.467926940999973, 13.854717988000061 ], [ -88.48889092, 13.865836080000065 ], [ -88.499454966999963, 13.915835976000039 ], [ -88.495008870999982, 13.970273085000031 ], [ -88.506672959999946, 13.982364148000045 ], [ -88.629981986999951, 14.014827091000029 ], [ -88.661482017999958, 14.014082108000025 ], [ -88.705699909999964, 14.044164088000059 ], [ -88.719308935999948, 14.092364222000072 ], [ -88.734172899999976, 14.115553931000022 ], [ -88.752235900999949, 14.134445064000033 ], [ -88.772435784999971, 14.133473099000071 ], [ -88.806326836999972, 14.096182179000039 ], [ -88.82757295, 14.100136090000035 ], [ -88.831117824999978, 14.114164211000059 ], [ -88.839446083999974, 14.138473072000068 ], [ -88.860290870999961, 14.171109018000038 ], [ -88.87514595, 14.187635951000061 ], [ -88.897781950999956, 14.203609009000047 ], [ -88.920208905999971, 14.205973209000035 ], [ -88.956046067999978, 14.193891030000032 ], [ -88.959472925999989, 14.216982168000072 ], [ -88.960555028999977, 14.221945093000045 ], [ -88.9777820199999, 14.253891040000042 ], [ -89.024735932999988, 14.327636031000054 ], [ -89.037226812999961, 14.334718068000029 ], [ -89.119726867999987, 14.324373123000044 ], [ -89.174454995999952, 14.354718128000059 ], [ -89.21334602099995, 14.375827113000071 ], [ -89.297791013999984, 14.401109112000029 ], [ -89.315564001999974, 14.404091058000063 ], [ -89.332164025999987, 14.410482091000063 ], [ -89.348308911999936, 14.431982176000076 ], [ -89.350490888999957, 14.47152698900004 ], [ -89.235835840999982, 14.582427112000062 ], [ -89.197235835999948, 14.585000021000042 ], [ -89.137790874999951, 14.684718015000044 ], [ -89.13107294799994, 14.715073077000056 ], [ -89.154873026999951, 14.733536063000031 ], [ -89.22173580399999, 14.844445071000052 ], [ -89.223064, 14.871945090000054 ], [ -89.206535892999966, 14.893609124000022 ], [ -89.185991009999952, 14.907609082000022 ], [ -89.175763913999958, 14.924100141000054 ], [ -89.154873026999951, 14.98082701800007 ], [ -89.177435936999984, 14.998535968000056 ], [ -89.170835857999975, 15.030000124000026 ], [ -89.15833592599995, 15.056945093000024 ], [ -89.150372949999962, 15.073482085000023 ], [ -89.142790847999947, 15.076944984000022 ], [ -88.98056397299996, 15.135553934000029 ], [ -88.837235775999943, 15.247217983000041 ], [ -88.75811781799996, 15.295518030000039 ], [ -88.668335899999988, 15.350000065000074 ], [ -88.55250889399997, 15.449718059000077 ], [ -88.486508949999973, 15.504618016000052 ], [ -88.32779090799994, 15.63527311200005 ], [ -88.315463977999968, 15.667336071000022 ], [ -88.240008911999951, 15.714164088000075 ], [ -88.214735796999946, 15.724444995000056 ], [ -88.211435841999958, 15.720627038000032 ], [ -88.196117913999956, 15.705273068000054 ], [ -88.169590866999954, 15.687773162000042 ], [ -88.136954920999983, 15.682844939000063 ], [ -88.11042686799999, 15.695836050000025 ], [ -88.031954986999949, 15.786391115000072 ], [ -87.91639989, 15.864717989000042 ], [ -87.864726797999936, 15.887782137000045 ], [ -87.805008922999946, 15.900073192000036 ], [ -87.747790866999935, 15.897500115000071 ], [ -87.727235924999945, 15.918054050000023 ], [ -87.70778186299998, 15.921282089000044 ], [ -87.628617804999976, 15.882773111000063 ], [ -87.594181928999944, 15.86250013700004 ], [ -87.525426853999988, 15.802918049000027 ], [ -87.474445938999963, 15.784445005000066 ], [ -87.445008862999941, 15.786391115000072 ], [ -87.382508865999966, 15.821391093000045 ], [ -87.313335868999957, 15.836109044000068 ], [ -87.286390899999958, 15.827773074000049 ], [ -87.163346069999989, 15.799445091000052 ], [ -86.964735867999934, 15.75889109600007 ], [ -86.938899991999961, 15.756391110000038 ], [ -86.897508980999987, 15.755553926000061 ], [ -86.818481882999947, 15.771391196000025 ], [ -86.797499967999954, 15.784164211000075 ], [ -86.727781978999985, 15.788326999000049 ], [ -86.488346040999943, 15.801109067000027 ], [ -86.435008972999981, 15.780000082000072 ], [ -86.418073002999961, 15.771464119000029 ], [ -86.403472900999986, 15.767573072000062 ], [ -86.357790857999987, 15.769445086000076 ], [ -86.271535876999963, 15.81124496700005 ], [ -86.249235823999982, 15.827844991000063 ], [ -86.2291729, 15.856664153000054 ], [ -86.186463917999959, 15.880627009000023 ], [ -86.124599940999985, 15.895418050000046 ], [ -86.102782013999956, 15.896945065000068 ], [ -86.044445979999978, 15.895000129000039 ], [ -86.020281957999941, 15.895000129000039 ], [ -85.991390878999937, 15.898335958000075 ], [ -85.951955030999954, 15.917082085000061 ], [ -85.924308831999952, 15.938609159000066 ], [ -85.910145929999942, 15.955835982000053 ], [ -85.906872963999945, 15.992082181000058 ], [ -85.937926909999987, 16.001944999000045 ], [ -85.968617918999939, 16.000973201000022 ], [ -86.011608867999939, 16.021627049000074 ], [ -85.923890909999955, 16.020000122000056 ], [ -85.841946070999938, 16.010554052000032 ], [ -85.764308860999961, 15.996664233000047 ], [ -85.658199833999959, 15.956109064000032 ], [ -85.629035839999972, 15.935973218000072 ], [ -85.598899879999976, 15.921945098000037 ], [ -85.558199872999978, 15.906391135000035 ], [ -85.496117797999943, 15.889027017000046 ], [ -85.399872929999958, 15.890691160000074 ], [ -85.245835844999988, 15.898891176000063 ], [ -85.177226781999934, 15.908891122000057 ], [ -85.109726812999952, 15.926182150000045 ], [ -85.088055066999971, 15.945273108000038 ], [ -85.072235900999942, 15.960553988000072 ], [ -85.050563986999975, 15.974444981000033 ], [ -85.026945962999946, 15.984864189000064 ], [ -84.996963894999965, 15.991282213000034 ], [ -84.920564020999961, 15.977500017000068 ], [ -84.677646072999949, 15.87695405900007 ], [ -84.627372925999964, 15.829027007000036 ], [ -84.621264027999985, 15.800554017000024 ], [ -84.599173018999977, 15.775553985000045 ], [ -84.511126824999963, 15.782500068000047 ], [ -84.441117816999963, 15.82582713100004 ], [ -84.525554930999988, 15.846109158000047 ], [ -84.479735926999979, 15.850000037000029 ], [ -84.260145988999966, 15.825973144000045 ], [ -84.115281890999938, 15.70250016600005 ], [ -84.037781975999962, 15.631109150000043 ], [ -83.855563926999935, 15.460000140000034 ], [ -83.91057301699999, 15.477773127000034 ], [ -83.942790872999979, 15.51069104000004 ], [ -84.010846059999949, 15.535691073000066 ], [ -84.161955010999975, 15.550282122000056 ], [ -84.209517952999988, 15.545653970000046 ], [ -84.20000885099995, 15.518609089000051 ], [ -84.100835848999964, 15.374027126000044 ], [ -84.074454981999963, 15.34916422200007 ], [ -83.911326884999937, 15.239509147000035 ], [ -83.830072882999957, 15.270973135000077 ], [ -83.893481980999979, 15.319718093000063 ], [ -83.95305501699994, 15.343191110000078 ], [ -83.983126937999941, 15.347291034000023 ], [ -84.005708958999946, 15.36471801700003 ], [ -84.027708939999968, 15.400900178000029 ], [ -83.998617868999986, 15.414582127000074 ], [ -83.96389985799999, 15.407636044000071 ], [ -83.923335804999965, 15.387918119000062 ], [ -83.819308842999988, 15.32180904300003 ], [ -83.771117928999956, 15.280209154000033 ], [ -83.75834608699995, 15.196664211000041 ], [ -83.74473588799998, 15.200554084000032 ], [ -83.628726827999969, 15.267891109000061 ], [ -83.579226827999946, 15.26089104700003 ], [ -83.53139985599995, 15.268891070000052 ], [ -83.519872894999935, 15.24777320100003 ], [ -83.528064025999981, 15.21721814600005 ], [ -83.546881900999949, 15.19840010300004 ], [ -83.563135920999969, 15.221182116000023 ], [ -83.58972683799999, 15.232709077000038 ], [ -83.623472882999977, 15.189236 ], [ -83.616263942999979, 15.170000035000044 ], [ -83.570417949999978, 15.158127070000035 ], [ -83.49694604299998, 15.203054071000054 ], [ -83.496399877999977, 15.23221806500004 ], [ -83.507226781999975, 15.280553986000029 ], [ -83.532755041999962, 15.296554033000064 ], [ -83.566281983999943, 15.308282160000033 ], [ -83.616681864999975, 15.347245102000045 ], [ -83.505599854999957, 15.301000130000034 ], [ -83.437508960999935, 15.275973108000073 ], [ -83.393482008999968, 15.256391138000026 ], [ -83.356535920999988, 15.224718105000022 ], [ -83.333063908999975, 15.173054066000077 ], [ -83.325563949999946, 15.139164187000063 ], [ -83.307508827999982, 15.095827065000037 ], [ -83.282645923999951, 15.065691106000031 ], [ -83.266817872999979, 15.05347314100004 ], [ -83.232017886999984, 15.032709155000077 ], [ -83.190290928999957, 15.01583604800004 ], [ -83.131854981999936, 14.992982119000033 ], [ -83.158890977999988, 14.98721805200006 ], [ -83.229717892999986, 14.981664203000037 ], [ -83.324172888999954, 15.004718124000021 ], [ -83.358899952999934, 15.01500003700005 ], [ -83.384172899999953, 15.022218030000033 ], [ -83.485835829999985, 15.006109017000028 ], [ -83.546399941999937, 14.948327027000062 ], [ -83.566955050999979, 14.917917985000031 ], [ -83.84237299099999, 14.785553987000071 ], [ -83.864454946999956, 14.777773066000066 ], [ -83.93806398299995, 14.753891180000039 ], [ -83.978617809999946, 14.755282073000046 ], [ -84.035281989999987, 14.754445056000066 ], [ -84.196673020999981, 14.716391048000048 ], [ -84.260281943999985, 14.681944946000044 ], [ -84.480490968999959, 14.618817983000042 ], [ -84.688608931999966, 14.67833603400004 ], [ -84.797017952999965, 14.813891190000049 ], [ -84.826390991999972, 14.829027063000069 ], [ -84.910008857999969, 14.80666414500007 ], [ -84.984364050999943, 14.741309105000028 ], [ -84.995281982999984, 14.726109027000064 ], [ -85.03000887799999, 14.670000064000021 ], [ -85.018926828999952, 14.598236052000061 ], [ -85.027454911999939, 14.58090009700004 ], [ -85.061108923999939, 14.553336041000023 ], [ -85.080354946999989, 14.544509059000063 ], [ -85.146390933999953, 14.489164190000054 ], [ -85.18055506799999, 14.426664194000068 ], [ -85.17945502699996, 14.385273182000049 ], [ -85.15966401299994, 14.35965406300005 ], [ -85.1591269, 14.335653992000061 ], [ -85.180281985999954, 14.314718009000046 ], [ -85.217226899999957, 14.296454010000048 ], [ -85.254181872999936, 14.298336082000048 ], [ -85.276399951999963, 14.295827043000031 ], [ -85.29833589499998, 14.289445062000027 ], [ -85.322226833999935, 14.276245073000041 ], [ -85.378199842999948, 14.235553951000043 ], [ -85.409454953999955, 14.171244972000068 ], [ -85.416535817999943, 14.145691064000061 ], [ -85.436954971999967, 14.122500014000025 ], [ -85.543964047999964, 14.045718093000062 ], [ -85.557717912999976, 14.043536116000041 ], [ -85.72889984599999, 13.962573133000035 ], [ -85.748272938999946, 13.885064166000063 ], [ -85.724726831999988, 13.864509057000078 ], [ -85.728663978999975, 13.833091169000056 ], [ -85.736390919999963, 13.828609030000052 ], [ -85.794308865999938, 13.836527079000064 ], [ -85.828899973999967, 13.859445046000076 ], [ -85.968335783999976, 13.95889113100003 ], [ -85.996126821999951, 13.980273198000077 ], [ -86.020281957999941, 14.005344979000029 ], [ -86.008608816999981, 14.055173215000025 ], [ -86.070146067999985, 14.055973184000038 ], [ -86.119664004999947, 14.030691184000034 ], [ -86.1323639299999, 13.995209079000063 ], [ -86.325573000999952, 13.763473093000073 ], [ -86.40111792099998, 13.749164178000058 ], [ -86.469999898999959, 13.764164097000048 ], [ -86.566390946999945, 13.779164183000034 ], [ -86.710772917999975, 13.774654049000048 ], [ -86.758599889999971, 13.754009086000053 ], [ -86.764208891999942, 13.710691075000057 ] ] ], [ [ [ -86.626681976999976, 16.270273190000069 ], [ -86.63389996899997, 16.273473065000076 ], [ -86.634445965999987, 16.293054029000075 ], [ -86.621946033999961, 16.31055393500003 ], [ -86.608063925999943, 16.328327090000073 ], [ -86.596390951999979, 16.337773159000051 ], [ -86.586672973999953, 16.342218083000034 ], [ -86.445981889999985, 16.406109140000069 ], [ -86.406108841999981, 16.422773201000041 ], [ -86.337226863999945, 16.435827010000025 ], [ -86.303346037999972, 16.431945015000053 ], [ -86.263335860999973, 16.423335962000067 ], [ -86.279446046999965, 16.416109086000063 ], [ -86.315290920999985, 16.413054049000039 ], [ -86.374035823999975, 16.399864119000028 ], [ -86.516126852999946, 16.323064093000028 ], [ -86.574717864999968, 16.310000058000071 ], [ -86.598754983999982, 16.296945076000043 ], [ -86.626681976999976, 16.270273190000069 ] ] ] ] }
        }
    ]
}