{
    "type": "FeatureCollection",
    "features": [
        {
            "type": "Feature",
            "properties": {
                "WCID": "HUN",
                "COUNTRY": "Hungary"
            },
            "geometry": { "type": "Polygon", "coordinates": [ [ [ 21.489409176000038, 46.684536001000026 ], [ 21.45353613900005, 46.684644966000064 ], [ 21.327563342000076, 46.620618122000053 ], [ 21.308054127000048, 46.589854023000044 ], [ 21.293609091000064, 46.532491127000071 ], [ 21.288891253000031, 46.460545061000062 ], [ 21.219163206000076, 46.408336030000044 ], [ 21.202773232000027, 46.396809069000028 ], [ 21.188327190000052, 46.371936106000078 ], [ 21.178609211000037, 46.326945068000043 ], [ 21.177363325000044, 46.29736415800005 ], [ 21.080827102000057, 46.246936113000061 ], [ 21.04937317200006, 46.240827047000039 ], [ 20.989718161000042, 46.254718040000057 ], [ 20.868609215000049, 46.276109160000033 ], [ 20.846382252000069, 46.279164196000067 ], [ 20.825000184000032, 46.275973205000071 ], [ 20.79590022800005, 46.265726999000037 ], [ 20.783054123000056, 46.259436046000076 ], [ 20.757354035000048, 46.242909112000063 ], [ 20.720273166000027, 46.189582103000077 ], [ 20.72695404500007, 46.175564208000026 ], [ 20.719654078000076, 46.166100201000063 ], [ 20.687663203000056, 46.146309186000053 ], [ 20.622082187000046, 46.130827140000065 ], [ 20.582773240000051, 46.155000046000055 ], [ 20.563327057000038, 46.164991107000048 ], [ 20.535273163000056, 46.173045111000079 ], [ 20.48694512000003, 46.181109172000049 ], [ 20.340273214000035, 46.159436085000038 ], [ 20.274300260000075, 46.140409165000051 ], [ 20.261027181000031, 46.114854083000068 ], [ 20.257773158000077, 46.118045073000076 ], [ 20.202773289000049, 46.150553950000074 ], [ 20.115273260000038, 46.167218179000031 ], [ 19.961109105000048, 46.170827091000035 ], [ 19.849582184000042, 46.152145003000044 ], [ 19.744718204000037, 46.162218039000038 ], [ 19.703718125000023, 46.17639116600003 ], [ 19.666527117000044, 46.181109172000049 ], [ 19.565273224000066, 46.17277320200003 ], [ 19.506318102000023, 46.139227149000078 ], [ 19.516318215000069, 46.118118164000066 ], [ 19.463891255000078, 46.076382153000054 ], [ 19.284027179000077, 45.988882124000042 ], [ 19.154091251000068, 45.988609042000064 ], [ 19.127500166000061, 46.020900156000039 ], [ 19.093054064000057, 46.022218127000031 ], [ 19.002636128000063, 45.959445048000077 ], [ 18.858891182000036, 45.911109127000032 ], [ 18.835827202000075, 45.911109127000032 ], [ 18.817018211000061, 45.912964210000041 ], [ 18.807500224000023, 45.90277315600008 ], [ 18.780000206000068, 45.894718147000049 ], [ 18.719445146000055, 45.911518164000029 ], [ 18.618473220000055, 45.851391084000056 ], [ 18.598473161000072, 45.827918067000041 ], [ 18.55555412800004, 45.800000127000033 ], [ 18.433745126000076, 45.750973201000079 ], [ 18.407500213000048, 45.748327035000045 ], [ 18.332636072000071, 45.754436101000067 ], [ 18.248054119000074, 45.767291091000061 ], [ 18.225827155000047, 45.779718100000025 ], [ 18.195554068000035, 45.783882230000074 ], [ 18.153327213000068, 45.787218060000043 ], [ 18.006382224000049, 45.786944977000076 ], [ 17.880836066000029, 45.783882230000074 ], [ 17.660973213000034, 45.83874497100004 ], [ 17.652691223000033, 45.853136029000041 ], [ 17.644854143000032, 45.885273251000058 ], [ 17.626109190000022, 45.905827019000071 ], [ 17.582563191000077, 45.937564257000076 ], [ 17.458609092000074, 45.954436023000028 ], [ 17.427573252000059, 45.940291226000056 ], [ 17.38944514700006, 45.938045043000045 ], [ 17.354854039000031, 45.951664127000072 ], [ 17.311391188000073, 45.975273099000049 ], [ 17.257427154000027, 46.020964194000044 ], [ 17.254718123000032, 46.053327058000036 ], [ 17.234718232000034, 46.09041815300003 ], [ 17.182773231000056, 46.154582125000047 ], [ 17.152709188000074, 46.180273161000059 ], [ 17.040273165000031, 46.21416421300006 ], [ 16.973054157000036, 46.233609055000045 ], [ 16.937773218000075, 46.249454037000078 ], [ 16.919718095000064, 46.259991095000032 ], [ 16.891391118000058, 46.28374507400008 ], [ 16.880582151000056, 46.304509060000044 ], [ 16.879027140000062, 46.308573109000065 ], [ 16.874300250000033, 46.345336137000061 ], [ 16.840554037000061, 46.369991170000048 ], [ 16.801391271000057, 46.391391174000034 ], [ 16.661109224000029, 46.465554086000054 ], [ 16.628609233000077, 46.475000156000078 ], [ 16.607873242000039, 46.476235984000027 ], [ 16.530973304000042, 46.509027162000052 ], [ 16.408609084000034, 46.658882181000081 ], [ 16.385554157000058, 46.701664253000047 ], [ 16.375327061000064, 46.722773238000059 ], [ 16.359300192000035, 46.720200161000037 ], [ 16.325273185000071, 46.755827105000037 ], [ 16.315482284000041, 46.794300209000028 ], [ 16.337218235000023, 46.809164173000056 ], [ 16.349027164000063, 46.842353995000053 ], [ 16.298191256000052, 46.869300137000039 ], [ 16.269718098000055, 46.87444511700005 ], [ 16.22944506500005, 46.876245047000054 ], [ 16.18103605400006, 46.864582132000066 ], [ 16.139791223000032, 46.859164237000073 ], [ 16.111800192000032, 46.869718059000036 ], [ 16.137918203000027, 46.878891214000078 ], [ 16.25360908600004, 46.95832701300003 ], [ 16.276663343000052, 46.988054104000071 ], [ 16.302773307000052, 47.011382114000071 ], [ 16.346945099000038, 47.009991221000064 ], [ 16.412500131000058, 47.007773201000077 ], [ 16.445000123000057, 47.004718165000043 ], [ 16.504863340000043, 47.006764188000034 ], [ 16.505554009000036, 47.115000207000037 ], [ 16.459300153000072, 47.147291154000072 ], [ 16.420900139000025, 47.210409064000032 ], [ 16.444718156000022, 47.244436071000052 ], [ 16.474300239000058, 47.259991207000041 ], [ 16.491391275000069, 47.281936035000058 ], [ 16.456391129000053, 47.368891072000054 ], [ 16.452009238000073, 47.412845102000063 ], [ 16.473891202000061, 47.418745124000054 ], [ 16.592500161000032, 47.42528217000006 ], [ 16.655200150000042, 47.458153983000045 ], [ 16.705273305000048, 47.521109117000037 ], [ 16.713891242000045, 47.543882077000035 ], [ 16.666391164000061, 47.61443607700005 ], [ 16.63257320200006, 47.634436136000033 ], [ 16.596663285000034, 47.628891172000067 ], [ 16.493054077000068, 47.646664159000068 ], [ 16.43263614500006, 47.666382084000077 ], [ 16.450554140000065, 47.698054111000033 ], [ 16.558609109000031, 47.756382099000064 ], [ 16.612218086000041, 47.759164220000059 ], [ 16.635554143000036, 47.760273146000031 ], [ 16.723473266000042, 47.726454010000054 ], [ 16.735836071000051, 47.702082118000078 ], [ 16.764163215000053, 47.68540917100006 ], [ 16.824445025000045, 47.683882156000038 ], [ 16.910827075000043, 47.690827066000054 ], [ 16.955273290000036, 47.694718113000079 ], [ 17.053891243000066, 47.70944511700003 ], [ 17.071663225000066, 47.72860916500008 ], [ 17.068609195000022, 47.768327149000072 ], [ 17.056800266000039, 47.79458211900004 ], [ 17.054445119000036, 47.84721812500004 ], [ 17.060554018000062, 47.876935995000053 ], [ 17.108054096000046, 47.971382107000068 ], [ 17.146945121000044, 48.000000103000048 ], [ 17.166382251000073, 48.012500203000059 ], [ 17.181109088000028, 48.020764257000053 ], [ 17.239191151000057, 48.025691140000049 ], [ 17.251654035000058, 48.024991083000032 ], [ 17.263191222000046, 48.007500063000066 ], [ 17.311945065000032, 47.998053993000042 ], [ 17.341945070000065, 47.995753999000044 ], [ 17.411882161000051, 47.944745089000037 ], [ 17.445209111000054, 47.913053951000052 ], [ 17.462082218000035, 47.892082094000045 ], [ 17.48586335300007, 47.877964119000069 ], [ 17.712218158000042, 47.770554053000069 ], [ 17.787282292000043, 47.746427080000046 ], [ 17.896945079000034, 47.747554110000067 ], [ 17.908882250000033, 47.750691122000035 ], [ 17.976109137000037, 47.763609143000053 ], [ 18.086109211000064, 47.759436129000051 ], [ 18.125409105000074, 47.756109184000081 ], [ 18.195827150000071, 47.747773213000073 ], [ 18.304718131000072, 47.737500185000044 ], [ 18.337500258000034, 47.740827130000071 ], [ 18.378609134000044, 47.74721816400006 ], [ 18.413327145000039, 47.753882112000042 ], [ 18.449300262000065, 47.767354010000076 ], [ 18.540836177000074, 47.767491138000025 ], [ 18.597218222000038, 47.76305409400004 ], [ 18.63694509000004, 47.759164220000059 ], [ 18.663054048000049, 47.759718096000029 ], [ 18.68291815300006, 47.766382212000053 ], [ 18.729654137000068, 47.795482168000035 ], [ 18.757782295000027, 47.814354023000078 ], [ 18.788054041000066, 47.817218120000064 ], [ 18.849718194000047, 47.817773169000077 ], [ 18.854718167000044, 47.831664162000038 ], [ 18.820000157000038, 47.855554095000059 ], [ 18.783500153000034, 47.872082202000058 ], [ 18.759654142000045, 47.914718094000079 ], [ 18.771663230000058, 47.965554002000033 ], [ 18.827363323000043, 48.036127112000031 ], [ 18.845336135000025, 48.04912710900004 ], [ 18.90728225600003, 48.057973202000028 ], [ 18.965673276000075, 48.05980012100008 ], [ 18.989800249000041, 48.067100088000075 ], [ 19.001273230000038, 48.06895399800004 ], [ 19.041709208000043, 48.070636078000064 ], [ 19.139454101000069, 48.061673141000028 ], [ 19.208336079000048, 48.059445064000045 ], [ 19.472427217000075, 48.089436016000036 ], [ 19.49729112700004, 48.135900091000053 ], [ 19.508609211000078, 48.17304499800008 ], [ 19.53021809300003, 48.208927087000063 ], [ 19.63055416800006, 48.233891077000067 ], [ 19.653327129000047, 48.232918106000056 ], [ 19.755000117000066, 48.209445089000042 ], [ 19.786836094000023, 48.19690911400005 ], [ 19.910627082000076, 48.13048219600006 ], [ 19.939863328000058, 48.136245090000045 ], [ 19.969027154000059, 48.153473254000062 ], [ 20.010136198000055, 48.173882182000057 ], [ 20.059327074000066, 48.176309079000077 ], [ 20.093327090000059, 48.19832716500008 ], [ 20.140554086000066, 48.22610915100006 ], [ 20.235554074000049, 48.274991069000066 ], [ 20.283018109000068, 48.255718056000035 ], [ 20.317218118000028, 48.26971818100003 ], [ 20.340827090000062, 48.28610916100007 ], [ 20.363054053000042, 48.304582205000031 ], [ 20.402500128000042, 48.361245044000043 ], [ 20.414163211000073, 48.399718147000044 ], [ 20.435836130000041, 48.433609032000049 ], [ 20.451109131000067, 48.448745072000065 ], [ 20.499445053000045, 48.483054046000063 ], [ 20.500827061000052, 48.504436114000043 ], [ 20.53971808600005, 48.536944990000052 ], [ 20.65291820300007, 48.561664228000041 ], [ 20.713336135000077, 48.569164188000059 ], [ 20.81805410100003, 48.576173135000033 ], [ 20.84347322900004, 48.567635999000061 ], [ 20.870000108000056, 48.55082709800007 ], [ 20.946391265000045, 48.524718140000061 ], [ 21.084445067000047, 48.513609101000043 ], [ 21.153327212000022, 48.511109114000078 ], [ 21.253891275000058, 48.522218154000029 ], [ 21.308709089000047, 48.548044977000075 ], [ 21.438191221000068, 48.575345003000052 ], [ 21.507218206000061, 48.548882161000051 ], [ 21.617291202000047, 48.492500116000031 ], [ 21.625409243000036, 48.458882146000064 ], [ 21.722354168000038, 48.355336137000052 ], [ 21.780973176000032, 48.340691108000044 ], [ 21.828127081000048, 48.343464177000044 ], [ 21.852500147000057, 48.362145093000038 ], [ 21.935836046000077, 48.379164212000035 ], [ 21.96500020700006, 48.381944992000058 ], [ 22.029445141000053, 48.387500182000053 ], [ 22.064863208000077, 48.385136150000051 ], [ 22.098609253000063, 48.377982196000062 ], [ 22.150554087000046, 48.408609167000066 ], [ 22.151445083000056, 48.411918175000039 ], [ 22.171718225000063, 48.409054079000043 ], [ 22.214300137000066, 48.417773102000069 ], [ 22.270209107000028, 48.402218134000066 ], [ 22.270273313000075, 48.359991111000056 ], [ 22.347773228000051, 48.274991069000066 ], [ 22.380973276000077, 48.244854104000069 ], [ 22.454718099000047, 48.243609056000025 ], [ 22.494609252000032, 48.249700185000052 ], [ 22.574718119000067, 48.187209073000076 ], [ 22.597773214000028, 48.145827114000042 ], [ 22.605236125000033, 48.11648223900005 ], [ 22.625718144000075, 48.100345063000077 ], [ 22.64703617400005, 48.094318140000041 ], [ 22.679791143000045, 48.094991207000078 ], [ 22.737773293000032, 48.114436048000073 ], [ 22.790273176000028, 48.116654068000059 ], [ 22.846545083000024, 48.083164173000057 ], [ 22.883227142000067, 48.040482181000073 ], [ 22.859163200000069, 47.993891205000068 ], [ 22.894800203000045, 47.954535990000068 ], [ 22.780000148000056, 47.842982078000034 ], [ 22.653609094000046, 47.776382158000047 ], [ 22.63416324700006, 47.771664152000028 ], [ 22.603609198000072, 47.76777310500006 ], [ 22.552218241000048, 47.767082101000028 ], [ 22.501800255000035, 47.790282203000061 ], [ 22.48110919100003, 47.795554085000049 ], [ 22.449854080000023, 47.794854028000032 ], [ 22.320973266000067, 47.746664120000048 ], [ 22.273745097000074, 47.726245133000077 ], [ 22.225273222000055, 47.679300105000038 ], [ 22.19139122200005, 47.628744991000076 ], [ 22.18983604400006, 47.603954004000059 ], [ 22.186391249000053, 47.59860903200007 ], [ 22.16790915200005, 47.588327119000041 ], [ 22.118009168000071, 47.578109076000032 ], [ 22.037773232000063, 47.533609049000063 ], [ 22.013882293000052, 47.510618159000046 ], [ 22.008327103000056, 47.478609179000046 ], [ 22.020273159000055, 47.45082702600007 ], [ 22.020554121000032, 47.42528217000006 ], [ 22.013473257000044, 47.390136012000028 ], [ 21.998536202000025, 47.373609078000072 ], [ 21.962500221000028, 47.368045003000077 ], [ 21.929445180000073, 47.358953991000078 ], [ 21.871663357000045, 47.296527084000047 ], [ 21.842291156000044, 47.229235992000042 ], [ 21.847218207000026, 47.198118176000037 ], [ 21.783473162000064, 47.114927117000036 ], [ 21.743191244000059, 47.098191138000061 ], [ 21.710000249000075, 47.079718094000043 ], [ 21.65250022500004, 47.02756421600003 ], [ 21.655500108000069, 47.020864226000072 ], [ 21.692218209000032, 47.006282229000078 ], [ 21.670827089000056, 46.96139110200005 ], [ 21.613327065000078, 46.884164269000053 ], [ 21.530209096000078, 46.827009077000071 ], [ 21.493400135000059, 46.754754054000045 ], [ 21.52572712400007, 46.726182158000029 ], [ 21.493891147000056, 46.686945128000048 ], [ 21.489409176000038, 46.684536001000026 ] ] ] }
        }
    ]
}