{
    "type": "FeatureCollection",
    "features": [
        {
            "type": "Feature",
            "properties": {
                "WCID": "IDN",
                "COUNTRY": "Dutch East Indies"
            },
            "geometry": { "type": "MultiPolygon", "coordinates": [ [ [ [ 140.869776758757808, -2.794752515836912 ], [ 140.945490870085933, -6.379222787901121 ], [ 140.747340235320308, -6.749241270109373 ], [ 140.941081080046871, -7.364977277799802 ], [ 140.961848291960933, -7.727363981291013 ], [ 140.947611841765621, -9.273864187284666 ], [ 140.716029200164058, -9.043785490080076 ], [ 140.298975977507808, -8.644266523405271 ], [ 139.976862940398433, -8.238173879667478 ], [ 139.794062647429683, -8.213153280302244 ], [ 139.445078882781246, -8.258392728849607 ], [ 139.112376246062496, -8.322665609403806 ], [ 138.917017969695308, -8.316736616178709 ], [ 138.957987818328121, -8.145039953275877 ], [ 139.153636011687496, -7.852243818327146 ], [ 139.156138453093746, -7.725116647764402 ], [ 138.903956446257808, -7.490504182859617 ], [ 138.649561915007808, -7.141485609098631 ], [ 138.662394556609371, -7.039763368650632 ], [ 138.861353907195308, -7.090180315061765 ], [ 138.967799219695308, -7.070877946897703 ], [ 139.028269800749996, -7.019909299894529 ], [ 138.818064722624996, -6.83604470638867 ], [ 138.550562891570308, -6.652304090543943 ], [ 138.421397242156246, -6.480980791135984 ], [ 138.297465357390621, -6.188879884763914 ], [ 137.823588404265621, -5.427235998197752 ], [ 137.595316919890621, -5.249770559354978 ], [ 137.385172876921871, -5.123125947996336 ], [ 137.112910303679683, -5.034737505003172 ], [ 136.220637354460933, -4.763372816129881 ], [ 135.653559717742183, -4.592993654295164 ], [ 135.377757105437496, -4.561812318845945 ], [ 135.060511622039058, -4.454455293699461 ], [ 134.776804957, -4.30889979748364 ], [ 134.809687647429683, -4.15629331020947 ], [ 134.765788111296871, -4.035634435697752 ], [ 134.678645166960933, -4.023115552946287 ], [ 134.400889429656246, -4.068201936765867 ], [ 134.226145777312496, -4.0367998257124 ], [ 134.040629419890621, -3.948230661436277 ], [ 133.857005152312496, -3.77066794781323 ], [ 133.762721094695308, -3.510306514784055 ], [ 133.822535547820308, -3.287733472868162 ], [ 133.752528223601558, -3.186203636213499 ], [ 133.668833765593746, -3.237232603117185 ], [ 133.563212427703121, -3.415403760954099 ], [ 133.508265528289058, -3.714226163908201 ], [ 133.395472559539058, -3.987760223432737 ], [ 133.244898829070308, -4.108839429899412 ], [ 132.931620630828121, -4.268395341917234 ], [ 132.861765894499996, -4.192290224119382 ], [ 132.712824854460933, -3.887547172590452 ], [ 132.722956690398433, -3.81761995701428 ], [ 132.895640406218746, -3.696492828413206 ], [ 132.827189478484371, -3.505969680830198 ], [ 132.749323877898433, -3.398097671552854 ], [ 132.495387110320308, -3.220699466749387 ], [ 132.177241358367183, -3.043445505186277 ], [ 132.024958643523433, -3.018357194944578 ], [ 131.998881373015621, -2.923082031294065 ], [ 132.015803370085933, -2.821360744520383 ], [ 132.201945337859371, -2.801898635908323 ], [ 132.376292261687496, -2.839650787397581 ], [ 132.647379908171871, -2.947101749464231 ], [ 132.718714747039058, -2.934237636610227 ], [ 132.884318384734371, -2.781354822202879 ], [ 133.120844873992183, -2.596534170194822 ], [ 133.186671290007808, -2.621814645811277 ], [ 133.321345362273433, -2.742274202390867 ], [ 133.780787500945308, -2.722207464262205 ], [ 133.843028101531246, -2.664876855894285 ], [ 133.883601221648433, -2.429650939985471 ], [ 133.855006250945308, -2.245414413496214 ], [ 133.747599634734371, -2.258355058714109 ], [ 133.592753443328121, -2.347660221143919 ], [ 133.320704493132808, -2.38002697376843 ], [ 133.025111231414058, -2.361604608579832 ], [ 132.680674585906246, -2.381411470457273 ], [ 132.218958887664058, -2.344279445692258 ], [ 132.034037623015621, -2.204873956724363 ], [ 131.973399195281246, -2.11603680996533 ], [ 131.906260523406246, -1.817490614935117 ], [ 131.815592798796871, -1.665172256513792 ], [ 131.626765284148433, -1.595673717542844 ], [ 131.064433130828121, -1.539699472471433 ], [ 131.183390650359371, -1.405983485265928 ], [ 131.209513697234371, -1.291541494413572 ], [ 131.211421045867183, -1.02463797478314 ], [ 131.419672998992183, -1.011477567239957 ], [ 131.833643946257808, -0.826284266992765 ], [ 132.054179224578121, -0.654236055895048 ], [ 132.254008326140621, -0.526697672887998 ], [ 132.412303003874996, -0.539065577074247 ], [ 132.592402491179683, -0.570447958990293 ], [ 133.264979395476558, -0.861315585657316 ], [ 133.496272120085933, -0.937068201585966 ], [ 133.907313379851558, -1.006078936144071 ], [ 134.079173121062496, -1.323459185644346 ], [ 134.140986475554683, -1.501257814451414 ], [ 134.013850245085933, -1.838348545118528 ], [ 133.983363184539058, -2.009996928259092 ], [ 134.082804712859371, -2.181369699522214 ], [ 134.134303125945308, -2.403682388349729 ], [ 134.186305079070308, -2.619645275160032 ], [ 134.283061060515621, -2.854586996122556 ], [ 134.366358790007808, -2.94337622074719 ], [ 134.455409082976558, -3.000382579847532 ], [ 134.556956324187496, -2.707814611479002 ], [ 134.595164332, -2.758574880644041 ], [ 134.634013208953121, -2.822047866865354 ], [ 134.773066553679683, -3.304742254301267 ], [ 134.849101099578121, -3.380851425214964 ], [ 134.954386744109371, -3.463242925687986 ], [ 135.086741480437496, -3.513791717573362 ], [ 135.246439966765621, -3.538871921583372 ], [ 135.507578882781246, -3.449326194807249 ], [ 135.734248194304683, -3.251824773832517 ], [ 136.270884546843746, -2.418122448011594 ], [ 136.428828272429683, -2.411427892729002 ], [ 136.914103540984371, -2.315044321104246 ], [ 137.084239039031246, -2.251135267301756 ], [ 137.104395899382808, -2.212950624510007 ], [ 137.110697779265621, -1.984163798376279 ], [ 137.208827051726558, -1.907682098432737 ], [ 137.703898462859371, -1.633348025366026 ], [ 137.854319605437496, -1.613961376234251 ], [ 138.634257349578121, -1.955445446058469 ], [ 139.591990503874996, -2.37915674595471 ], [ 140.285151514617183, -2.612797416731077 ], [ 140.869776758757808, -2.794752515836912 ] ] ], [ [ [ 130.783839258757808, -3.879009164854246 ], [ 130.609278711882808, -3.8476068153822 ], [ 130.297053370085933, -3.67669502644177 ], [ 129.914103540984371, -3.385179199262815 ], [ 129.781306299773433, -3.321906246229368 ], [ 129.594935450164058, -3.335030473753172 ], [ 129.568476709929683, -3.379573024793821 ], [ 129.579463038054683, -3.582920469328123 ], [ 129.486659082976558, -3.595832265897947 ], [ 129.030650171843746, -3.412512458845335 ], [ 128.914561304656246, -3.253879703565794 ], [ 128.652949366179683, -3.343426145597654 ], [ 128.522608790007808, -3.464457429929929 ], [ 128.375971827117183, -3.547393001600462 ], [ 128.292399439421871, -3.464953817411619 ], [ 128.152400049773433, -3.261883176847654 ], [ 128.041804346648433, -3.058756269499021 ], [ 128.152720484343746, -2.96954695133801 ], [ 128.288798365203121, -2.956538356825071 ], [ 128.412241968718746, -2.981694854780393 ], [ 128.909403833953121, -2.999676145597654 ], [ 129.167826685515621, -3.138942398115354 ], [ 129.311381373015621, -3.132275976225095 ], [ 129.556117090789058, -2.985571064039426 ], [ 129.742823633757808, -2.978808797880369 ], [ 129.982890162078121, -3.035491861387449 ], [ 130.368708643523433, -3.129982627912717 ], [ 130.593470606414058, -3.307437099500852 ], [ 130.725245508757808, -3.485103763624387 ], [ 130.805811915007808, -3.764567531629758 ], [ 130.783839258757808, -3.879009164854246 ] ] ], [ [ [ 126.660471949187496, -3.875229515119749 ], [ 126.471949610320308, -3.850217260404783 ], [ 126.150012049285152, -3.628476537748533 ], [ 126.045664820281246, -3.425329126402097 ], [ 126.111132654753902, -3.298079885526853 ], [ 126.382266077605465, -3.253013052030759 ], [ 126.726588282195308, -3.233194030805784 ], [ 126.837336573210933, -3.290152706190305 ], [ 126.952380213347652, -3.429722703977781 ], [ 127.093760523406246, -3.518387712522703 ], [ 127.142466578093746, -3.619965471311765 ], [ 127.112185511199215, -3.721727050825315 ], [ 127.056040796843746, -3.747262634321409 ], [ 126.660471949187496, -3.875229515119749 ] ] ], [ [ [ 138.175852808562496, -8.55351010708447 ], [ 137.675898584929683, -8.45924798397656 ], [ 137.941126856414058, -7.994698442503172 ], [ 138.192667994109371, -7.676353849455076 ], [ 138.376307520476558, -7.555197633787351 ], [ 138.568018946257808, -7.523003019376951 ], [ 138.805445704070308, -7.675037302061277 ], [ 138.894755396453121, -7.78288833050366 ], [ 138.844813379851558, -7.865623392149168 ], [ 138.699000391570308, -8.151954092069822 ], [ 138.583811792937496, -8.228471197172361 ], [ 138.297205957976558, -8.540528692289548 ], [ 138.175852808562496, -8.55351010708447 ] ] ], [ [ [ 122.948611292449215, -8.377099432035642 ], [ 122.696192774382808, -8.492555059477048 ], [ 122.71121505221484, -8.597515501066404 ], [ 122.312640223113277, -8.744461454435545 ], [ 122.050700220671871, -8.867979444547849 ], [ 121.89853194674609, -8.849420942350584 ], [ 121.694407496062496, -8.99586907772656 ], [ 121.46780684908984, -8.964582838102537 ], [ 121.275530848113277, -8.914146818205076 ], [ 121.105662378874996, -9.028924383207517 ], [ 120.970904383269527, -9.054632581754881 ], [ 120.809245142546871, -9.02320233730908 ], [ 120.548563990203121, -8.934785284086423 ], [ 120.07785323580859, -8.916735090299802 ], [ 119.935282740203121, -8.936113752409177 ], [ 119.840395960417965, -8.682082571073728 ], [ 119.852526697722652, -8.574008382841306 ], [ 120.025111231414058, -8.484657682462888 ], [ 120.327540430632808, -8.395017065092283 ], [ 120.565005335417965, -8.388149656339841 ], [ 121.078814539519527, -8.571352399870115 ], [ 121.279353174773433, -8.717112936063963 ], [ 121.431445154753902, -8.723139204069334 ], [ 121.578211817351558, -8.589348234220701 ], [ 121.786845240203121, -8.582537092252927 ], [ 121.979800257292965, -8.550282873197752 ], [ 122.165888819304683, -8.634251989408689 ], [ 122.375979456511715, -8.58177224545117 ], [ 122.343577417937496, -8.482058919950681 ], [ 122.533144983855465, -8.39809075741406 ], [ 122.71499923190234, -8.293130315824705 ], [ 122.756960901824215, -8.224905408903318 ], [ 122.722788843718746, -8.172424711271482 ], [ 122.640200647917965, -8.182921804472166 ], [ 122.692439112273433, -8.093704618498045 ], [ 122.764369043914058, -8.098953641935545 ], [ 122.863207850066402, -8.140937246366697 ], [ 122.943064722624996, -8.240650571867185 ], [ 122.948611292449215, -8.377099432035642 ] ] ], [ [ [ 117.937724146453121, -8.54001084713574 ], [ 117.796839747039058, -8.49582139401074 ], [ 117.705424341765621, -8.438815511747556 ], [ 117.677355799285152, -8.362614072843748 ], [ 117.690989527312496, -8.267242826505857 ], [ 117.806216272917965, -8.178014196439939 ], [ 117.947939905730465, -8.161929525419431 ], [ 118.024653467742183, -8.202969945951658 ], [ 118.048304590789058, -8.298379339262205 ], [ 118.130145105925777, -8.342568792387205 ], [ 118.267138514128902, -8.27738706020947 ], [ 118.419985804167965, -8.324619688078123 ], [ 118.467310938445308, -8.392844594999509 ], [ 118.462000879851558, -8.596083082243162 ], [ 118.54416182955859, -8.52929250149365 ], [ 118.617655787078121, -8.392351545377927 ], [ 118.760829004851558, -8.379335798307615 ], [ 118.863291773406246, -8.480809606596189 ], [ 118.872607264128902, -8.671463407560545 ], [ 118.954165491667965, -8.655246175810056 ], [ 118.98202804049609, -8.702477850004392 ], [ 118.970545801726558, -8.880987562223631 ], [ 118.828204187957027, -8.786445058866697 ], [ 118.68881514987109, -8.760206617399412 ], [ 118.625468287078121, -8.786445058866697 ], [ 118.658030542937496, -8.85624448208447 ], [ 118.274638208953121, -8.926982320829588 ], [ 118.210658106414058, -8.886158384367185 ], [ 118.253993067351558, -8.765452779813963 ], [ 118.215998682585933, -8.739213384672361 ], [ 118.077204737273433, -8.859918035551267 ], [ 117.973856958953121, -8.975375570341306 ], [ 117.84085372408984, -8.954382337614256 ], [ 117.557276758757808, -9.055645383878904 ], [ 117.276629480925777, -9.145239271208006 ], [ 117.115901026335933, -9.122319616361814 ], [ 116.976420435515621, -9.177661336942869 ], [ 116.800341639128902, -9.14625970272656 ], [ 116.754191431609371, -9.114581502958494 ], [ 116.663157496062496, -9.059344686552244 ], [ 116.634470972624996, -8.933391012235838 ], [ 116.698916468230465, -8.815979398771482 ], [ 116.66269210299609, -8.702477850004392 ], [ 116.74954513033984, -8.650625623747068 ], [ 116.853404078093746, -8.599548734708982 ], [ 116.958384546843746, -8.52929250149365 ], [ 117.059329065886715, -8.560976423307615 ], [ 117.333972010222652, -8.566733755155759 ], [ 117.513812098113277, -8.613260664030271 ], [ 117.554156336394527, -8.739213384672361 ], [ 117.685099634734371, -8.788426794096189 ], [ 117.81717208346484, -8.813561834379392 ], [ 117.902407679167965, -8.697229780241209 ], [ 118.033137354460933, -8.691981710478025 ], [ 118.055903467742183, -8.608012594267088 ], [ 117.937724146453121, -8.54001084713574 ] ] ], [ [ [ 115.07236007174609, -8.781361974760252 ], [ 114.895625147429683, -8.654628194853025 ], [ 114.51071456393359, -8.45207253841992 ], [ 114.457507166472652, -8.331433691068845 ], [ 114.645037684050777, -8.331021703764158 ], [ 114.876284632292965, -8.247906126066404 ], [ 115.084399256316402, -8.234733976408201 ], [ 115.500453028289058, -8.469005979582029 ], [ 115.348162684050777, -8.545598424955564 ], [ 115.243701014128902, -8.590313352628904 ], [ 115.07236007174609, -8.781361974760252 ] ] ], [ [ [ 103.71359542330859, -0.016971983 ], [ 103.686625513640621, -0.1183407977068 ], [ 103.500742945281246, -0.315737046285825 ], [ 103.40866378268359, -0.500223256632047 ], [ 103.237620386687496, -0.659467495962339 ], [ 103.311320337859371, -0.81817577032681 ], [ 103.38418868502734, -0.894272543474393 ], [ 103.746928248015621, -1.115909852071958 ], [ 104.121195826140621, -1.140521563574033 ], [ 104.22989181002734, -1.19111803917523 ], [ 104.297663721648433, -1.362546600385862 ], [ 104.355189356414058, -1.705587424322324 ], [ 104.352427515593746, -1.889892257734495 ], [ 104.472476038542965, -2.080278553053098 ], [ 104.567545923796871, -2.137265123411375 ], [ 104.812586817351558, -2.155803360029417 ], [ 104.609812769499996, -2.575665630384641 ], [ 104.677760157195308, -2.670844711347776 ], [ 104.994608912078121, -2.466801322981077 ], [ 105.365153345671871, -2.580394424482542 ], [ 105.444903406707027, -2.599284805341917 ], [ 105.563929590789058, -2.713410295530515 ], [ 105.628672632781246, -2.910283721967893 ], [ 105.942820582, -3.214655078932005 ], [ 105.71109298190234, -4.104884065672117 ], [ 105.693156275359371, -4.308285154386716 ], [ 105.796679529753902, -4.73388234524365 ], [ 105.787089380828121, -4.930913366361814 ], [ 105.796366724578121, -5.22959128765698 ], [ 105.795596155730465, -5.350346483274656 ], [ 105.728472742644527, -5.827141679807859 ], [ 105.689280542937496, -5.897135652586179 ], [ 105.640688929167965, -5.929026044889646 ], [ 105.475672754851558, -5.814985193296629 ], [ 105.304041895476558, -5.580207742735105 ], [ 105.186724695769527, -5.542331613584714 ], [ 105.069140467253902, -5.758665956541257 ], [ 105.032786402312496, -5.87949887661572 ], [ 104.563403162566402, -5.600874342008787 ], [ 104.464686426726558, -5.639219678922849 ], [ 104.642161402312496, -5.975669302030759 ], [ 104.568484339324215, -6.071165479704099 ], [ 104.476885828582027, -5.982384122892576 ], [ 103.872500452605465, -5.341800607725339 ], [ 103.523455652800777, -4.999372400327879 ], [ 103.068591150847652, -4.61267987637158 ], [ 102.462229761687496, -4.181821741148191 ], [ 102.286524805632808, -3.97884026913281 ], [ 102.196757349578121, -3.756602920576292 ], [ 102.110667261687496, -3.604252494856077 ], [ 101.659571680632808, -3.319250978513914 ], [ 101.345461878386715, -3.014891304060178 ], [ 100.812075647917965, -2.336048044248777 ], [ 100.778758082, -2.177243627592283 ], [ 100.796252283660152, -2.024697698637205 ], [ 100.65030196627734, -1.630999959989744 ], [ 100.27200606783984, -0.970915175958829 ], [ 99.971995386687496, -0.501324929281431 ], [ 99.696551355925777, -0.152409575864034 ], [ 99.53036788424609, -0.016971983 ], [ 99.401049646941402, 0.088420264438433 ], [ 99.11331466158984, 0.221247725204272 ], [ 98.998881373015621, 0.557795010522646 ], [ 98.689112696257808, 1.370494566873354 ], [ 98.71933272799609, 1.478585921243472 ], [ 98.671031031218746, 1.618280254319949 ], [ 98.600550684539058, 1.707089506105227 ], [ 98.30258468112109, 1.935200057939333 ], [ 97.982501062957027, 2.112426124528689 ], [ 97.739993128386715, 2.20721348376636 ], [ 97.597147974578121, 2.251384101823611 ], [ 97.543299707976558, 2.410120330766482 ], [ 97.50870040377734, 2.740469060853762 ], [ 97.427676233855465, 2.924561105684084 ], [ 97.25448897799609, 3.140228115037722 ], [ 96.88595870455859, 3.514327131227297 ], [ 96.720362696257808, 3.704589210466189 ], [ 96.39438155612109, 3.646694503740115 ], [ 96.118433985320308, 3.951094470933718 ], [ 95.827624353972652, 4.223691068605227 ], [ 95.560923609343746, 4.534462533906741 ], [ 95.308154139128902, 4.959623895601077 ], [ 95.205073389617183, 5.245321355775637 ], [ 95.190554651824215, 5.410494409517092 ], [ 95.216082605925777, 5.499504648164553 ], [ 95.283160242644527, 5.55048569293384 ], [ 95.464053186980465, 5.569940172151369 ], [ 95.627734217253902, 5.525817476228518 ], [ 95.74045089205859, 5.468877874330325 ], [ 96.024683985320308, 5.215323530153078 ], [ 96.187335047332027, 5.14578827472095 ], [ 96.602030787078121, 5.07678660006885 ], [ 96.752711329070308, 5.064410291627688 ], [ 96.999453577605465, 5.109420381501955 ], [ 97.203784021941402, 5.173398099855227 ], [ 97.384074244109371, 5.180140577272219 ], [ 97.52933028658984, 5.040668092683596 ], [ 97.942812952605465, 4.520546041444582 ], [ 98.173785242644527, 4.381262384370608 ], [ 98.199366602507808, 4.311420045808596 ], [ 98.145503077117183, 4.069854341462893 ], [ 98.625292811003902, 3.657878957704348 ], [ 98.962405237761715, 3.436213813737673 ], [ 99.491267237273433, 3.126008592561526 ], [ 99.795947107878902, 2.980528198198122 ], [ 99.858363184539058, 2.904411159471316 ], [ 99.87222579440234, 2.637564025834841 ], [ 99.863162073699215, 2.56764467807178 ], [ 100.121417078582027, 2.542796693757815 ], [ 100.456484827605465, 2.117784582093996 ], [ 100.731944117156246, 1.870563827470583 ], [ 100.854319605437496, 1.877182088807864 ], [ 100.856059107390621, 1.966142974809451 ], [ 100.800608667937496, 2.0676923617876 ], [ 100.831721338835933, 2.175784192994875 ], [ 101.059756311980465, 2.080969177202029 ], [ 101.275752100554683, 1.719237886384768 ], [ 101.474307093230465, 1.548094235376162 ], [ 101.675280603972652, 1.523109518007082 ], [ 101.868144068328121, 1.434568367914004 ], [ 102.00979903658984, 1.269662819818301 ], [ 102.135890040007808, 0.939505957082552 ], [ 102.278285059539058, 0.742825351671023 ], [ 102.471781763640621, 0.622509859517855 ], [ 102.701609644499996, 0.565819166616244 ], [ 103.046587977019527, 0.528438948110384 ], [ 103.240489039031246, 0.458958230928225 ], [ 103.463076624480465, 0.287862710670275 ], [ 103.722155603972652, 0.015183419004721 ], [ 103.71359542330859, -0.016971983 ] ] ], [ [ [ 127.630656275359371, -0.016971983 ], [ 127.627490076628902, 0.060609206572813 ], [ 127.441355738249996, 0.536802314237399 ], [ 127.522158655730465, 0.784808121637148 ], [ 127.486796412078121, 0.848269008115572 ], [ 127.423502955046871, 0.981572769597811 ], [ 127.43973067721484, 1.127760849908633 ], [ 127.56863692721484, 1.52837248893146 ], [ 127.799769434539058, 1.897417865709109 ], [ 127.918086084929683, 1.732464037851138 ], [ 127.986598047820308, 1.573755584672732 ], [ 127.962580713835933, 1.446609579042239 ], [ 127.851664576140621, 1.268447004274172 ], [ 127.688921961394527, 0.924957893804354 ], [ 127.716242823210933, 0.7788660153902 ], [ 127.801997217742183, 0.715509377435488 ], [ 127.845683130828121, 0.779154144243044 ], [ 128.041667017546871, 0.963846944288058 ], [ 128.102229151335933, 1.199092708543581 ], [ 128.182337793914058, 1.262813292459292 ], [ 128.545023951140621, 1.447870336488528 ], [ 128.608576807585933, 1.384465657190127 ], [ 128.585093531218746, 1.270043812707705 ], [ 128.631907496062496, 1.022326670602602 ], [ 128.472636255828121, 0.926659069970889 ], [ 128.262583765593746, 0.767338298276705 ], [ 128.189616236296871, 0.627388440088076 ], [ 128.261240992156246, 0.583066128209872 ], [ 128.462260279265621, 0.526307068780703 ], [ 128.641566309539058, 0.431374095395846 ], [ 128.634196314421871, 0.367817424253268 ], [ 128.705821070281246, 0.209110222772402 ], [ 128.396739039031246, 0.278340481237215 ], [ 128.202754053679683, 0.347818844035906 ], [ 128.037440332976558, 0.366516731694979 ], [ 127.900691065398433, 0.296321831659121 ], [ 127.864695582, 0.099249944106383 ], [ 127.886790308562496, -0.016971983 ], [ 127.945612940398433, -0.326332218929487 ], [ 128.099207911101558, -0.60560516266461 ], [ 128.281504664031246, -0.80220989136334 ], [ 128.369715723601558, -0.929115451856809 ], [ 128.299433741179683, -1.024591006323057 ], [ 128.182795557585933, -0.9295159950697 ], [ 127.883906397429683, -0.637848056837278 ], [ 127.636317286101558, -0.307938195749479 ], [ 127.635264429656246, -0.130004316552835 ], [ 127.630656275359371, -0.016971983 ] ] ], [ [ [ 106.552660975066402, -3.175201572462278 ], [ 106.164317164031246, -2.998099960371214 ], [ 105.994746241179683, -2.890428461118894 ], [ 105.902415308562496, -2.725398220106321 ], [ 105.882304224578121, -2.560203470274168 ], [ 105.811823877898433, -2.382413543745237 ], [ 105.583498987761715, -2.204967178388792 ], [ 105.452761683074215, -2.160768665357786 ], [ 105.251757654753902, -2.173908866926389 ], [ 105.199656519499996, -2.110476411863523 ], [ 105.321421656218746, -1.817892469450193 ], [ 105.426676783171871, -1.709628261610227 ], [ 105.655726465789058, -1.956973589941221 ], [ 105.722376856414058, -1.747112430616575 ], [ 105.86343673190234, -1.626060642286497 ], [ 105.896342310515621, -1.803927220388609 ], [ 106.03653243502734, -2.203994430586057 ], [ 106.328639063445308, -2.571952022596555 ], [ 106.642748865691402, -2.711081422849851 ], [ 106.523448023406246, -2.79394880680676 ], [ 106.470660242644527, -2.921170391126829 ], [ 106.552660975066402, -3.175201572462278 ] ] ], [ [ [ 105.184779200164058, -6.865668691679197 ], [ 105.143885645476558, -6.781699575468259 ], [ 105.28616622408984, -6.771202959104734 ], [ 105.46737960299609, -6.813187994047361 ], [ 105.633471521941402, -6.755237497373777 ], [ 105.663989100066402, -6.519298471494871 ], [ 105.672167811003902, -6.456322588010984 ], [ 105.810748133269527, -6.481571592374998 ], [ 105.791529688445308, -6.256896890684324 ], [ 105.891474756804683, -6.150919832273679 ], [ 105.933184656707027, -6.025983728452879 ], [ 106.024165186492183, -6.080723680540281 ], [ 106.308100733367183, -6.1309479847395 ], [ 106.521266016570308, -6.1099518909895 ], [ 106.628008875457027, -6.309376157804685 ], [ 106.864001307097652, -6.269573606535154 ], [ 106.935122522917965, -6.135954298063474 ], [ 106.945094141570308, -6.025983728452879 ], [ 107.061366114226558, -6.078479208036619 ], [ 107.33963302096484, -6.154148019834714 ], [ 107.524615320769527, -6.350759901090818 ], [ 107.677027735320308, -6.33036843685742 ], [ 107.768687281218746, -6.451916612669187 ], [ 107.969607386199215, -6.438776887937742 ], [ 108.173327478972652, -6.355717577024656 ], [ 108.309001001921871, -6.450752176328855 ], [ 108.475390467253902, -6.685549654051023 ], [ 108.555773768035152, -6.920526422544675 ], [ 108.953410181609371, -6.938729204221922 ], [ 109.161089930144527, -7.023108400388914 ], [ 109.38199141940234, -6.988648809477048 ], [ 110.027277979460933, -7.044451154752927 ], [ 110.242571863738277, -7.031283773466306 ], [ 110.395892176238277, -6.954677499815183 ], [ 110.491534266082027, -6.662121690794187 ], [ 110.613291773406246, -6.541098035856443 ], [ 110.814585718718746, -6.534306444212156 ], [ 110.914515528289058, -6.629429735227781 ], [ 111.044718775359371, -6.851591505094724 ], [ 111.329653772917965, -6.908178247495847 ], [ 111.568278345671871, -6.920361436887937 ], [ 111.916804346648433, -6.957741655393797 ], [ 112.274790796843746, -7.026889719053464 ], [ 112.404910120574215, -7.13464442638989 ], [ 112.536562952605465, -7.264518655821043 ], [ 112.500872644988277, -7.464936651273923 ], [ 112.624590906707027, -7.674394048734861 ], [ 112.678423914519527, -7.718775667234617 ], [ 113.072688135710933, -7.876816667600828 ], [ 113.262591394988277, -7.908177770658689 ], [ 113.558711084929683, -7.913900770231443 ], [ 113.761378321257808, -7.830829061552244 ], [ 113.948359522429683, -7.824078477903562 ], [ 114.230769190398433, -7.931510366483884 ], [ 114.252192530242183, -8.020443357511716 ], [ 114.13760665377734, -8.211366094633298 ], [ 114.069163355437496, -8.433954633756834 ], [ 114.329279932585933, -8.782966054960447 ], [ 114.104754480925777, -8.688108839079099 ], [ 113.743815455046871, -8.599913991972166 ], [ 113.474688562957027, -8.486092008634763 ], [ 113.073786768523433, -8.347123540922361 ], [ 112.835780176726558, -8.34763852505322 ], [ 112.570979151335933, -8.462617315336423 ], [ 112.414355311003902, -8.488374151273923 ], [ 112.093379053679683, -8.444576658292966 ], [ 111.439135584441402, -8.38243142513867 ], [ 110.777735743132808, -8.320307172819334 ], [ 110.415385279265621, -8.206685461088377 ], [ 110.038172754851558, -7.991411127134519 ], [ 109.543620142546871, -7.839940942808347 ], [ 109.03720382174609, -7.720286764188963 ], [ 108.61044600924609, -7.702139772459226 ], [ 108.360705408660152, -7.83614007382031 ], [ 108.160227808562496, -7.855642713590818 ], [ 107.729731592742183, -7.786660112425047 ], [ 107.367640528289058, -7.564995683714109 ], [ 107.20682052096484, -7.533564008756834 ], [ 106.483698877898433, -7.503360189481931 ], [ 106.320239100066402, -7.433792985960203 ], [ 106.344668421355465, -7.370187677427488 ], [ 106.546587977019527, -7.160022176786619 ], [ 106.365527186003902, -7.039659418150144 ], [ 106.117548975554683, -6.995707906767088 ], [ 105.889964136687496, -6.932635225340086 ], [ 105.75223067721484, -6.920232690855222 ], [ 105.184779200164058, -6.865668691679197 ] ] ], [ [ [ 123.491923365203121, -10.352161802335935 ], [ 123.604060206023433, -10.129458822294431 ], [ 123.61453536471484, -9.887912191435056 ], [ 123.665423426238277, -9.747970022245603 ], [ 123.968775782195308, -9.531214155241209 ], [ 124.619898829070308, -9.250147260709959 ], [ 124.917902979460933, -9.046112455412107 ], [ 125.079821619597652, -8.772467054411131 ], [ 125.28976729830859, -8.702098287626463 ], [ 125.999819788542965, -8.656074918791013 ], [ 126.409411463347652, -8.559843458219724 ], [ 126.652903589812496, -8.540258802458006 ], [ 127.043765101042965, -8.475847639127927 ], [ 127.097186121550777, -8.507518209501463 ], [ 127.141467127410152, -8.596404470487791 ], [ 127.034922632781246, -8.691975988432127 ], [ 126.872538599578121, -8.806733526273923 ], [ 126.14822677096484, -9.081591047331052 ], [ 125.532328638640621, -9.279951490446287 ], [ 125.211535486785152, -9.395053304716306 ], [ 124.938540491667965, -9.554545797392088 ], [ 124.448069605437496, -9.987807668729978 ], [ 124.154238733855465, -10.204543508573728 ], [ 123.956324610320308, -10.243109144254881 ], [ 123.707865748015621, -10.345344938322263 ], [ 123.491923365203121, -10.352161802335935 ] ] ], [ [ [ 120.279810938445308, -10.378160871549802 ], [ 120.182383570281246, -10.346587575956541 ], [ 119.769770655242183, -10.074174322172361 ], [ 119.409831080046871, -9.871551908537107 ], [ 119.253870997039058, -9.82740155605908 ], [ 119.031725916472652, -9.770682729765134 ], [ 118.900408777800777, -9.681976713224607 ], [ 118.949030909148433, -9.58653012661572 ], [ 119.116259607878902, -9.522610105558591 ], [ 119.562563929167965, -9.508944906278806 ], [ 119.78872970065234, -9.457600988432127 ], [ 119.945796045867183, -9.590743459745603 ], [ 120.46243575533984, -9.926486410185056 ], [ 120.581294092742183, -10.097849287077146 ], [ 120.525042566863277, -10.244148649259763 ], [ 120.414210352507808, -10.352451719328123 ], [ 120.279810938445308, -10.378160871549802 ] ] ], [ [ [ 117.55868819674609, 3.980721078828616 ], [ 117.540507349578121, 3.940269790605349 ], [ 117.683856043425777, 3.629244171098513 ], [ 117.580218348113277, 3.565474830583376 ], [ 117.334712061492183, 3.545888744310183 ], [ 117.073977503386715, 3.507199846223635 ], [ 117.163111719695308, 3.40572627635364 ], [ 117.215083155242183, 3.272402368501467 ], [ 117.139040979949215, 3.170576892808718 ], [ 117.236025843230465, 3.075473390535159 ], [ 117.342005762664058, 3.024877153352541 ], [ 117.58774093112109, 2.650510631517214 ], [ 117.829188379851558, 2.314259611085696 ], [ 117.848284754363277, 2.22534617038135 ], [ 117.696360621062496, 1.900947533563418 ], [ 117.730067286101558, 1.799350224450869 ], [ 117.912821802703121, 1.590053401902956 ], [ 118.247256311980465, 1.387442909196658 ], [ 118.517260584441402, 1.165625892595095 ], [ 118.765223536101558, 0.823025427774233 ], [ 118.556117090789058, 0.746316216901583 ], [ 118.218287500945308, 0.75829192252521 ], [ 117.859683069792965, 0.865542970613284 ], [ 117.70828536471484, 0.820732377485079 ], [ 117.534289393035152, 0.610662959531588 ], [ 117.37497237643359, 0.197262354210658 ], [ 117.338885340300777, -0.016971983 ], [ 117.318217310515621, -0.13965517280932 ], [ 117.377650293914058, -0.431837983413892 ], [ 117.429812464324215, -0.622370518728452 ], [ 117.370295557585933, -1.003784157320219 ], [ 117.25522139987109, -1.00403193382855 ], [ 117.045634302703121, -0.934580959364133 ], [ 116.578883204070308, -1.367720283552366 ], [ 116.384211573210933, -1.660468496366697 ], [ 116.046275171843746, -1.934458293005186 ], [ 116.245501551238277, -2.105623163267332 ], [ 116.272700342742183, -2.283497489973264 ], [ 116.349131617156246, -2.416793264433103 ], [ 116.040774378386715, -2.442873872801023 ], [ 116.244524988738277, -2.702999271436887 ], [ 116.248217615691402, -2.798310674711423 ], [ 116.201983484832027, -2.900100149198728 ], [ 115.95590499362109, -3.199323333784299 ], [ 115.863368067351558, -3.377465166135984 ], [ 115.80630782565234, -3.536469854398923 ], [ 115.568141016570308, -3.803909935041624 ], [ 114.98581222018359, -4.078456319853025 ], [ 114.712412867156246, -4.206153310819822 ], [ 114.580874476042965, -4.295410074278074 ], [ 114.49362472018359, -4.155785001798826 ], [ 114.504626307097652, -3.965103305860715 ], [ 114.356249842253902, -3.603159584089475 ], [ 114.218470606414058, -3.431875862165647 ], [ 114.099497828093746, -3.349512495084959 ], [ 113.970599207488277, -3.362500585600095 ], [ 113.744456324187496, -3.598138727232175 ], [ 113.608393702117183, -3.611134685560422 ], [ 113.460757288542965, -3.382671751066404 ], [ 113.320010218230465, -3.294006742521482 ], [ 113.123499903289058, -3.243590511366087 ], [ 112.94931319674609, -3.040595687910276 ], [ 112.79538253268359, -2.971020854994016 ], [ 112.638361963835933, -3.333612121626096 ], [ 112.57773116549609, -3.42271725086804 ], [ 112.406252894011715, -3.448501743360715 ], [ 112.245623621550777, -3.398008979841428 ], [ 112.046862635222652, -3.45563641934033 ], [ 111.903376612273433, -3.614832796140867 ], [ 111.739451441374996, -3.646959222837644 ], [ 111.713305506316402, -3.399166025205808 ], [ 111.728594812957027, -3.259319700285154 ], [ 111.587214502898433, -2.795695461317258 ], [ 111.435992273894527, -2.973974622770506 ], [ 110.796824488249996, -3.172363914533811 ], [ 110.652506861296871, -2.98837510494824 ], [ 110.365061792937496, -2.995357669874387 ], [ 110.238429102507808, -3.065532125517088 ], [ 110.102305445281246, -3.078540958448606 ], [ 110.07638839205859, -2.786260999723631 ], [ 110.065936121550777, -2.493952907606321 ], [ 109.946230921355465, -1.858707822843748 ], [ 109.940905603972652, -1.642648614927488 ], [ 109.782801661101558, -1.306190170332151 ], [ 109.599787745085933, -1.122298039480405 ], [ 109.244524988738277, -0.932415403410154 ], [ 109.178919825164058, -0.869010366483884 ], [ 109.428584131804683, -0.709605909868436 ], [ 109.189532312957027, -0.538537539526182 ], [ 109.073359522429683, -0.405348338171201 ], [ 109.157763514128902, -0.074725050463634 ], [ 109.12417891940234, -0.016971983 ], [ 108.99905684908984, 0.198187835530085 ], [ 108.84097579440234, 0.331290803865237 ], [ 108.870310816374996, 0.541057251409335 ], [ 108.814311060515621, 0.807816825822634 ], [ 108.896052393523433, 1.100297294572634 ], [ 108.955500635710933, 1.259293399766726 ], [ 109.146235498992183, 1.520239554361147 ], [ 109.282366785613277, 1.882722817376894 ], [ 109.425944361296871, 1.870326720193667 ], [ 109.517504725066402, 1.820520602182192 ], [ 109.647501978484371, 1.464270912126345 ], [ 109.761195215789058, 1.331484638170046 ], [ 110.211230311003902, 0.889251731351656 ], [ 110.347643885222652, 0.851918242887301 ], [ 110.548602137175777, 0.726002536729617 ], [ 110.965945276824215, 0.912814162687106 ], [ 111.080943140593746, 0.913487218335909 ], [ 111.317790064421871, 0.813207887128634 ], [ 111.562022242156246, 0.763813756421847 ], [ 111.741885218230465, 0.8411538228548 ], [ 111.979685816374996, 0.995116077379031 ], [ 112.160937342253902, 1.231366358712954 ], [ 112.399981531707027, 1.429807148889346 ], [ 112.615977320281246, 1.462877951577944 ], [ 112.80948165377734, 1.41318591685657 ], [ 113.059939417449215, 1.300269685701174 ], [ 113.296267542449215, 1.199977956727786 ], [ 113.547320398894527, 1.131564579919619 ], [ 113.676783594695308, 1.145051680520815 ], [ 113.886538538542965, 1.305187188104433 ], [ 114.09573653658984, 1.382704816774172 ], [ 114.484721216765621, 1.461281977609438 ], [ 114.658877405730465, 1.595793567613406 ], [ 115.076296839324215, 2.399057708696169 ], [ 115.041918787566402, 2.735676132158083 ], [ 115.139887842742183, 2.888775192216677 ], [ 115.43088057955859, 2.998545728639407 ], [ 115.530039820281246, 3.170721374467654 ], [ 115.481806788054683, 3.615263067201418 ], [ 115.535548243132808, 3.869759164766116 ], [ 115.706774744597652, 4.156728349641604 ], [ 115.818057093230465, 4.227286420778078 ], [ 116.027041468230465, 4.234886728242678 ], [ 116.363406214324215, 4.198757730439944 ], [ 116.656611475554683, 4.16237648578052 ], [ 116.937579187957027, 4.170395456270022 ], [ 117.138140711394527, 4.152523599580569 ], [ 117.477229151335933, 4.021110139802737 ], [ 117.55868819674609, 3.980721078828616 ] ] ], [ [ [ 119.692126307097652, -0.016971983 ], [ 119.697489771453121, 0.005301356331152 ], [ 119.913737330046871, 0.539560459569735 ], [ 120.108973536101558, 0.724265299752993 ], [ 120.23886397799609, 0.78809043021564 ], [ 120.431910547820308, 0.636000238374514 ], [ 120.562304529753902, 0.776074849084658 ], [ 120.635523829070308, 0.922386907056612 ], [ 120.76742843112109, 1.138722024873537 ], [ 120.990679773894527, 1.16463466735248 ], [ 121.263087305632808, 1.101677857354922 ], [ 121.591174158660152, 0.860923193410677 ], [ 121.79239181002734, 0.848638795331759 ], [ 122.180857691374996, 0.868553482011599 ], [ 122.395854029265621, 0.79276081176166 ], [ 122.73288253268359, 0.672761403039736 ], [ 122.992472681609371, 0.774987183526797 ], [ 123.82620528658984, 0.738667331651492 ], [ 124.150233301726558, 0.796562574819369 ], [ 124.432177576628902, 0.95603521914844 ], [ 124.527148279753902, 1.08333321662311 ], [ 124.45688155612109, 1.203904829934878 ], [ 124.54513839205859, 1.331182442621035 ], [ 124.71951583346484, 1.439590655282778 ], [ 124.852496180144527, 1.624150954202456 ], [ 124.982462915984371, 1.649851642564578 ], [ 125.016222986785152, 1.541904054597659 ], [ 124.983225855437496, 1.300364695504946 ], [ 124.930842432585933, 1.160450540498537 ], [ 124.894106897917965, 1.103187762216372 ], [ 124.857417139617183, 1.045913063005251 ], [ 124.421427759734371, 0.479422323421282 ], [ 124.23398116549609, 0.301086150125307 ], [ 124.025416407195308, 0.256151609138293 ], [ 123.471804651824215, 0.153285957888407 ], [ 123.248904261199215, 0.184571988896174 ], [ 122.983141932097652, 0.374633483604235 ], [ 122.465556177703121, 0.405279241517825 ], [ 121.947825464812496, 0.378750823453707 ], [ 121.552447352019527, 0.39695244284038 ], [ 121.085063013640621, 0.376877628282351 ], [ 120.826319727507808, 0.414438031629366 ], [ 120.524317774382808, 0.40107762070064 ], [ 120.337275538054683, 0.356190972045702 ], [ 120.142970118132808, 0.19054914267425 ], [ 120.026194605437496, -0.016971983 ], [ 119.956797632781246, -0.14028224347468 ], [ 119.872744593230465, -0.464555867000776 ], [ 119.90378097018359, -0.680548943563657 ], [ 120.021792444792965, -0.90270958094235 ], [ 120.10934737643359, -0.985140778108793 ], [ 120.29080489596484, -1.086422003790098 ], [ 120.407465967742183, -1.175135292097288 ], [ 120.506571802703121, -1.448180831953245 ], [ 120.587290796843746, -1.51790825276013 ], [ 120.68838790377734, -1.536749996229368 ], [ 121.055377039519527, -1.548669613882261 ], [ 121.167620691863277, -1.427686013265806 ], [ 121.461131128874996, -0.988569356485563 ], [ 121.634097132292965, -1.013609625383573 ], [ 121.772135767546871, -1.095924533888059 ], [ 121.995356592742183, -1.114498533292966 ], [ 122.158946070281246, -1.012472964807706 ], [ 122.459795984832027, -0.941913939996915 ], [ 122.739207300749996, -0.877764619871336 ], [ 122.859568628874996, -0.744048453851896 ], [ 122.981463465300777, -0.718368090673643 ], [ 123.191149744597652, -0.806881107374387 ], [ 123.250041040984371, -0.902080334707456 ], [ 123.212748560515621, -1.232609428449827 ], [ 123.00192550143359, -1.112321414037901 ], [ 122.757144007292965, -1.093783892675596 ], [ 122.594286951628902, -1.227595485731321 ], [ 122.419573816863277, -1.463097251936155 ], [ 122.222888025847652, -1.654172100111204 ], [ 121.746470484343746, -1.852209486051756 ], [ 121.650080713835933, -1.998589791341978 ], [ 121.585757288542965, -2.011434234663206 ], [ 121.477320704070308, -1.992600239797788 ], [ 121.267054590789058, -1.935861147924619 ], [ 121.25345138033984, -1.961313880964475 ], [ 121.264910730925777, -2.101103462263303 ], [ 121.360217127410152, -2.15809003262158 ], [ 121.664027247039058, -2.417983688398557 ], [ 121.874270472136715, -2.652677454038816 ], [ 122.258166346160152, -3.211096681638914 ], [ 122.214892420378902, -3.357360757871824 ], [ 122.144274744597652, -3.662573017164426 ], [ 122.190348658171871, -3.846769250913816 ], [ 122.391398462859371, -4.087840951963621 ], [ 122.640910181609371, -4.284319795652586 ], [ 122.668925318328121, -4.38594476132031 ], [ 122.648386988249996, -4.513099111601072 ], [ 122.452395472136715, -4.488106168791013 ], [ 122.158999476042965, -4.514159120603757 ], [ 121.973513636199215, -4.648028291746336 ], [ 121.87277511080859, -4.95966473965283 ], [ 121.64871505221484, -4.947441972776609 ], [ 121.441325220671871, -4.865271486326414 ], [ 121.392840418425777, -4.789106287046629 ], [ 121.416491541472652, -4.496701158567625 ], [ 121.507998499480465, -4.235927976652341 ], [ 121.068324122039058, -3.855556406065183 ], [ 120.880793604460933, -3.716151393934446 ], [ 120.802454981414058, -3.595567382856565 ], [ 120.818499598113277, -3.487484134718137 ], [ 120.946368250457027, -3.309265054746824 ], [ 120.99899581393359, -3.048587001844602 ], [ 120.924685511199215, -2.826322235151487 ], [ 120.59280684908984, -2.801614440962034 ], [ 120.366633448210933, -2.897433914228635 ], [ 120.144190821257808, -3.075864233061033 ], [ 120.21621993502734, -3.234580434843259 ], [ 120.280299219695308, -3.653891004606443 ], [ 120.249552759734371, -3.882746137663084 ], [ 120.143382105437496, -4.397769846006589 ], [ 120.30685714205859, -4.804168142362791 ], [ 120.30215743502734, -4.943993486448484 ], [ 120.132685694304683, -5.230362333341795 ], [ 120.124415430632808, -5.332062639280515 ], [ 120.248065027800777, -5.58600751309033 ], [ 119.921618494597652, -5.662985242887693 ], [ 119.690867457, -5.771526731535154 ], [ 119.47684005221484, -5.803768075987058 ], [ 119.366747889128902, -5.65782729534741 ], [ 119.294581446257808, -5.422828115507322 ], [ 119.364970240203121, -5.276509679838377 ], [ 119.446238550749996, -5.06660357861157 ], [ 119.477297815886715, -4.672496713682371 ], [ 119.504473719207027, -4.189417280241209 ], [ 119.448008570281246, -3.960755504652219 ], [ 119.461131128874996, -3.808197893186765 ], [ 119.365283045378902, -3.630455411955076 ], [ 119.225665125457027, -3.573552764936643 ], [ 119.049761805144527, -3.650206007047849 ], [ 118.791438135710933, -3.663470186277586 ], [ 118.796412500945308, -3.479157842680173 ], [ 118.683604273406246, -2.901070751234251 ], [ 118.742617640105465, -2.761141456648069 ], [ 118.963725123015621, -2.525512136503416 ], [ 119.174571070281246, -2.175528682752805 ], [ 119.247073206511715, -1.959309853597837 ], [ 119.20736983737109, -1.546321786924558 ], [ 119.204752955046871, -1.43193618206616 ], [ 119.243670496550777, -1.228493012472349 ], [ 119.396296534148433, -0.904066480680662 ], [ 119.597239527312496, -0.878214098497587 ], [ 119.578196558562496, -0.490620143696027 ], [ 119.692126307097652, -0.016971983 ] ] ] ] }
        }
    ]
}