{
    "type": "FeatureCollection",
    "features": [
        {
            "type": "Feature",
            "properties": {
                "WCID": "IRN",
                "COUNTRY": "Iran"
            },
            "geometry": { "type": "MultiPolygon", "coordinates": [ [ [ [ 60.806936103000055, 31.996664169000042 ], [ 60.823463372000049, 31.948464203000071 ], [ 60.824163261000081, 31.774436111000057 ], [ 60.811382199000036, 31.659718031000068 ], [ 60.848809241000083, 31.496109148000073 ], [ 61.104163252000035, 31.463053939000076 ], [ 61.188600198000074, 31.452218150000078 ], [ 61.450518244000079, 31.418200196000043 ], [ 61.713609254000062, 31.383327120000047 ], [ 61.740827138000043, 31.35332711500007 ], [ 61.771100225000055, 31.31832713700004 ], [ 61.766800309000075, 31.256182198000033 ], [ 61.788327215000038, 31.217218083000034 ], [ 61.811100176000082, 31.177218132000064 ], [ 61.850127155000052, 31.023882109000056 ], [ 61.758327210000061, 30.790273103000061 ], [ 61.372218192000048, 30.381664207000028 ], [ 61.277491287000032, 30.284445026000071 ], [ 61.216663312000037, 30.222773162000067 ], [ 61.180273280000051, 30.185827073000041 ], [ 61.041936170000042, 30.043609142000037 ], [ 60.91081822600006, 29.90721814300008 ], [ 60.871654118000038, 29.866936057000032 ], [ 60.866300262000038, 29.863654039000039 ], [ 61.041518248000045, 29.68346424300006 ], [ 61.282491260000029, 29.434164146000057 ], [ 61.314436202000081, 29.395826997000029 ], [ 61.353463349000037, 29.291527120000069 ], [ 61.360273310000082, 29.265827031000072 ], [ 61.428045188000056, 29.151382201000047 ], [ 61.511936137000077, 29.071109050000075 ], [ 61.547618234000083, 28.984536060000039 ], [ 61.582773277000058, 28.909436051000057 ], [ 61.637218265000058, 28.806382060000033 ], [ 61.651382340000055, 28.785273075000077 ], [ 61.821936133000065, 28.626109115000077 ], [ 61.905545114000063, 28.555000066000048 ], [ 61.925000182000076, 28.541245027000059 ], [ 61.945963322000068, 28.531800131000068 ], [ 62.208600200000035, 28.459435976000066 ], [ 62.316654164000056, 28.438882208000052 ], [ 62.399854109000046, 28.419436025000039 ], [ 62.489091203000044, 28.355618058000061 ], [ 62.53081816100007, 28.295000134000077 ], [ 62.592491199000051, 28.233609063000074 ], [ 62.632909239000071, 28.240273179000042 ], [ 62.686936138000078, 28.250273125000035 ], [ 62.782218260000036, 28.26374502300007 ], [ 62.78889126100006, 28.212491194000052 ], [ 62.78333623900005, 28.171936025000036 ], [ 62.769154058000083, 28.076109079000048 ], [ 62.75916333300006, 27.995273166000061 ], [ 62.765000155000052, 27.972773121000046 ], [ 62.772491229000082, 27.945273102000044 ], [ 62.802491234000058, 27.835000113000035 ], [ 62.815545210000039, 27.786944986000037 ], [ 62.821936244000028, 27.760273099000074 ], [ 62.823327137000035, 27.739718158000073 ], [ 62.839709232000075, 27.474436118000028 ], [ 62.828882327000031, 27.447218067000051 ], [ 62.800554177000038, 27.384444988000041 ], [ 62.780273324000063, 27.266800115000024 ], [ 62.814854206000064, 27.234991128000047 ], [ 62.935891236000032, 27.214718154000025 ], [ 62.998600277000037, 27.230273122000028 ], [ 63.039163324000071, 27.241382161000047 ], [ 63.201936196000077, 27.26763612600007 ], [ 63.284854173000042, 27.222218113000054 ], [ 63.33027319200005, 27.148882160000028 ], [ 63.328809209000042, 27.127982220000035 ], [ 63.27651820300008, 27.120554009000045 ], [ 63.252636149000068, 27.080554059000065 ], [ 63.253054071000065, 27.051391070000079 ], [ 63.258191171000078, 26.940409140000042 ], [ 63.216100271000073, 26.85388208300003 ], [ 63.185127127000044, 26.639164210000047 ], [ 63.163609273000077, 26.630553983000027 ], [ 63.059573258000057, 26.635553956000024 ], [ 63.015827099000035, 26.643609133000041 ], [ 62.973600245000057, 26.647773095000048 ], [ 62.829163289000064, 26.65110909200007 ], [ 62.770263320000083, 26.648745060000067 ], [ 62.745654052000077, 26.618882183000039 ], [ 62.70388233400007, 26.602218121000078 ], [ 62.600827170000059, 26.580273125000076 ], [ 62.546663311000032, 26.577218089000041 ], [ 62.508609135000029, 26.574435968000046 ], [ 62.43790929100004, 26.566527139000073 ], [ 62.315273330000082, 26.509027116000027 ], [ 62.272563342000069, 26.420409109000047 ], [ 62.288609155000074, 26.379018097000028 ], [ 62.274891164000053, 26.35660002700007 ], [ 62.229163356000072, 26.360136017000059 ], [ 62.18277321000005, 26.371109101000059 ], [ 62.138954129000069, 26.379544984000063 ], [ 62.103882234000082, 26.31444508900006 ], [ 62.081109274000028, 26.314164127000026 ], [ 62.060818195000081, 26.311664141000051 ], [ 61.870963393000068, 26.244018159000063 ], [ 61.854854214000056, 26.230553972000052 ], [ 61.844154211000046, 26.211664180000071 ], [ 61.832773263000036, 26.179436098000053 ], [ 61.816936160000068, 26.10860901500007 ], [ 61.794154147000029, 25.958327023000038 ], [ 61.781936182000038, 25.869991151000079 ], [ 61.779991245000076, 25.84389107800007 ], [ 61.761936123000055, 25.807809164000048 ], [ 61.71804512500006, 25.80069108400005 ], [ 61.68762719800003, 25.797500094000043 ], [ 61.665545074000079, 25.590554089000022 ], [ 61.659709258000078, 25.50638217900007 ], [ 61.651927164000028, 25.390273206000074 ], [ 61.649163315000067, 25.348054062000074 ], [ 61.643609131000062, 25.298335965000035 ], [ 61.611027164000063, 25.197645 ], [ 61.58110913400003, 25.199718013000052 ], [ 61.518400261000068, 25.164091068000062 ], [ 61.499436205000052, 25.118053968000027 ], [ 61.441373252000062, 25.075973126000065 ], [ 61.396236201000079, 25.080827086000056 ], [ 61.219018124000058, 25.123053941000023 ], [ 61.19894514300006, 25.158473182000023 ], [ 61.176382233000027, 25.173609055000043 ], [ 60.992763232000073, 25.212218113000063 ], [ 60.966100230000052, 25.21721808500007 ], [ 60.778600241000049, 25.248600099000043 ], [ 60.717209170000046, 25.25805404700003 ], [ 60.64888224200007, 25.263054020000027 ], [ 60.62262710400006, 25.26985409100007 ], [ 60.606100170000047, 25.329718146000062 ], [ 60.603600184000072, 25.355409015000077 ], [ 60.605273211000053, 25.377773106000063 ], [ 60.603609236000068, 25.397773165000046 ], [ 60.593318271000044, 25.415136110000049 ], [ 60.572218170000042, 25.434164204000069 ], [ 60.550963340000067, 25.441109113000039 ], [ 60.519154185000048, 25.443327133000025 ], [ 60.488045087000046, 25.440554064000025 ], [ 60.454991219000078, 25.431664217000048 ], [ 60.42777333500004, 25.415827114000024 ], [ 60.410273263000079, 25.397773165000046 ], [ 60.394991209000068, 25.365345090000062 ], [ 60.408463275000031, 25.332909137000058 ], [ 60.437309259000074, 25.329418074000046 ], [ 60.466800147000072, 25.265973102000032 ], [ 60.444018134000032, 25.267218150000076 ], [ 60.309709200000043, 25.328054003000034 ], [ 60.295554177000042, 25.345691204000047 ], [ 60.196936224000069, 25.365273174000038 ], [ 60.091936123000039, 25.375273119000042 ], [ 59.958045110000057, 25.372773133000067 ], [ 59.831663276000029, 25.41138219100003 ], [ 59.780273325000053, 25.412218034000034 ], [ 59.73304515600006, 25.408054072000027 ], [ 59.665827154000056, 25.399718102000065 ], [ 59.634991306000074, 25.393191114000047 ], [ 59.613045136000039, 25.392909147000069 ], [ 59.59096334700007, 25.399018045000048 ], [ 59.561663231000068, 25.415554032000045 ], [ 59.528600144000052, 25.450827092000054 ], [ 59.490545130000044, 25.473536015000036 ], [ 59.450545179000073, 25.47777323400004 ], [ 59.429291187000047, 25.474853985000038 ], [ 59.369709266000029, 25.461382087000061 ], [ 59.247000215000071, 25.426191170000038 ], [ 59.143054054000061, 25.396664239000074 ], [ 59.11999124700003, 25.391664099000025 ], [ 59.051936228000045, 25.393609036000043 ], [ 59.022909195000068, 25.39860900900004 ], [ 59.000136234000081, 25.413327128000049 ], [ 58.951518178000072, 25.475273080000079 ], [ 58.936518260000071, 25.500135985000043 ], [ 58.912073277000047, 25.518473074000042 ], [ 58.81832722200005, 25.560000040000034 ], [ 58.789991192000059, 25.564718046000053 ], [ 58.761936124000044, 25.565554057000043 ], [ 58.720409158000052, 25.556527082000059 ], [ 58.499718173000076, 25.587218091000068 ], [ 58.395545198000036, 25.604717997000023 ], [ 58.368600229000037, 25.604445082000041 ], [ 58.340063369000063, 25.59576411200004 ], [ 58.323836172000028, 25.580536038000048 ], [ 58.163045117000081, 25.539027010000041 ], [ 58.128182267000057, 25.542909172000066 ], [ 58.071382300000039, 25.561382216000027 ], [ 58.051800163000053, 25.572082218000048 ], [ 58.027227105000065, 25.595209063000027 ], [ 58.009018258000083, 25.622218069000041 ], [ 57.999582247000035, 25.646382090000031 ], [ 57.976100177000035, 25.685409070000048 ], [ 57.951236100000074, 25.699991067000042 ], [ 57.868327175000047, 25.680273143000079 ], [ 57.833882247000076, 25.664718007000033 ], [ 57.778600242000039, 25.668609054000058 ], [ 57.786109254000053, 25.700827078000032 ], [ 57.756591208000032, 25.74069107400004 ], [ 57.730409160000079, 25.747773112000061 ], [ 57.664018117000069, 25.746245091000048 ], [ 57.634018112000035, 25.732218144000058 ], [ 57.524163380000061, 25.737773166000068 ], [ 57.319091233000051, 25.771454 ], [ 57.300827234000053, 25.800553956000044 ], [ 57.299436173000061, 25.827354086000071 ], [ 57.291109255000038, 25.865553939000051 ], [ 57.271382278000033, 25.919445051000025 ], [ 57.230682271000035, 25.985136038000064 ], [ 57.20221816600008, 25.99166419900007 ], [ 57.195545165000055, 25.999444952000033 ], [ 57.16638217700006, 26.077909122000051 ], [ 57.169509130000051, 26.10394498900007 ], [ 57.082073306000041, 26.412491060000036 ], [ 57.075136108000038, 26.455136004000053 ], [ 57.090409277000049, 26.493609108000044 ], [ 57.093045218000043, 26.540273175000038 ], [ 57.091382248000059, 26.587500170000055 ], [ 57.088182205000066, 26.633744974000024 ], [ 57.066100249000044, 26.708045014000049 ], [ 57.056382270000029, 26.737773110000035 ], [ 57.037218222000035, 26.801391084000045 ], [ 57.032209197000043, 26.822500070000046 ], [ 57.023463351000032, 26.847500102000026 ], [ 57.009027199000059, 26.871382156000038 ], [ 56.865409155000066, 27.00638209400006 ], [ 56.844082241000081, 27.030691122000064 ], [ 56.867491220000034, 27.059436021000067 ], [ 56.855554049000034, 27.076109135000024 ], [ 56.808882271000073, 27.123609045000023 ], [ 56.690545220000047, 27.148327110000025 ], [ 56.645273220000036, 27.154991059000054 ], [ 56.618327245000046, 27.155553987000076 ], [ 56.615854081000066, 27.154944958000044 ], [ 56.532209225000031, 27.16082704300004 ], [ 56.355827159000057, 27.200273117000052 ], [ 56.328045174000067, 27.200135989000046 ], [ 56.132763258000068, 27.160273166000025 ], [ 56.113054051000063, 27.150273221000077 ], [ 55.975263273000053, 27.061664099000041 ], [ 55.95631816000008, 27.032082183000057 ], [ 55.844854103000046, 27.006800184000042 ], [ 55.79639128000008, 27.007500072000028 ], [ 55.689991233000057, 26.996109066000031 ], [ 55.659991228000081, 26.990691171000037 ], [ 55.641382229000044, 26.980136008000045 ], [ 55.60721826200006, 26.948609156000032 ], [ 55.578882233000058, 26.91124497800007 ], [ 55.586936236000042, 26.854718094000077 ], [ 55.594709278000039, 26.82389113000005 ], [ 55.598327242000039, 26.798609131000035 ], [ 55.481654167000045, 26.760553949000041 ], [ 55.443318192000049, 26.756664243000046 ], [ 55.41720923400004, 26.75471813300004 ], [ 55.37082713500007, 26.762918149000029 ], [ 55.355691261000061, 26.776945096000077 ], [ 55.274718221000057, 26.78694504200007 ], [ 55.239718243000027, 26.778745026000024 ], [ 55.162491242000044, 26.716936034000071 ], [ 54.852773214000081, 26.519164190000026 ], [ 54.788463229000058, 26.490409065000051 ], [ 54.690273256000069, 26.506109040000069 ], [ 54.472491295000054, 26.58832712800006 ], [ 54.360545110000032, 26.655827098000032 ], [ 54.32750029500005, 26.70110915600003 ], [ 54.296936188000075, 26.716109075000077 ], [ 54.26985409100007, 26.717636090000042 ], [ 54.237636234000036, 26.706800133000058 ], [ 54.211936146000028, 26.695827049000059 ], [ 54.183054119000076, 26.698053953000056 ], [ 54.154163375000053, 26.701664206000032 ], [ 54.125827178000065, 26.706109129000026 ], [ 54.088882263000073, 26.716664125000023 ], [ 54.065827168000055, 26.724718128000063 ], [ 53.931382279000047, 26.710000176000051 ], [ 53.836109208000039, 26.699164220000057 ], [ 53.74777333600008, 26.709164165000061 ], [ 53.686936142000036, 26.732773137000038 ], [ 53.646382315000039, 26.753053990000069 ], [ 53.485963249000065, 26.855136015000028 ], [ 53.473182188000067, 26.873054010000033 ], [ 53.470336196000062, 26.899491203000025 ], [ 53.470682201000045, 26.933745024000075 ], [ 53.462354110000035, 26.953191207000032 ], [ 53.439300188000061, 26.974435979000077 ], [ 53.390000180000072, 27.001109039000028 ], [ 53.307500292000043, 27.017218051000043 ], [ 53.236936234000041, 27.040273146000061 ], [ 53.166382235000071, 27.063327068000035 ], [ 53.109991304000062, 27.084164144000056 ], [ 53.001109208000059, 27.129435977000071 ], [ 52.853054120000081, 27.209436046000064 ], [ 52.816382288000057, 27.24499107400004 ], [ 52.756382278000046, 27.289164206000066 ], [ 52.685891310000045, 27.321545007000054 ], [ 52.670191167000041, 27.323609135000027 ], [ 52.608327190000068, 27.34819107800007 ], [ 52.573609179000073, 27.386245086000031 ], [ 52.614991306000036, 27.411244950000025 ], [ 52.626382312000032, 27.461664110000072 ], [ 52.54166323100003, 27.56388209000005 ], [ 52.499718176000044, 27.608609099000034 ], [ 52.434018136000077, 27.642500151000036 ], [ 52.363054094000063, 27.651109036000037 ], [ 52.247773253000048, 27.678327087000071 ], [ 52.22416327600007, 27.686382096000045 ], [ 52.193318207000061, 27.701109100000053 ], [ 52.173882250000077, 27.712218139000072 ], [ 52.158045147000053, 27.725554083000077 ], [ 52.139854070000069, 27.744300041000031 ], [ 52.128463231000069, 27.761391077000042 ], [ 52.048600290000081, 27.817909077000024 ], [ 52.026100244000077, 27.828327112000068 ], [ 51.978327252000042, 27.836935997000069 ], [ 51.822491243000059, 27.850000032000025 ], [ 51.792218155000057, 27.85110912500005 ], [ 51.767209239000067, 27.846382067000036 ], [ 51.71734512900008, 27.832682182000042 ], [ 51.606382309000026, 27.841945023000051 ], [ 51.58221812000005, 27.849164188000032 ], [ 51.430273326000076, 27.937773143000072 ], [ 51.325273225000046, 28.048335978000068 ], [ 51.264718165000033, 28.154991170000073 ], [ 51.23416327800004, 28.281664191000061 ], [ 51.138882329000069, 28.408336038000073 ], [ 51.093327188000046, 28.497218075000035 ], [ 51.075482283000042, 28.562500193000062 ], [ 51.076382165000041, 28.599445107000065 ], [ 51.072773252000047, 28.681109152000033 ], [ 51.069163334000052, 28.704445041000042 ], [ 51.054718130000026, 28.738744963000045 ], [ 51.024854079000079, 28.78388218200007 ], [ 51.00860928000003, 28.800553955000055 ], [ 50.947918266000045, 28.821800068000073 ], [ 50.923745193000059, 28.825973082000075 ], [ 50.903882262000081, 28.823473096000043 ], [ 50.878954146000069, 28.830900133000057 ], [ 50.852773271000046, 28.859164245000045 ], [ 50.801036142000044, 28.929791168000065 ], [ 50.800273221000054, 28.970900044000075 ], [ 50.825763259000041, 28.991600160000075 ], [ 50.860618230000057, 28.974091202000068 ], [ 50.891727161000063, 28.944853951000027 ], [ 50.925973270000043, 29.005273223000074 ], [ 50.928891178000072, 29.029582084000026 ], [ 50.923745193000059, 29.064582062000056 ], [ 50.885273263000045, 29.103336126000045 ], [ 50.826591223000037, 29.136591160000023 ], [ 50.716663233000077, 29.132427030000031 ], [ 50.687145188000045, 29.11958209900007 ], [ 50.638882189000071, 29.14277314900005 ], [ 50.629854041000044, 29.185973142000023 ], [ 50.656391147000079, 29.248882176000052 ], [ 50.668745066000042, 29.40034501100007 ], [ 50.658609166000076, 29.433054047000041 ], [ 50.639163318000044, 29.470418057000074 ], [ 50.625273331000074, 29.492218046000062 ], [ 50.465827237000042, 29.624445083000069 ], [ 50.441663383000048, 29.638327024000034 ], [ 50.415273296000066, 29.643891099000029 ], [ 50.394027183000048, 29.655273220000026 ], [ 50.280273190000059, 29.807218015000046 ], [ 50.237563370000032, 29.86221805200006 ], [ 50.205973318000076, 29.883609172000035 ], [ 50.187218139000038, 29.895000178000032 ], [ 50.161663225000041, 29.91777313800003 ], [ 50.147500155000046, 29.932782110000062 ], [ 50.133536072000027, 29.952500034000025 ], [ 50.137218242000074, 29.985836036000023 ], [ 50.138882217000059, 30.026945081000065 ], [ 50.133609162000027, 30.068882089000056 ], [ 50.110545182000067, 30.124445055000024 ], [ 50.099445195000044, 30.148327109000036 ], [ 50.080554062000033, 30.179582220000043 ], [ 50.055545145000053, 30.202773102000037 ], [ 50.038045072000045, 30.212773216000073 ], [ 50.026109242000075, 30.215827078000075 ], [ 50.003191275000063, 30.218636022000055 ], [ 49.926654105000068, 30.207773075000034 ], [ 49.898891230000061, 30.198054091000074 ], [ 49.874163274000068, 30.185553991000063 ], [ 49.833745066000063, 30.163045060000059 ], [ 49.723327238000081, 30.091391187000056 ], [ 49.578882236000027, 30.00819107500007 ], [ 49.555054161000044, 30.00721810400006 ], [ 49.498527109000065, 30.067354068000043 ], [ 49.500136099000031, 30.096382108000057 ], [ 49.495000172000061, 30.124436003000028 ], [ 49.485827184000073, 30.148673114000076 ], [ 49.461791239000036, 30.161109176000025 ], [ 49.42332718800003, 30.170273111000029 ], [ 49.353045097000063, 30.171664171000032 ], [ 49.315818215000036, 30.163609163000046 ], [ 49.238318133000064, 30.188045093000028 ], [ 49.00470912600008, 30.297353995000037 ], [ 48.928873186000033, 30.387045053000065 ], [ 49.063882177000039, 30.406109021000077 ], [ 49.114854040000068, 30.393609089000051 ], [ 49.190473223000026, 30.360691176000046 ], [ 49.222491255000079, 30.373336115000029 ], [ 49.263463339000054, 30.42909119400008 ], [ 49.223882316000072, 30.473327024000071 ], [ 49.192773217000081, 30.489718003000064 ], [ 49.100263325000071, 30.516109096000037 ], [ 49.038882313000045, 30.519164132000071 ], [ 48.978882303000034, 30.511527045000037 ], [ 48.948882298000058, 30.496382119000032 ], [ 48.866382242000043, 30.359027033000075 ], [ 48.862009236000063, 30.308118035000064 ], [ 48.888536115000079, 30.273118057000033 ], [ 48.913609238000049, 30.25500007100004 ], [ 48.93499130500004, 30.202500188000045 ], [ 48.942909186000065, 30.169027057000051 ], [ 48.934709170000076, 30.087218005000068 ], [ 48.917354104000026, 30.040691067000068 ], [ 48.867763245000049, 30.020827130000043 ], [ 48.770818152000061, 30.025554020000072 ], [ 48.708054126000036, 30.027218163000043 ], [ 48.659854159000076, 29.995418061000066 ], [ 48.642354086000068, 29.96235396700007 ], [ 48.617773317000058, 29.953191206000042 ], [ 48.59568230800005, 29.95096413400006 ], [ 48.545554168000081, 29.963027034000049 ], [ 48.473382294000032, 29.982900191000056 ], [ 48.450127206000047, 30.00540912200006 ], [ 48.411100227000077, 30.103609152000047 ], [ 48.410127088000081, 30.169991144000051 ], [ 48.411945123000066, 30.199673139000026 ], [ 48.289436231000082, 30.329718032000073 ], [ 48.160427174000063, 30.427082220000045 ], [ 48.14138231700008, 30.439991189000068 ], [ 48.107545076000065, 30.454318041000079 ], [ 48.067518136000047, 30.463791100000037 ], [ 48.032491168000035, 30.491382146000035 ], [ 48.033054097000047, 30.58805398800007 ], [ 48.034436105000054, 30.656936134000034 ], [ 48.036663344000033, 30.946382194000023 ], [ 48.036663344000033, 30.996109176000061 ], [ 47.923882322000054, 30.999436121000031 ], [ 47.843318151000062, 30.999718088000066 ], [ 47.693882228000064, 31.001109149000058 ], [ 47.694709186000068, 31.111382138000067 ], [ 47.695545197000058, 31.19416416100006 ], [ 47.695827165000026, 31.221664179000072 ], [ 47.696382214000039, 31.23542709700007 ], [ 47.696382214000039, 31.304445029000078 ], [ 47.697209173000033, 31.407773108000072 ], [ 47.716663235000055, 31.455553980000047 ], [ 47.748600130000057, 31.530282167000053 ], [ 47.801100181000038, 31.653045030000044 ], [ 47.833327090000068, 31.727773218000038 ], [ 47.86443618800007, 31.798609017000047 ], [ 47.84916335500003, 31.819718002000059 ], [ 47.786945158000037, 31.889164249000032 ], [ 47.737500143000034, 31.936664159000031 ], [ 47.633191214000078, 32.053182169000024 ], [ 47.602682260000051, 32.100591052000027 ], [ 47.529436160000046, 32.196936 ], [ 47.416082319000054, 32.349453949000065 ], [ 47.437900245000037, 32.385553968000067 ], [ 47.361236173000066, 32.47380903800007 ], [ 47.270963244000029, 32.488600080000026 ], [ 47.248863350000079, 32.473500081000054 ], [ 47.198873176000063, 32.46220915400005 ], [ 47.151382319000049, 32.458464120000031 ], [ 47.132773320000069, 32.465827119000039 ], [ 47.071936126000026, 32.504436009000074 ], [ 47.054436220000071, 32.51582701600006 ], [ 46.956100235000065, 32.584718046000035 ], [ 46.93360018900006, 32.600545091000072 ], [ 46.903318217000049, 32.623044969000034 ], [ 46.882073278000064, 32.643191208000076 ], [ 46.857218252000052, 32.666936134000025 ], [ 46.840273229000047, 32.680273083000031 ], [ 46.74749126100005, 32.753053987000044 ], [ 46.717763332000061, 32.769436082000027 ], [ 46.695827221000059, 32.778882151000062 ], [ 46.653882166000074, 32.798882210000045 ], [ 46.557527159000074, 32.857873207000068 ], [ 46.493600228000048, 32.902491084000076 ], [ 46.450827208000078, 32.925273096000069 ], [ 46.414991219000058, 32.940409137000074 ], [ 46.37331824000006, 32.951382222000063 ], [ 46.304709178000053, 32.963609072000054 ], [ 46.275409229000047, 32.966800062000061 ], [ 46.245000187000073, 32.965273215000025 ], [ 46.203882258000078, 32.95916414900006 ], [ 46.178327176000039, 32.95332699100004 ], [ 46.151654116000032, 32.952635987000065 ], [ 46.106418158000054, 32.97106410400005 ], [ 46.097018189000039, 33.002973171000065 ], [ 46.113054111000054, 33.083054042000072 ], [ 46.145136181000055, 33.135827008000035 ], [ 46.188318237000033, 33.175409037000065 ], [ 46.199018240000044, 33.19346415900003 ], [ 46.177145160000066, 33.264782085000036 ], [ 46.126936219000072, 33.303600188000075 ], [ 46.049163222000061, 33.383600090000073 ], [ 46.048882260000028, 33.406373218000056 ], [ 46.044227119000027, 33.437354073000051 ], [ 46.029163330000074, 33.460544955000046 ], [ 46.006473183000026, 33.48578219500007 ], [ 45.951936162000038, 33.479709171000025 ], [ 45.930545210000048, 33.482764207000059 ], [ 45.874227202000043, 33.499791205000065 ], [ 45.890673334000041, 33.521618016000048 ], [ 45.944782208000049, 33.554364101000033 ], [ 45.898882235000031, 33.633045026000048 ], [ 45.815063371000065, 33.622418114000027 ], [ 45.786091155000065, 33.600491055000077 ], [ 45.751691153000081, 33.595027060000064 ], [ 45.752327172000037, 33.637282078000055 ], [ 45.696727158000044, 33.669436064000024 ], [ 45.647382224000069, 33.735064187000035 ], [ 45.641054054000051, 33.767391176000046 ], [ 45.55027318100008, 33.888600034000035 ], [ 45.500136157000043, 33.945891181000036 ], [ 45.47260026400005, 33.940535983000075 ], [ 45.446800263000057, 33.942491146000066 ], [ 45.423736115000054, 33.951100198000063 ], [ 45.403609154000037, 33.975200182000037 ], [ 45.467209191000052, 34.077082215000075 ], [ 45.547254187000078, 34.134191139000052 ], [ 45.566518148000057, 34.151309165000043 ], [ 45.584163228000079, 34.301273148000064 ], [ 45.573327103000054, 34.324026997000033 ], [ 45.549436164000042, 34.345545019000042 ], [ 45.519854081000062, 34.347354002000031 ], [ 45.49235406300005, 34.335127152000041 ], [ 45.460545075000027, 34.378464106000024 ], [ 45.438636121000059, 34.457836035000071 ], [ 45.562927173000048, 34.586109161000024 ], [ 45.648463322000055, 34.573473107000041 ], [ 45.714673316000074, 34.557609182000078 ], [ 45.729573323000068, 34.585618150000073 ], [ 45.70832721000005, 34.659154095000076 ], [ 45.684018182000045, 34.699300059000052 ], [ 45.659645116000036, 34.715335981000067 ], [ 45.651654145000066, 34.735200085000031 ], [ 45.691100219000077, 34.816518125000073 ], [ 45.712627126000029, 34.82958215900004 ], [ 45.738327215000027, 34.830973220000033 ], [ 45.765054086000077, 34.846273211000039 ], [ 45.797736133000058, 34.914036037000074 ], [ 45.84874521100005, 34.896936116000063 ], [ 45.867763246000038, 34.903600064000045 ], [ 45.892354074000025, 34.973044970000046 ], [ 45.880545145000042, 34.998882187000049 ], [ 45.877773250000075, 35.03249110400003 ], [ 45.949818223000079, 35.093273146000058 ], [ 45.99206335000008, 35.075236128000029 ], [ 46.035754188000055, 35.059227029000056 ], [ 46.166009131000067, 35.108518151000055 ], [ 46.186600282000029, 35.221718101000079 ], [ 46.160200137000061, 35.234153996000032 ], [ 46.133045118000041, 35.272491144000071 ], [ 46.148045204000027, 35.29746418700006 ], [ 46.064991272000043, 35.383327062000035 ], [ 46.051100279000025, 35.399164165000059 ], [ 45.990963309000051, 35.485200043000077 ], [ 45.979991230000053, 35.584718044000056 ], [ 46.034163303000071, 35.689018089000058 ], [ 46.072773199000039, 35.696654003000049 ], [ 46.110691253000027, 35.692627001000062 ], [ 46.151245079000034, 35.694845021000049 ], [ 46.229427114000032, 35.712209139000038 ], [ 46.26860027400005, 35.728045069000075 ], [ 46.334163353000065, 35.77749108900008 ], [ 46.345200140000031, 35.814191085000061 ], [ 46.323609196000064, 35.832636133000051 ], [ 46.290963359000045, 35.831518155000026 ], [ 46.258891180000035, 35.813045111000065 ], [ 46.200691268000071, 35.802773089000027 ], [ 46.172909114000049, 35.807353966000051 ], [ 46.147736080000072, 35.82403613300005 ], [ 46.135545104000073, 35.847354085000063 ], [ 46.089363332000062, 35.865482130000032 ], [ 45.888173180000081, 35.831982177000043 ], [ 45.867909259000044, 35.81777317500007 ], [ 45.757127153000056, 35.817345027000044 ], [ 45.739991190000069, 35.832218044000058 ], [ 45.732909152000047, 35.853464157000076 ], [ 45.718882205000057, 35.879573115000028 ], [ 45.682500219000076, 35.921936092000067 ], [ 45.663318233000041, 35.940545090000057 ], [ 45.624518236000029, 35.966282227000079 ], [ 45.520073184000069, 36.011173186000065 ], [ 45.510545139000044, 36.017773097000031 ], [ 45.472482246000027, 36.016800125000032 ], [ 45.413882182000066, 35.995418058000041 ], [ 45.354436216000067, 36.06443599000005 ], [ 45.343600259000027, 36.133882069000038 ], [ 45.319709153000076, 36.238318069000059 ], [ 45.279163372000028, 36.381100102000062 ], [ 45.24373608500008, 36.428318045000026 ], [ 45.216100279000045, 36.428882147000024 ], [ 45.193882201000065, 36.419436077000057 ], [ 45.165545166000072, 36.411373189000074 ], [ 45.139163293000081, 36.408873203000041 ], [ 45.106945101000065, 36.41818214400007 ], [ 45.086509183000032, 36.43520009000008 ], [ 45.083927221000067, 36.45764498300008 ], [ 45.055263292000063, 36.506109147000075 ], [ 45.013091255000063, 36.542854070000033 ], [ 45.015827108000053, 36.557773187000066 ], [ 45.038818165000066, 36.614227149000044 ], [ 45.062763251000035, 36.639636050000036 ], [ 45.065409250000073, 36.683045089000075 ], [ 45.025554139000064, 36.736382156000047 ], [ 44.939227241000026, 36.782073084000046 ], [ 44.897763307000048, 36.782344993000038 ], [ 44.870536204000075, 36.784573238000064 ], [ 44.853045183000063, 36.794582069000057 ], [ 44.844500168000081, 36.821927022000068 ], [ 44.882491144000028, 36.870682206000026 ], [ 44.905536181000059, 36.892553944000042 ], [ 44.909427229000073, 36.920536090000041 ], [ 44.903118170000027, 37.030473132000054 ], [ 44.856518141000038, 37.052627005000033 ], [ 44.817491162000067, 37.055818164000073 ], [ 44.784991170000069, 37.084718128000077 ], [ 44.766173294000055, 37.112282184000037 ], [ 44.787336091000043, 37.149709058000042 ], [ 44.79276337400006, 37.174991057000057 ], [ 44.820545192000054, 37.268744992000052 ], [ 44.818182166000042, 37.297418141000037 ], [ 44.801654058000054, 37.321664137000027 ], [ 44.648600171000055, 37.427773165000076 ], [ 44.612800224000068, 37.434227062000048 ], [ 44.588854132000051, 37.443091093000078 ], [ 44.584436199000038, 37.613882093000029 ], [ 44.598873189000074, 37.690818074000049 ], [ 44.617763316000037, 37.717973094000058 ], [ 44.576791232000062, 37.766800194000041 ], [ 44.293054086000041, 37.873318091000044 ], [ 44.22397329000006, 37.899153966000029 ], [ 44.238882181000065, 37.96027312800004 ], [ 44.323318121000057, 38.09720911900007 ], [ 44.399018106000028, 38.211300065000046 ], [ 44.473218234000058, 38.316745077000064 ], [ 44.482518123000034, 38.341300198000056 ], [ 44.436727115000053, 38.394809095000028 ], [ 44.318145146000063, 38.38205401700003 ], [ 44.305263334000074, 38.400536114000033 ], [ 44.304163293000045, 38.449436137000077 ], [ 44.311763332000055, 38.469927041000062 ], [ 44.321527244000038, 38.509373115000074 ], [ 44.317218107000031, 38.613045020000072 ], [ 44.306518105000066, 38.647282077000057 ], [ 44.261800148000077, 38.724291148000077 ], [ 44.30319116000004, 38.809982194000042 ], [ 44.300263361000077, 38.84262702500007 ], [ 44.283663337000064, 38.86249113000008 ], [ 44.250545096000053, 38.865544993000071 ], [ 44.209427167000058, 38.893464106000067 ], [ 44.173327149000045, 38.968036055000027 ], [ 44.162418102000061, 39.005200073000026 ], [ 44.198036161000061, 39.056673173000036 ], [ 44.216445167000074, 39.136518009000042 ], [ 44.074718248000067, 39.336100177000048 ], [ 44.060545121000075, 39.352482103000057 ], [ 44.034954164000055, 39.377445088000059 ], [ 44.036382273000072, 39.385473107000053 ], [ 44.076863345000049, 39.411653981000029 ], [ 44.200954069000034, 39.416936089000046 ], [ 44.230918200000076, 39.408454106000079 ], [ 44.30452723500008, 39.387291142000038 ], [ 44.340273203000038, 39.395544969000071 ], [ 44.401100171000053, 39.416518168000039 ], [ 44.425827121000054, 39.436444969000036 ], [ 44.477891145000058, 39.640653947000033 ], [ 44.471082190000061, 39.698864253000067 ], [ 44.608463260000065, 39.779154001000052 ], [ 44.736718113000052, 39.701800099000025 ], [ 44.81304506500004, 39.63080906700003 ], [ 44.868463359000032, 39.622345021000058 ], [ 44.888600211000039, 39.605818087000046 ], [ 44.903045080000027, 39.555545108000047 ], [ 44.90804505300008, 39.535827016000042 ], [ 44.927773203000072, 39.476645080000026 ], [ 44.954573333000042, 39.432354097000029 ], [ 44.974709179000058, 39.42053611700004 ], [ 45.002218250000055, 39.416691170000036 ], [ 45.063045051000074, 39.373045091000051 ], [ 45.115818184000034, 39.312200185000052 ], [ 45.130545188000042, 39.285553948000029 ], [ 45.141800240000066, 39.247073133000072 ], [ 45.14352707900008, 39.216854025000032 ], [ 45.225818258000061, 39.194982119000031 ], [ 45.271236103000035, 39.187200193000081 ], [ 45.29839129100003, 39.197627112000077 ], [ 45.345545196000046, 39.164709032000076 ], [ 45.42110017400006, 39.060818024000071 ], [ 45.424436172000071, 39.022764183000049 ], [ 45.433473204000052, 39.003182213000059 ], [ 45.47726328400006, 38.984964147000028 ], [ 45.518591264000065, 38.970545094000045 ], [ 45.538600208000048, 38.965545121000048 ], [ 45.60749123800008, 38.951382219000038 ], [ 45.841100244000074, 38.903600174000076 ], [ 45.950827236000066, 38.887218080000025 ], [ 46.074718136000058, 38.871936026000071 ], [ 46.178245201000038, 38.841145105000066 ], [ 46.195536229000027, 38.844144988000039 ], [ 46.245000187000073, 38.866791214000045 ], [ 46.26860027400005, 38.882345009000062 ], [ 46.294718117000059, 38.895818080000026 ], [ 46.35109127700008, 38.90998215500008 ], [ 46.376382161000038, 38.906936004000045 ], [ 46.45193613400005, 38.889991148000036 ], [ 46.516391293000027, 38.87803604000004 ], [ 46.540373259000035, 38.875591206000024 ], [ 46.572491203000027, 38.915827024000066 ], [ 46.652209138000046, 38.976927075000049 ], [ 46.745473234000031, 39.05103600700005 ], [ 46.758945131000075, 39.085964236000052 ], [ 46.848882282000034, 39.160609108000074 ], [ 46.874700220000079, 39.167500038000071 ], [ 46.908736112000042, 39.167909075000068 ], [ 46.952900192000072, 39.156373229000053 ], [ 47.033882285000061, 39.196727064000072 ], [ 47.043463303000067, 39.237900146000072 ], [ 47.099709227000062, 39.304436029000044 ], [ 47.16457325500005, 39.335273218000054 ], [ 47.19950014300008, 39.339991056000031 ], [ 47.28693613400003, 39.374435984000058 ], [ 47.318609167000034, 39.397491080000066 ], [ 47.337218165000081, 39.424300094000046 ], [ 47.391663320000077, 39.470545066000057 ], [ 47.460682258000077, 39.498191097000074 ], [ 47.542500195000059, 39.515264196000032 ], [ 47.769854122000027, 39.633736027000054 ], [ 47.793882189000044, 39.666800121000051 ], [ 47.812900224000032, 39.679164266000043 ], [ 47.984709123000073, 39.715582127000062 ], [ 48.014154078000047, 39.699154099000054 ], [ 48.038318100000026, 39.683327055000063 ], [ 48.063318132000063, 39.665554067000073 ], [ 48.082491232000052, 39.646236127000066 ], [ 48.159154131000037, 39.573318095000047 ], [ 48.212491198000066, 39.526373235000051 ], [ 48.250827174000051, 39.494709087000047 ], [ 48.283873330000063, 39.472754032000068 ], [ 48.32193622300008, 39.440818143000058 ], [ 48.340545054000074, 39.423454025000069 ], [ 48.357882182000026, 39.389909145000047 ], [ 48.27887318900008, 39.350264252000045 ], [ 48.245963323000069, 39.342482158000053 ], [ 48.198536168000032, 39.336100177000048 ], [ 48.14894514000008, 39.306791176000047 ], [ 48.12387319100003, 39.278182231000073 ], [ 48.121718204000047, 39.251800191000029 ], [ 48.133327140000063, 39.210964229000069 ], [ 48.229227177000041, 39.139918044000069 ], [ 48.272354080000071, 39.126518063000049 ], [ 48.293873276000056, 39.112491116000058 ], [ 48.326927143000034, 39.054436043000067 ], [ 48.325409181000055, 39.03220907900004 ], [ 48.308736066000051, 39.003744974000028 ], [ 48.283736202000057, 38.98581809500007 ], [ 48.263718205000032, 38.977600142000028 ], [ 48.224709163000057, 38.971373226000026 ], [ 48.185263256000042, 38.969144981000056 ], [ 48.144145160000051, 38.968318022000062 ], [ 48.076791203000028, 38.95388220600006 ], [ 48.012073187000055, 38.897073186000057 ], [ 48.01319116500008, 38.86304500600005 ], [ 48.024636151000038, 38.833391174000042 ], [ 48.103045168000051, 38.783600154000055 ], [ 48.123600277000037, 38.772218032000069 ], [ 48.149300198000049, 38.761109161000036 ], [ 48.18470921200003, 38.750545113000044 ], [ 48.246900252000046, 38.715400128000056 ], [ 48.243600129000072, 38.672073232000059 ], [ 48.331654201000049, 38.602836030000049 ], [ 48.361927121000065, 38.605818143000079 ], [ 48.398736081000038, 38.620536095000034 ], [ 48.432763256000044, 38.624573155000064 ], [ 48.565263376000075, 38.47138213900007 ], [ 48.599154092000049, 38.416935978000026 ], [ 48.623509221000063, 38.396500060000051 ], [ 48.662900143000059, 38.389153992000047 ], [ 48.742209208000077, 38.424164196000049 ], [ 48.783736174000069, 38.445536037000068 ], [ 48.841173333000029, 38.450482199000078 ], [ 48.888282311000069, 38.442409085000065 ], [ 49.714527246000046, 38.262809039000047 ], [ 49.96957330500004, 38.33390903600008 ], [ 50.198973255000055, 38.37843605300003 ], [ 50.307745213000032, 38.402582136000035 ], [ 50.513636104000057, 38.472300125000061 ], [ 50.712400198000068, 38.54509108700006 ], [ 50.907227144000046, 38.581364108000059 ], [ 51.097309262000067, 38.623318048000044 ], [ 51.292709196000033, 38.714853963000053 ], [ 51.465891218000081, 38.483953988000053 ], [ 51.632609117000072, 38.255873182000073 ], [ 51.788282181000056, 38.101282221000076 ], [ 51.971600272000046, 37.92782711600006 ], [ 52.071236123000062, 37.879409052000028 ], [ 52.141773191000027, 37.852327123000066 ], [ 52.545200227000066, 37.797009076000052 ], [ 52.655009194000058, 37.777635983000039 ], [ 52.738136216000044, 37.718864257000064 ], [ 52.868236094000054, 37.668554063000045 ], [ 53.000336229000027, 37.612591113000065 ], [ 53.070263263000072, 37.56508215000008 ], [ 53.21442713600004, 37.49008222100008 ], [ 53.226900246000071, 37.483600160000037 ], [ 53.527100289000032, 37.32343607200005 ], [ 53.677318243000059, 37.335345080000025 ], [ 53.90563609000003, 37.350853948000065 ], [ 54.201663285000052, 37.330273190000071 ], [ 54.356100187000038, 37.360827071000074 ], [ 54.405682329000058, 37.377909055000032 ], [ 54.424709250000035, 37.386109071000078 ], [ 54.48220927300008, 37.414154081000049 ], [ 54.51277321300006, 37.430545060000043 ], [ 54.54582724800008, 37.444154086000026 ], [ 54.580127169000036, 37.452909151000028 ], [ 54.604709280000066, 37.448327100000029 ], [ 54.63054515500005, 37.440273097000045 ], [ 54.668745176000073, 37.440127084000039 ], [ 54.756382333000033, 37.49554504300005 ], [ 54.780691193000052, 37.513882133000038 ], [ 54.808873331000029, 37.577909144000046 ], [ 54.79353612500006, 37.623945071000037 ], [ 54.781863319000081, 37.643045082000071 ], [ 54.809718227000076, 37.711109153000052 ], [ 54.833054116000028, 37.746382213000061 ], [ 54.86332720300004, 37.766664240000068 ], [ 54.890273346000072, 37.774991158000034 ], [ 54.919991216000028, 37.784164145000034 ], [ 54.95470922700008, 37.804991163000068 ], [ 55.037773217000051, 37.865827016000026 ], [ 55.054163358000039, 37.887218136000058 ], [ 55.070409163000079, 37.905818082000053 ], [ 55.140063281000039, 37.954918098000064 ], [ 55.179436098000053, 37.964709166000034 ], [ 55.229427110000074, 37.981935989000078 ], [ 55.376518112000042, 38.038464215000033 ], [ 55.394436106000057, 38.048609167000052 ], [ 55.414154198000062, 38.067773216000035 ], [ 55.437627215000077, 38.083327011000051 ], [ 55.469436202000054, 38.090827138000066 ], [ 55.556654096000045, 38.098327097000038 ], [ 55.670273308000048, 38.10889114500003 ], [ 55.691654202000052, 38.111382079000066 ], [ 55.733318129000054, 38.120682136000028 ], [ 55.763882236000029, 38.124164146000055 ], [ 55.806382173000031, 38.122491118000028 ], [ 55.834709150000037, 38.106654015000061 ], [ 55.86832712000006, 38.093882174000044 ], [ 55.987073207000037, 38.072491054000068 ], [ 56.043191223000065, 38.075000093000028 ], [ 56.077082275000066, 38.080409102000033 ], [ 56.109991303000072, 38.086653956000077 ], [ 56.168745092000051, 38.094718017000048 ], [ 56.219700190000083, 38.071209125000053 ], [ 56.331800266000073, 38.086936090000052 ], [ 56.349645171000077, 38.136027053000078 ], [ 56.326727203000075, 38.162700113000028 ], [ 56.322982169000056, 38.18283612700003 ], [ 56.367209281000044, 38.218600199000036 ], [ 56.385554082000056, 38.23137321400003 ], [ 56.419300295000028, 38.252073162000045 ], [ 56.442763254000056, 38.259991211000056 ], [ 56.471100289000049, 38.263053958000057 ], [ 56.54277327300008, 38.266109162000078 ], [ 56.569718242000079, 38.25901807200006 ], [ 56.695263226000066, 38.266936121000072 ], [ 56.755745195000031, 38.286264119000066 ], [ 56.773882293000042, 38.266936121000072 ], [ 56.796027113000036, 38.252818146000038 ], [ 56.839573280000081, 38.234045029000072 ], [ 56.866709189000062, 38.225609147000057 ], [ 56.942491317000076, 38.211382207000042 ], [ 57.062627123000027, 38.195409150000046 ], [ 57.136863293000033, 38.239782107000053 ], [ 57.149791205000042, 38.260091123000052 ], [ 57.158882218000031, 38.270273124000028 ], [ 57.182491189000075, 38.281800085000043 ], [ 57.20846335400006, 38.282636096000033 ], [ 57.241518228000075, 38.272354015000076 ], [ 57.372073243000045, 38.090545003000045 ], [ 57.370818137000072, 38.070000120000032 ], [ 57.35166330900006, 37.99325407300006 ], [ 57.378873314000032, 37.974709112000028 ], [ 57.454018249000057, 37.938464254000053 ], [ 57.528600256000061, 37.927218087000028 ], [ 57.614436142000045, 37.925273150000066 ], [ 57.699645061000069, 37.926445108000053 ], [ 58.174436124000067, 37.796391162000077 ], [ 58.197773186000063, 37.786245036000025 ], [ 58.224436188000027, 37.721236001000079 ], [ 58.220963230000052, 37.698809045000075 ], [ 58.23373607700006, 37.678673199000059 ], [ 58.407209287000057, 37.641109030000052 ], [ 58.470682255000042, 37.640273186000059 ], [ 58.492491296000082, 37.645545068000047 ], [ 58.646382201000051, 37.661664138000049 ], [ 58.674709178000057, 37.653118118000066 ], [ 58.719436187000042, 37.649718082000049 ], [ 58.806309249000037, 37.670964195000067 ], [ 58.933600184000056, 37.668600163000065 ], [ 58.980818127000077, 37.654709170000046 ], [ 59.052773245000083, 37.631382166000037 ], [ 59.081663319000029, 37.61193598300008 ], [ 59.133882240000048, 37.576664264000044 ], [ 59.202218221000066, 37.53305406000004 ], [ 59.238045157000045, 37.518053973000065 ], [ 59.259854199000074, 37.517145040000059 ], [ 59.293473342000027, 37.535973141000056 ], [ 59.315682200000083, 37.540827101000048 ], [ 59.343045091000079, 37.535544994000077 ], [ 59.375545082000031, 37.495964138000033 ], [ 59.375891255000056, 37.471309105000046 ], [ 59.37054511000008, 37.424709076000056 ], [ 59.371936170000083, 37.40415396700007 ], [ 59.387218224000037, 37.343609133000029 ], [ 59.393054208000081, 37.323054025000033 ], [ 59.479991308000081, 37.23276416300007 ], [ 59.546109269000056, 37.208327060000045 ], [ 59.715545083000052, 37.147218124000062 ], [ 59.813045225000053, 37.124709026000062 ], [ 60.01582710100007, 37.043818128000055 ], [ 60.06346330100007, 37.01166414100004 ], [ 60.076382328000079, 36.988882129000046 ], [ 60.091800168000077, 36.958609041000045 ], [ 60.106100198000036, 36.936936122000077 ], [ 60.141382311000029, 36.891664121000076 ], [ 60.157491155000059, 36.87110012800008 ], [ 60.331245159000048, 36.658045057000038 ], [ 60.364718122000056, 36.645544957000027 ], [ 60.502782317000083, 36.646100174000026 ], [ 60.640827233000039, 36.64721815200005 ], [ 60.666936191000048, 36.647491067000033 ], [ 60.796391166000035, 36.648882128000025 ], [ 60.934436082000047, 36.649718139000072 ], [ 61.072773192000056, 36.650545097000077 ], [ 61.153736174000073, 36.650409143000047 ], [ 61.166663248000077, 36.632209181000064 ], [ 61.18950024600008, 36.568953975000056 ], [ 61.162627194000038, 36.419709159000035 ], [ 61.184436236000067, 36.286664216000077 ], [ 61.220818222000048, 36.178882161000047 ], [ 61.221373271000061, 36.139991136000049 ], [ 61.216936227000076, 36.108609123000065 ], [ 61.201100297000039, 36.069164221000051 ], [ 61.21166334000003, 35.93749106000007 ], [ 61.225818195000045, 35.903882143000033 ], [ 61.237073247000069, 35.891382211000064 ], [ 61.262082331000045, 35.81651806900004 ], [ 61.230473336000045, 35.692282170000055 ], [ 61.233182200000044, 35.662626996000029 ], [ 61.253609233000077, 35.632764119000058 ], [ 61.27655419000007, 35.607245080000041 ], [ 61.287909154000033, 35.555618088000074 ], [ 61.276518148000036, 35.51763599700007 ], [ 61.183600225000077, 35.348600167000029 ], [ 61.105827227000077, 35.281800086000032 ], [ 61.096236151000028, 35.236236060000067 ], [ 61.09978219900006, 35.176591108000025 ], [ 61.116382223000073, 35.163873246000037 ], [ 61.136036109000031, 35.132073143000071 ], [ 61.131663270000047, 35.085818114000062 ], [ 61.115545206000036, 35.016936136000027 ], [ 61.077491198000075, 34.879436043000055 ], [ 61.051100272000042, 34.789436028000068 ], [ 60.976654052000072, 34.650754087000053 ], [ 60.853191300000049, 34.567627065000067 ], [ 60.832909274000031, 34.561791081000024 ], [ 60.779163337000057, 34.556100104000052 ], [ 60.739991183000029, 34.544718150000051 ], [ 60.723873286000071, 34.527909081000075 ], [ 60.767773336000062, 34.477982107000059 ], [ 60.798254127000064, 34.463318135000065 ], [ 60.883609227000079, 34.35527322400003 ], [ 60.878873284000065, 34.319718029000057 ], [ 60.836100264000038, 34.32262705200003 ], [ 60.766663237000046, 34.322218015000033 ], [ 60.739300179000054, 34.320000163000032 ], [ 60.675127155000041, 34.314018167000029 ], [ 60.546109212000033, 34.196382179000068 ], [ 60.52610026800005, 34.169445089000078 ], [ 60.51097328000003, 34.145545098000071 ], [ 60.504436234000082, 34.122218093000072 ], [ 60.504163319000043, 34.091664212000069 ], [ 60.509182235000083, 34.060109029000046 ], [ 60.519991202000028, 34.01055404400006 ], [ 60.529163351000079, 33.961382111000034 ], [ 60.553591235000056, 33.821873212000071 ], [ 60.551654177000046, 33.797218011000041 ], [ 60.54055419000008, 33.77693598500008 ], [ 60.508691223000028, 33.739954022000063 ], [ 60.513327254000046, 33.689709038000046 ], [ 60.520263279000062, 33.660691057000065 ], [ 60.530827159000069, 33.63999110900005 ], [ 60.546109212000033, 33.625264105000042 ], [ 60.570545143000061, 33.611109082000041 ], [ 60.597209150000083, 33.597491172000048 ], [ 60.666100180000058, 33.567500052000071 ], [ 60.708973280000066, 33.56048221900005 ], [ 60.787773228000049, 33.561654009000051 ], [ 60.855827241000043, 33.558882114000028 ], [ 60.89401821000007, 33.55582707800005 ], [ 60.915545116000033, 33.547909029000039 ], [ 60.938882179000075, 33.517036133000033 ], [ 60.929827209000052, 33.504953955000076 ], [ 60.877563360000067, 33.500753951000036 ], [ 60.852700288000051, 33.484227017000023 ], [ 60.803318138000066, 33.390827134000062 ], [ 60.756945091000034, 33.344991199000049 ], [ 60.723873286000071, 33.30888212800005 ], [ 60.631382337000048, 33.207500159000062 ], [ 60.58326334000003, 33.149573161000035 ], [ 60.58055414100005, 33.088600180000071 ], [ 60.582500251000056, 33.066100134000067 ], [ 60.58790926100005, 33.043136066000045 ], [ 60.595827142000076, 33.013609136000071 ], [ 60.659709147000058, 32.818600135000054 ], [ 60.726382325000031, 32.623882153000068 ], [ 60.832773319000069, 32.321935993000068 ], [ 60.851800240000046, 32.261109024000064 ], [ 60.858327228000064, 32.225964207000061 ], [ 60.855000283000038, 32.190544966000061 ], [ 60.836654141000054, 32.090273097000079 ], [ 60.814436230000069, 32.019436124000038 ], [ 60.806936103000055, 31.996664169000042 ] ] ], [ [ [ 56.288327190000075, 26.949973227000044 ], [ 56.245273209000061, 26.927491118000034 ], [ 56.158600139000043, 26.868609087000038 ], [ 56.153045116000044, 26.858327006000025 ], [ 56.146945103000064, 26.850273170000037 ], [ 56.133045225000046, 26.835000169000068 ], [ 56.118327106000038, 26.819718116000047 ], [ 56.060545115000082, 26.771664162000036 ], [ 55.987209162000056, 26.727773164000041 ], [ 55.910818172000063, 26.709436074000052 ], [ 55.81916323400003, 26.709164165000061 ], [ 55.696100299000079, 26.688882139000043 ], [ 55.684718178000082, 26.685554020000041 ], [ 55.675000199000067, 26.681382180000071 ], [ 55.558882174000075, 26.622500148000029 ], [ 55.327491186000032, 26.546109158000036 ], [ 55.300409257000069, 26.541244972000072 ], [ 55.283609241000079, 26.558609091000051 ], [ 55.274991303000036, 26.650827125000035 ], [ 55.282491263000054, 26.658054002000029 ], [ 55.295000247000075, 26.655273222000062 ], [ 55.315545130000032, 26.64471805900007 ], [ 55.328609164000056, 26.64193610500007 ], [ 55.36027331300005, 26.642773122000051 ], [ 55.51860025600007, 26.698882085000037 ], [ 55.599436168000068, 26.73249117000006 ], [ 55.636654165000039, 26.753609039000025 ], [ 55.646382202000041, 26.758609012000079 ], [ 55.666100294000046, 26.767773115000068 ], [ 55.675827158000061, 26.772218038000062 ], [ 55.711382185000048, 26.780554008000024 ], [ 55.740545173000044, 26.778609072000052 ], [ 55.751109221000036, 26.782773201000055 ], [ 55.769991302000051, 26.792773147000048 ], [ 55.784163256000056, 26.841109068000037 ], [ 55.768600241000058, 26.881109019000064 ], [ 55.763054104000048, 26.892773108000029 ], [ 55.752218147000065, 26.903882147000047 ], [ 55.742491284000039, 26.912218117000066 ], [ 55.73707322100006, 26.926382193000052 ], [ 55.754582179000067, 26.952082114000063 ], [ 55.781109226000069, 26.948609156000032 ], [ 55.842218162000052, 26.921936096000024 ], [ 55.853363243000047, 26.915553947000035 ], [ 55.956654107000077, 26.930000157000052 ], [ 55.999436179000043, 26.957500176000053 ], [ 56.100545066000052, 26.985273109000047 ], [ 56.155545103000065, 26.998600168000053 ], [ 56.220545086000072, 27.000553989000025 ], [ 56.232209175000037, 26.996109066000031 ], [ 56.273045137000054, 26.97582704000007 ], [ 56.282773341000052, 26.970273191000047 ], [ 56.290273300000081, 26.963327107000055 ], [ 56.288327190000075, 26.949973227000044 ] ] ], [ [ [ 55.70374509800007, 26.812353943000062 ], [ 55.669445176000067, 26.790273160000027 ], [ 55.658045118000075, 26.785827064000046 ], [ 55.647773263000033, 26.784445056000038 ], [ 55.637500235000061, 26.785273188000076 ], [ 55.632763286000056, 26.794718084000067 ], [ 55.626382311000043, 26.833054059000062 ], [ 55.638327193000066, 26.864436072000046 ], [ 55.692627174000052, 26.929991105000056 ], [ 55.713327122000067, 26.903609065000069 ], [ 55.717209284000035, 26.892773108000029 ], [ 55.734991157000081, 26.838054032000059 ], [ 55.731654153000079, 26.797500037000077 ], [ 55.721373246000041, 26.79888221300007 ], [ 55.70374509800007, 26.812353943000062 ] ] ] ] }
        }
    ]
}