{
    "type": "FeatureCollection",
    "features": [
        {
            "type": "Feature",
            "properties": {
                "WCID": "IRQ",
                "COUNTRY": "Iraq"
            },
            "geometry": { "type": "Polygon", "coordinates": [ [ [ 39.196745127000042, 32.154945012000042 ], [ 39.30110920900006, 32.236382074000062 ], [ 39.260000165000065, 32.355545078000034 ], [ 39.04365419100003, 32.304054041000029 ], [ 38.986018213000079, 32.477664211000047 ], [ 39.086009121000075, 32.501509049000049 ], [ 38.794700267000053, 33.377591103000043 ], [ 38.810273172000052, 33.382218081000076 ], [ 38.961391176000063, 33.455554035000034 ], [ 39.38610925100005, 33.658882075000065 ], [ 39.579136100000028, 33.750000068000077 ], [ 39.798045093000042, 33.853336026000079 ], [ 40.000000177000061, 33.947654063000073 ], [ 40.165545112000075, 34.024435984000036 ], [ 40.199436164000076, 34.040827131000071 ], [ 40.663600147000068, 34.260273236000046 ], [ 41.003873230000067, 34.41943602200007 ], [ 41.030536065000035, 34.473609101000079 ], [ 41.099436147000063, 34.608600155000033 ], [ 41.224845177000077, 34.78290904000005 ], [ 41.223054132000073, 34.91693600800005 ], [ 41.214718161000064, 35.069154052000044 ], [ 41.212491257000067, 35.112782193000044 ], [ 41.211245204000079, 35.188600196000039 ], [ 41.212409115000071, 35.200618169000052 ], [ 41.215273211000067, 35.224709099000052 ], [ 41.222491203000061, 35.253609063000056 ], [ 41.240963241000031, 35.306518151000034 ], [ 41.254436145000057, 35.343318059000069 ], [ 41.262218239000049, 35.367773100000079 ], [ 41.26916331700005, 35.398745070000075 ], [ 41.27081823900005, 35.443327072000045 ], [ 41.272491267000078, 35.468318052000029 ], [ 41.277773207000052, 35.495544988000063 ], [ 41.322491164000041, 35.550564136000048 ], [ 41.384018189000074, 35.630964189000053 ], [ 41.378327212000045, 35.836936050000077 ], [ 41.356936092000069, 35.876382124000031 ], [ 41.271100207000075, 36.027773210000078 ], [ 41.254991195000059, 36.054991094000059 ], [ 41.290273307000064, 36.355554072000075 ], [ 41.367209120000041, 36.472773145000076 ], [ 41.403045109000061, 36.525553989000059 ], [ 41.835273203000042, 36.598882231000061 ], [ 42.367291207000051, 37.055891086000031 ], [ 42.374100162000047, 37.06316423100003 ], [ 42.378327156000068, 37.072064136000051 ], [ 42.355609181000034, 37.106927154000061 ], [ 42.376936095000076, 37.117491201000064 ], [ 42.531663346000073, 37.147491206000041 ], [ 42.579509261000055, 37.153673195000067 ], [ 42.588045056000055, 37.175682229000074 ], [ 42.724709138000037, 37.351945104000038 ], [ 42.765727155000036, 37.371218117000069 ], [ 42.786800265000068, 37.383673122000062 ], [ 42.822836079000069, 37.367182230000026 ], [ 42.894436140000039, 37.335536020000063 ], [ 42.924163230000033, 37.327764151000054 ], [ 42.960618139000076, 37.323527099000046 ], [ 43.002763354000081, 37.339153984000063 ], [ 43.156936226000028, 37.373882221000031 ], [ 43.489991149000048, 37.25124508600004 ], [ 43.623045145000049, 37.230000147000055 ], [ 43.816373240000075, 37.221927033000043 ], [ 43.912982218000025, 37.226591059000043 ], [ 43.936936188000061, 37.251936091000061 ], [ 43.95581810200008, 37.279636101000051 ], [ 44.009018209000033, 37.31776420500006 ], [ 44.04804518800006, 37.322218014000043 ], [ 44.072945141000048, 37.316373145000057 ], [ 44.096100148000062, 37.317218041000046 ], [ 44.118882161000045, 37.315682141000025 ], [ 44.230554090000055, 37.276245119000066 ], [ 44.262145148000059, 37.236518083000078 ], [ 44.268327136000039, 37.195000169000025 ], [ 44.262600285000076, 37.163464264000027 ], [ 44.230263238000077, 37.154018027000063 ], [ 44.195963316000075, 37.096382216000052 ], [ 44.257073258000048, 36.98569113800005 ], [ 44.319163212000035, 36.971236043000033 ], [ 44.341100161000043, 37.00665394300006 ], [ 44.349709214000029, 37.038318091000065 ], [ 44.436382284000047, 37.063045040000077 ], [ 44.470273336000048, 37.080827080000063 ], [ 44.490554189000079, 37.09165398500005 ], [ 44.550545147000037, 37.132636127000069 ], [ 44.567627130000062, 37.149709058000042 ], [ 44.582763338000063, 37.163182129000063 ], [ 44.642218190000051, 37.188464129000067 ], [ 44.745827230000032, 37.174427123000044 ], [ 44.774091175000081, 37.165964251000048 ], [ 44.787336091000043, 37.149709058000042 ], [ 44.766173294000055, 37.112282184000037 ], [ 44.784991170000069, 37.084718128000077 ], [ 44.817491162000067, 37.055818164000073 ], [ 44.856518141000038, 37.052627005000033 ], [ 44.903118170000027, 37.030473132000054 ], [ 44.909427229000073, 36.920536090000041 ], [ 44.905536181000059, 36.892553944000042 ], [ 44.882491144000028, 36.870682206000026 ], [ 44.844500168000081, 36.821927022000068 ], [ 44.853045183000063, 36.794582069000057 ], [ 44.870536204000075, 36.784573238000064 ], [ 44.897763307000048, 36.782344993000038 ], [ 44.939227241000026, 36.782073084000046 ], [ 45.025554139000064, 36.736382156000047 ], [ 45.065409250000073, 36.683045089000075 ], [ 45.062763251000035, 36.639636050000036 ], [ 45.038818165000066, 36.614227149000044 ], [ 45.015827108000053, 36.557773187000066 ], [ 45.013091255000063, 36.542854070000033 ], [ 45.055263292000063, 36.506109147000075 ], [ 45.083927221000067, 36.45764498300008 ], [ 45.086509183000032, 36.43520009000008 ], [ 45.106945101000065, 36.41818214400007 ], [ 45.139163293000081, 36.408873203000041 ], [ 45.165545166000072, 36.411373189000074 ], [ 45.193882201000065, 36.419436077000057 ], [ 45.216100279000045, 36.428882147000024 ], [ 45.24373608500008, 36.428318045000026 ], [ 45.279163372000028, 36.381100102000062 ], [ 45.319709153000076, 36.238318069000059 ], [ 45.343600259000027, 36.133882069000038 ], [ 45.354436216000067, 36.06443599000005 ], [ 45.413882182000066, 35.995418058000041 ], [ 45.472482246000027, 36.016800125000032 ], [ 45.510545139000044, 36.017773097000031 ], [ 45.520073184000069, 36.011173186000065 ], [ 45.624518236000029, 35.966282227000079 ], [ 45.663318233000041, 35.940545090000057 ], [ 45.682500219000076, 35.921936092000067 ], [ 45.718882205000057, 35.879573115000028 ], [ 45.732909152000047, 35.853464157000076 ], [ 45.739991190000069, 35.832218044000058 ], [ 45.757127153000056, 35.817345027000044 ], [ 45.867909259000044, 35.81777317500007 ], [ 45.888173180000081, 35.831982177000043 ], [ 46.089363332000062, 35.865482130000032 ], [ 46.135545104000073, 35.847354085000063 ], [ 46.147736080000072, 35.82403613300005 ], [ 46.172909114000049, 35.807353966000051 ], [ 46.200691268000071, 35.802773089000027 ], [ 46.258891180000035, 35.813045111000065 ], [ 46.290963359000045, 35.831518155000026 ], [ 46.323609196000064, 35.832636133000051 ], [ 46.345200140000031, 35.814191085000061 ], [ 46.334163353000065, 35.77749108900008 ], [ 46.26860027400005, 35.728045069000075 ], [ 46.229427114000032, 35.712209139000038 ], [ 46.151245079000034, 35.694845021000049 ], [ 46.110691253000027, 35.692627001000062 ], [ 46.072773199000039, 35.696654003000049 ], [ 46.034163303000071, 35.689018089000058 ], [ 45.979991230000053, 35.584718044000056 ], [ 45.990963309000051, 35.485200043000077 ], [ 46.051100279000025, 35.399164165000059 ], [ 46.064991272000043, 35.383327062000035 ], [ 46.148045204000027, 35.29746418700006 ], [ 46.133045118000041, 35.272491144000071 ], [ 46.160200137000061, 35.234153996000032 ], [ 46.186600282000029, 35.221718101000079 ], [ 46.166009131000067, 35.108518151000055 ], [ 46.035754188000055, 35.059227029000056 ], [ 45.99206335000008, 35.075236128000029 ], [ 45.949818223000079, 35.093273146000058 ], [ 45.877773250000075, 35.03249110400003 ], [ 45.880545145000042, 34.998882187000049 ], [ 45.892354074000025, 34.973044970000046 ], [ 45.867763246000038, 34.903600064000045 ], [ 45.84874521100005, 34.896936116000063 ], [ 45.797736133000058, 34.914036037000074 ], [ 45.765054086000077, 34.846273211000039 ], [ 45.738327215000027, 34.830973220000033 ], [ 45.712627126000029, 34.82958215900004 ], [ 45.691100219000077, 34.816518125000073 ], [ 45.651654145000066, 34.735200085000031 ], [ 45.659645116000036, 34.715335981000067 ], [ 45.684018182000045, 34.699300059000052 ], [ 45.70832721000005, 34.659154095000076 ], [ 45.729573323000068, 34.585618150000073 ], [ 45.714673316000074, 34.557609182000078 ], [ 45.648463322000055, 34.573473107000041 ], [ 45.562927173000048, 34.586109161000024 ], [ 45.438636121000059, 34.457836035000071 ], [ 45.460545075000027, 34.378464106000024 ], [ 45.49235406300005, 34.335127152000041 ], [ 45.519854081000062, 34.347354002000031 ], [ 45.549436164000042, 34.345545019000042 ], [ 45.573327103000054, 34.324026997000033 ], [ 45.584163228000079, 34.301273148000064 ], [ 45.566518148000057, 34.151309165000043 ], [ 45.547254187000078, 34.134191139000052 ], [ 45.467209191000052, 34.077082215000075 ], [ 45.403609154000037, 33.975200182000037 ], [ 45.423736115000054, 33.951100198000063 ], [ 45.446800263000057, 33.942491146000066 ], [ 45.47260026400005, 33.940535983000075 ], [ 45.500136157000043, 33.945891181000036 ], [ 45.55027318100008, 33.888600034000035 ], [ 45.641054054000051, 33.767391176000046 ], [ 45.647382224000069, 33.735064187000035 ], [ 45.696727158000044, 33.669436064000024 ], [ 45.752327172000037, 33.637282078000055 ], [ 45.751691153000081, 33.595027060000064 ], [ 45.786091155000065, 33.600491055000077 ], [ 45.815063371000065, 33.622418114000027 ], [ 45.898882235000031, 33.633045026000048 ], [ 45.944782208000049, 33.554364101000033 ], [ 45.890673334000041, 33.521618016000048 ], [ 45.874227202000043, 33.499791205000065 ], [ 45.930545210000048, 33.482764207000059 ], [ 45.951936162000038, 33.479709171000025 ], [ 46.006473183000026, 33.48578219500007 ], [ 46.029163330000074, 33.460544955000046 ], [ 46.044227119000027, 33.437354073000051 ], [ 46.048882260000028, 33.406373218000056 ], [ 46.049163222000061, 33.383600090000073 ], [ 46.126936219000072, 33.303600188000075 ], [ 46.177145160000066, 33.264782085000036 ], [ 46.199018240000044, 33.19346415900003 ], [ 46.188318237000033, 33.175409037000065 ], [ 46.145136181000055, 33.135827008000035 ], [ 46.113054111000054, 33.083054042000072 ], [ 46.097018189000039, 33.002973171000065 ], [ 46.106418158000054, 32.97106410400005 ], [ 46.151654116000032, 32.952635987000065 ], [ 46.178327176000039, 32.95332699100004 ], [ 46.203882258000078, 32.95916414900006 ], [ 46.245000187000073, 32.965273215000025 ], [ 46.275409229000047, 32.966800062000061 ], [ 46.304709178000053, 32.963609072000054 ], [ 46.37331824000006, 32.951382222000063 ], [ 46.414991219000058, 32.940409137000074 ], [ 46.450827208000078, 32.925273096000069 ], [ 46.493600228000048, 32.902491084000076 ], [ 46.557527159000074, 32.857873207000068 ], [ 46.653882166000074, 32.798882210000045 ], [ 46.695827221000059, 32.778882151000062 ], [ 46.717763332000061, 32.769436082000027 ], [ 46.74749126100005, 32.753053987000044 ], [ 46.840273229000047, 32.680273083000031 ], [ 46.857218252000052, 32.666936134000025 ], [ 46.882073278000064, 32.643191208000076 ], [ 46.903318217000049, 32.623044969000034 ], [ 46.93360018900006, 32.600545091000072 ], [ 46.956100235000065, 32.584718046000035 ], [ 47.054436220000071, 32.51582701600006 ], [ 47.071936126000026, 32.504436009000074 ], [ 47.132773320000069, 32.465827119000039 ], [ 47.151382319000049, 32.458464120000031 ], [ 47.198873176000063, 32.46220915400005 ], [ 47.248863350000079, 32.473500081000054 ], [ 47.270963244000029, 32.488600080000026 ], [ 47.361236173000066, 32.47380903800007 ], [ 47.437900245000037, 32.385553968000067 ], [ 47.416082319000054, 32.349453949000065 ], [ 47.529436160000046, 32.196936 ], [ 47.602682260000051, 32.100591052000027 ], [ 47.633191214000078, 32.053182169000024 ], [ 47.737500143000034, 31.936664159000031 ], [ 47.786945158000037, 31.889164249000032 ], [ 47.84916335500003, 31.819718002000059 ], [ 47.86443618800007, 31.798609017000047 ], [ 47.833327090000068, 31.727773218000038 ], [ 47.801100181000038, 31.653045030000044 ], [ 47.748600130000057, 31.530282167000053 ], [ 47.716663235000055, 31.455553980000047 ], [ 47.697209173000033, 31.407773108000072 ], [ 47.696382214000039, 31.304445029000078 ], [ 47.696382214000039, 31.23542709700007 ], [ 47.695827165000026, 31.221664179000072 ], [ 47.695545197000058, 31.19416416100006 ], [ 47.694709186000068, 31.111382138000067 ], [ 47.693882228000064, 31.001109149000058 ], [ 47.843318151000062, 30.999718088000066 ], [ 47.923882322000054, 30.999436121000031 ], [ 48.036663344000033, 30.996109176000061 ], [ 48.036663344000033, 30.946382194000023 ], [ 48.034436105000054, 30.656936134000034 ], [ 48.033054097000047, 30.58805398800007 ], [ 48.032491168000035, 30.491382146000035 ], [ 48.067518136000047, 30.463791100000037 ], [ 48.107545076000065, 30.454318041000079 ], [ 48.14138231700008, 30.439991189000068 ], [ 48.160427174000063, 30.427082220000045 ], [ 48.289436231000082, 30.329718032000073 ], [ 48.411945123000066, 30.199673139000026 ], [ 48.410127088000081, 30.169991144000051 ], [ 48.411100227000077, 30.103609152000047 ], [ 48.450127206000047, 30.00540912200006 ], [ 48.473382294000032, 29.982900191000056 ], [ 48.545554168000081, 29.963027034000049 ], [ 48.560691215000077, 29.939164091000066 ], [ 48.534018155000069, 29.924582094000073 ], [ 48.443045169000072, 29.927500169000041 ], [ 48.383882176000043, 29.939718135000078 ], [ 48.343882225000073, 29.954164177000052 ], [ 48.306391145000077, 29.970553983000059 ], [ 48.278600275000031, 29.988045003000025 ], [ 48.253609127000061, 30.001391172000069 ], [ 48.233327101000043, 30.011664201000031 ], [ 48.189709185000027, 30.02944506700004 ], [ 48.158527164000077, 30.037836023000068 ], [ 48.093882239000038, 30.045554079000055 ], [ 48.071663322000063, 30.044991151000033 ], [ 47.959436176000054, 30.033053979000044 ], [ 47.943473177000044, 30.017553996000061 ], [ 47.934991194000077, 30.017773099000067 ], [ 47.723463305000053, 30.084164143000066 ], [ 47.436663244000044, 30.08305404400005 ], [ 47.396663293000074, 30.082773082000074 ], [ 47.351100273000043, 30.081664156000045 ], [ 47.204300291000038, 30.033327062000069 ], [ 47.169991150000044, 30.015273113000035 ], [ 47.147763348000069, 29.996526986000049 ], [ 47.128873221000049, 29.974718112000062 ], [ 47.11360022000008, 29.94638208300006 ], [ 47.094436171000041, 29.90708218900005 ], [ 47.047763220000036, 29.794164206000062 ], [ 46.981373182000027, 29.646109118000027 ], [ 46.944291307000071, 29.578473194000026 ], [ 46.924018165000064, 29.554718042000047 ], [ 46.85889128000008, 29.475827066000079 ], [ 46.827763239000035, 29.433609096000055 ], [ 46.775554040000031, 29.356382096000061 ], [ 46.714909127000055, 29.266318043000069 ], [ 46.690382169000031, 29.230345094000029 ], [ 46.653836065000064, 29.18848218100004 ], [ 46.635273335000079, 29.17860913800007 ], [ 46.598882296000056, 29.156109092000065 ], [ 46.58165413200004, 29.143327025000076 ], [ 46.558182289000058, 29.121453945000042 ], [ 46.547354043000041, 29.105200094000054 ], [ 46.54694517400003, 29.104200133000063 ], [ 46.426673245000075, 29.061664154000027 ], [ 46.122154176000038, 29.086073094000028 ], [ 44.721663377000027, 29.198327062000033 ], [ 43.810382190000041, 29.868500121000068 ], [ 43.065000158000032, 30.416664184000069 ], [ 42.924700175000055, 30.51615402300007 ], [ 42.085000274000038, 31.111664105000045 ], [ 41.440000250000026, 31.373327006000068 ], [ 40.413327079000055, 31.948327075000066 ], [ 40.074609174000045, 32.005864146000079 ], [ 39.487582248000081, 32.105553977000056 ], [ 39.196745127000042, 32.154945012000042 ] ] ] } 
        }
    ]
}