{
    "type": "FeatureCollection",
    "features": [
        {
            "type": "Feature",
            "properties": {
                "WCID": "ISL",
                "COUNTRY": "Iceland"
            },
            "geometry": { "type": "Polygon", "coordinates": [ [ [ -22.024726799999939, 64.418882132000078 ], [ -22.024446005999948, 64.443327114000056 ], [ -21.978890864999983, 64.500827138000034 ], [ -21.782781822999937, 64.577500095000062 ], [ -21.705699828999968, 64.607082178000041 ], [ -21.691390914999943, 64.608600141000068 ], [ -21.651526750999949, 64.607000203000041 ], [ -21.644308758999955, 64.587582183000052 ], [ -21.60853680699995, 64.588736036000057 ], [ -21.583526884999969, 64.571000096000034 ], [ -21.496863872999938, 64.566054103000056 ], [ -21.567536727999936, 64.577109163000046 ], [ -21.579163935999929, 64.606773221000083 ], [ -21.606208817999971, 64.609973264000075 ], [ -21.652163942999948, 64.61390018600008 ], [ -21.664672927999959, 64.613754005000033 ], [ -21.677708798999959, 64.615909160000058 ], [ -21.60513677199998, 64.644018040000049 ], [ -21.559446011999967, 64.640545083000063 ], [ -21.513054859999954, 64.644091130000049 ], [ -21.613890831999981, 64.650273119000076 ], [ -21.701117777999968, 64.627773241000057 ], [ -21.952499771999953, 64.55166321300004 ], [ -22.028617846999964, 64.521100112000056 ], [ -22.087499878999949, 64.468600061000075 ], [ -22.166526808999947, 64.453744982000046 ], [ -22.177781860999971, 64.455554132000032 ], [ -22.20472683, 64.469982237000067 ], [ -22.352436750999971, 64.558600076000062 ], [ -22.409999806999963, 64.650836048000031 ], [ -22.326663907999944, 64.689436053000065 ], [ -22.31389089299995, 64.693600183000058 ], [ -22.299726817999954, 64.704436140000041 ], [ -22.325145944999974, 64.757627027000069 ], [ -22.407217852999963, 64.812482225000053 ], [ -22.535836816999961, 64.804444985000032 ], [ -22.677499865999948, 64.799991177000038 ], [ -22.690555014999973, 64.803600089000042 ], [ -22.867499840999983, 64.801100103000067 ], [ -22.878055003999975, 64.80055410600005 ], [ -22.951390789999948, 64.795818163000035 ], [ -23.047636831999966, 64.794854076000036 ], [ -23.14083672199996, 64.798327034000067 ], [ -23.165554954999948, 64.800827021000032 ], [ -23.200554932999978, 64.80777327100003 ], [ -23.252781900999935, 64.821382129000028 ], [ -23.266672893999953, 64.824154025000041 ], [ -23.286945867999975, 64.826245142000062 ], [ -23.39222676299994, 64.823045099000069 ], [ -23.527226868999946, 64.811100216000057 ], [ -23.630836747999979, 64.77165397400006 ], [ -23.632363930999929, 64.756236134000062 ], [ -23.644999817999974, 64.744154123000044 ], [ -23.663608815999964, 64.737782200000083 ], [ -23.835972932999937, 64.725963214000046 ], [ -23.847499892999963, 64.727491235000059 ], [ -23.904999916999941, 64.740545043000054 ], [ -23.918054898999969, 64.746654110000065 ], [ -23.944999867999968, 64.764709064000044 ], [ -24.01889087099994, 64.825818168000069 ], [ -24.049163957999951, 64.855273182000076 ], [ -24.05953673099998, 64.890882189000081 ], [ -23.943608806999976, 64.91665402600006 ], [ -23.872217790999969, 64.924709203000077 ], [ -23.833890867999969, 64.927218074000052 ], [ -23.815836750999949, 64.922482131000038 ], [ -23.777226854999981, 64.911945073000084 ], [ -23.751108844999976, 64.904709144000037 ], [ -23.716663916999948, 64.897218069000076 ], [ -23.695554931999936, 64.893054107000069 ], [ -23.669999849999954, 64.891391138000074 ], [ -23.649445913999955, 64.892209211000079 ], [ -23.634163860999934, 64.895554094000033 ], [ -23.547499842999969, 64.918327054000031 ], [ -23.53722681499994, 64.929154126000071 ], [ -23.522499810999932, 64.940827100000035 ], [ -23.503890812999941, 64.946927114000061 ], [ -23.358336716999929, 64.966245054000069 ], [ -23.237646027999972, 64.99208210300003 ], [ -23.219999774999962, 65.00471815700007 ], [ -23.204999855999972, 65.012500084000067 ], [ -23.189999936999982, 65.015827029000036 ], [ -22.975972900999977, 65.010963178000054 ], [ -22.959581920999938, 65.004018100000053 ], [ -22.615136828999937, 65.022763221000048 ], [ -22.596390869999937, 65.031100197000058 ], [ -22.564999804999957, 65.041927102000045 ], [ -22.525281820999965, 65.051100089000045 ], [ -22.35528190499997, 65.059436059000063 ], [ -22.322781912999972, 65.056109114000037 ], [ -22.276945977999958, 65.04943611300007 ], [ -22.226108896999961, 65.037563148000061 ], [ -22.17249992099994, 65.028318076000062 ], [ -22.14666387799997, 65.026654101000076 ], [ -21.949172826999927, 65.025836027000082 ], [ -21.835836755999935, 65.030273239000053 ], [ -21.799999927999977, 65.06027324400003 ], [ -21.728336834999936, 65.159154053000066 ], [ -21.728890878999948, 65.173873178000065 ], [ -21.736463928999967, 65.197209067000074 ], [ -21.759163966999949, 65.203600100000074 ], [ -21.78694595199994, 65.204436111000064 ], [ -21.808336736999934, 65.203327018000039 ], [ -21.826945902999967, 65.197073112000055 ], [ -21.83680888899994, 65.185963235000031 ], [ -21.836108831999979, 65.174163192000037 ], [ -21.878890903999945, 65.155545141000061 ], [ -21.913336837999964, 65.142209197000057 ], [ -21.994163865999951, 65.115554075000034 ], [ -22.036945937999974, 65.10916320900003 ], [ -22.074445902999969, 65.104718118000051 ], [ -22.279726758999971, 65.12720911100007 ], [ -22.544308908999938, 65.157773218000045 ], [ -22.56013679199998, 65.16839107800007 ], [ -22.504999794999947, 65.228882100000078 ], [ -22.399445984999943, 65.273882191000041 ], [ -22.353617761999942, 65.28915401900008 ], [ -22.310554895999928, 65.29999114900005 ], [ -22.277226771999949, 65.30526319900008 ], [ -22.233336779999945, 65.310273230000064 ], [ -22.217499844999963, 65.312482196000076 ], [ -22.160281955999949, 65.326663203000066 ], [ -22.056390947999944, 65.362491146000082 ], [ -22.02417292399997, 65.376391191000039 ], [ -21.982226862999937, 65.394436087000031 ], [ -21.915836824999928, 65.41443614700006 ], [ -21.85749978399997, 65.420818128000064 ], [ -21.81833685, 65.42277312300007 ], [ -21.786663984999961, 65.423873164000042 ], [ -21.76278193099995, 65.428882189000035 ], [ -21.704726857999958, 65.446927086000073 ], [ -21.698608906999937, 65.44915399000007 ], [ -21.809863919999941, 65.433609080000053 ], [ -21.871390944999973, 65.445827045000044 ], [ -21.939999839999928, 65.464427158000035 ], [ -21.993054939999979, 65.501100164000036 ], [ -22.037781948999964, 65.499436021000065 ], [ -22.116526744999931, 65.481936116000043 ], [ -22.181117857999936, 65.439436011000055 ], [ -22.195281933999979, 65.431927167000083 ], [ -22.218054893999977, 65.425000194000063 ], [ -22.22972686199995, 65.424991142000067 ], [ -22.287781934999941, 65.44137323700005 ], [ -22.334808770999928, 65.483173117000035 ], [ -22.32789085099995, 65.49188225000006 ], [ -22.313226878999956, 65.496963192000067 ], [ -22.291726793999942, 65.498045128000058 ], [ -22.267554893999943, 65.500218053000083 ], [ -22.229999776999932, 65.519718048000072 ], [ -22.205836760999944, 65.524154086000067 ], [ -22.159172861999934, 65.541653991000032 ], [ -22.149726792999957, 65.551100228000053 ], [ -22.109863969999935, 65.593318031000081 ], [ -22.122363901999961, 65.593882133000079 ], [ -22.163054856999963, 65.576518182000029 ], [ -22.174726824999937, 65.563891180000041 ], [ -22.188890899999933, 65.552218039000081 ], [ -22.20305497499993, 65.544436112000028 ], [ -22.231945886999938, 65.533327073000066 ], [ -22.259445905999939, 65.525835999000037 ], [ -22.317608769999936, 65.519273136000038 ], [ -22.473608896999963, 65.504718129000082 ], [ -22.499790944999972, 65.508473221000031 ], [ -22.573890824999978, 65.531100169000069 ], [ -22.678054914999962, 65.526654072000042 ], [ -22.722636749999936, 65.499991238000064 ], [ -22.741390922999983, 65.499709103000043 ], [ -22.782781933999956, 65.503873233000036 ], [ -22.853890815999932, 65.554991108000081 ], [ -22.912499932999935, 65.56470908600005 ], [ -23.017226783999945, 65.539445024000031 ], [ -23.055281965999939, 65.539154005000057 ], [ -23.085554884999965, 65.54054506500006 ], [ -23.150281953999979, 65.54777311600003 ], [ -23.199999882999975, 65.498045128000058 ], [ -23.211390888999972, 65.489436075000071 ], [ -23.22569980399993, 65.483745098000043 ], [ -23.248890853999967, 65.481653981000079 ], [ -23.294999870999959, 65.48331812400005 ], [ -23.375245864999954, 65.491382186000067 ], [ -23.62333678899995, 65.464427158000035 ], [ -23.65819980699996, 65.453609139000037 ], [ -23.712499786999956, 65.422209188000068 ], [ -23.72278186799997, 65.417218100000071 ], [ -23.740836822999938, 65.414991196000074 ], [ -23.879446008999935, 65.402500149000048 ], [ -23.907217768999942, 65.403045140000074 ], [ -23.962781907999954, 65.409718141000042 ], [ -23.978608784999949, 65.414582159000076 ], [ -23.99389083899996, 65.437954091000051 ], [ -23.997499918999949, 65.450000227000032 ], [ -24.015836840999953, 65.469982181000034 ], [ -24.183336770999972, 65.496382158000074 ], [ -24.265554858999963, 65.498882145000039 ], [ -24.40833672499997, 65.488600064000082 ], [ -24.458608864999974, 65.483045042000072 ], [ -24.508890896999958, 65.489436075000071 ], [ -24.538399889999937, 65.500273206000031 ], [ -24.465554948999966, 65.530545120000056 ], [ -24.400836764999951, 65.550827146000074 ], [ -24.370345915999962, 65.565609135000045 ], [ -24.370208787999957, 65.590054118000069 ], [ -24.376108809999948, 65.601109177000069 ], [ -24.36722684199998, 65.608600084000045 ], [ -24.321945956999969, 65.636800159000074 ], [ -24.309446024999943, 65.636653979000073 ], [ -24.153608841999983, 65.607354031000057 ], [ -24.143608896999979, 65.604718090000063 ], [ -24.135836692999931, 65.598327056000073 ], [ -24.123336760999962, 65.591800068000055 ], [ -24.050836817999937, 65.56470908600005 ], [ -24.038063970999929, 65.560818039000083 ], [ -23.892226734999952, 65.518054072000041 ], [ -23.876108837999936, 65.516100083000083 ], [ -23.845836755999983, 65.518873152000083 ], [ -23.807436742999982, 65.530963209000049 ], [ -23.912781843999937, 65.553054050000071 ], [ -24.012781803999928, 65.594709091000084 ], [ -24.058890821999967, 65.623045121000075 ], [ -24.069581938999931, 65.630682208000053 ], [ -24.082363838999981, 65.645273258000032 ], [ -24.070281827999963, 65.648882170000036 ], [ -23.96083680299995, 65.642209169000068 ], [ -23.947499853999943, 65.638882224000042 ], [ -23.910836738999933, 65.626936 ], [ -23.80589983699997, 65.609027058000038 ], [ -23.814163890999964, 65.615827129000081 ], [ -23.829445944999975, 65.623600171000078 ], [ -23.869445894999956, 65.639163186000076 ], [ -23.91694597299994, 65.655818195000052 ], [ -23.934026782999979, 65.659854081000049 ], [ -23.954726730999937, 65.661945031000073 ], [ -23.997363963999931, 65.667918143000065 ], [ -24.014445947999945, 65.671936092000067 ], [ -24.03889093, 65.679991101000041 ], [ -24.05944587099998, 65.690273181000066 ], [ -24.072781813999939, 65.699153976000048 ], [ -24.110554860999969, 65.732209184000055 ], [ -24.122781878999945, 65.746654053000043 ], [ -24.132499856999971, 65.784718120000036 ], [ -24.125554947999944, 65.792500214000029 ], [ -24.105208882999932, 65.80569115000003 ], [ -24.023336799999981, 65.796100074000037 ], [ -23.946663842999953, 65.773882163000053 ], [ -23.824172888999954, 65.738873133000084 ], [ -23.730281826999942, 65.720273186000043 ], [ -23.682781916999943, 65.713609071000064 ], [ -23.633608810999931, 65.703327157000047 ], [ -23.619999785999937, 65.700000212000077 ], [ -23.608336702999964, 65.695545063000054 ], [ -23.569754969999963, 65.668591210000045 ], [ -23.553754921999939, 65.645827134000058 ], [ -23.527226868999946, 65.627773185000081 ], [ -23.411663893999958, 65.65083615900005 ], [ -23.343608874999973, 65.666109160000076 ], [ -23.365836843999944, 65.670000207000044 ], [ -23.386390946999938, 65.668318127000077 ], [ -23.452781822999953, 65.67248225700007 ], [ -23.514863896999941, 65.69696328100008 ], [ -23.53833674699996, 65.717773200000067 ], [ -23.495336744999975, 65.724436143000048 ], [ -23.480836722999982, 65.727273249000064 ], [ -23.461336727999935, 65.730936141000029 ], [ -23.441581923999934, 65.728763216000061 ], [ -23.366108919999931, 65.731936102000077 ], [ -23.254172961999927, 65.738054053000042 ], [ -23.229446011999983, 65.740544987000078 ], [ -23.192217788999983, 65.775836152000068 ], [ -23.209999828999969, 65.77888213600005 ], [ -23.233608799999956, 65.77249110200006 ], [ -23.254999919999932, 65.76693608000005 ], [ -23.307499802999928, 65.758882244000063 ], [ -23.400836821999974, 65.75471811500006 ], [ -23.531672965999974, 65.750827068000035 ], [ -23.548617821999983, 65.75110015000007 ], [ -23.582226738999964, 65.754163233000043 ], [ -23.728336722999927, 65.773882163000053 ], [ -23.743617769999958, 65.77610906700005 ], [ -23.756108817999973, 65.780000114000075 ], [ -23.772226881999927, 65.787218106000068 ], [ -23.837226864999934, 65.826936090000061 ], [ -23.84778186099993, 65.837491085000067 ], [ -23.873336774999927, 65.868736138000031 ], [ -23.871390831999975, 65.880136029000028 ], [ -23.86694590899998, 65.890827147000039 ], [ -23.845281873999966, 65.910263272000066 ], [ -23.83278194199994, 65.916382229000078 ], [ -23.811390821999964, 65.920000193000078 ], [ -23.793336705999934, 65.91943609100008 ], [ -23.674999822999951, 65.900836145000028 ], [ -23.638054907999958, 65.894163312000046 ], [ -23.446390788999963, 65.86471818900003 ], [ -23.254999919999932, 65.837218170000028 ], [ -23.225417836999952, 65.835127053000065 ], [ -23.216181817999939, 65.840136079000047 ], [ -23.302499829999931, 65.855273125000053 ], [ -23.378608851999957, 65.867218175000062 ], [ -23.438608861999967, 65.87749120400008 ], [ -23.563608854999927, 65.900836145000028 ], [ -23.585554856999977, 65.90527318900007 ], [ -23.603617858999939, 65.911373203000039 ], [ -23.746390838999957, 65.966663254000082 ], [ -23.803336818999981, 65.997500109000043 ], [ -23.818336737999971, 66.014427027000067 ], [ -23.816390794999961, 66.033045078000043 ], [ -23.800836832999948, 66.056654049000031 ], [ -23.786255002999951, 66.066382254000075 ], [ -23.767226741999934, 66.070545042000049 ], [ -23.733336695999981, 66.067763256000035 ], [ -23.636108797999952, 66.049663207000037 ], [ -23.619526878999977, 66.047245028000077 ], [ -23.530446022999968, 66.029663148000054 ], [ -23.411526765999952, 65.997500109000043 ], [ -23.39625493799997, 65.989582228000074 ], [ -23.374445895999941, 65.986518139000054 ], [ -23.416390951999972, 66.026382135000063 ], [ -23.425554885999929, 66.032209067000053 ], [ -23.510054863999983, 66.05715411400007 ], [ -23.520390923999969, 66.057827180000061 ], [ -23.534808803999965, 66.058154075000061 ], [ -23.593390930999931, 66.079491215000075 ], [ -23.603226758999938, 66.083827174000078 ], [ -23.613226872999974, 66.091154130000064 ], [ -23.666108802999929, 66.112909193000064 ], [ -23.579445958999941, 66.161373189000074 ], [ -23.538064, 66.178882147000081 ], [ -23.468754879999949, 66.199718049000069 ], [ -23.446390788999963, 66.198882206000064 ], [ -23.352499894999937, 66.191100112000072 ], [ -23.273054874999957, 66.174991100000057 ], [ -23.160281898999983, 66.144718180000041 ], [ -23.028617790999931, 66.104018173000043 ], [ -22.983608813999979, 66.080127066000045 ], [ -22.977499915999942, 66.070263243000056 ], [ -22.97889080899995, 66.034436138000046 ], [ -22.809717850999959, 65.994154053000045 ], [ -22.758890827999949, 66.055127034000066 ], [ -22.748608914999977, 66.05804511000008 ], [ -22.677781832999983, 66.045000186000038 ], [ -22.616108794999946, 66.011936093000031 ], [ -22.60499992299998, 66.002209062000077 ], [ -22.590836685999932, 65.983045014000083 ], [ -22.576663893999978, 65.96333614200006 ], [ -22.587226767999937, 65.930263163000063 ], [ -22.597499795999965, 65.911936132000051 ], [ -22.612781849999976, 65.898609074000035 ], [ -22.621108767999942, 65.888882210000077 ], [ -22.64499987399995, 65.855818117000069 ], [ -22.656254925999974, 65.835127053000065 ], [ -22.64958192499995, 65.826518168000064 ], [ -22.638054963999934, 65.831100219000064 ], [ -22.566945914999962, 65.912491182000053 ], [ -22.53221784599998, 65.958327116000078 ], [ -22.499726738999982, 65.96610921100006 ], [ -22.421808902999942, 65.922491127000058 ], [ -22.419590882999955, 65.912627136000083 ], [ -22.432781819999946, 65.873882124000033 ], [ -22.440836828999977, 65.866382164000072 ], [ -22.449445880999974, 65.86110022400004 ], [ -22.461254976999953, 65.850545061000048 ], [ -22.462917778999952, 65.834154082000055 ], [ -22.444999784999936, 65.833600206000028 ], [ -22.435554888999945, 65.83888214600006 ], [ -22.424726810999971, 65.847491199000046 ], [ -22.40167288899994, 65.876936154000077 ], [ -22.394726805999937, 65.886936100000071 ], [ -22.385836791999964, 65.90416325800004 ], [ -22.388336777999939, 65.926936051000041 ], [ -22.397499874999937, 65.955827130000046 ], [ -22.411108899999931, 65.98818211400004 ], [ -22.49999982199995, 66.076963233000072 ], [ -22.595281944999954, 66.10750018300007 ], [ -22.608890802999952, 66.111100210000075 ], [ -22.661945902999946, 66.120545106000066 ], [ -22.715554879999956, 66.129163212000037 ], [ -22.75139086799993, 66.131100102000062 ], [ -22.76778184799997, 66.133045039000081 ], [ -22.830836725999973, 66.145136102000038 ], [ -22.841663965999942, 66.147491081000055 ], [ -22.911945888999981, 66.17360020700005 ], [ -22.943608863999941, 66.193882233000068 ], [ -22.952499883999963, 66.200000184000032 ], [ -22.96278196399993, 66.210263154000074 ], [ -22.972226859999978, 66.221373199000084 ], [ -22.965836832999969, 66.229427035000072 ], [ -22.92194600199997, 66.239991083000064 ], [ -22.856390801999964, 66.255554098000061 ], [ -22.833336712999937, 66.260545018000073 ], [ -22.801390932999936, 66.261382203000039 ], [ -22.738754981999932, 66.260127096000076 ], [ -22.657781940999939, 66.242218154000057 ], [ -22.590281803999972, 66.231109115000038 ], [ -22.548054948999948, 66.230000189000066 ], [ -22.458617862999972, 66.25582718000004 ], [ -22.434172879999949, 66.267773236000039 ], [ -22.445281919999957, 66.266936052000062 ], [ -22.493336711999973, 66.265000167000039 ], [ -22.52222678499993, 66.265827126000033 ], [ -22.546946023999965, 66.268600195000033 ], [ -22.671108831999959, 66.286653976000082 ], [ -22.70778183799996, 66.293882194000048 ], [ -22.832781830999977, 66.323609117000046 ], [ -22.941672978999975, 66.298463239000057 ], [ -22.974726846999943, 66.298600200000067 ], [ -23.027226729999938, 66.302491079000049 ], [ -23.051390918999971, 66.30582707700006 ], [ -23.073336752999978, 66.310000091000063 ], [ -23.133608838999976, 66.325818083000058 ], [ -23.14611782399993, 66.329709130000083 ], [ -23.177917758999968, 66.342073276000065 ], [ -23.189308764999964, 66.351527057000055 ], [ -23.190172939999968, 66.355900063000036 ], [ -23.132226830999969, 66.358600210000077 ], [ -23.05749981699995, 66.392491094000036 ], [ -23.078336725999975, 66.43666322100006 ], [ -22.941808765999951, 66.465691093000032 ], [ -22.88694602399994, 66.466382097000064 ], [ -22.861117859999979, 66.46415402000008 ], [ -22.738054924999972, 66.438600111000028 ], [ -22.611946005999982, 66.442218076000074 ], [ -22.42167294799998, 66.433318171000053 ], [ -22.258336811999982, 66.340273178000075 ], [ -22.202499925999973, 66.271945077000055 ], [ -22.086390784999935, 66.26805403000003 ], [ -21.974308813999983, 66.27290011100007 ], [ -21.766390842999954, 66.18581817200004 ], [ -21.755281803999935, 66.178882147000081 ], [ -21.730281939999941, 66.159718099000031 ], [ -21.644172971999978, 66.066663215000062 ], [ -21.637781937999932, 66.049782230000062 ], [ -21.65139079599993, 66.018873124000038 ], [ -21.618617889999939, 66.060545096000055 ], [ -21.510563925999975, 66.061382113000036 ], [ -21.39944587399998, 66.027218146000052 ], [ -21.392499789999931, 65.983045014000083 ], [ -21.517226868999956, 65.970827049000036 ], [ -21.5344459799999, 65.968045095000036 ], [ -21.599236750999978, 65.953118099000051 ], [ -21.589726810999935, 65.942218104000062 ], [ -21.575554856999929, 65.942763263000074 ], [ -21.551945884999952, 65.947491159000037 ], [ -21.536808837999956, 65.952900169000031 ], [ -21.468472857999927, 65.959573170000056 ], [ -21.410281829999974, 65.961654061000047 ], [ -21.392781924999952, 65.96026316800004 ], [ -21.379208773999949, 65.957091121000076 ], [ -21.29972687399993, 65.932636080000066 ], [ -21.285136830999932, 65.920618107000053 ], [ -21.277781877999928, 65.890545012000075 ], [ -21.278336759999945, 65.856109136000043 ], [ -21.339726824999957, 65.732900188000031 ], [ -21.398608856999942, 65.703891092000049 ], [ -21.437781848999975, 65.688045104000082 ], [ -21.47422686699997, 65.686291107000045 ], [ -21.59167292099994, 65.689300210000056 ], [ -21.639726874999951, 65.723873214000037 ], [ -21.66402685099996, 65.74811803700004 ], [ -21.667499807999945, 65.759018031000039 ], [ -21.681663883999931, 65.765000195000027 ], [ -21.724163988999976, 65.773036094000076 ], [ -21.77499989599994, 65.764709176000054 ], [ -21.650554952999983, 65.652636089000055 ], [ -21.623890944999971, 65.643054065000058 ], [ -21.602781959999959, 65.638609142000064 ], [ -21.586672947999944, 65.636653979000073 ], [ -21.534945876999927, 65.63660016700004 ], [ -21.50411774, 65.638445024000077 ], [ -21.493281949999982, 65.639773221000041 ], [ -21.482945889999939, 65.638927151000075 ], [ -21.421390869999982, 65.634718095000039 ], [ -21.403336752999962, 65.631236084000079 ], [ -21.308890808999934, 65.596936163000066 ], [ -21.296526830999937, 65.573673197000062 ], [ -21.295554865999975, 65.553054050000071 ], [ -21.302781909999965, 65.530818034000049 ], [ -21.280554946999928, 65.47819108200008 ], [ -21.200626793999959, 65.43159122000003 ], [ -21.190554931999941, 65.394718055000055 ], [ -21.187781862999941, 65.340273235000041 ], [ -21.121672953999962, 65.223873242000082 ], [ -21.084445904999939, 65.159163273000047 ], [ -21.076117812999939, 65.164445045000036 ], [ -21.067226792999975, 65.18623615000007 ], [ -21.086108873999933, 65.231653995000045 ], [ -21.09694600499995, 65.440827072000047 ], [ -21.092226824999955, 65.453745093000066 ], [ -21.076390895999964, 65.456100073000073 ], [ -21.064163877999931, 65.454709180000066 ], [ -21.052226874999974, 65.450545050000073 ], [ -21.043890903999966, 65.444718119000072 ], [ -20.977499860999956, 65.430827126000054 ], [ -20.978336709999951, 65.442491215000075 ], [ -20.987917895999942, 65.465963226000042 ], [ -20.988336822999941, 65.476382099000034 ], [ -20.9831268, 65.516100083000083 ], [ -20.941872915999966, 65.578182158000061 ], [ -20.927226881999957, 65.588882160000082 ], [ -20.917499850999945, 65.593891185000075 ], [ -20.852781834999973, 65.626100157000053 ], [ -20.728890934999981, 65.674163164000049 ], [ -20.682226868999976, 65.691663236000068 ], [ -20.664172919999942, 65.690827058000082 ], [ -20.623890833999951, 65.671027158000072 ], [ -20.63667290099994, 65.622773212000084 ], [ -20.644726736999928, 65.567491208000035 ], [ -20.641945956999962, 65.542827122000062 ], [ -20.497081858999934, 65.488045015000068 ], [ -20.474446025999953, 65.487782158000073 ], [ -20.450208914999962, 65.493044988000065 ], [ -20.325554926999928, 65.628600144000075 ], [ -20.269445963999942, 65.709154089000037 ], [ -20.263054930999942, 65.723600131000069 ], [ -20.263617858999964, 65.740554039000074 ], [ -20.271945950999964, 65.769991116000028 ], [ -20.309863836999966, 65.858191201000068 ], [ -20.374999773999946, 65.924709147000044 ], [ -20.398890879999954, 65.953600226000049 ], [ -20.414999891999969, 66.009427054000071 ], [ -20.419445988999939, 66.04388220800007 ], [ -20.422636811999951, 66.084445088000052 ], [ -20.17417289399998, 66.12943612600003 ], [ -20.09263675699998, 66.123182221000036 ], [ -19.993054884999935, 66.024154058000079 ], [ -19.94055500199994, 65.957763182000065 ], [ -19.924026726999955, 65.938191103000065 ], [ -19.874445925999964, 65.910554124000043 ], [ -19.84722686899994, 65.89888215600007 ], [ -19.789172968999935, 65.884427061000054 ], [ -19.771117846999971, 65.883327020000081 ], [ -19.747081900999945, 65.884573241000055 ], [ -19.736946000999978, 65.881945012000074 ], [ -19.699172953999948, 65.859854003000066 ], [ -19.661663936999958, 65.789445010000065 ], [ -19.654445944999964, 65.767627084000083 ], [ -19.647499861999961, 65.756100123000067 ], [ -19.635563863999948, 65.746936021000067 ], [ -19.607499910999934, 65.740554039000074 ], [ -19.456108824999944, 65.725691081000036 ], [ -19.42472681199996, 65.734573216000058 ], [ -19.396390782999958, 65.789153991000035 ], [ -19.390490928999952, 65.833527116000027 ], [ -19.417781901999945, 65.883327020000081 ], [ -19.450554975999978, 65.922209160000079 ], [ -19.470281952999983, 65.93513606700003 ], [ -19.484999904999938, 65.940554129000077 ], [ -19.47583680799994, 65.98110912900006 ], [ -19.454446022999946, 66.054718165000054 ], [ -19.436390900999982, 66.063327050000055 ], [ -19.383754895999971, 66.081382172000076 ], [ -19.260281917999976, 66.089718143000027 ], [ -19.231108871999936, 66.09138211800007 ], [ -19.150836725999966, 66.083882159000041 ], [ -19.079726837999942, 66.077500178000037 ], [ -19.090836715999956, 66.12498215100004 ], [ -19.088890940999931, 66.136936086000048 ], [ -19.078890826999952, 66.152500107000037 ], [ -19.067226737999931, 66.161236061000068 ], [ -18.991108830999963, 66.183318185000076 ], [ -18.968608785999947, 66.188327043000072 ], [ -18.852636772999972, 66.200827143000083 ], [ -18.787781964999965, 66.191936123000062 ], [ -18.68305494599997, 66.164718072000028 ], [ -18.653054940999937, 66.149427133000074 ], [ -18.629999844999929, 66.135545025000056 ], [ -18.551945886999931, 66.084718170000031 ], [ -18.533336719999966, 66.063891152000053 ], [ -18.519581849999952, 66.019991102000063 ], [ -18.53221773599995, 66.003327040000045 ], [ -18.539236741999957, 65.975891227000034 ], [ -18.529999884999938, 65.967773186000045 ], [ -18.442499855999927, 65.954991119000056 ], [ -18.377781839999955, 65.948318118000032 ], [ -18.358608906999962, 65.947491159000037 ], [ -18.335554984999931, 65.943054115000052 ], [ -18.325554871999941, 65.937773181000068 ], [ -18.283336733999931, 65.908600134000039 ], [ -18.205836818999956, 65.816518055000074 ], [ -18.18152678499996, 65.738045001000046 ], [ -18.091663897999979, 65.657482170000037 ], [ -18.069445986999938, 65.643327147000036 ], [ -18.06333675299993, 65.644436073000065 ], [ -18.048399866999944, 65.658391104000032 ], [ -18.062499903999935, 65.824436103000039 ], [ -18.070281830999932, 65.838336149000042 ], [ -18.10110879399997, 65.893327133000071 ], [ -18.148608871999954, 65.923473151000053 ], [ -18.161254984999971, 65.919018170000072 ], [ -18.171254930999964, 65.91194501700005 ], [ -18.18333677399994, 65.910554124000043 ], [ -18.221108813999933, 65.929154070000038 ], [ -18.291526859999976, 66.010409078000066 ], [ -18.316526723999971, 66.058736114000055 ], [ -18.331317765999927, 66.152418132000037 ], [ -18.295145997999953, 66.175273235000077 ], [ -18.250417814999935, 66.179436023000051 ], [ -18.218890794999936, 66.171936064000079 ], [ -18.163063966999971, 66.16692703800004 ], [ -18.083054844999936, 66.159991181000066 ], [ -18.01610875199998, 66.156663230000049 ], [ -17.968336765999936, 66.154436159000056 ], [ -17.950836692999928, 66.15221813900007 ], [ -17.909726809999938, 66.144436045000077 ], [ -17.752781875999972, 66.080273247000036 ], [ -17.734999835999929, 66.06888224000005 ], [ -17.722499902999971, 66.060000105000029 ], [ -17.609172883999975, 65.987491110000065 ], [ -17.417917801999977, 65.986109102000057 ], [ -17.364999829999931, 66.054991080000036 ], [ -17.341663940999979, 66.101382232000049 ], [ -17.265554917999964, 66.16692703800004 ], [ -17.232781844999977, 66.189709051000079 ], [ -17.218472929999962, 66.195273126000075 ], [ -17.131108855999969, 66.210536069000057 ], [ -17.10333676099998, 66.212773199000083 ], [ -17.041254852999941, 66.208318050000059 ], [ -17.023054891999948, 66.204436055000031 ], [ -16.992499836999968, 66.194153974000074 ], [ -16.968890865999981, 66.185545089000072 ], [ -16.909999780999954, 66.124709068000072 ], [ -16.736946001999968, 66.114718175000064 ], [ -16.594717844999934, 66.09110920300003 ], [ -16.658199865999961, 66.127345009000067 ], [ -16.687090944999966, 66.160963314000071 ], [ -16.558336696999959, 66.189991186000043 ], [ -16.526390916999958, 66.196109137000064 ], [ -16.508890844999939, 66.198318104000066 ], [ -16.448063875999935, 66.228045027000064 ], [ -16.436390901999971, 66.236100203000035 ], [ -16.427781849999974, 66.247209075000058 ], [ -16.417363981999927, 66.276027064000061 ], [ -16.42583674499997, 66.289718064000056 ], [ -16.509163926999975, 66.392209127000058 ], [ -16.578054956999949, 66.47693608700007 ], [ -16.565281941999956, 66.493609201000083 ], [ -16.555554910999945, 66.500827025000035 ], [ -16.527781809999965, 66.508045018000075 ], [ -16.469445942999982, 66.514709133000053 ], [ -16.430836717999966, 66.517209120000075 ], [ -16.356390832999978, 66.511654097000076 ], [ -16.241390785999954, 66.511654097000076 ], [ -16.175281876999975, 66.534718078000083 ], [ -16.02541780699994, 66.536100086000033 ], [ -15.956945871999949, 66.511382188000027 ], [ -15.894163907999939, 66.487491082000076 ], [ -15.854163956999969, 66.416927024000074 ], [ -15.832781889999978, 66.414991140000041 ], [ -15.70972683399998, 66.39721815200005 ], [ -15.698336832999928, 66.383327159000032 ], [ -15.682917818999954, 66.345691241000054 ], [ -15.687226787999975, 66.332491084000083 ], [ -15.720554911999955, 66.307773187000066 ], [ -15.738890827999967, 66.296936057000039 ], [ -15.74972678499995, 66.292218051000077 ], [ -15.728890881999973, 66.265273250000064 ], [ -15.694581907999975, 66.227482098000053 ], [ -15.558890797999936, 66.21638211100003 ], [ -15.374308883999959, 66.145273230000043 ], [ -15.358054864999929, 66.155818167000064 ], [ -15.339581820999967, 66.177354126000068 ], [ -15.331108889999939, 66.198318104000066 ], [ -15.32778194499997, 66.214718136000045 ], [ -15.212499762999983, 66.264163150000059 ], [ -15.146108886999968, 66.26999108800004 ], [ -15.128336737999973, 66.271945077000055 ], [ -15.112781936999966, 66.274991228000033 ], [ -15.09944599399995, 66.278882108000062 ], [ -15.00986390099996, 66.337773192000043 ], [ -15.000899789999949, 66.349345080000035 ], [ -14.969999903999962, 66.366945065000039 ], [ -14.960281925999936, 66.371936153000036 ], [ -14.943608810999933, 66.378873184000042 ], [ -14.93028192099996, 66.382763225000076 ], [ -14.90666389699993, 66.386936072000083 ], [ -14.88889090899994, 66.389163311000061 ], [ -14.855836705999934, 66.389709141000083 ], [ -14.836672825999926, 66.388609100000053 ], [ -14.710836821999976, 66.367218147000074 ], [ -14.710836821999976, 66.347763247000046 ], [ -14.804445916999953, 66.326109103000078 ], [ -14.963608870999963, 66.289445150000063 ], [ -14.976945986999965, 66.285554103000038 ], [ -15.007081946999961, 66.272763151000049 ], [ -14.989726880999967, 66.257763232000059 ], [ -14.973472861999937, 66.252918157000067 ], [ -14.94860878399993, 66.233318082000039 ], [ -14.938890805999961, 66.220963157000028 ], [ -14.935972897999932, 66.204991105000033 ], [ -14.943199774999982, 66.19221809000004 ], [ -14.962781911999969, 66.177763163000066 ], [ -14.976945986999965, 66.169709160000082 ], [ -15.023055003999957, 66.155545084000039 ], [ -15.070836713999938, 66.143600202000073 ], [ -15.145554842999957, 66.137082098000064 ], [ -15.161663854999972, 66.127773157000036 ], [ -15.176254904999951, 66.113673119000055 ], [ -15.149445889999981, 66.096373206000067 ], [ -15.011390915999982, 66.049991107000039 ], [ -14.933890832999964, 66.042218065000043 ], [ -14.824445975999936, 66.046936071000061 ], [ -14.782781881999938, 66.059709085000065 ], [ -14.751663898999936, 66.065273160000061 ], [ -14.730554913999981, 66.066100119000055 ], [ -14.714726862999953, 66.063600132000033 ], [ -14.688336775999971, 66.056109058000061 ], [ -14.676945936999971, 66.051663296000072 ], [ -14.663054943999953, 66.043609126000035 ], [ -14.61889086399998, 65.99442713500008 ], [ -14.6111087699999, 65.974445013000036 ], [ -14.605554920999964, 65.95347315600003 ], [ -14.623890836999976, 65.909436146000075 ], [ -14.653054998999949, 65.883045053000046 ], [ -14.726946000999931, 65.849154001000045 ], [ -14.757226799999955, 65.83888214600006 ], [ -14.776108880999971, 65.837218170000028 ], [ -14.799026848999972, 65.830827137000028 ], [ -14.819172920999961, 65.814163243000053 ], [ -14.855281823999974, 65.771382177000078 ], [ -14.865554851999946, 65.755827041000032 ], [ -14.848336746999962, 65.731382226000051 ], [ -14.832499810999934, 65.724445027000058 ], [ -14.817781859999968, 65.721373227000072 ], [ -14.797226750999982, 65.726382253000054 ], [ -14.7458368, 65.73749112400003 ], [ -14.672781807999968, 65.751244989000043 ], [ -14.637217894999935, 65.757218101000035 ], [ -14.418054930999972, 65.787218106000068 ], [ -14.381672944999934, 65.790836071000058 ], [ -14.349445867999975, 65.791382236000061 ], [ -14.338472950999972, 65.784573113000079 ], [ -14.331945962999953, 65.775545133000037 ], [ -14.313054997999927, 65.66970918800007 ], [ -14.408608861999937, 65.613873140000067 ], [ -14.508336745999941, 65.554445111000064 ], [ -14.530836791999945, 65.54083608500008 ], [ -14.540972858999965, 65.533736110000063 ], [ -14.547499847999973, 65.525273238000068 ], [ -14.558336809999957, 65.499227144000031 ], [ -14.526672829999939, 65.525835999000037 ], [ -14.332781806999947, 65.640827161000061 ], [ -14.30555487099997, 65.652500135000082 ], [ -14.288054964999958, 65.656245001000059 ], [ -14.192217792999941, 65.630554133000032 ], [ -13.999999797999976, 65.598873221000076 ], [ -13.988054914999964, 65.599991199000044 ], [ -13.966672847999973, 65.607073237000066 ], [ -13.939726872999927, 65.611936082000057 ], [ -13.913336785999945, 65.61249113100007 ], [ -13.867081923999933, 65.611791243000027 ], [ -13.680554905999941, 65.548045025000079 ], [ -13.609581810999941, 65.506100137000033 ], [ -13.60917294199993, 65.487073217000045 ], [ -13.636945874999981, 65.424709175000032 ], [ -13.675699771999973, 65.373191148000046 ], [ -13.735690896999927, 65.317354094000052 ], [ -13.660554846999958, 65.301100075000079 ], [ -13.59471784699997, 65.27860908200006 ], [ -13.583608807999951, 65.273882191000041 ], [ -13.570136741999931, 65.261309169000072 ], [ -13.614445996999962, 65.231936130000065 ], [ -13.628336821999937, 65.224154036000073 ], [ -13.639163893999978, 65.219436030000054 ], [ -13.659999796999955, 65.214427172000057 ], [ -13.700836764999963, 65.208600073000071 ], [ -13.752636758999927, 65.204991161000066 ], [ -13.788054993999936, 65.203891120000037 ], [ -13.863054921999947, 65.203891120000037 ], [ -14.030281937999973, 65.19346319400006 ], [ -14.013199786999962, 65.18595401500005 ], [ -13.978890812999964, 65.18720912100008 ], [ -13.94749991499998, 65.192491229000041 ], [ -13.920908829999973, 65.195309057000031 ], [ -13.871663974999933, 65.197491202000037 ], [ -13.85083679, 65.19721811900007 ], [ -13.650554900999964, 65.19444505000007 ], [ -13.618817829999955, 65.188882149000051 ], [ -13.636945874999981, 65.157773218000045 ], [ -13.591663983999979, 65.122773240000072 ], [ -13.517499898999972, 65.11220919200008 ], [ -13.499445949999938, 65.069154038000079 ], [ -13.584999867999954, 65.006945061000067 ], [ -13.593608752999955, 65.001391212000044 ], [ -13.604163915999948, 64.996654096000043 ], [ -13.61610879899996, 64.992491140000084 ], [ -13.636663907999946, 64.98749116700003 ], [ -13.659172837999961, 64.983318152000038 ], [ -13.678608795999935, 64.98220905900007 ], [ -13.771554881999975, 64.99232702200004 ], [ -13.783554916999947, 64.996900188000041 ], [ -13.820417856999939, 65.016245118000029 ], [ -13.853054976999942, 65.034436027000083 ], [ -13.872499817999937, 65.039991217000079 ], [ -13.88666389399998, 65.04304508000007 ], [ -13.988054914999964, 65.06389120800003 ], [ -14.006945880999979, 65.017773139000042 ], [ -13.870554881999965, 64.973327091000044 ], [ -13.762499911999953, 64.945218044000057 ], [ -13.744336830999941, 64.942044990000056 ], [ -13.706108813999947, 64.931245076000039 ], [ -13.700417836999975, 64.92040006700006 ], [ -13.709581938999975, 64.914991224000062 ], [ -13.76110885099996, 64.911654053000063 ], [ -13.813890868999977, 64.910827095000059 ], [ -13.941390848999959, 64.921100123000031 ], [ -14.051254967999967, 64.932209162000049 ], [ -14.041663891999974, 64.921100123000031 ], [ -14.025281796999934, 64.913882131000037 ], [ -14.008472895999944, 64.909573162000072 ], [ -13.960554896999952, 64.905000163000068 ], [ -13.932499828999937, 64.903318083000045 ], [ -13.902226740999936, 64.902773259000071 ], [ -13.866526873999931, 64.902909046000048 ], [ -13.846945909999931, 64.89971805600004 ], [ -13.80249986299998, 64.882218151000075 ], [ -13.791390822999972, 64.877773227000034 ], [ -13.769717735999961, 64.866300078000052 ], [ -13.769445994999955, 64.854018075000056 ], [ -13.820281902999966, 64.825273177000042 ], [ -13.871108757999934, 64.799163213000043 ], [ -13.908608889999982, 64.797482138000078 ], [ -14.011663886999941, 64.79610013000007 ], [ -14.042636694999942, 64.779636061000076 ], [ -14.016945994999958, 64.756100179000043 ], [ -14.004308766999941, 64.752491099000054 ], [ -13.991599789999952, 64.738391229000058 ], [ -14.0180549199999, 64.723600188000034 ], [ -14.064726865999944, 64.711654132000035 ], [ -14.079726784999934, 64.708600102000048 ], [ -14.238472822999938, 64.689300099000036 ], [ -14.250281918999974, 64.689163306000069 ], [ -14.326554890999944, 64.714773206000075 ], [ -14.33239087499993, 64.725491145000035 ], [ -14.367499816999953, 64.749163149000083 ], [ -14.422499854999955, 64.783600198000045 ], [ -14.4324998, 64.788327088000074 ], [ -14.444445855999959, 64.792500103000066 ], [ -14.473608844999944, 64.798045067000032 ], [ -14.493054859999972, 64.79887319900007 ], [ -14.512226786999975, 64.796518052000067 ], [ -14.454445969999938, 64.775836041000048 ], [ -14.38778184399996, 64.722491094000077 ], [ -14.365945979999935, 64.674100188000068 ], [ -14.367945901999974, 64.659763278000071 ], [ -14.427899811999964, 64.608118181000066 ], [ -14.44114590099997, 64.605618195000034 ], [ -14.464808851999976, 64.605109078000055 ], [ -14.506946020999976, 64.593318087000057 ], [ -14.555554855999958, 64.592773263000083 ], [ -14.574999865999928, 64.591663164000067 ], [ -14.584717844999943, 64.584991169000034 ], [ -14.579726756999946, 64.576109202000055 ], [ -14.570554942999934, 64.566100203000076 ], [ -14.525972940999964, 64.550136031000079 ], [ -14.501808751999931, 64.546800201000053 ], [ -14.480108842999982, 64.539654125000084 ], [ -14.462490920999926, 64.542354104000083 ], [ -14.47278188599995, 64.505827111000031 ], [ -14.541254993999928, 64.404709172000082 ], [ -14.567499906999956, 64.399991166000063 ], [ -14.595836774999952, 64.398327023000036 ], [ -14.709999804999939, 64.407773260000056 ], [ -14.871663918999957, 64.340000209000038 ], [ -14.891390895999962, 64.301663227000063 ], [ -14.880136681999943, 64.279573224000046 ], [ -14.924999812999943, 64.264163263000057 ], [ -14.960555007999972, 64.253600221000056 ], [ -14.974726794999981, 64.26027322200008 ], [ -15.081108903999962, 64.291654062000077 ], [ -15.097781850999979, 64.29582707600008 ], [ -15.220281856999975, 64.29860014500008 ], [ -15.291390906999936, 64.331936147000079 ], [ -15.386808815999927, 64.370136 ], [ -15.378608799999938, 64.354718160000061 ], [ -15.371663890999969, 64.343600068000057 ], [ -15.366390834999947, 64.331936147000079 ], [ -15.368890821999969, 64.308882225000048 ], [ -15.386108759999956, 64.276382234000039 ], [ -15.436672925999972, 64.255827125000053 ], [ -15.446945953999943, 64.251936078000028 ], [ -15.502636827999936, 64.24124512800006 ], [ -15.63610891299993, 64.226109087000054 ], [ -15.678608849999932, 64.220273271000053 ], [ -15.707781896999961, 64.214427061000038 ], [ -15.804163892999952, 64.182491172000027 ], [ -16.015554988999952, 64.133327119000057 ], [ -16.027499870999975, 64.127209167000046 ], [ -16.041117781999958, 64.101109094000037 ], [ -16.17778186399994, 64.038054048000049 ], [ -16.200836790999972, 64.029709193000031 ], [ -16.213054923999948, 64.025836083000058 ], [ -16.233608858999958, 64.020827058000066 ], [ -16.260417873999927, 64.017627015000073 ], [ -16.339172894999933, 63.98610904700007 ], [ -16.434445965999942, 63.918054028000029 ], [ -16.443336817999977, 63.912773261000041 ], [ -16.453054963999932, 63.908054082000035 ], [ -16.488608817999932, 63.895827065000049 ], [ -16.614172912999948, 63.862218148000068 ], [ -16.805281814999944, 63.826382159000048 ], [ -16.884999916999959, 63.865000101000078 ], [ -16.947499912999945, 63.907218071000045 ], [ -16.968336821999969, 63.916109091000067 ], [ -17.009726827999941, 63.859991076000028 ], [ -17.010563843999932, 63.815827163000051 ], [ -17.02333669099994, 63.793882167000049 ], [ -17.118054879999931, 63.791109098000049 ], [ -17.136672930999964, 63.791663310000047 ], [ -17.200554934999957, 63.794163296000079 ], [ -17.243790803999957, 63.798991105000027 ], [ -17.251108875999932, 63.796663283000044 ], [ -17.306390879999981, 63.783609139000077 ], [ -17.320554955999967, 63.780545050000057 ], [ -17.722499902999971, 63.713336101000039 ], [ -17.836672823999947, 63.733054025000058 ], [ -17.856945965999955, 63.733054025000058 ], [ -17.872081838999975, 63.730691167000032 ], [ -17.973336737999944, 63.668609092000054 ], [ -17.965281896999954, 63.622218108000027 ], [ -17.944445994999967, 63.608054032000041 ], [ -17.924163967999959, 63.603609109000047 ], [ -17.864581879999946, 63.599373230000083 ], [ -17.874172955999938, 63.583609050000064 ], [ -17.913890939999931, 63.542773256000032 ], [ -17.930836800999941, 63.529582152000046 ], [ -17.950836692999928, 63.522218147000046 ], [ -18.113054850999958, 63.481109102000062 ], [ -18.148054995999928, 63.47305409300003 ], [ -18.164172892999943, 63.470836074000033 ], [ -18.301672817999929, 63.45360908400005 ], [ -18.566108787999951, 63.417500180000047 ], [ -18.709999914999969, 63.391109087000075 ], [ -18.7294459299999, 63.390000162000035 ], [ -18.774999897999976, 63.391391222000038 ], [ -19.086108818999946, 63.412773122000033 ], [ -19.275836718999926, 63.433327057000042 ], [ -19.394172930999957, 63.461391178000042 ], [ -19.599163940999972, 63.50443610700006 ], [ -19.627226719999953, 63.509718047000035 ], [ -19.726945886999943, 63.527500087000078 ], [ -19.780836830999931, 63.536382222000043 ], [ -19.841663966999931, 63.544445110000083 ], [ -19.868054891999975, 63.545554036000055 ], [ -20.049445982999941, 63.537500200000068 ], [ -20.071390811999947, 63.536382222000043 ], [ -20.088336840999943, 63.534436112000037 ], [ -20.109999868999978, 63.533336071000065 ], [ -20.136946011999953, 63.534163197000055 ], [ -20.170554928999934, 63.536382222000043 ], [ -20.196946021999963, 63.542500173000064 ], [ -20.221390836999944, 63.549718165000058 ], [ -20.501108859999931, 63.667500166000082 ], [ -20.52108193, 63.689109048000034 ], [ -20.530499835999933, 63.696273228000052 ], [ -20.541172848999963, 63.707109185000036 ], [ -20.541254991999949, 63.723527154000067 ], [ -20.540836734999971, 63.746800179000047 ], [ -20.481945985999971, 63.767491242000062 ], [ -20.457499829999961, 63.768327085000067 ], [ -20.440554973999951, 63.767218160000027 ], [ -20.412226823999958, 63.76221818700003 ], [ -20.393336695999949, 63.756945131000066 ], [ -20.370281935999969, 63.74360918800005 ], [ -20.337226726999972, 63.730827121000061 ], [ -20.31631790199998, 63.730000163000057 ], [ -20.352217760999963, 63.756382203000044 ], [ -20.361945965999951, 63.76166330500007 ], [ -20.379999914999928, 63.767218160000027 ], [ -20.443336759999966, 63.783336057000042 ], [ -20.512781833999952, 63.767218160000027 ], [ -20.561526791999938, 63.750273137000079 ], [ -20.583945868999933, 63.738853967000068 ], [ -20.583690890999947, 63.721400162000066 ], [ -20.650836808999941, 63.728882184000042 ], [ -20.72949091199996, 63.76067323400008 ], [ -20.711108894999938, 63.76221818700003 ], [ -20.688499884999942, 63.761127031000058 ], [ -20.655281899999977, 63.75610006800008 ], [ -20.604645983999944, 63.76333599700007 ], [ -20.678336826999953, 63.846991079000077 ], [ -20.688754862999929, 63.841527084000063 ], [ -20.75386397799997, 63.805854040000042 ], [ -20.803108832999953, 63.794354068000075 ], [ -20.846390800999927, 63.790554049000036 ], [ -20.873336775999974, 63.80166325600004 ], [ -20.902226849999977, 63.811945001000083 ], [ -20.947781822999957, 63.823054040000045 ], [ -21.014163981999957, 63.833327068000074 ], [ -21.061672943999952, 63.838609176000034 ], [ -21.074999834999971, 63.84194500600006 ], [ -21.117226857999981, 63.855000156000074 ], [ -21.163336712999978, 63.871109168000032 ], [ -21.180899817999943, 63.879718053000033 ], [ -21.193754974999933, 63.924718144000053 ], [ -21.184581819999948, 63.929854071000079 ], [ -21.150699819999943, 63.934436123000069 ], [ -21.130972843999928, 63.930136039000047 ], [ -21.114999785999942, 63.929027113000075 ], [ -21.052363834999937, 63.93996315000004 ], [ -21.169726740999977, 63.954163267000069 ], [ -21.19083673199998, 63.954854104000049 ], [ -21.203336830999945, 63.953327088000037 ], [ -21.260972976999938, 63.942500184000039 ], [ -21.300281923999933, 63.918054028000029 ], [ -21.319445971999983, 63.887500147000083 ], [ -21.369163900999979, 63.867491203000043 ], [ -21.431390814999929, 63.849445133000074 ], [ -21.618890804999978, 63.823882172000083 ], [ -21.639445913999964, 63.822773246000054 ], [ -21.654726793999941, 63.824718183000073 ], [ -21.682499894999978, 63.83554508800006 ], [ -21.704172981999932, 63.844444992000035 ], [ -21.854163953999944, 63.852773251000031 ], [ -21.929999893999934, 63.841109163000056 ], [ -21.947226884999964, 63.839718102000063 ], [ -22.046672968999928, 63.834718129000066 ], [ -22.142226832999938, 63.834718129000066 ], [ -22.249445959999946, 63.850000183000077 ], [ -22.326117742999941, 63.86054512000004 ], [ -22.419999919999952, 63.847218061000035 ], [ -22.673054941999965, 63.804718124000033 ], [ -22.686254930999951, 63.804573117000075 ], [ -22.719172843999957, 63.825554027000067 ], [ -22.739999861999934, 63.982773217000044 ], [ -22.725563877999946, 64.063891097000067 ], [ -22.715554879999956, 64.072773232000031 ], [ -22.70041783299996, 64.081936161000044 ], [ -22.688336827999933, 64.084154013000045 ], [ -22.673890785999959, 64.081663247000051 ], [ -22.661108885999965, 64.078327081000054 ], [ -22.643608812999958, 64.072218183000075 ], [ -22.633608867999953, 64.06749112500006 ], [ -22.589726754999958, 64.044436029000053 ], [ -22.565836821999937, 64.025836083000058 ], [ -22.555281825999941, 64.010818060000076 ], [ -22.545281879999948, 63.993473220000055 ], [ -22.523054916999968, 63.978054038000039 ], [ -22.454726815999948, 63.975273258000072 ], [ -22.399726778999934, 63.974718041000074 ], [ -22.385281909999946, 63.979718181000067 ], [ -22.390836763999971, 63.992709125000033 ], [ -22.370417777999933, 64.011100194000051 ], [ -22.252499821999947, 64.02916319600007 ], [ -22.240836738999974, 64.027773141000068 ], [ -22.214726775999964, 64.021382107000079 ], [ -22.198754890999965, 64.017073139000047 ], [ -22.186390913999958, 64.018053989000066 ], [ -22.04555499099996, 64.046663269000078 ], [ -21.969445968999935, 64.06832713600005 ], [ -21.915136767999968, 64.108318034000035 ], [ -21.939445963999958, 64.123318120000079 ], [ -21.974445941999932, 64.145827051000083 ], [ -21.973336847999974, 64.156936090000045 ], [ -21.870554933999927, 64.157482255000048 ], [ -21.82194593, 64.154436104000069 ], [ -21.750554913999963, 64.163327124000034 ], [ -21.702081864999968, 64.182773139000062 ], [ -21.807781854999973, 64.232500121000044 ], [ -21.823336822999977, 64.234436005000077 ], [ -21.8413909399999, 64.234709088000045 ], [ -21.875972827999931, 64.232900105000056 ], [ -21.835836755999935, 64.283873141000072 ], [ -21.759163966999949, 64.340273123000031 ], [ -21.748608802999968, 64.34498224400005 ], [ -21.65333673899994, 64.366945010000052 ], [ -21.624172912999938, 64.373600073000034 ], [ -21.582572855999956, 64.380891156000075 ], [ -21.569172874999936, 64.366518036000059 ], [ -21.549445898999977, 64.364436139000077 ], [ -21.488890838999964, 64.361936152000055 ], [ -21.434999894999976, 64.368327018000059 ], [ -21.362781919999975, 64.384991080000077 ], [ -21.370136704999936, 64.388600160000067 ], [ -21.477781966999942, 64.39582703700006 ], [ -21.628054906999978, 64.402500205000081 ], [ -21.646117740999955, 64.402773120000063 ], [ -21.677781888999959, 64.401109144000031 ], [ -21.736108870999942, 64.385963213000082 ], [ -21.74999986399996, 64.380263184000057 ], [ -21.789308810999955, 64.358609207000029 ], [ -21.793754907999983, 64.347773250000046 ], [ -21.80971773899995, 64.338882230000081 ], [ -21.938608778999935, 64.304445013000077 ], [ -21.981672818999982, 64.296244998000077 ], [ -22.022499895999943, 64.29581819100008 ], [ -22.099236721999944, 64.312345125000036 ], [ -22.024726799999939, 64.418882132000078 ] ] ] }
        }
    ]
}