{
    "type": "FeatureCollection",
    "features": [
        {
            "type": "Feature",
            "properties": {
                "WCID": "ISR",
                "COUNTRY": "Israel"
            },
            "geometry": { "type": "MultiPolygon", "coordinates": [ [ [ [ 35.368136162000042, 30.928664192000042 ], [ 35.357909234000033, 30.921109080000065 ], [ 35.337773220000031, 30.886945113000024 ], [ 35.300000174000047, 30.791109114000051 ], [ 35.292500214000029, 30.759164172000055 ], [ 35.25555412600005, 30.681945050000024 ], [ 35.219718137000029, 30.621945040000071 ], [ 35.206109111000046, 30.594718104000037 ], [ 35.158609201000047, 30.444164203000071 ], [ 35.156091278000076, 30.415282176000062 ], [ 35.161382270000047, 30.319445004000045 ], [ 35.16693611900007, 30.151664112000049 ], [ 35.160209139000074, 30.116045047000057 ], [ 35.143882197000039, 30.094164256000056 ], [ 35.118745205000039, 30.07000006800007 ], [ 35.103673202000039, 30.048891083000058 ], [ 35.073054109000054, 29.95360912700005 ], [ 35.072218098000064, 29.920827001000077 ], [ 35.072773316000053, 29.891664181000067 ], [ 35.075836063000054, 29.867773242000055 ], [ 35.007218116000047, 29.640827010000066 ], [ 34.974627097000052, 29.577018096000074 ], [ 34.977491193000048, 29.570000096000058 ], [ 34.97998229500007, 29.545754100000067 ], [ 34.965827104000027, 29.549164193000024 ], [ 34.962563359000058, 29.551464187000079 ], [ 34.938045118000048, 29.523327144000064 ], [ 34.903800182000055, 29.486709124000072 ], [ 34.877782252000031, 29.532500131000063 ], [ 34.866391245000045, 29.606664217000059 ], [ 34.873891205000064, 29.630836117000058 ], [ 34.872773226000049, 29.650827124000045 ], [ 34.847773194000069, 29.740836023000043 ], [ 34.753609217000076, 29.991109092000045 ], [ 34.72334518200006, 30.089344997000069 ], [ 34.614436097000066, 30.365000145000067 ], [ 34.545273325000039, 30.406945032000067 ], [ 34.543327215000033, 30.434718133000047 ], [ 34.558882183000037, 30.48610909100006 ], [ 34.489436104000049, 30.69110915300007 ], [ 34.401382199000068, 30.85944509400008 ], [ 34.287500130000069, 31.162773095000034 ], [ 34.267582213000026, 31.216545016000055 ], [ 34.334163359000058, 31.259718020000037 ], [ 34.371245066000029, 31.300000106000027 ], [ 34.364582291000033, 31.354300086000023 ], [ 34.388882267000042, 31.394718126000043 ], [ 34.478609199000061, 31.471109116000036 ], [ 34.513327210000057, 31.498609134000048 ], [ 34.539991218000068, 31.514718146000064 ], [ 34.558891236000079, 31.540000146000068 ], [ 34.490545197000074, 31.596100056000068 ], [ 34.495282314000065, 31.603335986000047 ], [ 34.51110919100006, 31.626391081000065 ], [ 34.553891263000025, 31.683891104000054 ], [ 34.58610912000006, 31.726945085000068 ], [ 34.670000236000078, 31.875000174000036 ], [ 34.708327159000078, 31.947636070000044 ], [ 34.730827204000036, 32.003609079000057 ], [ 34.732773315000031, 32.014445036000041 ], [ 34.778882164000038, 32.125544983000054 ], [ 34.797773298000038, 32.178054087000078 ], [ 34.802800260000026, 32.19236417500008 ], [ 34.834163330000024, 32.290836114000058 ], [ 34.868327130000068, 32.407491085000061 ], [ 34.872500144000071, 32.419718102000047 ], [ 34.895554066000045, 32.510273167000037 ], [ 34.939163264000058, 32.713336003000052 ], [ 34.945545078000066, 32.767082108000068 ], [ 34.95319121700004, 32.823400115000027 ], [ 34.989018154000064, 32.83479112200007 ], [ 35.015000210000039, 32.815418029000057 ], [ 35.034163252000042, 32.823191071000053 ], [ 35.061663271000043, 32.849164242000029 ], [ 35.07319123700006, 32.872773213000073 ], [ 35.077673209000068, 32.892582165000078 ], [ 35.072082312000077, 32.954436085000054 ], [ 35.078891267000074, 32.986936076000063 ], [ 35.088054028000045, 33.018054059000065 ], [ 35.102427148000061, 33.075900088000026 ], [ 35.100827210000034, 33.093609038000068 ], [ 35.109445148000077, 33.09555397400004 ], [ 35.265000196000074, 33.098609178000061 ], [ 35.321936117000064, 33.088054015000068 ], [ 35.351936122000041, 33.062500107000062 ], [ 35.377782224000043, 33.062082185000065 ], [ 35.425554043000034, 33.068327038000064 ], [ 35.505273318000036, 33.098053961000062 ], [ 35.505827194000062, 33.114991105000058 ], [ 35.525691299000073, 33.126727111000037 ], [ 35.542773283000031, 33.196527074000073 ], [ 35.585545129000025, 33.270273238000073 ], [ 35.623636185000066, 33.245727002000024 ], [ 35.632491163000054, 33.24637307900008 ], [ 35.659573260000059, 33.254164226000057 ], [ 35.669618132000039, 33.251718051000068 ], [ 35.681109219000064, 33.24450911100007 ], [ 35.66901815600005, 33.212173238000048 ], [ 35.666936091000025, 33.205273087000023 ], [ 35.652500274000033, 33.124991051000052 ], [ 35.650027110000053, 33.091209131000028 ], [ 35.642491276000044, 33.050554051000063 ], [ 35.63499114900003, 33.00000011000003 ], [ 35.633745095000052, 32.935691132000045 ], [ 35.624582166000039, 32.905827081000041 ], [ 35.614463365000063, 32.894909149000057 ], [ 35.618609222000032, 32.891391097000053 ], [ 35.641591227000049, 32.856873078000035 ], [ 35.639209258000051, 32.815318117000061 ], [ 35.66284505200008, 32.797218067000074 ], [ 35.665482166000061, 32.761991108000075 ], [ 35.651936172000035, 32.727491194000038 ], [ 35.646663285000045, 32.702773129000036 ], [ 35.648891195000033, 32.685273224000071 ], [ 35.631936113000052, 32.687218161000033 ], [ 35.61578217400006, 32.67965399600007 ], [ 35.571936103000041, 32.64582714900007 ], [ 35.546945123000057, 32.405000151000024 ], [ 35.552563345000067, 32.394200068000032 ], [ 35.48110912900006, 32.412773192000031 ], [ 35.42388218800005, 32.485691056000064 ], [ 35.408191265000028, 32.504164100000025 ], [ 35.350554114000033, 32.523464103000038 ], [ 35.317363286000045, 32.516936109000028 ], [ 35.289027089000058, 32.516245105000053 ], [ 35.263463290000061, 32.521664173000033 ], [ 35.208054048000065, 32.546391123000035 ], [ 35.179445104000024, 32.527500157000077 ], [ 35.08180012300005, 32.471454058000063 ], [ 35.066382282000063, 32.447218121000049 ], [ 35.056663298000046, 32.425282177000042 ], [ 35.04721823400007, 32.394436103000032 ], [ 35.045827173000077, 32.383327063000024 ], [ 35.047773284000073, 32.367500186000029 ], [ 35.025554032000059, 32.239300150000076 ], [ 34.979163215000028, 32.153054054000052 ], [ 34.985836216000052, 32.132500119000042 ], [ 35.006100137000033, 32.054164193000076 ], [ 35.007500250000078, 32.028054061000034 ], [ 35.000863292000076, 31.985318090000078 ], [ 34.987500191000038, 31.968891068000062 ], [ 34.966109239000048, 31.861382096000057 ], [ 34.965554189000045, 31.830553959000042 ], [ 34.975136213000042, 31.823327082000048 ], [ 35.014163361000044, 31.820273219000057 ], [ 35.035827228000073, 31.822218156000076 ], [ 35.108282243000076, 31.833073223000042 ], [ 35.153054179000037, 31.81305405300003 ], [ 35.227618248000056, 31.775100125000051 ], [ 35.209718191000036, 31.750000181000075 ], [ 35.162909118000073, 31.74486425300006 ], [ 35.097500265000065, 31.708327034000035 ], [ 35.001663261000033, 31.646945016000075 ], [ 34.985545196000032, 31.633327106000024 ], [ 34.961363238000047, 31.603354090000039 ], [ 34.950273309000067, 31.586800167000035 ], [ 34.94582721200004, 31.559164194000061 ], [ 34.946382262000043, 31.502009169000075 ], [ 34.937218160000043, 31.481664111000043 ], [ 34.910554152000032, 31.44388217900007 ], [ 34.888191234000033, 31.412500166000029 ], [ 34.889854036000031, 31.380554051000047 ], [ 34.908191294000062, 31.360553992000064 ], [ 34.937563326000031, 31.350691174000076 ], [ 35.138609142000064, 31.361945052000067 ], [ 35.220409141000061, 31.376800132000028 ], [ 35.240554040000063, 31.384164137000027 ], [ 35.259163206000039, 31.403609146000065 ], [ 35.378609182000048, 31.484164098000065 ], [ 35.400673201000075, 31.493554008000046 ], [ 35.451109124000027, 31.499444978000042 ], [ 35.478200274000073, 31.497318153000037 ], [ 35.478609143000028, 31.449164120000034 ], [ 35.473118158000034, 31.410345011000061 ], [ 35.471000219000075, 31.400418156000057 ], [ 35.452500185000076, 31.351391063000051 ], [ 35.411382256000024, 31.225273092000066 ], [ 35.432782261000057, 31.200273227000025 ], [ 35.45950913300004, 31.156944990000056 ], [ 35.462218164000035, 31.121109169000079 ], [ 35.454991287000041, 31.099718049000046 ], [ 35.39513611600006, 30.946764241000039 ], [ 35.368136162000042, 30.928664192000042 ] ] ], [ [ [ 35.256382258000031, 31.80805408100008 ], [ 35.263609135000024, 31.803609157000039 ], [ 35.262500209000052, 31.789718164000078 ], [ 35.259718088000056, 31.787218010000061 ], [ 35.254436148000025, 31.786391052000056 ], [ 35.251663247000067, 31.78805402100005 ], [ 35.243609243000037, 31.803891124000074 ], [ 35.246382312000037, 31.80805408100008 ], [ 35.248891184000058, 31.808891097000071 ], [ 35.256382258000031, 31.80805408100008 ] ] ] ] }
        }
    ]
}