{
    "type": "FeatureCollection",
    "features": [
        {
            "type": "Feature",
            "properties": {
                "WCID": "ITA",
                "COUNTRY": "Italy"
            },
            "geometry": { "type": "MultiPolygon", "coordinates": [ [ [ [ 12.753573241000026, 43.971000117000074 ], [ 12.764718155000025, 43.970273239000051 ], [ 12.818609099000071, 43.963191201000029 ], [ 12.903054091000058, 43.924718098000028 ], [ 13.055973198000061, 43.835827008000081 ], [ 13.125554059000024, 43.78666412900003 ], [ 13.171182290000047, 43.754053999000064 ], [ 13.193336163000026, 43.735836100000029 ], [ 13.295282234000069, 43.675418168000078 ], [ 13.356663246000039, 43.649164203000055 ], [ 13.426109158000031, 43.622773111000072 ], [ 13.480418191000069, 43.610964182000032 ], [ 13.506400247000045, 43.630664170000045 ], [ 13.552082290000044, 43.60166412600006 ], [ 13.599445073000027, 43.570000145000051 ], [ 13.621527197000034, 43.537045016000036 ], [ 13.629582206000066, 43.489027105000048 ], [ 13.711663334000036, 43.350554040000077 ], [ 13.848054165000065, 43.078327091000062 ], [ 13.862500208000029, 43.006382199000029 ], [ 13.873609247000047, 42.964436137000064 ], [ 13.882500100000073, 42.942218059000027 ], [ 13.897500186000059, 42.913327147000075 ], [ 13.905554021000057, 42.901382097000067 ], [ 13.923609144000068, 42.844718085000068 ], [ 13.939718156000026, 42.803600156000073 ], [ 13.987218066000025, 42.711109039000064 ], [ 14.016663189000042, 42.670000162000065 ], [ 14.058336168000039, 42.61971813100007 ], [ 14.075000230000057, 42.600273121000043 ], [ 14.13055414300004, 42.54110912200008 ], [ 14.200000222000028, 42.482500173000062 ], [ 14.504163229000028, 42.261382214000037 ], [ 14.565836099000023, 42.218891161000045 ], [ 14.604718072000026, 42.204991116000031 ], [ 14.628891145000068, 42.198882217000062 ], [ 14.661391137000066, 42.189164239000036 ], [ 14.716245161000074, 42.168054080000047 ], [ 14.715000113000031, 42.141936070000042 ], [ 14.721663223000064, 42.10402706900004 ], [ 14.736527187000036, 42.087909172000025 ], [ 14.754718097000023, 42.077773104000073 ], [ 14.762182181000071, 42.074782105000054 ], [ 14.831245040000056, 42.042773126000043 ], [ 14.894027172000051, 42.02054498900003 ], [ 14.93971810000005, 42.015827151000053 ], [ 14.996391165000034, 42.004435977000071 ], [ 15.025973248000071, 41.984864233000053 ], [ 15.062773156000048, 41.952773111000056 ], [ 15.099163188000034, 41.937218142000063 ], [ 15.141918103000023, 41.928027050000026 ], [ 15.162363241000037, 41.924445128000059 ], [ 15.373054113000023, 41.905545110000048 ], [ 15.404718093000042, 41.903882140000064 ], [ 15.455554169000038, 41.906391179000025 ], [ 15.497218095000051, 41.909164248000025 ], [ 15.600000177000027, 41.923609117000069 ], [ 15.679100198000071, 41.915827023000077 ], [ 15.765273203000049, 41.916945001000045 ], [ 15.856945073000077, 41.92528214500004 ], [ 15.913609085000076, 41.935273206000033 ], [ 16.02291815500007, 41.94666421200003 ], [ 16.053891132000047, 41.943882091000035 ], [ 16.082500244000073, 41.936100164000038 ], [ 16.145554116000028, 41.911173222000059 ], [ 16.193682166000031, 41.829436087000033 ], [ 16.192773233000025, 41.789991186000066 ], [ 16.165000132000046, 41.757773162000035 ], [ 16.138882289000037, 41.740554051000061 ], [ 16.030554069000061, 41.676936076000061 ], [ 15.980282264000039, 41.653191150000055 ], [ 15.937773274000051, 41.64055409000008 ], [ 15.919863326000041, 41.631382108000025 ], [ 15.897636195000075, 41.613327154000046 ], [ 15.890973253000027, 41.588464249000026 ], [ 15.890418203000024, 41.565273200000036 ], [ 15.89832719900005, 41.530273222000062 ], [ 15.926245140000049, 41.485827007000069 ], [ 15.985000102000072, 41.439718157000073 ], [ 16.033054056000026, 41.418882087000043 ], [ 16.085282198000073, 41.404718012000046 ], [ 16.192218183000023, 41.365554072000066 ], [ 16.491945151000039, 41.25221816800007 ], [ 16.657773227000064, 41.19138214700007 ], [ 16.788891171000046, 41.154718026000069 ], [ 17.049718229000064, 41.081936116000065 ], [ 17.183745029000022, 41.029582078000033 ], [ 17.255000258000052, 40.989436115000046 ], [ 17.294854029000078, 40.964791140000045 ], [ 17.321945178000078, 40.942773221000039 ], [ 17.473609178000061, 40.828882100000044 ], [ 17.496391191000043, 40.81971816500004 ], [ 17.761109129000033, 40.730827076000025 ], [ 17.937218112000039, 40.678600108000069 ], [ 18.012636130000033, 40.643053965000036 ], [ 18.026109201000054, 40.612218117000054 ], [ 18.035827180000069, 40.577773188000037 ], [ 18.039163345000077, 40.555273143000079 ], [ 18.081663282000022, 40.524991170000078 ], [ 18.127500222000037, 40.494436116000031 ], [ 18.274718126000039, 40.410827134000044 ], [ 18.424863326000036, 40.288464256000054 ], [ 18.440827163000051, 40.26500012300005 ], [ 18.459718129000066, 40.231109071000049 ], [ 18.512500147000026, 40.134718023000062 ], [ 18.514445084000045, 40.102909035000039 ], [ 18.472427106000055, 40.03922702300008 ], [ 18.443891252000071, 40.028045061000057 ], [ 18.418745039000044, 39.994018055000026 ], [ 18.399436152000078, 39.936100109000051 ], [ 18.39933607200004, 39.899609158000032 ], [ 18.391109234000055, 39.816245096000046 ], [ 18.375273304000075, 39.798191147000068 ], [ 18.349445140000057, 39.791936068000041 ], [ 18.329718163000052, 39.806109028000037 ], [ 18.305000266000036, 39.820000189000041 ], [ 18.257218221000073, 39.832364167000037 ], [ 18.226945134000061, 39.833327080000061 ], [ 18.19944511500006, 39.837491209000063 ], [ 18.177218152000023, 39.846936105000054 ], [ 18.155827200000033, 39.856664142000056 ], [ 18.082082209000077, 39.902918166000063 ], [ 18.040763282000057, 39.937709099000074 ], [ 17.996600208000075, 39.998809150000056 ], [ 18.019409210000049, 40.011173128000053 ], [ 18.012218208000036, 40.101318150000054 ], [ 17.906391148000068, 40.255000178000046 ], [ 17.857218210000042, 40.284436081000081 ], [ 17.785000235000041, 40.29444507900007 ], [ 17.762773272000061, 40.296664104000058 ], [ 17.673473313000045, 40.304027103000067 ], [ 17.636391271000036, 40.303327046000049 ], [ 17.550000168000054, 40.299718134000045 ], [ 17.506800174000034, 40.297500115000048 ], [ 17.392773266000063, 40.330553983000073 ], [ 17.203818178000063, 40.412491110000076 ], [ 17.245827103000067, 40.454991215000064 ], [ 17.268054067000037, 40.473327131000076 ], [ 17.290000236000026, 40.469718051000029 ], [ 17.31700924300003, 40.488291175000029 ], [ 17.076600166000048, 40.520482209000079 ], [ 17.046945160000064, 40.515273192000052 ], [ 17.017773287000068, 40.506382172000031 ], [ 16.99833615600005, 40.498882212000069 ], [ 16.942218141000069, 40.467782166000063 ], [ 16.919300174000057, 40.450545118000036 ], [ 16.87416329000007, 40.405273118000025 ], [ 16.863800240000046, 40.390354 ], [ 16.79152711200004, 40.311382223000066 ], [ 16.74971817900007, 40.244854051000061 ], [ 16.741318171000046, 40.216527074000055 ], [ 16.688054026000032, 40.147082168000054 ], [ 16.641345032000061, 40.118300054000031 ], [ 16.630000126000027, 40.109853945000054 ], [ 16.608609174000037, 40.086173225000039 ], [ 16.599445071000048, 40.043609082000046 ], [ 16.609718099000077, 39.996245126000076 ], [ 16.56332711500005, 39.898045095000043 ], [ 16.536663275000024, 39.871936137000034 ], [ 16.499163311000075, 39.822353995000071 ], [ 16.490136169000039, 39.800000130000058 ], [ 16.486663211000064, 39.773744991000058 ], [ 16.490554090000046, 39.749164222000047 ], [ 16.530000165000047, 39.662918126000079 ], [ 16.555691201000059, 39.644582210000067 ], [ 16.596945085000073, 39.629718078000053 ], [ 16.626391214000023, 39.622773168000037 ], [ 16.741391261000047, 39.617218146000027 ], [ 16.823609182000041, 39.568600090000075 ], [ 16.963054044000046, 39.49277320200008 ], [ 17.034163260000071, 39.466109027000073 ], [ 17.145554060000052, 39.396382154000037 ], [ 17.135973209000042, 39.365554017000079 ], [ 17.115973150000059, 39.314582155000039 ], [ 17.108891280000023, 39.263054070000067 ], [ 17.116663316000029, 39.098744962000069 ], [ 17.141800141000033, 39.053745039000034 ], [ 17.158191120000026, 39.039027087000079 ], [ 17.169163199000025, 38.997773204000055 ], [ 17.169163199000025, 38.96333598700005 ], [ 17.126945062000061, 38.919444989000056 ], [ 17.097845105000033, 38.907845105000035 ], [ 16.97582705800005, 38.939018074000046 ], [ 16.952918143000034, 38.938744991000078 ], [ 16.929445126000076, 38.935827083000049 ], [ 16.834882171000061, 38.91708213000004 ], [ 16.730827213000055, 38.875545106000061 ], [ 16.615000207000037, 38.817636045000029 ], [ 16.595000148000054, 38.800827144000039 ], [ 16.573609196000064, 38.779718159000026 ], [ 16.55000022400003, 38.74249111000006 ], [ 16.534509126000046, 38.709436069000049 ], [ 16.548882246000062, 38.648609100000044 ], [ 16.56166330700006, 38.602773165000031 ], [ 16.570000116000074, 38.554164162000063 ], [ 16.575000256000067, 38.520273110000062 ], [ 16.576391149000074, 38.44856425100005 ], [ 16.569163267000022, 38.428336037000065 ], [ 16.532773234000047, 38.391664205000041 ], [ 16.515554122000026, 38.376936027000056 ], [ 16.490554090000046, 38.358053946000041 ], [ 16.470554031000063, 38.346382146000053 ], [ 16.448891170000024, 38.336936076000029 ], [ 16.414163269000028, 38.324435976000075 ], [ 16.358473233000041, 38.309164149000026 ], [ 16.33040911300003, 38.297909097000058 ], [ 16.160000159000049, 38.12825401200007 ], [ 16.143327212000031, 38.069164109000042 ], [ 16.138882289000037, 38.041518077000035 ], [ 16.135554171000024, 38.020827014000076 ], [ 16.11347322000006, 37.975273214000026 ], [ 16.087773299000048, 37.946109053000043 ], [ 16.057291167000074, 37.924235973000066 ], [ 15.996109141000034, 37.918882116000077 ], [ 15.947218170000042, 37.922491196000067 ], [ 15.92278224000006, 37.927773136000042 ], [ 15.866663219000031, 37.926109161000056 ], [ 15.79471815900007, 37.919164251000041 ], [ 15.781109133000029, 37.916936006000071 ], [ 15.775836078000054, 37.916936006000071 ], [ 15.75610910100005, 37.920827053000039 ], [ 15.720273280000072, 37.931109134000053 ], [ 15.667845146000047, 37.957845058000032 ], [ 15.635136110000076, 38.004582215000028 ], [ 15.645282236000071, 38.063044984000044 ], [ 15.63000018200006, 38.19283607300008 ], [ 15.629582260000063, 38.229300202000047 ], [ 15.654445165000027, 38.240273119000051 ], [ 15.715273307000075, 38.255827081000064 ], [ 15.737363310000035, 38.257500109000034 ], [ 15.760273230000053, 38.266109162000078 ], [ 15.79471815900007, 38.281518118000065 ], [ 15.815282152000066, 38.302491148000058 ], [ 15.89555413100004, 38.451945008000052 ], [ 15.906109126000047, 38.472773200000063 ], [ 15.922400193000044, 38.525264198000059 ], [ 15.922636060000059, 38.545964146000074 ], [ 15.89471812000005, 38.576109158000065 ], [ 15.87694513200006, 38.593327096000053 ], [ 15.845554066000034, 38.612773111000024 ], [ 15.829027133000068, 38.627982075000034 ], [ 15.849791118000041, 38.657291075000046 ], [ 15.984445052000069, 38.721664260000068 ], [ 16.023609160000035, 38.72388211100008 ], [ 16.04527319400006, 38.723609029000045 ], [ 16.06750015800003, 38.72083612800003 ], [ 16.098891223000066, 38.712636112000041 ], [ 16.129163305000077, 38.71555402000007 ], [ 16.178191236000032, 38.745209026000055 ], [ 16.195000137000022, 38.769164170000067 ], [ 16.20805411300006, 38.797773114000051 ], [ 16.218745063000028, 38.836382172000071 ], [ 16.221109095000031, 38.868609081000045 ], [ 16.219791124000039, 38.921382214000062 ], [ 16.194163288000027, 38.931936036000025 ], [ 16.157082251000077, 38.948191061000045 ], [ 16.099718182000061, 39.022773236000035 ], [ 16.06416332200007, 39.129164230000072 ], [ 16.057218077000073, 39.186244991000081 ], [ 16.056109151000044, 39.22500006100006 ], [ 16.053336082000044, 39.256382075000033 ], [ 16.033818150000059, 39.344364230000053 ], [ 15.98090017800007, 39.449645125000075 ], [ 15.926663229000042, 39.516527013000029 ], [ 15.903891274000046, 39.53388207900008 ], [ 15.853054026000052, 39.609991101000048 ], [ 15.807918147000066, 39.679300053000077 ], [ 15.799863306000077, 39.707500128000049 ], [ 15.787500167000076, 39.792500170000039 ], [ 15.781873227000062, 39.862845125000035 ], [ 15.755000175000077, 39.918882171000064 ], [ 15.748336059000053, 39.927218142000072 ], [ 15.728891217000069, 39.956936012000028 ], [ 15.712218103000055, 39.979718025000068 ], [ 15.66374505400006, 40.03305408600005 ], [ 15.642254022000031, 40.042927130000066 ], [ 15.618745130000036, 40.064582112000039 ], [ 15.583054148000031, 40.074436045000027 ], [ 15.560691230000032, 40.076109073000055 ], [ 15.509791117000077, 40.070064212000034 ], [ 15.458609205000073, 40.028609163000056 ], [ 15.416391235000049, 39.991454030000057 ], [ 15.354863204000026, 40.000900100000081 ], [ 15.31305410300007, 40.031391117000055 ], [ 15.264309145000027, 40.071800105000079 ], [ 15.137363209000057, 40.160691194000037 ], [ 15.104445129000055, 40.172354109000025 ], [ 15.012500177000049, 40.195544991000077 ], [ 14.941945171000043, 40.234164107000026 ], [ 14.927218167000035, 40.271109022000076 ], [ 14.96416325000007, 40.341382228000043 ], [ 14.990627097000072, 40.363954023000076 ], [ 14.991663268000025, 40.395691093000039 ], [ 14.964445049000062, 40.445827112000075 ], [ 14.89832708800003, 40.558745095000063 ], [ 14.830763249000029, 40.631518119000077 ], [ 14.774863330000073, 40.673045085000069 ], [ 14.753473216000032, 40.67597321900007 ], [ 14.625136052000073, 40.647636016000035 ], [ 14.504718111000045, 40.619718076000026 ], [ 14.401945081000065, 40.600000152000064 ], [ 14.362982139000053, 40.627353990000074 ], [ 14.390973170000052, 40.638045107000039 ], [ 14.474545103000025, 40.710200050000026 ], [ 14.452773277000063, 40.747918112000036 ], [ 14.311945066000021, 40.826244986000063 ], [ 14.268891253000049, 40.840200184000025 ], [ 14.216036144000043, 40.818191150000075 ], [ 14.166945181000074, 40.806936098000051 ], [ 14.073891136000043, 40.821936017000041 ], [ 14.046809207000024, 40.862218102000043 ], [ 14.028745032000074, 40.901245082000059 ], [ 14.017773288000058, 40.919718126000078 ], [ 13.989163338000026, 40.963327157000037 ], [ 13.900000172000034, 41.078045069000041 ], [ 13.837218209000071, 41.152500174000068 ], [ 13.798054101000048, 41.193327083000042 ], [ 13.775836190000064, 41.211109123000028 ], [ 13.737654107000026, 41.234745085000043 ], [ 13.712218216000053, 41.251109074000055 ], [ 13.644163197000069, 41.259718127000042 ], [ 13.61444515900007, 41.25597309300008 ], [ 13.566800242000056, 41.238054092000027 ], [ 13.276109133000034, 41.295136027000069 ], [ 13.211109150000027, 41.282491087000039 ], [ 13.170000106000032, 41.268882229000042 ], [ 13.146945179000056, 41.259164251000072 ], [ 13.116809219000061, 41.243327148000049 ], [ 13.029582273000074, 41.260136049000039 ], [ 13.005418084000041, 41.29790909500008 ], [ 12.980000130000064, 41.326382085000034 ], [ 12.95194506200005, 41.353053972000055 ], [ 12.932218085000045, 41.370282136000071 ], [ 12.913054037000052, 41.383609027000034 ], [ 12.892218134000075, 41.395554077000043 ], [ 12.855000137000047, 41.410000119000074 ], [ 12.656109141000059, 41.457835976000069 ], [ 12.576109240000051, 41.507218126000055 ], [ 12.517773205000026, 41.567773186000068 ], [ 12.471945149000021, 41.607218087000035 ], [ 12.447082245000047, 41.627636068000072 ], [ 12.351391253000031, 41.694445033000079 ], [ 12.215836097000022, 41.78805396100006 ], [ 12.207082205000063, 41.816935988000068 ], [ 12.177782257000047, 41.868054030000053 ], [ 12.158473202000039, 41.89208209700007 ], [ 12.12333609600006, 41.923054067000066 ], [ 12.021109231000025, 41.985836031000076 ], [ 11.912500217000058, 42.035973223000042 ], [ 11.885273281000025, 42.037773153000046 ], [ 11.862218186000064, 42.031109037000078 ], [ 11.830763250000075, 42.030273194000074 ], [ 11.805000129000064, 42.057491077000066 ], [ 11.739354069000058, 42.149544994000053 ], [ 11.725554104000025, 42.182218155000044 ], [ 11.703891243000044, 42.224445010000068 ], [ 11.627709130000028, 42.298264264000068 ], [ 11.534163235000051, 42.342773176000037 ], [ 11.497500120000041, 42.357500180000045 ], [ 11.451318180000044, 42.374173126000073 ], [ 11.372773209000059, 42.404645033000065 ], [ 11.262218086000075, 42.418609116000027 ], [ 11.231663198000035, 42.417500190000055 ], [ 11.205973168000071, 42.411800160000041 ], [ 11.201800154000068, 42.390827130000048 ], [ 11.179718197000057, 42.365127041000051 ], [ 11.097427186000061, 42.396518107000077 ], [ 11.084582255000043, 42.430273205000049 ], [ 11.109927119000076, 42.442427132000034 ], [ 11.133054131000051, 42.439436134000061 ], [ 11.164654073000065, 42.445618122000042 ], [ 11.183891212000049, 42.484864205000065 ], [ 11.18715411900007, 42.512500178000039 ], [ 11.158054163000031, 42.554991063000045 ], [ 11.080273286000022, 42.632218063000039 ], [ 10.965691161000052, 42.72444498200008 ], [ 10.925554082000076, 42.745827050000059 ], [ 10.889445178000074, 42.758891084000027 ], [ 10.862500209000075, 42.766936035000072 ], [ 10.768954146000056, 42.839164236000045 ], [ 10.775136135000025, 42.899027118000049 ], [ 10.732636198000023, 42.928673239000034 ], [ 10.680691197000044, 42.946518143000048 ], [ 10.588891252000053, 42.957500113000037 ], [ 10.533327113000041, 43.052773183000056 ], [ 10.540836125000055, 43.123327015000029 ], [ 10.54263605400007, 43.150136029000066 ], [ 10.538327086000038, 43.180827038000075 ], [ 10.53028213500005, 43.22360911100003 ], [ 10.518336079000051, 43.257500163000032 ], [ 10.422782215000041, 43.398045066000066 ], [ 10.377636111000072, 43.445827111000028 ], [ 10.35750009700007, 43.458609178000074 ], [ 10.324509094000064, 43.475127059000044 ], [ 10.295136055000057, 43.542564164000055 ], [ 10.287609106000048, 43.591300070000045 ], [ 10.276663346000021, 43.693745032000038 ], [ 10.27694514600006, 43.714436095000053 ], [ 10.27416319200006, 43.743327007000062 ], [ 10.267500250000069, 43.796109192000074 ], [ 10.252218196000058, 43.843327135000038 ], [ 10.236245138000072, 43.879027002000043 ], [ 10.215691203000063, 43.90499112100008 ], [ 10.179445171000054, 43.944718157000068 ], [ 10.111800195000058, 44.003745028000026 ], [ 10.090827165000064, 44.01860916000004 ], [ 10.059718066000073, 44.033054029000027 ], [ 10.027336092000041, 44.044173126000032 ], [ 9.983609212000033, 44.053882220000048 ], [ 9.715000227000075, 44.114718073000063 ], [ 9.661109116000034, 44.140827031000072 ], [ 9.372773154000072, 44.285273207000046 ], [ 9.336527123000053, 44.309718022000027 ], [ 9.231109100000026, 44.346936019000054 ], [ 8.815554120000058, 44.42555408000004 ], [ 8.74721814000003, 44.428054067000062 ], [ 8.640000187000055, 44.388327031000074 ], [ 8.495273217000033, 44.322627159000035 ], [ 8.443918135000047, 44.267909089000057 ], [ 8.399236053000038, 44.17979114700006 ], [ 8.332218210000065, 44.158609071000058 ], [ 8.301391247000026, 44.153473144000031 ], [ 8.274027183000044, 44.140827031000072 ], [ 8.234300147000056, 44.100418044000037 ], [ 8.156318104000036, 43.982773171000076 ], [ 8.164654075000044, 43.958745104000059 ], [ 8.067782240000042, 43.893053949000034 ], [ 7.948891146000051, 43.846382171000073 ], [ 7.913891168000021, 43.840000190000069 ], [ 7.772782163000045, 43.815273241000057 ], [ 7.738891111000044, 43.796244979000051 ], [ 7.66548223500007, 43.779573206000066 ], [ 7.613891118000026, 43.78889120000008 ], [ 7.580209110000055, 43.791245006000054 ], [ 7.531936054000028, 43.782045029000074 ], [ 7.512500096000053, 43.821109057000058 ], [ 7.496218082000041, 43.874509156000045 ], [ 7.598336150000023, 43.964718048000066 ], [ 7.658609242000068, 44.006800064000061 ], [ 7.706245107000029, 44.075827048000065 ], [ 7.70904516500002, 44.091309094000053 ], [ 7.661663272000055, 44.13395403800007 ], [ 7.662218154000072, 44.170827036000048 ], [ 7.614718076000031, 44.180273106000072 ], [ 7.520282191000035, 44.156109085000026 ], [ 7.466391247000047, 44.13860918000006 ], [ 7.42097323400003, 44.126109080000049 ], [ 7.350836150000021, 44.131518090000043 ], [ 7.031391258000042, 44.246936058000074 ], [ 6.976391221000029, 44.284164114000077 ], [ 6.877918108000074, 44.375136094000027 ], [ 6.853609079000023, 44.517773120000072 ], [ 6.852782289000061, 44.540836095000031 ], [ 6.950836139000046, 44.664718109000034 ], [ 6.975418082000033, 44.688191126000049 ], [ 7.028336054000022, 44.744718011000032 ], [ 7.031663335000076, 44.83138219600005 ], [ 7.006391226000062, 44.850691084000061 ], [ 6.969163338000044, 44.864300109000055 ], [ 6.942363208000074, 44.870691143000045 ], [ 6.901663201000076, 44.860409062000031 ], [ 6.849309163000044, 44.870409176000067 ], [ 6.775282206000043, 44.905545108000069 ], [ 6.749027067000043, 44.918327008000063 ], [ 6.661663329000021, 45.039991171000054 ], [ 6.623963204000063, 45.115718146000063 ], [ 6.634118215000058, 45.124000137000053 ], [ 6.637782281000057, 45.126109191000069 ], [ 6.689927106000027, 45.148054020000075 ], [ 6.766391186000021, 45.168191207000064 ], [ 6.821663299000022, 45.153053992000025 ], [ 6.939445133000049, 45.179445085000054 ], [ 7.064718208000045, 45.223054116000071 ], [ 7.127782139000033, 45.259300148000079 ], [ 7.15860910300006, 45.377491185000054 ], [ 7.146945014000039, 45.430545112000061 ], [ 7.089163191000068, 45.476864180000064 ], [ 6.995418141000073, 45.525273191000053 ], [ 6.969445138000026, 45.596936117000041 ], [ 6.809863256000028, 45.72964511400005 ], [ 6.79934514100006, 45.788664106000056 ], [ 6.813336046000074, 45.834236010000041 ], [ 6.87236325300006, 45.855973135000056 ], [ 6.902082129000064, 45.849854011000048 ], [ 6.922218142000077, 45.85221804300005 ], [ 6.94389122900003, 45.858327109000072 ], [ 6.984509094000032, 45.875900104000038 ], [ 7.038054033000037, 45.931936145000066 ], [ 7.07028228300004, 45.903053950000071 ], [ 7.10326322800006, 45.883536018000029 ], [ 7.191391229000033, 45.880691200000058 ], [ 7.230282254000031, 45.898045092000075 ], [ 7.296809084000074, 45.92319113700006 ], [ 7.338891267000065, 45.920554023000079 ], [ 7.386109210000029, 45.915409043000068 ], [ 7.42971807300006, 45.929445043000044 ], [ 7.458054103000052, 45.941109132000065 ], [ 7.536663279000038, 45.981664132000049 ], [ 7.65028215600006, 45.980554033000033 ], [ 7.709163182000054, 45.943327151000062 ], [ 7.743336034000038, 45.932218112000044 ], [ 7.783891202000063, 45.923609059000057 ], [ 7.855745067000043, 45.919053998000038 ], [ 7.866391258000021, 45.948327124000059 ], [ 7.879300227000044, 45.975136138000039 ], [ 7.906809130000056, 45.992636044000051 ], [ 7.950000239000076, 45.99416423200006 ], [ 7.97305416100005, 45.996936128000073 ], [ 8.009027110000034, 46.009300105000079 ], [ 8.14958223900004, 46.151245121000045 ], [ 8.158745168000053, 46.183818035000058 ], [ 8.141945152000062, 46.22290905300008 ], [ 8.303745053000057, 46.422909142000037 ], [ 8.357218075000048, 46.450000124000042 ], [ 8.365273251000076, 46.453609036000046 ], [ 8.441454023000063, 46.46208213400007 ], [ 8.460836168000071, 46.448327096000071 ], [ 8.465973269000074, 46.372635995000053 ], [ 8.448127191000026, 46.322982104000062 ], [ 8.434582203000048, 46.293191143000058 ], [ 8.445000238000034, 46.247218081000028 ], [ 8.460554033000051, 46.233327088000067 ], [ 8.615836166000065, 46.121245116000068 ], [ 8.696527072000038, 46.101109103000056 ], [ 8.719300200000021, 46.104018126000028 ], [ 8.72885406100005, 46.108591125000032 ], [ 8.74721814000003, 46.121109162000039 ], [ 8.82221806900003, 46.098609116000034 ], [ 8.844163232000028, 46.080753986000047 ], [ 8.851454147000027, 46.056736145000059 ], [ 8.820282184000064, 46.033882216000052 ], [ 8.819863257000065, 45.986382138000067 ], [ 8.897782267000025, 45.952773221000029 ], [ 8.926663288000043, 45.90083609900006 ], [ 8.936318067000059, 45.871873103000041 ], [ 8.951109109000072, 45.845273133000035 ], [ 8.998336104000032, 45.829436030000068 ], [ 9.036663195000074, 45.837773174000063 ], [ 9.084100241000044, 45.902291197000068 ], [ 9.073054066000054, 45.920000147000053 ], [ 9.022982252000077, 45.93895397700004 ], [ 8.997363301000064, 45.975136138000039 ], [ 9.01666330300003, 46.022500094000065 ], [ 9.035827184000027, 46.057218105000061 ], [ 9.083336146000022, 46.121109162000039 ], [ 9.132218065000075, 46.160273102000076 ], [ 9.144436197000061, 46.168044970000039 ], [ 9.176454062000062, 46.178600133000032 ], [ 9.241009133000034, 46.233627160000026 ], [ 9.276663235000058, 46.292500139000026 ], [ 9.292636125000058, 46.324853950000033 ], [ 9.297218176000058, 46.350964249000072 ], [ 9.273127078000073, 46.425764186000038 ], [ 9.250627200000054, 46.442427074000079 ], [ 9.293782266000051, 46.500827146000063 ], [ 9.366800210000065, 46.508054023000057 ], [ 9.455000128000052, 46.472500169000057 ], [ 9.450282290000075, 46.426664235000032 ], [ 9.457636069000046, 46.386245021000036 ], [ 9.521391171000062, 46.319718023000064 ], [ 9.544863182000029, 46.306245119000039 ], [ 9.581945058000031, 46.296945063000067 ], [ 9.624718077000068, 46.291936037000028 ], [ 9.708818071000053, 46.30027318100008 ], [ 9.770554140000058, 46.342209184000069 ], [ 9.81305407800005, 46.358327081000027 ], [ 9.852782287000025, 46.369718087000081 ], [ 9.908054066000034, 46.383191158000045 ], [ 9.946945091000032, 46.379582079000045 ], [ 9.99041816700003, 46.355200128000035 ], [ 9.982218151000041, 46.33304508100008 ], [ 9.99500021800003, 46.291664128000036 ], [ 10.071773255000039, 46.221800127000051 ], [ 10.13639119000004, 46.230691147000073 ], [ 10.173954019000064, 46.263118048000081 ], [ 10.153891263000048, 46.390273196000066 ], [ 10.090691210000045, 46.423744985000042 ], [ 10.049682246000032, 46.445591075000038 ], [ 10.044445065000048, 46.502636129000052 ], [ 10.05139114800005, 46.541518101000065 ], [ 10.119163194000066, 46.611382103000039 ], [ 10.181109147000029, 46.632218173000069 ], [ 10.241800161000072, 46.634445077000066 ], [ 10.253609089000065, 46.615964154000039 ], [ 10.246318174000066, 46.590409072000057 ], [ 10.303609153000025, 46.554864271000042 ], [ 10.337218071000052, 46.549435982000034 ], [ 10.449718131000054, 46.539164128000039 ], [ 10.457527048000031, 46.542500125000061 ], [ 10.471873178000067, 46.555764152000052 ], [ 10.485691248000023, 46.592636144000039 ], [ 10.486527092000074, 46.617354041000056 ], [ 10.470836169000052, 46.635827085000074 ], [ 10.447500112000057, 46.763053982000031 ], [ 10.471236153000063, 46.871354039000039 ], [ 10.476109224000027, 46.865691225000035 ], [ 10.497773259000041, 46.855273190000048 ], [ 10.563609085000053, 46.848882156000059 ], [ 10.599718156000051, 46.85777317600008 ], [ 10.646945152000058, 46.870418116000053 ], [ 10.680136147000042, 46.87381815100008 ], [ 10.763263337000069, 46.830553952000059 ], [ 10.791663237000023, 46.801382079000064 ], [ 10.834163342000068, 46.786945089000028 ], [ 10.887782209000022, 46.771109159000048 ], [ 11.016800151000041, 46.77332701000006 ], [ 11.071391151000057, 46.823464203000071 ], [ 11.097082187000069, 46.891591138000081 ], [ 11.100554139000053, 46.915409154000031 ], [ 11.118054044000075, 46.929991151000081 ], [ 11.177154006000023, 46.96735398800007 ], [ 11.483891262000043, 47.014164235000067 ], [ 11.621945063000055, 47.012773174000074 ], [ 11.710136096000042, 46.996382195000081 ], [ 11.731109127000025, 46.978882122000073 ], [ 11.761245086000031, 46.978191118000041 ], [ 12.075282142000049, 47.059436068000025 ], [ 12.140127060000054, 47.084809094000036 ], [ 12.18610917500007, 47.094582226000057 ], [ 12.227500186000043, 47.08416419100007 ], [ 12.230836184000054, 47.072218135000071 ], [ 12.223891274000039, 47.063044980000029 ], [ 12.194582273000037, 47.032982111000081 ], [ 12.133018200000038, 47.012564130000044 ], [ 12.136109110000064, 46.966945119000059 ], [ 12.160273299000039, 46.928054094000061 ], [ 12.185554125000067, 46.907918080000059 ], [ 12.232218192000062, 46.888882107000029 ], [ 12.301663266000048, 46.841109115000052 ], [ 12.383745064000038, 46.721109095000031 ], [ 12.404300173000024, 46.705553959000042 ], [ 12.440554084000041, 46.69082712200003 ], [ 12.486173263000069, 46.682364250000035 ], [ 12.55444503800004, 46.661664134000034 ], [ 12.590273148000051, 46.658882181000081 ], [ 12.692500180000025, 46.659718024000028 ], [ 12.735627084000043, 46.641318070000068 ], [ 12.747927191000031, 46.64449112300008 ], [ 12.757773245000067, 46.649718078000035 ], [ 12.778336066000065, 46.647918148000031 ], [ 12.82555400800004, 46.631245034000074 ], [ 13.257500135000043, 46.561944967000045 ], [ 13.428891112000031, 46.563045008000074 ], [ 13.555000198000073, 46.556245105000073 ], [ 13.611109161000059, 46.548045089000027 ], [ 13.718654009000034, 46.526609043000065 ], [ 13.719163293000065, 46.51846418000008 ], [ 13.711109122000039, 46.492773143000079 ], [ 13.692009112000051, 46.451664267000069 ], [ 13.657773228000053, 46.449718156000074 ], [ 13.511391168000046, 46.384718174000056 ], [ 13.440836162000039, 46.346382198000072 ], [ 13.383473267000056, 46.295136080000077 ], [ 13.418891166000037, 46.213054114000045 ], [ 13.458954149000022, 46.223191188000044 ], [ 13.488473200000044, 46.23194508000006 ], [ 13.550554102000035, 46.218045034000056 ], [ 13.666036108000071, 46.175309063000043 ], [ 13.648191204000057, 46.145545092000077 ], [ 13.59360908900004, 46.105273232000059 ], [ 13.557363225000074, 46.087282148000043 ], [ 13.538891186000058, 46.079436016000045 ], [ 13.521945157000061, 46.06332700300004 ], [ 13.479718135000041, 46.012218013000052 ], [ 13.509863314000029, 45.986245010000061 ], [ 13.54028224700005, 45.968327016000046 ], [ 13.568954056000052, 45.979373190000047 ], [ 13.593336174000058, 45.993045080000059 ], [ 13.635100180000052, 45.982009131000041 ], [ 13.634718133000035, 45.947909035000066 ], [ 13.614100160000078, 45.905136015000039 ], [ 13.590691180000022, 45.888118069000029 ], [ 13.578327203000072, 45.850273106000031 ], [ 13.603745157000048, 45.808882094000069 ], [ 13.697500097000045, 45.784164197000052 ], [ 13.791527113000029, 45.752773131000026 ], [ 13.835282157000051, 45.717773153000053 ], [ 13.918336089000036, 45.636391076000052 ], [ 13.857218100000068, 45.587218138000026 ], [ 13.827773145000037, 45.584445069000026 ], [ 13.80221823100004, 45.586391179000032 ], [ 13.716945106000026, 45.596109158000047 ], [ 13.798054101000048, 45.607491112000048 ], [ 13.735691233000068, 45.694300136000038 ], [ 13.656109085000026, 45.753609142000073 ], [ 13.630000127000073, 45.770000122000056 ], [ 13.579473177000068, 45.781964115000051 ], [ 13.542636053000024, 45.783327013000076 ], [ 13.52507328400003, 45.760973147000072 ], [ 13.526454118000061, 45.735136098000055 ], [ 13.499445112000046, 45.709445062000043 ], [ 13.428891112000031, 45.677218153000069 ], [ 13.387427178000053, 45.678291204000061 ], [ 13.422154074000048, 45.69561810700003 ], [ 13.415063319000069, 45.720554101000062 ], [ 13.367945120000059, 45.737444977000052 ], [ 13.216945134000071, 45.776936147000072 ], [ 13.193336163000026, 45.778053957000054 ], [ 13.120900258000063, 45.76784496700003 ], [ 13.071245026000042, 45.709645054000077 ], [ 13.09610910300006, 45.651664245000063 ], [ 13.087782185000037, 45.636527030000025 ], [ 13.063609112000051, 45.633891090000077 ], [ 13.000827148000042, 45.630000210000048 ], [ 12.922500107000076, 45.618327069000031 ], [ 12.863891157000069, 45.595554108000044 ], [ 12.798891174000062, 45.56888222200007 ], [ 12.706945049000069, 45.53110917500004 ], [ 12.638054019000037, 45.502218096000036 ], [ 12.61721811600006, 45.494436002000043 ], [ 12.587500246000047, 45.483891064000034 ], [ 12.418263250000052, 45.441173198000058 ], [ 12.448473306000039, 45.483254040000077 ], [ 12.503991177000046, 45.491264122000075 ], [ 12.580691123000065, 45.543818152000028 ], [ 12.489654099000063, 45.567491161000078 ], [ 12.394445067000049, 45.533054112000059 ], [ 12.287082274000056, 45.473327017000031 ], [ 12.154227097000046, 45.301964202000079 ], [ 12.161109143000033, 45.263882199000079 ], [ 12.233327118000034, 45.19749115500008 ], [ 12.361945075000051, 45.056109068000069 ], [ 12.443700147000072, 45.008235995000064 ], [ 12.495273160000067, 44.98700916100006 ], [ 12.520136064000042, 44.982635986000048 ], [ 12.538054058000057, 44.960618068000031 ], [ 12.480000158000053, 44.852773149000029 ], [ 12.448782263000055, 44.817745007000042 ], [ 12.426800219000029, 44.853609160000076 ], [ 12.439373241000055, 44.881736145000048 ], [ 12.422636089000036, 44.90012704600008 ], [ 12.389863183000045, 44.868400201000043 ], [ 12.396945053000024, 44.791382078000026 ], [ 12.356109091000064, 44.803891063000037 ], [ 12.290136137000047, 44.838264242000037 ], [ 12.261527193000063, 44.77624503100003 ], [ 12.247636200000045, 44.723882108000055 ], [ 12.245418181000048, 44.693882103000078 ], [ 12.280000237000024, 44.476109027000064 ], [ 12.288891257000046, 44.451664212000026 ], [ 12.35347315000007, 44.278327124000043 ], [ 12.368327056000055, 44.246664150000072 ], [ 12.42236334200004, 44.189309133000052 ], [ 12.446391241000072, 44.167773174000047 ], [ 12.518609216000073, 44.109991183000034 ], [ 12.545827100000054, 44.088609116000043 ], [ 12.689718226000025, 43.987500061000048 ], [ 12.720554075000052, 43.976945066000042 ], [ 12.740554134000035, 43.97221817500008 ], [ 12.753573241000026, 43.971000117000074 ] ], [ [ 12.415800144000059, 43.957954020000045 ], [ 12.40694516700006, 43.951664240000071 ], [ 12.410082178000039, 43.912782100000072 ], [ 12.471527060000028, 43.898682230000077 ], [ 12.495000245000028, 43.914718152000034 ], [ 12.496391138000035, 43.923336089000031 ], [ 12.511109089000058, 43.941245031000051 ], [ 12.504654018000053, 43.986873095000078 ], [ 12.45965409400003, 43.983264183000074 ], [ 12.415800144000059, 43.957954020000045 ] ], [ [ 12.448745047000045, 41.906364189000044 ], [ 12.444863220000059, 41.904445069000076 ], [ 12.444473294000034, 41.90271806100003 ], [ 12.450136108000038, 41.900891142000035 ], [ 12.456691259000024, 41.901391206000028 ], [ 12.457718210000053, 41.904000157000041 ], [ 12.451891278000062, 41.908391101000063 ], [ 12.448745047000045, 41.906364189000044 ] ] ], [ [ [ 15.081391207000024, 36.649164262000056 ], [ 15.043745062000028, 36.686945021000042 ], [ 15.023609216000068, 36.698609109000074 ], [ 14.895836154000051, 36.725826993000055 ], [ 14.863191156000028, 36.728054065000038 ], [ 14.813891148000039, 36.715000089000057 ], [ 14.779163247000042, 36.704436041000065 ], [ 14.721391147000077, 36.718609169000047 ], [ 14.553609249000033, 36.780273154000042 ], [ 14.459163305000061, 36.834164098000031 ], [ 14.441109188000041, 36.873327032000077 ], [ 14.414163214000041, 36.914018154000075 ], [ 14.393891245000077, 36.942500197000072 ], [ 14.373609219000059, 36.966382083000042 ], [ 14.347118214000034, 36.989291165000054 ], [ 14.276391212000021, 37.042500158000053 ], [ 14.245836157000042, 37.062218082000072 ], [ 14.145000185000072, 37.099018157000046 ], [ 14.101800192000042, 37.109864172000073 ], [ 13.998054023000066, 37.11027320900007 ], [ 13.955754078000041, 37.100345013000037 ], [ 13.932363204000069, 37.094718073000024 ], [ 13.887636195000027, 37.099436079000043 ], [ 13.738336058000073, 37.157773119000069 ], [ 13.665063305000047, 37.196800099000029 ], [ 13.647636154000054, 37.216109154000037 ], [ 13.566800242000056, 37.275827029000027 ], [ 13.543336110000041, 37.283336041000041 ], [ 13.505282269000077, 37.28721803600007 ], [ 13.412773215000072, 37.324164124000049 ], [ 13.330000245000065, 37.361109039000041 ], [ 13.272427131000029, 37.398536080000042 ], [ 13.256663286000048, 37.421945060000041 ], [ 13.218336195000063, 37.455273183000031 ], [ 13.155973159000041, 37.491244959000028 ], [ 13.085836075000032, 37.493045056000028 ], [ 12.985000103000061, 37.541518106000069 ], [ 12.962218090000022, 37.55735403500006 ], [ 12.922918196000069, 37.573054011000067 ], [ 12.792782276000025, 37.579018070000075 ], [ 12.756109102000039, 37.573054011000067 ], [ 12.728745038000056, 37.566109101000052 ], [ 12.681391141000063, 37.555136016000063 ], [ 12.656109141000059, 37.559782105000068 ], [ 12.514163287000031, 37.658882185000039 ], [ 12.468336070000021, 37.699164103000044 ], [ 12.430800231000035, 37.803254097000035 ], [ 12.441663345000052, 37.806109141000036 ], [ 12.458473252000033, 37.817982107000034 ], [ 12.47784517100007, 37.872773099000028 ], [ 12.466391133000059, 37.916109048000067 ], [ 12.510136118000048, 38.015136037000048 ], [ 12.558191245000046, 38.060554050000064 ], [ 12.733609224000077, 38.139718108000068 ], [ 12.821663297000043, 38.068882141000074 ], [ 12.892845101000034, 38.025273111000047 ], [ 12.923609200000044, 38.024864242000035 ], [ 12.95555414200004, 38.032773238000061 ], [ 13.019163232000039, 38.05888219600007 ], [ 13.069482144000062, 38.090164129000073 ], [ 13.056109152000033, 38.133782212000028 ], [ 13.100345149000077, 38.184509155000057 ], [ 13.318609238000022, 38.217491106000068 ], [ 13.357918185000074, 38.186945104000074 ], [ 13.372009170000069, 38.152773090000039 ], [ 13.367154036000045, 38.120754052000052 ], [ 13.382500128000061, 38.107500084000037 ], [ 13.711391257000059, 37.976664107000033 ], [ 13.760691265000048, 37.970964245000062 ], [ 13.791109192000022, 37.972218010000063 ], [ 13.820982295000022, 37.978736114000071 ], [ 13.886663223000028, 37.998054054000079 ], [ 13.916527106000046, 38.01034510900007 ], [ 13.944300207000026, 38.029582080000068 ], [ 14.013891126000033, 38.035827100000063 ], [ 14.132773168000028, 38.022773124000025 ], [ 14.242773242000055, 38.012218129000075 ], [ 14.311945066000021, 38.012218129000075 ], [ 14.367918074000045, 38.018327028000044 ], [ 14.519445115000053, 38.042773184000055 ], [ 14.643473310000047, 38.07728215000003 ], [ 14.784718102000056, 38.154445112000076 ], [ 14.874445034000075, 38.170553957000038 ], [ 14.969445022000059, 38.157218013000033 ], [ 15.088745153000048, 38.12250017000008 ], [ 15.150836113000025, 38.145554092000054 ], [ 15.301663264000069, 38.207218078000039 ], [ 15.51541822400003, 38.292909124000062 ], [ 15.545827099000064, 38.296936126000048 ], [ 15.647936114000061, 38.26457309400007 ], [ 15.608191141000077, 38.250691154000037 ], [ 15.576245025000048, 38.236736123000071 ], [ 15.560000226000057, 38.210273114000074 ], [ 15.528891128000055, 38.136935987000072 ], [ 15.50360912900004, 38.078609173000075 ], [ 15.42777318900005, 38.000827122000032 ], [ 15.369027111000037, 37.943882149000046 ], [ 15.235282279000046, 37.785273238000059 ], [ 15.219718091000061, 37.764445047000038 ], [ 15.217773154000042, 37.709164216000033 ], [ 15.200836177000042, 37.651382225000077 ], [ 15.16805405100007, 37.56193608600006 ], [ 15.150000102000035, 37.542773212000043 ], [ 15.118609204000052, 37.519435982000061 ], [ 15.092500246000043, 37.490273161000061 ], [ 15.085836130000075, 37.463054104000037 ], [ 15.092709123000077, 37.348327139000048 ], [ 15.186945184000024, 37.183882077000078 ], [ 15.203891213000077, 37.157491152000034 ], [ 15.230691175000061, 37.124854033000076 ], [ 15.260000176000062, 37.109791082000072 ], [ 15.299927204000028, 37.103118081000048 ], [ 15.316109139000048, 37.043054034000079 ], [ 15.316663351000045, 37.008891073000029 ], [ 15.262218195000059, 36.981664136000063 ], [ 15.214163236000047, 36.955273211000076 ], [ 15.180273189000047, 36.935273152000036 ], [ 15.150691274000053, 36.913327150000043 ], [ 15.110282286000029, 36.840000082000074 ], [ 15.095763321000049, 36.785691216000032 ], [ 15.114163275000067, 36.743536111000026 ], [ 15.133954122000034, 36.674091204000035 ], [ 15.091527107000047, 36.651800036000054 ], [ 15.081391207000024, 36.649164262000056 ] ] ], [ [ [ 8.36610909500007, 39.226109155000074 ], [ 8.424163330000056, 39.268882174000055 ], [ 8.43236317800006, 39.290618126000027 ], [ 8.418609146000051, 39.339436006000028 ], [ 8.398127127000066, 39.343464181000058 ], [ 8.37152715700006, 39.372909137000079 ], [ 8.39194513800004, 39.447218061000058 ], [ 8.413054123000052, 39.493609046000074 ], [ 8.448191229000031, 39.632709076000026 ], [ 8.443336095000063, 39.681935994000071 ], [ 8.452045060000046, 39.758991165000054 ], [ 8.497218154000052, 39.723745095000027 ], [ 8.523609079000039, 39.752218085000038 ], [ 8.541945163000037, 39.779445021000072 ], [ 8.551663309000048, 39.816664191000029 ], [ 8.557218164000062, 39.844991168000035 ], [ 8.553954083000065, 39.867700091000074 ], [ 8.520418089000032, 39.902291200000036 ], [ 8.456600122000054, 39.910135991000061 ], [ 8.430000152000048, 39.894582196000044 ], [ 8.395973145000028, 39.901309176000041 ], [ 8.398609086000022, 39.94610910800003 ], [ 8.408891167000036, 40.006800122000072 ], [ 8.464445080000075, 40.143327076000048 ], [ 8.461663294000061, 40.226664148000054 ], [ 8.457218203000025, 40.32139105400006 ], [ 8.367218188000038, 40.492773146000047 ], [ 8.301800116000038, 40.587491167000053 ], [ 8.195973224000056, 40.61597320900006 ], [ 8.164009171000032, 40.587409024000067 ], [ 8.148191179000037, 40.620827002000055 ], [ 8.178336191000028, 40.636382138000045 ], [ 8.172218072000021, 40.692218018000062 ], [ 8.149718194000059, 40.721382180000035 ], [ 8.148891235000065, 40.744164193000074 ], [ 8.192500098000039, 40.913609060000056 ], [ 8.228054120000024, 40.938400047000073 ], [ 8.232218082000031, 40.909718013000031 ], [ 8.284445050000045, 40.860000083000045 ], [ 8.307082224000055, 40.847353971000075 ], [ 8.356391116000054, 40.83610914500008 ], [ 8.457500171000049, 40.821936017000041 ], [ 8.480000216000064, 40.820273215000043 ], [ 8.505282216000069, 40.823609045000069 ], [ 8.543054089000066, 40.831382086000076 ], [ 8.579718210000067, 40.840000192000048 ], [ 8.604300153000054, 40.848609077000049 ], [ 8.620554004000041, 40.868464129000074 ], [ 8.638682217000053, 40.890482215000077 ], [ 8.701391258000058, 40.912353954000025 ], [ 8.749718126000062, 40.914582199000051 ], [ 8.782636040000057, 40.918473246000076 ], [ 8.810273186000074, 40.934436078000033 ], [ 8.850000222000062, 40.96659107000005 ], [ 8.87347323900002, 40.999445113000036 ], [ 9.012636134000047, 41.121936067000036 ], [ 9.046945108000045, 41.130273211000031 ], [ 9.160827177000044, 41.191664114000048 ], [ 9.164509179000049, 41.239227056000061 ], [ 9.233054037000045, 41.254718154000045 ], [ 9.51333616200003, 41.146664190000081 ], [ 9.562500216000046, 41.117773111000076 ], [ 9.633891232000053, 40.989164206000055 ], [ 9.510454129000038, 40.920373088000076 ], [ 9.566391263000071, 40.913054010000053 ], [ 9.612782247000041, 40.92110918700007 ], [ 9.659163341000067, 40.852491071000031 ], [ 9.750273287000027, 40.666245015000072 ], [ 9.742500246000077, 40.638609042000041 ], [ 9.74277316000007, 40.63000015700004 ], [ 9.750273287000027, 40.597500165000042 ], [ 9.804927152000062, 40.54055401800008 ], [ 9.824163285000054, 40.527218074000075 ], [ 9.809445165000056, 40.468327158000079 ], [ 9.800282236000044, 40.442500167000048 ], [ 9.761318121000045, 40.385618057000045 ], [ 9.734863326000038, 40.372909081000046 ], [ 9.705554157000051, 40.354018115000031 ], [ 9.657218069000066, 40.308327019000046 ], [ 9.636945095000044, 40.282218061000037 ], [ 9.623336069000061, 40.251873225000054 ], [ 9.626663182000073, 40.193191185000046 ], [ 9.656809199000065, 40.139164119000043 ], [ 9.698336165000057, 40.102218031000064 ], [ 9.713609166000026, 40.040554046000068 ], [ 9.695000168000036, 39.935273151000047 ], [ 9.674718141000028, 39.808882097000037 ], [ 9.670554012000025, 39.779445021000072 ], [ 9.670973275000051, 39.753054096000028 ], [ 9.675345108000045, 39.730827132000059 ], [ 9.651663214000052, 39.549164133000033 ], [ 9.642218150000076, 39.48638216900008 ], [ 9.630836196000075, 39.430273206000038 ], [ 9.60027326200003, 39.332773232000079 ], [ 9.567636143000072, 39.228473187000077 ], [ 9.569409083000039, 39.190900132000024 ], [ 9.565073292000022, 39.145618074000026 ], [ 9.521663248000038, 39.118327100000045 ], [ 9.442636150000055, 39.124418061000029 ], [ 9.410554080000054, 39.14082714500006 ], [ 9.390836156000034, 39.158053968000047 ], [ 9.366109206000033, 39.177500151000061 ], [ 9.342500235000045, 39.194164213000079 ], [ 9.321663326000021, 39.205827128000067 ], [ 9.295273239000039, 39.213882137000041 ], [ 9.154336063000073, 39.184682101000078 ], [ 9.013536183000042, 39.263191197000026 ], [ 9.013336191000064, 39.126391161000072 ], [ 9.016109092000022, 39.10166421100007 ], [ 9.022500125000022, 39.079718042000025 ], [ 9.043336196000041, 39.045000199000071 ], [ 9.006945157000075, 38.988054051000063 ], [ 8.902082184000051, 38.902636088000065 ], [ 8.851182238000035, 38.877909138000064 ], [ 8.711663280000039, 38.921800136000059 ], [ 8.646391221000044, 38.89027311600006 ], [ 8.615836166000065, 38.918609145000062 ], [ 8.566391151000062, 39.009991169000045 ], [ 8.551391233000061, 39.050000172000068 ], [ 8.505382128000065, 39.061027068000044 ], [ 8.474482242000022, 39.036545038000042 ], [ 8.449882194000054, 39.000000108000052 ], [ 8.436527140000067, 38.964718162000054 ], [ 8.408327065000037, 38.958536006000031 ], [ 8.360000196000044, 39.030273195000063 ], [ 8.345827068000062, 39.073745098000074 ], [ 8.356800153000052, 39.105754077000029 ], [ 8.425836190000041, 39.107082106000064 ], [ 8.453827053000055, 39.089709103000075 ], [ 8.459163308000029, 39.11750014100005 ], [ 8.432082217000072, 39.163054109000029 ], [ 8.396945111000036, 39.200554073000035 ], [ 8.36610909500007, 39.226109155000074 ] ] ], [ [ [ 10.418609200000049, 42.708609052000043 ], [ 10.351391198000044, 42.761245058000043 ], [ 10.340836035000052, 42.765273233000073 ], [ 10.299718106000057, 42.759718042000031 ], [ 10.23471812300005, 42.746382099000073 ], [ 10.209163209000053, 42.73527322800004 ], [ 10.160273244000052, 42.729436070000077 ], [ 10.149163199000043, 42.729718037000055 ], [ 10.139163253000049, 42.73166414800005 ], [ 10.124582262000047, 42.739582196000072 ], [ 10.116945175000069, 42.747500077000041 ], [ 10.103054014000065, 42.768891197000073 ], [ 10.100973291000059, 42.78485402900003 ], [ 10.11139115800006, 42.799445079000066 ], [ 10.126663321000024, 42.806391162000068 ], [ 10.145000243000027, 42.810827033000066 ], [ 10.182782175000057, 42.813609154000062 ], [ 10.208609165000041, 42.809164231000068 ], [ 10.220973143000037, 42.799853948000077 ], [ 10.233473243000049, 42.792773251000028 ], [ 10.35569111500007, 42.805273183000054 ], [ 10.378054032000023, 42.827353966000032 ], [ 10.393054119000055, 42.856109091000064 ], [ 10.413054010000053, 42.870064122000031 ], [ 10.439163304000033, 42.851873212000044 ], [ 10.427636175000032, 42.71367323100003 ], [ 10.418609200000049, 42.708609052000043 ] ] ], [ [ [ 12.314327148000075, 45.341327129000035 ], [ 12.36916323500003, 45.425818054000047 ], [ 12.391145111000071, 45.430327015000046 ], [ 12.426900131000025, 45.414954102000081 ], [ 12.379227051000044, 45.419991123000045 ], [ 12.314327148000075, 45.341327129000035 ] ] ] ] }
        }
    ]
}