{
    "type": "FeatureCollection",
    "features": [
        {
            "type": "Feature",
            "properties": {
                "WCID": "JAM",
                "COUNTRY": "Jamaica"
            },
            "geometry": { "type": "Polygon", "coordinates": [ [ [ -76.657699940999976, 17.929254005000075 ], [ -76.69361790499994, 17.937500121000028 ], [ -76.724726835999945, 17.948891127000024 ], [ -76.727508956999941, 17.95305408300004 ], [ -76.735835874999964, 17.959164156000043 ], [ -76.746399922999956, 17.963054029000034 ], [ -76.800608875999956, 17.966691105000052 ], [ -76.811399905999963, 17.976664228000061 ], [ -76.819172947999959, 17.983327003000056 ], [ -76.832926812999972, 17.987082096000051 ], [ -76.847781891999944, 17.982591072000048 ], [ -76.894455010999934, 17.888609150000036 ], [ -76.914463954999974, 17.851945029000035 ], [ -76.923817823999968, 17.841736039000068 ], [ -76.951526886999943, 17.829300144000058 ], [ -77.00528187599997, 17.844718152000041 ], [ -77.036263904999942, 17.888336068000058 ], [ -77.051808814999958, 17.894582094000043 ], [ -77.080290856999966, 17.899436054000034 ], [ -77.101672924999946, 17.895554060000052 ], [ -77.11195500599996, 17.891936095000062 ], [ -77.131955064999943, 17.878891171000078 ], [ -77.148899919999963, 17.862218057000064 ], [ -77.193890958999987, 17.779718002000038 ], [ -77.143826856999965, 17.760345076000021 ], [ -77.125972899999965, 17.728818056000023 ], [ -77.130008954999937, 17.714164142000072 ], [ -77.138335871999971, 17.708326985000042 ], [ -77.152508832999956, 17.701382075000026 ], [ -77.165699936999943, 17.697218114000066 ], [ -77.18250883799999, 17.69805395700007 ], [ -77.217508814999974, 17.713609093000059 ], [ -77.226963937999983, 17.718891033000034 ], [ -77.238617799999986, 17.728336097000067 ], [ -77.349164039999948, 17.821664230000067 ], [ -77.395908907999967, 17.851882165000063 ], [ -77.41222679699996, 17.859718071000032 ], [ -77.453199886999982, 17.85583607600006 ], [ -77.486463972999957, 17.838473131000057 ], [ -77.507235836999939, 17.836664149000057 ], [ -77.51861779099994, 17.840000146000023 ], [ -77.566390951999949, 17.859473152000078 ], [ -77.609726899999941, 17.854445016000057 ], [ -77.719726806999972, 17.847218139000063 ], [ -77.735563909999939, 17.850000092000073 ], [ -77.792446018999954, 17.88784505600006 ], [ -77.820008901999984, 17.937773203000063 ], [ -77.835008820999974, 17.987782152000023 ], [ -77.840835919999961, 18.002500104000035 ], [ -77.849035767999965, 18.011945 ], [ -77.874455062999971, 18.022636117000047 ], [ -77.904172932999984, 18.021109102000025 ], [ -77.936399841999958, 18.026109075000022 ], [ -77.950708924999958, 18.030136077000066 ], [ -77.961317899999983, 18.054745009000044 ], [ -77.966535801999953, 18.065273183000045 ], [ -77.980008872999974, 18.086391053000057 ], [ -78.043335827999954, 18.184864166000068 ], [ -78.057235872999968, 18.196391127000027 ], [ -78.074173017999954, 18.201382215000024 ], [ -78.101963887999943, 18.202500025000063 ], [ -78.128617837999968, 18.203054069000075 ], [ -78.194455004999952, 18.199718072000053 ], [ -78.206391002999965, 18.197218085000031 ], [ -78.231326828999954, 18.189791049000064 ], [ -78.254181932999984, 18.194445016000032 ], [ -78.338899839999954, 18.219027127000061 ], [ -78.362226843999963, 18.234718050000026 ], [ -78.369446009999933, 18.241945094000073 ], [ -78.37389998499998, 18.254582154000047 ], [ -78.371955048999951, 18.26471805500006 ], [ -78.365008964999959, 18.274718001000053 ], [ -78.342508919999943, 18.298609107000061 ], [ -78.345563955999978, 18.335282113000062 ], [ -78.339799888999949, 18.360691182000039 ], [ -78.210981938999964, 18.451391086000058 ], [ -78.019454947999975, 18.451944962000027 ], [ -78.000017816999957, 18.441382087000022 ], [ -77.936108822999984, 18.496109042000057 ], [ -77.920835821999958, 18.509164192000071 ], [ -77.882508898999959, 18.519718014000034 ], [ -77.864454949999981, 18.52250013500003 ], [ -77.849726939999982, 18.52166412400004 ], [ -77.735835818999988, 18.505017999000074 ], [ -77.700008881999963, 18.489436041000033 ], [ -77.688608822999981, 18.486382179000032 ], [ -77.640017924999938, 18.479164187000038 ], [ -77.613763959999972, 18.483609110000032 ], [ -77.598764040999981, 18.488745037000058 ], [ -77.561255023999934, 18.489300087000061 ], [ -77.481399961999955, 18.478054087000032 ], [ -77.466763984999943, 18.469218053000077 ], [ -77.460846026999945, 18.466109037000024 ], [ -77.407790925999961, 18.456664141000033 ], [ -77.341535836999981, 18.452635966000059 ], [ -77.320146057999978, 18.458473123000033 ], [ -77.247226852999972, 18.452218044000062 ], [ -77.181672993999939, 18.434164095000028 ], [ -77.16611785799995, 18.428054023000072 ], [ -77.157790939999984, 18.422218039000029 ], [ -77.136672902999976, 18.407218120000039 ], [ -77.067935764999959, 18.406927101000065 ], [ -77.056117951999965, 18.410827033000032 ], [ -77.040426860999958, 18.411945011000057 ], [ -76.945281865999959, 18.394445106000035 ], [ -76.911217811999961, 18.400835972000039 ], [ -76.896117812999989, 18.37471812900003 ], [ -76.854446007999968, 18.345000091000031 ], [ -76.805555036999976, 18.302773069000068 ], [ -76.787708958999985, 18.273327108000046 ], [ -76.721535844999948, 18.263609129000031 ], [ -76.703399920999971, 18.266482110000027 ], [ -76.659181860999979, 18.235836028000051 ], [ -76.640290895999954, 18.223053961000062 ], [ -76.551390921999939, 18.197218085000031 ], [ -76.533335798999985, 18.192773162000037 ], [ -76.458617837999952, 18.18055402400006 ], [ -76.383346, 18.166944998000076 ], [ -76.365008909999972, 18.159718121000026 ], [ -76.341673020999963, 18.149718008000036 ], [ -76.292508967999936, 18.078054076000058 ], [ -76.278899942999942, 18.050554058000046 ], [ -76.274445966999963, 18.041382076000048 ], [ -76.258099913999956, 17.995754013000067 ], [ -76.234172933999957, 17.941391168000052 ], [ -76.221117951999986, 17.90416411800004 ], [ -76.265290916999959, 17.879718130000072 ], [ -76.306672875999936, 17.865554055000075 ], [ -76.350572925999984, 17.855553941000039 ], [ -76.534181868999951, 17.856945002000032 ], [ -76.594317832999934, 17.861245086000054 ], [ -76.610699927999974, 17.870000151000056 ], [ -76.657699940999976, 17.929254005000075 ] ] ] }
        }
    ]
}