{
    "type": "FeatureCollection",
    "features": [
        {
            "type": "Feature",
            "properties": {
                "WCID": "JOR",
                "COUNTRY": "Jordan"
            },
            "geometry": { "type": "Polygon", "coordinates": [ [ [ 35.478200274000073, 31.497318153000037 ], [ 35.479163354000036, 31.529444983000076 ], [ 35.482773272000031, 31.562218056000063 ], [ 35.489718182000047, 31.603882150000061 ], [ 35.498054153000055, 31.641664250000076 ], [ 35.52610922100007, 31.711664205000034 ], [ 35.538673191000044, 31.734936057000027 ], [ 35.555400284000029, 31.763909111000032 ], [ 35.548882181000067, 31.828327055000045 ], [ 35.535545064000075, 31.929718076000029 ], [ 35.523745189000067, 31.998054056000058 ], [ 35.516391242000054, 32.041109043000063 ], [ 35.558609212000079, 32.203045066000072 ], [ 35.570609248000039, 32.217636116000051 ], [ 35.560354157000063, 32.377827026000034 ], [ 35.552563345000067, 32.394200068000032 ], [ 35.546945123000057, 32.405000151000024 ], [ 35.571936103000041, 32.64582714900007 ], [ 35.61578217400006, 32.67965399600007 ], [ 35.631936113000052, 32.687218161000033 ], [ 35.648891195000033, 32.685273224000071 ], [ 35.689991186000043, 32.711936058000049 ], [ 35.763318087000073, 32.748882146000028 ], [ 35.79360911200007, 32.744164141000056 ], [ 35.931245159000071, 32.720273202000044 ], [ 36.003327180000042, 32.663327054000035 ], [ 36.025836110000057, 32.613609125000039 ], [ 36.079991251000024, 32.543327034000072 ], [ 36.125827186000038, 32.527773240000045 ], [ 36.16560015500005, 32.518227090000039 ], [ 36.197491285000069, 32.533335973000078 ], [ 36.314436101000069, 32.459718053000074 ], [ 36.346663346000071, 32.433054045000063 ], [ 36.400273328000026, 32.381945055000074 ], [ 36.488609200000042, 32.375544969000032 ], [ 36.516109219000043, 32.363054090000048 ], [ 36.643054148000033, 32.349164102000032 ], [ 36.724163311000041, 32.336664170000063 ], [ 36.837773303000063, 32.313609075000045 ], [ 36.866391300000032, 32.34166414300006 ], [ 37.153273169000045, 32.500291158000039 ], [ 37.493891251000036, 32.687218161000033 ], [ 37.495663353000054, 32.688882136000075 ], [ 37.498600205000059, 32.689718147000065 ], [ 37.62499125800008, 32.758327042000076 ], [ 37.958882193000079, 32.93749106100006 ], [ 38.31892718000006, 33.128736085000071 ], [ 38.533563246000028, 33.241100191000044 ], [ 38.697491144000026, 33.327500179000026 ], [ 38.794700267000053, 33.377591103000043 ], [ 39.086009121000075, 32.501509049000049 ], [ 38.986018213000079, 32.477664211000047 ], [ 39.04365419100003, 32.304054041000029 ], [ 39.260000165000065, 32.355545078000034 ], [ 39.30110920900006, 32.236382074000062 ], [ 39.196745127000042, 32.154945012000042 ], [ 39.072218208000038, 32.057782158000066 ], [ 39.005000206000034, 32.005554016000076 ], [ 38.488327120000065, 31.879164136000043 ], [ 37.986663341000053, 31.754054004000068 ], [ 37.963882166000076, 31.748336038000048 ], [ 37.709500121000076, 31.684664251000072 ], [ 37.471936197000048, 31.625000188000058 ], [ 37.20220018200007, 31.556164143000046 ], [ 37.005273234000072, 31.505554044000064 ], [ 37.294991203000052, 31.21722713500003 ], [ 37.490000204000069, 31.023053977000075 ], [ 37.561091149000049, 30.951091147000056 ], [ 38.001391183000067, 30.504164213000024 ], [ 37.667500248000067, 30.336391200000037 ], [ 37.502782271000058, 30.002218131000063 ], [ 37.410100215000057, 29.985582065000074 ], [ 37.034436222000068, 29.918054100000063 ], [ 36.743609159000073, 29.864718038000035 ], [ 36.500545198000054, 29.502773209000054 ], [ 36.272727081000028, 29.336527044000036 ], [ 36.070000191000076, 29.188891051000041 ], [ 35.541109139000071, 29.272500032000039 ], [ 35.187218146000077, 29.326945020000039 ], [ 34.961391233000029, 29.360836072000041 ], [ 34.960418094000033, 29.377427043000068 ], [ 34.966945082000052, 29.448891150000065 ], [ 34.978473217000044, 29.47750009400005 ], [ 35.003682293000054, 29.528191163000031 ], [ 34.97998229500007, 29.545754100000067 ], [ 34.977491193000048, 29.570000096000058 ], [ 34.974627097000052, 29.577018096000074 ], [ 35.007218116000047, 29.640827010000066 ], [ 35.075836063000054, 29.867773242000055 ], [ 35.072773316000053, 29.891664181000067 ], [ 35.072218098000064, 29.920827001000077 ], [ 35.073054109000054, 29.95360912700005 ], [ 35.103673202000039, 30.048891083000058 ], [ 35.118745205000039, 30.07000006800007 ], [ 35.143882197000039, 30.094164256000056 ], [ 35.160209139000074, 30.116045047000057 ], [ 35.16693611900007, 30.151664112000049 ], [ 35.161382270000047, 30.319445004000045 ], [ 35.156091278000076, 30.415282176000062 ], [ 35.158609201000047, 30.444164203000071 ], [ 35.206109111000046, 30.594718104000037 ], [ 35.219718137000029, 30.621945040000071 ], [ 35.25555412600005, 30.681945050000024 ], [ 35.292500214000029, 30.759164172000055 ], [ 35.300000174000047, 30.791109114000051 ], [ 35.337773220000031, 30.886945113000024 ], [ 35.357909234000033, 30.921109080000065 ], [ 35.368136162000042, 30.928664192000042 ], [ 35.39513611600006, 30.946764241000039 ], [ 35.454991287000041, 31.099718049000046 ], [ 35.462218164000035, 31.121109169000079 ], [ 35.45950913300004, 31.156944990000056 ], [ 35.432782261000057, 31.200273227000025 ], [ 35.411382256000024, 31.225273092000066 ], [ 35.452500185000076, 31.351391063000051 ], [ 35.471000219000075, 31.400418156000057 ], [ 35.473118158000034, 31.410345011000061 ], [ 35.478609143000028, 31.449164120000034 ], [ 35.478200274000073, 31.497318153000037 ] ] ] }
        }
    ]
}