{
    "type": "FeatureCollection",
    "features": [
        {
            "type": "Feature",
            "properties": {
                "WCID": "KUW",
                "COUNTRY": "Kuwait"
            },
            "geometry": { "type": "MultiPolygon", "coordinates": [ [ [ [ 47.463391289000072, 28.984464143000025 ], [ 47.459991254000045, 28.999436066000044 ], [ 46.996663282000043, 29.05305409500005 ], [ 46.800282163000077, 29.075273179000078 ], [ 46.587773257000038, 29.098054019000074 ], [ 46.548609150000061, 29.103053992000071 ], [ 46.54694517400003, 29.104200133000063 ], [ 46.547354043000041, 29.105200094000054 ], [ 46.558182289000058, 29.121453945000042 ], [ 46.58165413200004, 29.143327025000076 ], [ 46.598882296000056, 29.156109092000065 ], [ 46.635273335000079, 29.17860913800007 ], [ 46.653836065000064, 29.18848218100004 ], [ 46.690382169000031, 29.230345094000029 ], [ 46.714909127000055, 29.266318043000069 ], [ 46.775554040000031, 29.356382096000061 ], [ 46.827763239000035, 29.433609096000055 ], [ 46.85889128000008, 29.475827066000079 ], [ 46.924018165000064, 29.554718042000047 ], [ 46.944291307000071, 29.578473194000026 ], [ 46.981373182000027, 29.646109118000027 ], [ 47.047763220000036, 29.794164206000062 ], [ 47.094436171000041, 29.90708218900005 ], [ 47.11360022000008, 29.94638208300006 ], [ 47.128873221000049, 29.974718112000062 ], [ 47.147763348000069, 29.996526986000049 ], [ 47.169991150000044, 30.015273113000035 ], [ 47.204300291000038, 30.033327062000069 ], [ 47.351100273000043, 30.081664156000045 ], [ 47.396663293000074, 30.082773082000074 ], [ 47.436663244000044, 30.08305404400005 ], [ 47.723463305000053, 30.084164143000066 ], [ 47.934991194000077, 30.017773099000067 ], [ 47.943473177000044, 30.017553996000061 ], [ 47.951109258000031, 29.981664196000054 ], [ 47.982218189000037, 29.864164162000066 ], [ 47.990000283000029, 29.840691145000051 ], [ 48.006100243000049, 29.803609102000053 ], [ 48.026100135000036, 29.76985400500007 ], [ 48.059927149000032, 29.731591119000029 ], [ 48.08805413400006, 29.714164137000068 ], [ 48.147491215000059, 29.615827146000072 ], [ 48.166863302000081, 29.565136077000034 ], [ 48.149300198000049, 29.547636005000072 ], [ 48.099718223000082, 29.56250013600004 ], [ 48.086582272000044, 29.580135996000024 ], [ 48.007909225000049, 29.629645048000043 ], [ 47.975273279000078, 29.630827064000073 ], [ 47.955963218000079, 29.623745027000041 ], [ 47.708318212000052, 29.40749108600005 ], [ 47.707218171000079, 29.375827106000031 ], [ 47.82124507900005, 29.329227077000041 ], [ 47.854136170000061, 29.329953955000065 ], [ 47.862073330000044, 29.330827014000079 ], [ 47.882073221000041, 29.337773097000024 ], [ 47.924991248000026, 29.36193611300007 ], [ 47.962209245000054, 29.384435991000032 ], [ 47.973663283000064, 29.394391177000045 ], [ 47.987491244000068, 29.384991208000031 ], [ 48.005991278000067, 29.367827082000076 ], [ 48.028600289000053, 29.344991090000065 ], [ 48.079709279000042, 29.254718160000039 ], [ 48.097400291000042, 29.212509074000025 ], [ 48.122209216000044, 29.103053992000071 ], [ 48.146109207000052, 29.029027034000023 ], [ 48.173045124000055, 28.978053999000053 ], [ 48.18500023200005, 28.961109143000044 ], [ 48.278882242000066, 28.83666420000003 ], [ 48.360545113000057, 28.742218088000072 ], [ 48.379718214000036, 28.714164193000045 ], [ 48.380827139000075, 28.683045037000056 ], [ 48.375127110000051, 28.660409036000033 ], [ 48.416591212000071, 28.545273202000033 ], [ 48.302500266000038, 28.544164109000064 ], [ 47.688882255000067, 28.538882169000033 ], [ 47.617773206000038, 28.614164232000064 ], [ 47.602763229000061, 28.634991083000045 ], [ 47.574991301000068, 28.703053981000039 ], [ 47.576654103000067, 28.733053986000073 ], [ 47.574845121000067, 28.770136028000024 ], [ 47.564709221000044, 28.796664249000059 ], [ 47.540545199000064, 28.850554019000072 ], [ 47.506945167000026, 28.923053961000051 ], [ 47.463391289000072, 28.984464143000025 ] ] ], [ [ [ 48.188536222000039, 29.98192705200006 ], [ 48.199154081000074, 29.966391195000028 ], [ 48.208318184000063, 29.954718053000079 ], [ 48.27970920000007, 29.866382181000063 ], [ 48.335536196000078, 29.798882212000024 ], [ 48.34777327200004, 29.782218150000062 ], [ 48.352218195000034, 29.771664160000057 ], [ 48.359445072000028, 29.745000153000035 ], [ 48.359991237000031, 29.731936119000068 ], [ 48.356373272000042, 29.713327120000031 ], [ 48.348882198000069, 29.700000062000072 ], [ 48.339718263000066, 29.686936027000058 ], [ 48.329991232000054, 29.675000029000046 ], [ 48.315554074000033, 29.660000111000045 ], [ 48.278327192000063, 29.623882155000047 ], [ 48.26639119400005, 29.613891094000053 ], [ 48.252773284000057, 29.605000074000031 ], [ 48.243045079000069, 29.599718134000057 ], [ 48.228318243000047, 29.595273210000073 ], [ 48.202763329000049, 29.594436026000039 ], [ 48.188600260000044, 29.596100169000067 ], [ 48.176518249000026, 29.602773170000034 ], [ 48.167763351000076, 29.612218066000025 ], [ 48.162491302000035, 29.621109086000047 ], [ 48.079991246000077, 29.773327130000041 ], [ 48.146100155000056, 29.929718021000042 ], [ 48.114854096000045, 29.975345079000078 ], [ 48.122763260000056, 29.983609132000026 ], [ 48.155827186000067, 29.992353972000046 ], [ 48.17554511000003, 29.989164155000026 ], [ 48.188536222000039, 29.98192705200006 ] ] ] ] }
        }
    ]
}