{
    "type": "FeatureCollection",
    "features": [
        {
            "type": "Feature",
            "properties": {
                "WCID": "MAD",
                "COUNTRY": "Madagascar"
            },
            "geometry": { "type": "MultiPolygon", "coordinates": [ [ [ [ 48.60779130800006, -20.416172981999978 ], [ 48.601100203000044, -20.439446005999969 ], [ 48.585000243000081, -20.493617911999934 ], [ 48.539445102000059, -20.645554993999951 ], [ 48.521109186000047, -20.697499995999976 ], [ 48.467773292000061, -20.914173030999962 ], [ 48.456382285000075, -20.985554994999973 ], [ 48.370554111000047, -21.292226872999947 ], [ 48.304163235000033, -21.47972686199995 ], [ 48.217773306000026, -21.745000016999938 ], [ 48.140827099000035, -21.923054942999954 ], [ 48.120282216000078, -21.959164013999953 ], [ 48.110273218000032, -21.978335940999955 ], [ 48.050827084000048, -22.110554931999957 ], [ 48.015273230000048, -22.191108876999976 ], [ 48.00305409200007, -22.220555005999927 ], [ 47.919718193000051, -22.431946101999927 ], [ 47.90805410400003, -22.46194610699996 ], [ 47.900836112000036, -22.485835871999939 ], [ 47.894436193000047, -22.513890940999943 ], [ 47.864718155000048, -22.66944598799995 ], [ 47.847773300000028, -22.781672965999974 ], [ 47.842500245000053, -22.826664004999941 ], [ 47.839718123000068, -22.849446017999981 ], [ 47.837218137000036, -22.86722688499998 ], [ 47.831663282000079, -22.888335869999935 ], [ 47.810554129000082, -22.968335938999928 ], [ 47.802773209000065, -22.9977819 ], [ 47.75971822200006, -23.138335855999969 ], [ 47.712491226000054, -23.339726837999933 ], [ 47.628882245000057, -23.56167292899994 ], [ 47.616945074000057, -23.621946021999975 ], [ 47.615827095000043, -23.64305500699993 ], [ 47.612500150000074, -23.664445958999977 ], [ 47.587218151000059, -23.794173009999952 ], [ 47.575827145000062, -23.839172933999976 ], [ 47.563327212000047, -23.872499883999978 ], [ 47.498054147000062, -24.014999948999957 ], [ 47.488054201000068, -24.030835878999937 ], [ 47.426182177000044, -24.124126964999959 ], [ 47.403609209000081, -24.177782041999933 ], [ 47.339436184000078, -24.30611786399993 ], [ 47.319718260000059, -24.412499973999957 ], [ 47.315554130000066, -24.458890957999984 ], [ 47.313045092000038, -24.471108922999974 ], [ 47.30332711300008, -24.503890881999951 ], [ 47.281663246000051, -24.557499858999961 ], [ 47.198609146000081, -24.741390935999959 ], [ 47.14860925000005, -24.81360891099996 ], [ 47.135273307000034, -24.831672917999981 ], [ 47.130136206000032, -24.846108901999969 ], [ 47.127218130000074, -24.861117872999955 ], [ 47.127218130000074, -24.87541790299997 ], [ 47.131663221000053, -24.894999872999961 ], [ 47.137218243000063, -24.912781912999947 ], [ 47.133045061000075, -24.928055081999958 ], [ 47.09444505600004, -24.973891015999982 ], [ 46.906391191000068, -25.068608869999935 ], [ 46.730273323000063, -25.167499904999943 ], [ 46.719445077000046, -25.171390951999967 ], [ 46.646663335000028, -25.191672977999929 ], [ 46.584163339000042, -25.182781957999964 ], [ 46.54416322000003, -25.174999863999972 ], [ 46.523327150000057, -25.166946027999927 ], [ 46.503054176000035, -25.161663920999956 ], [ 46.413327244000072, -25.161663920999956 ], [ 46.33666333900004, -25.173617855999964 ], [ 46.29083612200003, -25.186108902999933 ], [ 46.258045111000058, -25.196946032999961 ], [ 46.193327095000029, -25.219446078999965 ], [ 46.171945195000035, -25.226946037999937 ], [ 45.963054086000056, -25.309999969999978 ], [ 45.923045083000034, -25.328890935999937 ], [ 45.904718219000074, -25.339446098999929 ], [ 45.794445062000079, -25.403335814999934 ], [ 45.739163226000073, -25.436108888999968 ], [ 45.713609150000025, -25.453890928999954 ], [ 45.698609231000034, -25.46805500399995 ], [ 45.670554163000077, -25.49721782499995 ], [ 45.653327172000047, -25.509164048999935 ], [ 45.571663295000064, -25.55139090299997 ], [ 45.550282234000065, -25.562226859999953 ], [ 45.530273290000025, -25.568608840999957 ], [ 45.487782237000033, -25.575555091999945 ], [ 45.462491186000079, -25.578335871999968 ], [ 45.214718104000042, -25.588335817999962 ], [ 45.127354197000045, -25.548617834999959 ], [ 45.118045088000031, -25.534999923999976 ], [ 45.098054081000043, -25.52083584899998 ], [ 44.914718221000044, -25.40249997199993 ], [ 44.808327227000063, -25.335555051999961 ], [ 44.782491184000037, -25.321108841999944 ], [ 44.769718169000043, -25.316672970999946 ], [ 44.747500258000059, -25.310555019999981 ], [ 44.711391187000061, -25.303890903999957 ], [ 44.587773202000051, -25.293890957999963 ], [ 44.522218169000041, -25.286390998999934 ], [ 44.443327194000062, -25.272781972999951 ], [ 44.355827165000051, -25.255554982999968 ], [ 44.349163217000068, -25.246390879999979 ], [ 44.297700175000045, -25.163126897999973 ], [ 44.323054091000074, -25.167499904999943 ], [ 44.332500161000041, -25.176673058999938 ], [ 44.350000234000049, -25.194446046999929 ], [ 44.36860923200004, -25.215555031999941 ], [ 44.389163335000035, -25.232782021999981 ], [ 44.399163281000028, -25.230282035999949 ], [ 44.407773340000062, -25.220835798999929 ], [ 44.411945180000032, -25.211673036999969 ], [ 44.401936182000043, -25.193335947999969 ], [ 44.337218166000071, -25.153055035999955 ], [ 44.184436188000063, -25.069172971999933 ], [ 44.174718209000048, -25.064726874999963 ], [ 44.162773327000025, -25.059446107999975 ], [ 44.150273227000071, -25.055835854999941 ], [ 44.139718231000074, -25.053890917999979 ], [ 44.129718118000028, -25.057781964999947 ], [ 44.119718172000034, -25.062781937999944 ], [ 44.108327166000038, -25.061673011999972 ], [ 44.09750026100005, -25.054445967999982 ], [ 44.03221814300008, -25.004446070999961 ], [ 44.01708227000006, -24.980835925999941 ], [ 44.02304515600008, -24.958335880999982 ], [ 44.021945115000051, -24.944446060999951 ], [ 44.016391266000028, -24.920282039999961 ], [ 44.011109158000068, -24.899726930999975 ], [ 44.00527317500007, -24.880281921999938 ], [ 43.993891221000069, -24.86139095599998 ], [ 43.985273283000026, -24.850281916999961 ], [ 43.96750012800004, -24.830282024999974 ], [ 43.953891270000042, -24.81083584199996 ], [ 43.925827149000042, -24.761108859999979 ], [ 43.917773314000044, -24.741108967999935 ], [ 43.914300188000027, -24.717646009999953 ], [ 43.928891238000062, -24.688055041999974 ], [ 43.931245211000032, -24.672782040999948 ], [ 43.922773286000051, -24.634026969999979 ], [ 43.905827090000059, -24.598891037999977 ], [ 43.834445126000048, -24.505281942999943 ], [ 43.819445207000058, -24.49167291699996 ], [ 43.79749115900006, -24.477217989999929 ], [ 43.787218130000042, -24.471390890999942 ], [ 43.765827178000052, -24.462499870999977 ], [ 43.75555415000008, -24.456390971999951 ], [ 43.732218261000071, -24.438608931999966 ], [ 43.711936067000067, -24.417226863999929 ], [ 43.691663260000041, -24.384446078999929 ], [ 43.671391292000067, -24.331672945999969 ], [ 43.664163242000029, -24.311390919999951 ], [ 43.664445209000064, -24.188890912999966 ], [ 43.664718124000046, -24.043608893999931 ], [ 43.662218137000025, -23.86861788899995 ], [ 43.653191163000031, -23.824446096999964 ], [ 43.648891247000051, -23.809999886999947 ], [ 43.624991256000044, -23.761673017999954 ], [ 43.636382262000041, -23.657782010999938 ], [ 43.638327199000059, -23.647781896999959 ], [ 43.649718205000056, -23.623755003999975 ], [ 43.673336229000029, -23.613891012999943 ], [ 43.703891284000065, -23.602781972999935 ], [ 43.735273297000049, -23.588890980999963 ], [ 43.747909184000036, -23.577364019999948 ], [ 43.759991194000065, -23.468054948999963 ], [ 43.753054164000048, -23.452226898999982 ], [ 43.745282295000038, -23.443055084999969 ], [ 43.687491252000029, -23.394999957999971 ], [ 43.646382208000034, -23.361946089999947 ], [ 43.636936138000067, -23.357499992999976 ], [ 43.630554157000063, -23.3474998799999 ], [ 43.61500019500005, -23.311390975999927 ], [ 43.611663359000033, -23.301672996999969 ], [ 43.606945186000075, -23.278054973999929 ], [ 43.605827207000061, -23.265835834999962 ], [ 43.597500289000038, -23.170835846999978 ], [ 43.59693618700004, -23.15083595599998 ], [ 43.597773204000077, -23.129446008999935 ], [ 43.59693618700004, -23.09916403699998 ], [ 43.588054052000075, -23.078335845999959 ], [ 43.578327189000049, -23.067782023999939 ], [ 43.555827143000045, -23.048890889999939 ], [ 43.520554083000036, -23.023055014999954 ], [ 43.504718153000056, -23.012781986999983 ], [ 43.492773270000043, -23.008055095999964 ], [ 43.482218107000051, -22.997499932999972 ], [ 43.392773310000052, -22.895835828999964 ], [ 43.375827113000071, -22.875281893999954 ], [ 43.366100250000045, -22.861945949999949 ], [ 43.361936120000053, -22.852782015999935 ], [ 43.358054125000081, -22.841663923999931 ], [ 43.348882312000057, -22.80083584099998 ], [ 43.317218164000053, -22.659446041999956 ], [ 43.286109233000047, -22.498055010999963 ], [ 43.238882237000041, -22.282499952999956 ], [ 43.260827233000043, -22.213335840999946 ], [ 43.250545153000076, -22.1627819 ], [ 43.247218208000049, -22.152226904999964 ], [ 43.236827162000054, -22.06874599899993 ], [ 43.279163317000041, -21.908335817999955 ], [ 43.314436210000054, -21.882781908999959 ], [ 43.328045068000051, -21.846390870999983 ], [ 43.332773300000042, -21.776945964999982 ], [ 43.334163354000054, -21.758608874999936 ], [ 43.421100287000058, -21.67056402299994 ], [ 43.431109117000062, -21.663891021999973 ], [ 43.44777317900008, -21.661673002999976 ], [ 43.472354116000076, -21.66805498399998 ], [ 43.469445093000047, -21.598055027999976 ], [ 43.466109263000078, -21.476391031999981 ], [ 43.466109263000078, -21.463335882999957 ], [ 43.47639117600005, -21.395554951999941 ], [ 43.478336113000069, -21.383335813999963 ], [ 43.481945193000058, -21.37249985699998 ], [ 43.500545139000053, -21.333890966999945 ], [ 43.545000239000046, -21.301390974999947 ], [ 43.579718249000052, -21.28055507299996 ], [ 43.59166330000005, -21.278890929999932 ], [ 43.616100236000079, -21.276390942999967 ], [ 43.664991206000025, -21.272226813999964 ], [ 43.698882258000026, -21.271946019999973 ], [ 43.712218202000031, -21.273890956999935 ], [ 43.722218148000024, -21.27694599299997 ], [ 43.730273324000052, -21.283608934999961 ], [ 43.74110022800005, -21.286108921999983 ], [ 43.768327165000073, -21.27055495899998 ], [ 43.776663303000078, -21.264726853999946 ], [ 43.802500184000053, -21.233335955999962 ], [ 43.808609250000075, -21.225281952999978 ], [ 43.81971812200004, -21.207226830999957 ], [ 43.841109242000073, -21.156945972999949 ], [ 43.861382216000038, -21.079999933999943 ], [ 43.875545118000048, -21.008890883999982 ], [ 43.878882289000046, -20.945835837999937 ], [ 43.897773254000072, -20.879173053999978 ], [ 43.906663269000035, -20.859446076999973 ], [ 43.911663241000042, -20.850000006999949 ], [ 43.949436121000076, -20.788063944999976 ], [ 43.968045119000067, -20.764163953999969 ], [ 43.991945110000074, -20.743617896999979 ], [ 44.002782241000034, -20.746108998999944 ], [ 44.01527328800006, -20.745835916999965 ], [ 44.023609258000079, -20.739999932999979 ], [ 44.036109191000037, -20.723890920999963 ], [ 44.041663375000041, -20.714999900999942 ], [ 44.079436086000044, -20.651946027999941 ], [ 44.100554124000041, -20.600835864999965 ], [ 44.104163371000027, -20.589999907999982 ], [ 44.17610927000004, -20.441945992999933 ], [ 44.266391252000062, -20.294445953999968 ], [ 44.340273203000038, -20.157217937999974 ], [ 44.353336063000029, -20.137217878999934 ], [ 44.361109273000068, -20.128608993999933 ], [ 44.370827084000041, -20.119726857999979 ], [ 44.39000018400003, -20.103335878999928 ], [ 44.399718163000045, -20.096109001999935 ], [ 44.428891209000028, -20.077781970999979 ], [ 44.437491210000076, -20.06860898399998 ], [ 44.479718232000039, -19.980555078999942 ], [ 44.482773268000074, -19.965835953999942 ], [ 44.482500186000038, -19.941390970999976 ], [ 44.471936138000046, -19.877363959999968 ], [ 44.440282216000071, -19.845554971999945 ], [ 44.426109256000075, -19.841255055999966 ], [ 44.410273326000038, -19.84028191699997 ], [ 44.399718163000045, -19.832499990999963 ], [ 44.387500198000055, -19.812226848999956 ], [ 44.370827084000041, -19.777090916999953 ], [ 44.440273331000071, -19.55278196699993 ], [ 44.454718200000059, -19.544726957999956 ], [ 44.465000281000073, -19.544999872999938 ], [ 44.476100268000039, -19.542499885999973 ], [ 44.48319119000007, -19.526946090999957 ], [ 44.482773268000074, -19.50278190299997 ], [ 44.469163237000032, -19.438335795999933 ], [ 44.438609188000044, -19.378891002999978 ], [ 44.42555403800003, -19.357782017999966 ], [ 44.351663371000029, -19.251391023999929 ], [ 44.336391208000066, -19.229999903999953 ], [ 44.28638225900005, -19.169172934999949 ], [ 44.265673258000049, -19.144935823999958 ], [ 44.261936103000039, -19.139999888999967 ], [ 44.231382222000036, -19.081108971999981 ], [ 44.227354047000063, -19.066108885999938 ], [ 44.231382222000036, -18.97360888399993 ], [ 44.248609212000076, -18.961673053999959 ], [ 44.261663356000042, -18.85305498799994 ], [ 44.26138222700007, -18.841945948999978 ], [ 44.256945182000038, -18.820554996999931 ], [ 44.241663297000059, -18.770282017999932 ], [ 44.231109139000068, -18.74110897099996 ], [ 44.199163359000067, -18.667499935999956 ], [ 44.16360028500003, -18.591117830999963 ], [ 44.158882279000068, -18.582226810999941 ], [ 44.113882188000048, -18.51361791599993 ], [ 44.105554097000038, -18.501663980999979 ], [ 44.082218208000029, -18.47 ], [ 44.072491177000074, -18.459164043999976 ], [ 44.063327242000071, -18.45139100199998 ], [ 44.054163307000067, -18.441946105999932 ], [ 44.040554114000031, -18.423054971999932 ], [ 44.03569126900004, -18.408055052999941 ], [ 44.043054100000063, -18.340282001999981 ], [ 44.045827169000063, -18.240554955999983 ], [ 44.043609150000066, -18.201391015999945 ], [ 44.039445188000059, -18.167499963999944 ], [ 44.032909148000044, -18.131108924999978 ], [ 44.024582230000078, -18.112226843999963 ], [ 44.011936117000062, -18.056390963999945 ], [ 44.003609199000039, -17.980281941999976 ], [ 44.001391180000041, -17.95889098899994 ], [ 44.001109213000063, -17.948608908999972 ], [ 44.002782241000034, -17.929172950999941 ], [ 44.004718125000068, -17.917499977999967 ], [ 44.013609145000032, -17.877499858999954 ], [ 44.021945115000051, -17.865835937999975 ], [ 44.026936203000048, -17.846945977999951 ], [ 44.03027320700005, -17.817499848999944 ], [ 44.031945061000044, -17.775554961999944 ], [ 44.031391185000075, -17.756945962999964 ], [ 43.993609253000045, -17.692781990999947 ], [ 43.98805406300005, -17.683608835999962 ], [ 43.969445065000059, -17.662226936999957 ], [ 43.959718201000044, -17.652226822999978 ], [ 43.94332722200005, -17.632500013999959 ], [ 43.928891238000062, -17.611946078999949 ], [ 43.92443608800005, -17.600835865999954 ], [ 43.921663355000078, -17.58055501299998 ], [ 43.922773286000051, -17.570281984999951 ], [ 43.929445114000032, -17.512217858999975 ], [ 43.931391224000038, -17.50055494399993 ], [ 43.937218156000029, -17.479445958999975 ], [ 43.947218101000033, -17.450835840999957 ], [ 43.95250020900005, -17.439446007999948 ], [ 43.96416329200008, -17.421108917999959 ], [ 44.039718103000041, -17.317217909999954 ], [ 44.137773294000056, -17.176390871999956 ], [ 44.182500136000044, -17.098054945999934 ], [ 44.215273210000078, -17.037226803999943 ], [ 44.275273220000031, -16.91972693799994 ], [ 44.346109186000035, -16.796945969999967 ], [ 44.351663371000029, -16.78833591199998 ], [ 44.363327124000079, -16.779163929999982 ], [ 44.373600153000041, -16.772499981999943 ], [ 44.383327184000052, -16.763890928999956 ], [ 44.392491286000052, -16.753335933999949 ], [ 44.432500289000075, -16.703608951999968 ], [ 44.437773177000054, -16.692217945999971 ], [ 44.465827239000077, -16.506672950999928 ], [ 44.466109207000045, -16.495835820999957 ], [ 44.463336138000045, -16.477782039999965 ], [ 44.458609247000027, -16.466663947999962 ], [ 44.453327139000066, -16.457500012999958 ], [ 44.436945213000058, -16.433335823999982 ], [ 44.421945126000026, -16.413064023999937 ], [ 44.409718109000039, -16.393335873999945 ], [ 44.404445053000074, -16.38278188399994 ], [ 44.399582209000073, -16.369163973999946 ], [ 44.39805418800006, -16.341663954999945 ], [ 44.438891155000078, -16.214726903999974 ], [ 44.442773317000047, -16.203890946999934 ], [ 44.449436092000042, -16.195281894999937 ], [ 44.460273223000058, -16.183890887999951 ], [ 44.488882167000043, -16.177226939999969 ], [ 44.50374512500008, -16.17986405399995 ], [ 44.573054077000052, -16.186946091999971 ], [ 44.609445116000074, -16.188335810999945 ], [ 44.803054171000042, -16.199717932999931 ], [ 44.873600292000049, -16.21028198099998 ], [ 45.000000231000058, -16.142681931999959 ], [ 45.034436106000044, -16.120555047999972 ], [ 45.050000127000033, -16.107782033999968 ], [ 45.059582319000071, -16.096526813999958 ], [ 45.073327131000042, -16.074172948999944 ], [ 45.091109171000028, -16.049445998999943 ], [ 45.130000196000026, -16.003891025999962 ], [ 45.140691146000052, -15.993472990999976 ], [ 45.216945175000035, -15.950281881999956 ], [ 45.254718222000065, -15.931390915999941 ], [ 45.265000135000037, -15.927499868999973 ], [ 45.273891155000058, -15.932781975999944 ], [ 45.277218100000027, -15.943055004999962 ], [ 45.293609247000063, -16.055555064999965 ], [ 45.291109261000031, -16.067217980999942 ], [ 45.288600222000071, -16.096808948999978 ], [ 45.291663304000053, -16.110554934999982 ], [ 45.302636222000046, -16.117781978999972 ], [ 45.326945082000066, -16.110282019999943 ], [ 45.335545082000067, -16.104999911999982 ], [ 45.395554145000062, -16.066946071999951 ], [ 45.412773256000037, -16.041390989999968 ], [ 45.411109113000066, -16.031108908999954 ], [ 45.401109167000072, -16.026673038999945 ], [ 45.392218147000051, -16.033290885999975 ], [ 45.37444516000005, -16.006391011999938 ], [ 45.367082161000042, -15.983335916999977 ], [ 45.39054511900008, -15.973335802999941 ], [ 45.572491260000049, -15.949164070999927 ], [ 45.594163341000069, -15.987499878999927 ], [ 45.593600245000061, -15.998608917999945 ], [ 45.589163368000072, -16.008054987999969 ], [ 45.577218150000078, -16.024173051999981 ], [ 45.576382307000074, -16.038335785999948 ], [ 45.606945073000077, -16.055281982999929 ], [ 45.617773318000047, -16.057500001999927 ], [ 45.627491297000063, -16.036663931999954 ], [ 45.645273337000049, -15.907217841999966 ], [ 45.64555413100004, -15.894726961999936 ], [ 45.643882276000056, -15.883054994999952 ], [ 45.716663348000054, -15.791672970999969 ], [ 45.739163226000073, -15.79778203799998 ], [ 45.807500212000036, -15.814726892999943 ], [ 45.826109210000027, -15.814726892999943 ], [ 45.834718096000074, -15.809445958999959 ], [ 45.868891283000039, -15.78694608099994 ], [ 45.878327126000045, -15.782217848999949 ], [ 45.910827118000043, -15.773055087999978 ], [ 45.921391166000035, -15.77249987099998 ], [ 45.957500237000033, -15.783890876999976 ], [ 45.956382259000065, -15.804445985999962 ], [ 45.951945214000034, -15.835282001999929 ], [ 45.955827209000063, -15.844999980999944 ], [ 45.965000196000062, -15.853335950999963 ], [ 46.063609264000036, -15.871945954999944 ], [ 46.072491232000061, -15.861108992999959 ], [ 46.071936182000059, -15.810835845999975 ], [ 46.070545121000066, -15.78417301199994 ], [ 46.060554060000072, -15.783055033999972 ], [ 46.048882260000028, -15.788891017999958 ], [ 46.038600179000071, -15.798335913999949 ], [ 46.031100220000042, -15.807781982999927 ], [ 46.021663371000045, -15.816390868999974 ], [ 46.011382296000079, -15.823890995999932 ], [ 46.004854134000027, -15.808890908999956 ], [ 46.013054150000073, -15.793608855999935 ], [ 46.027773275000072, -15.775281991999975 ], [ 46.048336095000082, -15.756672992999938 ], [ 46.068882319000068, -15.739999878999981 ], [ 46.079718109000055, -15.732226836999928 ], [ 46.09944508500007, -15.720281954999962 ], [ 46.120554070000026, -15.711108967999962 ], [ 46.15138220700004, -15.703608840999948 ], [ 46.171945195000035, -15.703608840999948 ], [ 46.201945200000068, -15.704999900999951 ], [ 46.232500255000048, -15.714173055999936 ], [ 46.246109113000045, -15.759726855999929 ], [ 46.235545065000053, -15.806108955999946 ], [ 46.246663324000053, -15.84694609099995 ], [ 46.257218152000064, -15.878335814999957 ], [ 46.265827205000051, -15.90110894399993 ], [ 46.280000165000047, -15.932500008999966 ], [ 46.293054141000027, -15.951946024999927 ], [ 46.302218244000073, -15.96110895399994 ], [ 46.321109209000042, -15.973335802999941 ], [ 46.331109155000036, -15.977217965999955 ], [ 46.477773183000068, -15.961390920999975 ], [ 46.447218128000031, -15.885835941999972 ], [ 46.413054161000048, -15.853891000999965 ], [ 46.380136080000057, -15.83569087099994 ], [ 46.340000175000057, -15.778055060999975 ], [ 46.303473182000062, -15.712364073999936 ], [ 46.308882192000056, -15.68639090299996 ], [ 46.31277323900008, -15.674717928999939 ], [ 46.329163380000068, -15.644999890999941 ], [ 46.331663367000033, -15.634163933999957 ], [ 46.338336200000072, -15.624726916999975 ], [ 46.347218167000051, -15.615835896999954 ], [ 46.462773264000077, -15.506108904999962 ], [ 46.473609221000061, -15.498055069999964 ], [ 46.483891302000075, -15.493335890999958 ], [ 46.574163225000063, -15.443335826999942 ], [ 46.705273291000026, -15.364726817999951 ], [ 46.83360911300008, -15.268054975999974 ], [ 46.841663284000049, -15.261946076999948 ], [ 46.855554109000082, -15.247782001999951 ], [ 46.880273180000074, -15.230555010999979 ], [ 46.889445162000072, -15.225835831999973 ], [ 46.947218100000043, -15.198890862999974 ], [ 46.959163318000037, -15.197226887999932 ], [ 46.968327085000055, -15.202217975999929 ], [ 46.974718118000055, -15.209999901999936 ], [ 47.076382222000063, -15.334446018999927 ], [ 47.071936126000026, -15.343890914999974 ], [ 47.054991270000073, -15.368890946999954 ], [ 47.044445160000066, -15.379445942999951 ], [ 47.01305409400004, -15.397499891999928 ], [ 47.007218110000053, -15.405835861999947 ], [ 46.96221818600003, -15.50222691099998 ], [ 46.958882189000064, -15.513335949999941 ], [ 46.956936078000069, -15.542781910999963 ], [ 46.95944511700003, -15.558055079999974 ], [ 46.96944506300008, -15.554726960999972 ], [ 46.974718118000055, -15.54583594099995 ], [ 47.04221825500008, -15.493608972999937 ], [ 47.093045111000038, -15.479726864999975 ], [ 47.129009175000078, -15.445182024999951 ], [ 47.142682238000077, -15.444635859999948 ], [ 47.180782179000062, -15.458772944999964 ], [ 47.20666331700005, -15.448464042999944 ], [ 47.223618231000046, -15.448464042999944 ], [ 47.236736077000046, -15.417290905999948 ], [ 47.212218172000064, -15.413335821999965 ], [ 47.196109160000049, -15.401390938999953 ], [ 47.111936076000063, -15.305554939999979 ], [ 47.083054050000044, -15.260281933999977 ], [ 47.059718161000035, -15.223335845999941 ], [ 47.05805418500006, -15.19805502 ], [ 47.058327100000042, -15.184999869999956 ], [ 47.063045106000061, -15.17528189199993 ], [ 47.080554063000079, -15.150282026999946 ], [ 47.108745086000056, -15.115554963999955 ], [ 47.222773335000056, -14.993890968999949 ], [ 47.310554158000059, -14.912500005999959 ], [ 47.300000168000054, -14.875282008999932 ], [ 47.286882322000054, -14.855735913999979 ], [ 47.29277329100006, -14.842226799999935 ], [ 47.316382262000047, -14.809717923999926 ], [ 47.341663256000061, -14.777782034999973 ], [ 47.389718216000063, -14.726663991999942 ], [ 47.454991281000048, -14.665281973999981 ], [ 47.465554156000053, -14.663608945999954 ], [ 47.500827216000062, -14.711672957999951 ], [ 47.506382238000072, -14.826946087999943 ], [ 47.499445208000054, -14.848335866999946 ], [ 47.495000284000071, -14.857781935999981 ], [ 47.473473210000066, -14.885135941999977 ], [ 47.44832716500008, -14.909726936999959 ], [ 47.436100148000037, -14.925281905999952 ], [ 47.412500229000045, -14.971390922999944 ], [ 47.410827201000075, -14.982499961999963 ], [ 47.409163225000043, -15.086946019999971 ], [ 47.411109168000053, -15.098608934999959 ], [ 47.416663352000057, -15.106946078999954 ], [ 47.427218180000068, -15.110554990999958 ], [ 47.438609187000054, -15.108055004999926 ], [ 47.448054083000045, -15.103335825999977 ], [ 47.483327143000054, -15.082781889999978 ], [ 47.49194508100004, -15.076663938999957 ], [ 47.566936125000041, -14.950281937999932 ], [ 47.613054194000028, -14.857226886999968 ], [ 47.624991198000032, -14.827217828999949 ], [ 47.63916332000008, -14.787500012999942 ], [ 47.643609249000065, -14.778054949999955 ], [ 47.687773329000038, -14.701946094999926 ], [ 47.698609118000036, -14.683608837999941 ], [ 47.811273297000071, -14.603890902999979 ], [ 47.968600279000043, -14.621664058999954 ], [ 47.978609277000032, -14.625835898999981 ], [ 47.984163294000041, -14.63416399099998 ], [ 47.995554132000052, -14.662499852999929 ], [ 47.99889130300005, -14.686672925999972 ], [ 47.997773325000026, -14.706391017999977 ], [ 47.99166325300007, -14.728335846999926 ], [ 47.989436181000031, -14.739999935999947 ], [ 47.987500129000068, -14.75999999499993 ], [ 47.99708232100005, -14.767226871999981 ], [ 48.013327120000042, -14.749446004999982 ], [ 48.020827247000057, -14.728055052999935 ], [ 48.022500275000027, -14.712363962999973 ], [ 48.015273230000048, -14.635281968999948 ], [ 48.006945139000038, -14.622782036999979 ], [ 47.941109145000041, -14.575835834999964 ], [ 47.931936158000042, -14.570835861999967 ], [ 47.919163311000034, -14.569173059999969 ], [ 47.906391302000031, -14.570555068999965 ], [ 47.895827086000054, -14.573608930999967 ], [ 47.887218201000053, -14.579173005999962 ], [ 47.827891258000079, -14.590890906999959 ], [ 47.750973215000045, -14.603199898999947 ], [ 47.720836082000062, -14.558335929999942 ], [ 47.701663316000065, -14.442782006999948 ], [ 47.69943607700003, -14.420555042999979 ], [ 47.69971821200005, -14.408335904999944 ], [ 47.713882287000047, -14.357226914999956 ], [ 47.717773334000071, -14.346946007999975 ], [ 47.778882270000054, -14.261390915999982 ], [ 47.830000145000042, -14.233890896999981 ], [ 47.852773273000025, -14.246390996999935 ], [ 47.87527331900003, -14.252226813999982 ], [ 47.927773202000026, -14.253890956999953 ], [ 47.935718240000028, -14.226226819999965 ], [ 47.94155405600003, -14.21522691399997 ], [ 47.94839117500004, -14.18855502699995 ], [ 47.94838229000004, -14.177973041999962 ], [ 47.939027248000059, -14.131108982999933 ], [ 47.919445110000026, -14.114999970999975 ], [ 47.904300185000068, -14.096946021999941 ], [ 47.914163338000037, -14.088891012999966 ], [ 47.925554177000038, -14.088891012999966 ], [ 47.94582715100006, -14.098335908999957 ], [ 47.987218162000033, -14.12028191099995 ], [ 47.995827215000077, -14.125835927999958 ], [ 48.011109268000041, -14.138335859999927 ], [ 48.01666328500005, -14.147499961999927 ], [ 48.01500014800007, -14.158335918999967 ], [ 47.997391278000066, -14.195026861999963 ], [ 47.987718226000027, -14.231446063999954 ], [ 47.97444514700004, -14.284726804999934 ], [ 47.971382232000053, -14.306663921999927 ], [ 47.977773266000042, -14.320690868999975 ], [ 47.993045093000035, -14.326945948999935 ], [ 48.00305409200007, -14.322781986999928 ], [ 48.048336150000068, -14.155554970999958 ], [ 48.052500280000061, -14.106108950999953 ], [ 48.044718186000068, -14.07917303399995 ], [ 48.041109273000075, -14.068890953999926 ], [ 48.031400180000048, -14.063408853999931 ], [ 48.003882224000051, -14.05666393599995 ], [ 47.994718121000062, -14.051673015999938 ], [ 47.986382319000029, -14.046108940999943 ], [ 47.948054055000057, -14.014717874999974 ], [ 47.941936103000046, -14.006390956999951 ], [ 47.946391253000058, -13.99666392599994 ], [ 47.959163261000072, -13.995555 ], [ 47.972500211000067, -13.996391010999957 ], [ 47.983054200000026, -13.994717815999934 ], [ 48.022082185000045, -13.960555021999937 ], [ 47.968045061000055, -13.924999994999951 ], [ 47.949163316000067, -13.915282015999935 ], [ 47.926663270000063, -13.909446031999948 ], [ 47.910554090000062, -13.897499975999949 ], [ 47.901663238000026, -13.878054966999969 ], [ 47.883609121000063, -13.82694597699998 ], [ 47.874445187000049, -13.788335912999969 ], [ 47.87250025000003, -13.776672997999981 ], [ 47.890273237000031, -13.651673004999964 ], [ 47.892491256000028, -13.639164019999953 ], [ 47.897773197000049, -13.616663973999948 ], [ 47.905273324000063, -13.596391 ], [ 47.912500201000057, -13.589446090999957 ], [ 47.927082198000051, -13.587364025999932 ], [ 47.942773288000069, -13.59222687099998 ], [ 47.955554182000071, -13.59222687099998 ], [ 48.019718153000042, -13.581108946999962 ], [ 48.026936146000025, -13.574164036999946 ], [ 48.047773222000046, -13.54999984799997 ], [ 48.045273235000082, -13.54028203699994 ], [ 48.037500193000028, -13.53389100399994 ], [ 48.028609173000063, -13.529163945999926 ], [ 48.023045098000068, -13.520835853999927 ], [ 48.034300150000036, -13.514717902999962 ], [ 48.063327184000059, -13.51805507399996 ], [ 48.071663322000063, -13.523608922999927 ], [ 48.152773323000076, -13.600835923999966 ], [ 48.165836184000057, -13.663608834999934 ], [ 48.175000286000056, -13.715835802999948 ], [ 48.183463326000037, -13.757635851999964 ], [ 48.241945206000025, -13.804446098999961 ], [ 48.252491149000036, -13.808055010999965 ], [ 48.287218212000028, -13.808055010999965 ], [ 48.305545076000044, -13.798608940999941 ], [ 48.318054061000055, -13.790282022999975 ], [ 48.335545081000078, -13.773055032999935 ], [ 48.355827107000039, -13.603890959999944 ], [ 48.349436074000039, -13.585690997999961 ], [ 48.335273340000072, -13.565281901999981 ], [ 48.337636198000041, -13.55083585899996 ], [ 48.350554052000064, -13.542782023999962 ], [ 48.42555414800006, -13.525281950999954 ], [ 48.503882196000063, -13.515555087999928 ], [ 48.500545192000061, -13.444172955999932 ], [ 48.536945116000027, -13.425555072999941 ], [ 48.645273336000059, -13.441391001999932 ], [ 48.656391260000078, -13.444172955999932 ], [ 48.665554188000044, -13.449164043999929 ], [ 48.68250021700004, -13.439726858999961 ], [ 48.721382190000043, -13.423055085999977 ], [ 48.735963349000031, -13.424164011999949 ], [ 48.792773207000039, -13.367781966999928 ], [ 48.798336108000058, -13.354172940999945 ], [ 48.808327169000052, -13.286946053999941 ], [ 48.815554046000045, -13.219163949999938 ], [ 48.812491299000044, -13.194308924999973 ], [ 48.823882305000041, -13.12 ], [ 48.844718208000074, -13.07778203 ], [ 48.863609173000043, -13.041108856999927 ], [ 48.900136166000038, -12.97291788299998 ], [ 48.918054161000043, -12.956108981999932 ], [ 48.945545127000059, -12.887217951999958 ], [ 48.949163259000045, -12.876946096999973 ], [ 48.959445172000073, -12.82222685399995 ], [ 48.956936133000056, -12.811390896999967 ], [ 48.902500198000041, -12.673890971999981 ], [ 48.879718185000058, -12.573055 ], [ 48.82221816200007, -12.507226884999966 ], [ 48.782218211000043, -12.465835873999936 ], [ 48.767218125000056, -12.45847304199998 ], [ 48.744718247000037, -12.446946080999965 ], [ 48.733600155000033, -12.437635798999963 ], [ 48.756382168000073, -12.40305508299997 ], [ 48.766391166000062, -12.399172920999945 ], [ 48.850827106000054, -12.413335822999954 ], [ 48.861936145000072, -12.416108891999954 ], [ 48.870282174000067, -12.423054974999957 ], [ 48.875545171000056, -12.444999970999959 ], [ 48.879163303000041, -12.45528188399993 ], [ 48.895554115000039, -12.479999948999932 ], [ 48.90721820400006, -12.495835878999969 ], [ 48.918609210000056, -12.494717899999955 ], [ 48.944163286000048, -12.485835932999976 ], [ 48.953891156000054, -12.474446099999966 ], [ 48.961391283000069, -12.414999965999982 ], [ 48.969163319000074, -12.357781909999972 ], [ 48.977354114000036, -12.345135796999955 ], [ 49.063891230000081, -12.276672914999949 ], [ 49.096663298000067, -12.280555076999974 ], [ 49.150836209000033, -12.252226925999935 ], [ 49.164445067000031, -12.238054971999929 ], [ 49.169445207000081, -12.229173003999961 ], [ 49.19151811100005, -12.159781909999936 ], [ 49.189436214000068, -12.12555507899998 ], [ 49.163609224000027, -12.114172956999937 ], [ 49.129436204000058, -12.103608908999945 ], [ 49.157218190000037, -12.053890979999949 ], [ 49.224445077000041, -11.97471786899996 ], [ 49.258327244000043, -11.94555504899995 ], [ 49.272218237000061, -11.947081895999929 ], [ 49.283882326000025, -11.954172985999946 ], [ 49.297218102000045, -11.964446014999965 ], [ 49.309718201000067, -11.984446073999948 ], [ 49.320545106000054, -12.003055071999938 ], [ 49.347218166000062, -12.06194598899998 ], [ 49.356945197000073, -12.090835894999941 ], [ 49.370000179000044, -12.187226942999928 ], [ 49.367363232000059, -12.205835941999965 ], [ 49.355273342000032, -12.193890891999956 ], [ 49.349718152000037, -12.184445995999965 ], [ 49.335273283000049, -12.164446103999978 ], [ 49.325554131000047, -12.157499852999933 ], [ 49.261936156000047, -12.143890994999936 ], [ 49.251936211000043, -12.148054956999943 ], [ 49.242218232000027, -12.169863998999972 ], [ 49.232500254000058, -12.224999989999958 ], [ 49.270963299000073, -12.282081923999954 ], [ 49.310791253000048, -12.257135871999935 ], [ 49.327500241000052, -12.301108844999931 ], [ 49.346382322000068, -12.30333591599998 ], [ 49.360273315000029, -12.296391006999954 ], [ 49.368327151000074, -12.283608938999976 ], [ 49.370554055000071, -12.272226817999979 ], [ 49.366391266000051, -12.262499953999964 ], [ 49.428609128000062, -12.282781980999971 ], [ 49.518327176000071, -12.345835853999972 ], [ 49.543882258000053, -12.384446084999979 ], [ 49.59082711800005, -12.485281888999964 ], [ 49.595554176000064, -12.507781934999969 ], [ 49.596663270000079, -12.52028203499998 ], [ 49.596663270000079, -12.5325 ], [ 49.592500146000077, -12.542226862999939 ], [ 49.574891276000074, -12.565099902999975 ], [ 49.576527088000034, -12.582491010999945 ], [ 49.574554156000033, -12.599881951999976 ], [ 49.564554043000044, -12.613826923999966 ], [ 49.562091272000032, -12.633346029999927 ], [ 49.570618182000032, -12.648772922999967 ], [ 49.594300244000067, -12.650190972999951 ], [ 49.653609250000045, -12.701946039999939 ], [ 49.798045200000047, -12.816108902999929 ], [ 49.894718215000069, -12.949999915999967 ], [ 49.900273238000068, -12.958335885999929 ], [ 49.943327219000025, -13.039446054999928 ], [ 49.947491181000032, -13.074446032999958 ], [ 49.94721826600005, -13.086673049999945 ], [ 49.943600134000064, -13.096946077999974 ], [ 49.94082723300005, -13.11889090699998 ], [ 49.933327106000036, -13.18110893599993 ], [ 49.943600134000064, -13.224446057999955 ], [ 49.979436123000028, -13.346672981999973 ], [ 50.024718181000026, -13.449446010999964 ], [ 50.038054125000031, -13.463890879999951 ], [ 50.034436160000041, -13.483890939999981 ], [ 50.034436160000041, -13.496108904999971 ], [ 50.037773331000039, -13.513335894999955 ], [ 50.043327180000063, -13.521663985999965 ], [ 50.051109274000055, -13.529163945999926 ], [ 50.059436192000078, -13.534726846999945 ], [ 50.066663237000057, -13.541672929999947 ], [ 50.071391301000062, -13.550555065999959 ], [ 50.101945182000065, -13.627499930999932 ], [ 50.138054085000078, -13.761945993999973 ], [ 50.140273278000052, -13.773608908999961 ], [ 50.14832711400004, -13.820282027999951 ], [ 50.149718174000043, -13.832781960999966 ], [ 50.150273224000046, -13.852499884999929 ], [ 50.14666330600005, -13.876664073999962 ], [ 50.145273251000049, -13.896390882999981 ], [ 50.144163319000029, -13.988890883999943 ], [ 50.149718174000043, -13.998608862999959 ], [ 50.160827213000061, -14.015000009999937 ], [ 50.175000174000047, -14.049445943999956 ], [ 50.176109267000072, -14.061946043999967 ], [ 50.171109127000079, -14.104999856999939 ], [ 50.160554131000026, -14.20166398799995 ], [ 50.160000255000057, -14.221672931999933 ], [ 50.163327200000026, -14.231945960999951 ], [ 50.16832717300008, -14.241663938999977 ], [ 50.178609253000047, -14.252226813999982 ], [ 50.192218112000035, -14.259445978999963 ], [ 50.202773275000027, -14.26986401399995 ], [ 50.21555416800004, -14.291945970999961 ], [ 50.216945061000047, -14.307635887999936 ], [ 50.213882314000045, -14.342499910999948 ], [ 50.203891253000052, -14.374726819999978 ], [ 50.192218112000035, -14.418608932999973 ], [ 50.190827219000028, -14.431108864999942 ], [ 50.19055413600006, -14.451663973999928 ], [ 50.200000206000027, -14.570281985999941 ], [ 50.238327129000027, -14.711390990999973 ], [ 50.27194509800006, -14.826108903999966 ], [ 50.300000167000064, -14.904999878999945 ], [ 50.33749124600007, -14.998608973999978 ], [ 50.40110922100007, -15.097781976999954 ], [ 50.433609212000079, -15.145835929999976 ], [ 50.483891244000063, -15.203891003999956 ], [ 50.496782276000033, -15.249455028999932 ], [ 50.498054146000072, -15.262781919999952 ], [ 50.501391149000028, -15.308890936999944 ], [ 50.501391149000028, -15.322781929999962 ], [ 50.482773266000038, -15.405835861999947 ], [ 50.433609212000079, -15.579999907999934 ], [ 50.326382207000051, -15.818891022999935 ], [ 50.29971819900004, -15.873608924999928 ], [ 50.240827115000059, -15.968890879999947 ], [ 50.232218230000058, -15.974446069999942 ], [ 50.17277327000005, -15.97972683699993 ], [ 50.137927183000045, -15.927517973999954 ], [ 50.100554121000073, -15.920554958999958 ], [ 50.033882284000072, -15.866945981999947 ], [ 50.029163272000062, -15.85749991299997 ], [ 50.026382324000053, -15.810555051999927 ], [ 50.02666328600003, -15.798335913999949 ], [ 49.96166330300008, -15.681108962999929 ], [ 49.903882318000058, -15.561108942999965 ], [ 49.903054186000077, -15.548054966999928 ], [ 49.90221817500003, -15.468335858999978 ], [ 49.866109271000028, -15.432499869999958 ], [ 49.824163378000037, -15.431664025999964 ], [ 49.751391191000039, -15.43583586699998 ], [ 49.730000239000049, -15.442781949999926 ], [ 49.720554169000081, -15.447499955999945 ], [ 49.696109187000047, -15.465835871999957 ], [ 49.676936086000069, -15.488335917999962 ], [ 49.664445206000039, -15.504717844999959 ], [ 49.641391285000054, -15.537499970999932 ], [ 49.633609190000072, -15.557499862999975 ], [ 49.632773179000026, -15.570555011999943 ], [ 49.63389115800004, -15.58360898799998 ], [ 49.657491244000028, -15.681945978999977 ], [ 49.666663226000026, -15.706108994999965 ], [ 49.67582716000004, -15.725281927999958 ], [ 49.734027240000046, -15.904163979999964 ], [ 49.730973210000059, -15.92194602 ], [ 49.717773221000073, -15.945554990999938 ], [ 49.704718240000034, -15.96417304199997 ], [ 49.687773216000039, -16.009999923999942 ], [ 49.680554051000058, -16.034999955999979 ], [ 49.681382183000039, -16.054999847999966 ], [ 49.695827220000069, -16.098055002999956 ], [ 49.70208229900004, -16.114172899999971 ], [ 49.709718212000041, -16.12749995799993 ], [ 49.720554169000081, -16.138054952999937 ], [ 49.729718104000028, -16.145555079999951 ], [ 49.748891205000064, -16.153335832999971 ], [ 49.759163227000045, -16.154726893999964 ], [ 49.76916334100008, -16.152226907999932 ], [ 49.816936165000072, -16.181945950999932 ], [ 49.836109266000051, -16.197226830999966 ], [ 49.850273341000047, -16.217226890999939 ], [ 49.85401820800007, -16.231390965999935 ], [ 49.85221811100007, -16.247499977999951 ], [ 49.838336170000048, -16.286663917999931 ], [ 49.832500186000061, -16.308608913999933 ], [ 49.825409264000029, -16.343335808999939 ], [ 49.825554103000059, -16.365555060999952 ], [ 49.830273282000064, -16.395281983999951 ], [ 49.83444512300008, -16.416390968999963 ], [ 49.848882281000044, -16.424164010999959 ], [ 49.85944515500006, -16.434446090999927 ], [ 49.863054067000064, -16.455281993999961 ], [ 49.862782326000058, -16.473890991999951 ], [ 49.848609198000077, -16.554173028999969 ], [ 49.845836129000077, -16.565835943999957 ], [ 49.799436093000054, -16.641673057999981 ], [ 49.791936133000036, -16.651390867999964 ], [ 49.772500176000051, -16.67194597699995 ], [ 49.753882293000061, -16.689726843999949 ], [ 49.743045163000033, -16.697226802999978 ], [ 49.724163249000071, -16.705835855999965 ], [ 49.719163276000074, -16.714726875999929 ], [ 49.717218172000059, -16.728335901999969 ], [ 49.720836137000049, -16.7569460199999 ], [ 49.736663349000025, -16.786390974999961 ], [ 49.743045163000033, -16.79610895299993 ], [ 49.750000131000036, -16.805835816999945 ], [ 49.759436142000027, -16.81416407599994 ], [ 49.779445086000067, -16.826117842999963 ], [ 49.788609188000066, -16.830281972999956 ], [ 49.638054114000056, -16.88749986199997 ], [ 49.628054168000062, -16.889726932999963 ], [ 49.617218211000079, -16.894173029999934 ], [ 49.60694518300005, -16.900555010999938 ], [ 49.596936185000061, -16.908608846999982 ], [ 49.59027324200008, -16.919445976999953 ], [ 49.531663287000072, -17.046390906999932 ], [ 49.428891263000025, -17.297226903999956 ], [ 49.422773312000061, -17.315835901999947 ], [ 49.42055411900003, -17.326117982999961 ], [ 49.418882265000036, -17.343890969999961 ], [ 49.421663380000041, -17.362499968999941 ], [ 49.43527324400003, -17.381945983999969 ], [ 49.454718254000056, -17.41541794099993 ], [ 49.475273195000057, -17.486946085999932 ], [ 49.488609138000072, -17.554446054999971 ], [ 49.509718123000027, -17.678335948999973 ], [ 49.511109184000077, -17.689445993999982 ], [ 49.510273340000026, -17.711390989999927 ], [ 49.501109238000026, -17.77111791699997 ], [ 49.495000172000061, -17.793890877999957 ], [ 49.481663223000055, -17.831391009999948 ], [ 49.455554097000061, -17.915835834999939 ], [ 49.445827234000035, -17.948063916999956 ], [ 49.433327134000081, -17.996946002999948 ], [ 49.414445053000065, -18.07249997599996 ], [ 49.38416324800005, -18.213890947999971 ], [ 49.372218198000041, -18.312781982999979 ], [ 49.370827137000049, -18.325281914999948 ], [ 49.368327151000074, -18.351390872999957 ], [ 49.304163347000042, -18.537226886999974 ], [ 49.231382275000044, -18.703890973999933 ], [ 49.167773185000044, -18.879446080999969 ], [ 49.143882247000079, -18.940281933999927 ], [ 49.130273221000039, -18.970555021999928 ], [ 49.097500147000062, -19.034726872999954 ], [ 49.075273184000025, -19.068891006999934 ], [ 49.066382164000061, -19.088055054999927 ], [ 49.03166331500006, -19.194446049999954 ], [ 49.024991152000041, -19.215835828999957 ], [ 49.01805412200008, -19.250835805999941 ], [ 49.014163242000052, -19.276108920999945 ], [ 49.002491274000079, -19.334445960999972 ], [ 48.996382208000057, -19.356390956999974 ], [ 48.988882249000028, -19.37694606599996 ], [ 48.95638225700003, -19.457781978999947 ], [ 48.921945208000068, -19.531672981999975 ], [ 48.892773335000072, -19.588608902999965 ], [ 48.883045130000028, -19.607782003999944 ], [ 48.875545171000056, -19.628335938999953 ], [ 48.869436105000034, -19.650281940999946 ], [ 48.86166323100008, -19.684446075999972 ], [ 48.849163298000065, -19.742781942999954 ], [ 48.84444512500005, -19.766108946999964 ], [ 48.833609168000066, -19.825281998999969 ], [ 48.81304517500007, -19.933055000999957 ], [ 48.77805408200004, -20.039172912999959 ], [ 48.759163283000078, -20.091117913999938 ], [ 48.750827145000073, -20.111117972999978 ], [ 48.722218201000032, -20.167226935999963 ], [ 48.705827222000039, -20.193054932999928 ], [ 48.691382185000066, -20.221672929999954 ], [ 48.654445149000026, -20.298335827999949 ], [ 48.636382316000038, -20.336672976999978 ], [ 48.616663218000042, -20.388055048999945 ], [ 48.60779130800006, -20.416172981999978 ] ] ], [ [ [ 48.331936169000073, -13.419999882999946 ], [ 48.222354184000039, -13.405417885999952 ], [ 48.207218143000034, -13.393055080999943 ], [ 48.198054040000045, -13.364173053999934 ], [ 48.192218224000044, -13.33805504399993 ], [ 48.191663342000027, -13.318054984999947 ], [ 48.19666331500008, -13.269999856999959 ], [ 48.26639119400005, -13.202499887999977 ], [ 48.284163344000035, -13.195972899999958 ], [ 48.294163290000029, -13.195281895999926 ], [ 48.320827129000065, -13.197917836999977 ], [ 48.325000144000057, -13.211108940999964 ], [ 48.36193617400005, -13.394164006999972 ], [ 48.361518252000053, -13.408335793999981 ], [ 48.342500217000065, -13.418054945999927 ], [ 48.331936169000073, -13.419999882999946 ] ] ], [ [ [ 49.827218246000029, -17.095282044999976 ], [ 49.820000254000036, -17.088335793999931 ], [ 49.817636222000033, -17.044308841999964 ], [ 49.860545196000032, -16.913890953999953 ], [ 49.867218197000057, -16.902781914999935 ], [ 49.96166330300008, -16.759726966999949 ], [ 50.010554106000029, -16.725564005999956 ], [ 49.952218239000047, -16.878608841999949 ], [ 49.939718139000036, -16.907499920999953 ], [ 49.910000269000079, -16.958890877999977 ], [ 49.833609280000076, -17.089726854999981 ], [ 49.827218246000029, -17.095282044999976 ] ] ] ] }
        }
    ]
}