{
    "type": "FeatureCollection",
    "features": [
        {
            "type": "Feature",
            "properties": {
                "WCID": "MAR",
                "COUNTRY": "Morocco"
            },
            "geometry": { "type": "Polygon", "coordinates": [ [ [ -4.420417849999978, 35.151245071000062 ], [ -4.357917853999936, 35.146109143000047 ], [ -4.317499813999973, 35.156864131000077 ], [ -4.264999762999935, 35.186664144000076 ], [ -4.215554915999974, 35.189718006000078 ], [ -4.119308873999955, 35.202636028000029 ], [ -4.092917781999972, 35.214582084000028 ], [ -4.069999813999971, 35.230136046000041 ], [ -4.020836766999935, 35.245282146000079 ], [ -3.914926725999976, 35.256109050000077 ], [ -3.902081794999958, 35.223673096000027 ], [ -3.864372952999929, 35.202982201000054 ], [ -3.820690831999968, 35.199718120000057 ], [ -3.801663911999981, 35.203045065000026 ], [ -3.755554894999932, 35.241664181000033 ], [ -3.654717749999975, 35.269582121000042 ], [ -3.584790883999972, 35.229509080000071 ], [ -3.410554920999971, 35.195000114000038 ], [ -3.386390899999981, 35.193054004000032 ], [ -3.336254880999945, 35.191382149000049 ], [ -3.306390830999931, 35.195273196000073 ], [ -3.168336693999947, 35.246936063000078 ], [ -3.070763964999969, 35.287709160000077 ], [ -3.023608885999977, 35.346109065000064 ], [ -2.986108753999929, 35.41805395800003 ], [ -2.960836812999958, 35.361936110000045 ], [ -2.946945987999925, 35.329164209000055 ], [ -2.966181784999947, 35.316627062000066 ], [ -2.965072858999974, 35.281318127000077 ], [ -2.939236815999948, 35.264436135000039 ], [ -2.914717737999979, 35.273609123000028 ], [ -2.901390846999959, 35.259164254000041 ], [ -2.902781907999952, 35.220554022000044 ], [ -2.912081796999928, 35.198327059000064 ], [ -2.905554975999962, 35.16971811500008 ], [ -2.876945863999936, 35.141800174000025 ], [ -2.83486384899993, 35.125136113000053 ], [ -2.783799785999975, 35.122382155000025 ], [ -2.794163841999932, 35.147218069000076 ], [ -2.823336719999929, 35.165836120000051 ], [ -2.857499848999964, 35.199435985000036 ], [ -2.883681896999974, 35.234582143000068 ], [ -2.807781919999968, 35.184436066000046 ], [ -2.776390853999942, 35.158335993000037 ], [ -2.748890834999941, 35.139745099000038 ], [ -2.676390892999962, 35.110836083000038 ], [ -2.62721778699995, 35.098473111000033 ], [ -2.549717871999974, 35.093891060000033 ], [ -2.52610890099993, 35.096382161000065 ], [ -2.481390776999945, 35.108191090000048 ], [ -2.343054840999969, 35.123600045000046 ], [ -2.258054965999975, 35.096936038000024 ], [ -2.216945921999979, 35.085826998000073 ], [ -2.209445961999961, 35.085826998000073 ], [ -2.203263973999981, 35.037491077000027 ], [ -2.180281800999978, 35.012218130000065 ], [ -2.074999899999966, 34.943600183000058 ], [ -1.856390811999972, 34.801382084000068 ], [ -1.7978459, 34.770618153000044 ], [ -1.757599856999946, 34.754645095000058 ], [ -1.800836730999947, 34.663891211000077 ], [ -1.819717805999971, 34.648327023000036 ], [ -1.854963876999932, 34.614373107000063 ], [ -1.732572834999928, 34.500754062000055 ], [ -1.692581936999943, 34.489082094000025 ], [ -1.73249991199998, 34.440273098000034 ], [ -1.793336771999975, 34.378327146000061 ], [ -1.750554866999948, 34.349445119000052 ], [ -1.719163968999965, 34.26666410200005 ], [ -1.658336664999979, 34.100000182000031 ], [ -1.654445952999936, 34.083609036000041 ], [ -1.68749982099996, 33.966382084000031 ], [ -1.708336729999928, 33.890827106000074 ], [ -1.728272918999949, 33.70449119500006 ], [ -1.695136740999942, 33.678464212000051 ], [ -1.654372862999935, 33.662773122000033 ], [ -1.605554982999934, 33.589854084000024 ], [ -1.60069079699997, 33.559718125000074 ], [ -1.599863837999976, 33.516245049000077 ], [ -1.629163953999978, 33.443191063000029 ], [ -1.648890930999926, 33.412218086000053 ], [ -1.667290884999943, 33.376518052000051 ], [ -1.666663917999927, 33.258882064000034 ], [ -1.6461088099999, 33.226391125000077 ], [ -1.580554950999954, 33.145827121000025 ], [ -1.54889080199996, 33.111382193000054 ], [ -1.517217769999945, 33.088609065000071 ], [ -1.490208762999941, 33.073473192000051 ], [ -1.478263879999929, 33.05075404300004 ], [ -1.477499785999953, 33.019573195000078 ], [ -1.48618192899994, 32.981873239000038 ], [ -1.54249976899996, 32.939435998000079 ], [ -1.382781932999933, 32.72444504300006 ], [ -1.266945874999976, 32.667218102000049 ], [ -1.011808787999939, 32.505553988000031 ], [ -1.040281945999936, 32.471936018000065 ], [ -1.063890916999981, 32.450000074000059 ], [ -1.117636685999969, 32.416935981000051 ], [ -1.151108810999972, 32.410554 ], [ -1.191526850999935, 32.405691155000056 ], [ -1.21597283899996, 32.382500105000076 ], [ -1.250417766999931, 32.323473234000062 ], [ -1.258054854999955, 32.240826998000045 ], [ -1.257726786999967, 32.208018049000032 ], [ -1.291872816999955, 32.172291193000035 ], [ -1.275836726999955, 32.156245045000048 ], [ -1.241663874999972, 32.167773179000051 ], [ -1.206663896999942, 32.172773152000048 ], [ -1.175972887999933, 32.13874497200004 ], [ -1.180554939999979, 32.112218093000024 ], [ -1.207781875999956, 32.09180916400004 ], [ -1.238608838999937, 32.085827 ], [ -1.25916394799998, 32.085273124000025 ], [ -1.286254929999927, 32.092491116000076 ], [ -1.312217874999931, 32.100418049000041 ], [ -1.472499812999956, 32.109445024000024 ], [ -1.492499871999939, 32.107773169000041 ], [ -1.659445925999933, 32.111109167000052 ], [ -1.901663817999975, 32.119991134000031 ], [ -1.931108772999949, 32.121109113000045 ], [ -1.982781865999925, 32.12471802500005 ], [ -2.102363963999949, 32.136109031000046 ], [ -2.134999909999976, 32.143053941000062 ], [ -2.16639080799996, 32.146109145000025 ], [ -2.264163864999944, 32.154718030000026 ], [ -2.302499839999939, 32.157218016000058 ], [ -2.338190821999945, 32.157218016000058 ], [ -2.417781853999941, 32.14916418100006 ], [ -2.463890871999979, 32.143609158000061 ], [ -2.85944595899997, 32.086527056000079 ], [ -2.895490824999968, 32.068609062000064 ], [ -2.934445887999971, 32.032909027000073 ], [ -2.943472862999954, 32.011382121000054 ], [ -2.948472834999961, 31.963054079000074 ], [ -2.946390770999926, 31.939864202000024 ], [ -2.949999850999973, 31.898609145000023 ], [ -2.959445919999951, 31.868891107000024 ], [ -2.97639077599996, 31.847500155000034 ], [ -2.999445870999978, 31.833327027000053 ], [ -3.096945844999937, 31.79666424800007 ], [ -3.15971775099996, 31.778326990000039 ], [ -3.234717846999956, 31.758054016000074 ], [ -3.287499864999972, 31.744718073000058 ], [ -3.38610876499996, 31.726109074000078 ], [ -3.419999816999962, 31.707773158000066 ], [ -3.481390887999964, 31.679445008000073 ], [ -3.51708187, 31.673264192000033 ], [ -3.547781931999964, 31.678053947000024 ], [ -3.569163830999969, 31.682500044000051 ], [ -3.630554901999972, 31.696391204000065 ], [ -3.654308879999974, 31.708536079000055 ], [ -3.68528185699995, 31.715826994000054 ], [ -3.717917802999978, 31.716109129000074 ], [ -3.791390883999952, 31.705553966000025 ], [ -3.813472839999974, 31.698054006000064 ], [ -3.828336804999935, 31.682773126000029 ], [ -3.834999914999969, 31.650273135000077 ], [ -3.842990885999939, 31.489791204000028 ], [ -3.826599906999945, 31.452918039000053 ], [ -3.803890815999978, 31.33916421300006 ], [ -3.825554850999936, 31.182782207000059 ], [ -3.823890874999961, 31.161591079000061 ], [ -3.801526783999975, 31.147636049000027 ], [ -3.781663852999941, 31.152636021000035 ], [ -3.697781788999976, 31.150273163000065 ], [ -3.600136807999945, 31.090827029000025 ], [ -3.592845892999946, 31.028264168000078 ], [ -3.602217866999979, 30.991391170000043 ], [ -3.622217757999977, 30.973609130000057 ], [ -3.64666391399993, 30.961109030000046 ], [ -3.704717813999935, 30.941944982000052 ], [ -3.750281839999957, 30.940973184000029 ], [ -3.800281903999974, 30.941109139000048 ], [ -3.840554936999979, 30.938053935000028 ], [ -3.879999837999947, 30.934164229000032 ], [ -3.925281896999934, 30.928609039000037 ], [ -3.987499758999945, 30.918327126000065 ], [ -4.008054866999942, 30.913326985000026 ], [ -4.03333669899996, 30.901527110000075 ], [ -4.132781945999966, 30.804445057000066 ], [ -4.149446006999938, 30.786944984000058 ], [ -4.164999801999954, 30.772500115000071 ], [ -4.215136826999981, 30.742636065000056 ], [ -4.261108883999952, 30.727773106000029 ], [ -4.337363917999937, 30.693473185000073 ], [ -4.359999918999961, 30.679164103000062 ], [ -4.378890883999929, 30.660273137000047 ], [ -4.399581947999934, 30.647218155000076 ], [ -4.429999873999975, 30.637218042000029 ], [ -4.467781805999948, 30.631664193000063 ], [ -4.639163898999925, 30.600827003000063 ], [ -4.915136719999964, 30.509854017000066 ], [ -4.938190809999981, 30.495553987000051 ], [ -4.969717829999979, 30.463327078000077 ], [ -4.994445952999968, 30.423609094000028 ], [ -5.010836764999965, 30.393891056000029 ], [ -5.029163963999963, 30.359164161000024 ], [ -5.048054929999978, 30.316664224000078 ], [ -5.080972842999927, 30.262364243000036 ], [ -5.139163869999948, 30.192364120000036 ], [ -5.152136709999979, 30.180473216000053 ], [ -5.170836735999956, 30.160273165000035 ], [ -5.223054986999955, 30.107500032000075 ], [ -5.275836668999943, 30.055273231000058 ], [ -5.313608877999968, 30.02583598700005 ], [ -5.347499761999927, 30.000273194000044 ], [ -5.390836716999956, 29.976391140000032 ], [ -5.530690782999955, 29.905973095000036 ], [ -5.569481895999957, 29.895226992000062 ], [ -5.627499920999981, 29.894164167000042 ], [ -5.694446013999936, 29.889164194000045 ], [ -5.733336703999953, 29.884718097000075 ], [ -5.790554927999949, 29.876391179000052 ], [ -5.89832675699995, 29.856673087000047 ], [ -5.941254841999978, 29.840691145000051 ], [ -5.992917875999979, 29.830554071000051 ], [ -6.039026724999928, 29.833054058000073 ], [ -6.063890802999936, 29.843745008000042 ], [ -6.084999787999948, 29.847918022000044 ], [ -6.111108745999957, 29.84889116100004 ], [ -6.139308820999929, 29.84819110400008 ], [ -6.16194599499994, 29.841391202000068 ], [ -6.195136821999938, 29.808264244000043 ], [ -6.224445990999925, 29.798882212000024 ], [ -6.400281891999953, 29.804445113000043 ], [ -6.481663968999953, 29.739582091000045 ], [ -6.497363943999972, 29.669445007000036 ], [ -6.511254936999933, 29.633891153000036 ], [ -6.527781870999945, 29.612918122000053 ], [ -6.554163910999932, 29.586936066000078 ], [ -6.583399821999933, 29.568327068000031 ], [ -6.635554873999979, 29.566109049000033 ], [ -6.696945943999935, 29.575136023000027 ], [ -6.732290920999958, 29.589236061000065 ], [ -6.785281815999952, 29.603609013000039 ], [ -6.840836734999925, 29.612218066000025 ], [ -7.104999790999955, 29.64027313400004 ], [ -7.126254955999968, 29.63582703700007 ], [ -7.194999805999942, 29.597773197000038 ], [ -7.296108859999947, 29.539854078000076 ], [ -7.316808807999962, 29.517427123000061 ], [ -7.336108810999974, 29.486382062000075 ], [ -7.356390836999935, 29.461664165000059 ], [ -7.436390906999975, 29.396109132000049 ], [ -7.461945987999968, 29.388609173000077 ], [ -7.487781863999942, 29.385273175000066 ], [ -7.518336750999936, 29.387218112000028 ], [ -7.539445903999933, 29.38971809800006 ], [ -7.560554888999945, 29.393609146000074 ], [ -7.589717876999941, 29.395554082000046 ], [ -7.612917810999932, 29.393327011000054 ], [ -7.642363939999939, 29.38610901900006 ], [ -7.662917875999938, 29.369582085000047 ], [ -7.690281939999977, 29.341109095000036 ], [ -7.798054941999965, 29.256109053000046 ], [ -7.98694599199996, 29.122773089000077 ], [ -8.144999852999945, 29.056527053000025 ], [ -8.172363916999927, 29.043473077000044 ], [ -8.199999889999958, 29.026664176000054 ], [ -8.359726777999981, 28.917636067000046 ], [ -8.374999779999939, 28.903326985000035 ], [ -8.39666398199995, 28.872918110000057 ], [ -8.410554974999968, 28.849445093000043 ], [ -8.495554848999973, 28.790554009000061 ], [ -8.521108757999968, 28.779444970000043 ], [ -8.555554858999926, 28.769718107000074 ], [ -8.578472826999928, 28.759853948000057 ], [ -8.62833676899993, 28.732773192000025 ], [ -8.667217735999941, 28.709445014000039 ], [ -8.667217735999941, 27.933327046000045 ], [ -8.666663858999925, 27.666664172000026 ], [ -8.667217735999941, 27.59971807900007 ], [ -8.667217735999941, 27.499445035000065 ], [ -8.666790928999944, 27.290454014000034 ], [ -8.667217735999941, 26.966391196000075 ], [ -8.667217735999941, 26.833054059000062 ], [ -8.667217735999941, 26.399718046000032 ], [ -8.666663858999925, 26.133327080000072 ], [ -8.666390776999947, 26.066391045000046 ], [ -8.666945993999946, 26.000273084000071 ], [ -9.399999922999939, 25.999444952000033 ], [ -9.56721788599998, 26.000273084000071 ], [ -9.633890896999958, 26.000273084000071 ], [ -9.70055485499995, 26.000273084000071 ], [ -9.899999894999951, 26.000000170000078 ], [ -9.966663852999943, 25.999718035000058 ], [ -10.000308812999947, 25.997964205000073 ], [ -10.134117850999928, 25.998200072000031 ], [ -10.500281794999978, 25.999444952000033 ], [ -10.733336756999961, 25.999444952000033 ], [ -11.266672898999957, 25.999444952000033 ], [ -11.700554909999937, 26.000000170000078 ], [ -12.000554959999931, 26.000000170000078 ], [ -11.999999910999975, 25.733053987000062 ], [ -11.999999910999975, 25.666109067000036 ], [ -12.00083676, 25.632500150000055 ], [ -11.999999910999975, 25.299718141000028 ], [ -11.999999910999975, 25.232773221000059 ], [ -12.00083676, 25.200000148000072 ], [ -11.999999910999975, 24.866391180000051 ], [ -11.999999910999975, 24.799718002000077 ], [ -12.00083676, 24.76610908400005 ], [ -11.999999910999975, 24.399718158000042 ], [ -12.00083676, 24.333054032000064 ], [ -12.000281877999953, 24.000000115000034 ], [ -12.00083676, 23.799718058000053 ], [ -12.000281877999953, 23.454436117000057 ], [ -12.098890777999941, 23.429718052000055 ], [ -12.231390897999972, 23.380553999000028 ], [ -12.365836792999971, 23.318609052000056 ], [ -12.571390898999937, 23.291382116000023 ], [ -12.597426766999945, 23.276173152000069 ], [ -12.636663963999979, 23.25082711500005 ], [ -12.744999894999978, 23.182500187000073 ], [ -12.998336716999972, 23.024718068000027 ], [ -13.049445874999947, 22.962773121000055 ], [ -13.10528192299995, 22.893053959000042 ], [ -13.133890866999934, 22.809164184000053 ], [ -13.150281846999974, 22.757500144000062 ], [ -13.094163830999946, 22.570827113000064 ], [ -13.079999923999935, 22.520273173000078 ], [ -13.077799841999934, 22.496809041000063 ], [ -13.066390897999952, 22.323891048000064 ], [ -13.059163852999973, 22.204718155000023 ], [ -13.051390811999966, 22.085827060000042 ], [ -13.047781898999972, 22.033882059000064 ], [ -13.031390919999978, 21.797773234000033 ], [ -13.004999826999949, 21.423336016000064 ], [ -12.999726771999974, 21.338054007000039 ], [ -13.376945942999953, 21.340000117000045 ], [ -13.908336812999949, 21.342500103000077 ], [ -14.285281896999948, 21.342218136000042 ], [ -14.303472972999941, 21.34166409200003 ], [ -14.467226862999951, 21.340553993000071 ], [ -14.687226843999952, 21.338609056000053 ], [ -15.005281848999971, 21.336391037000055 ], [ -15.225554912999939, 21.337500130000024 ], [ -15.741999842999974, 21.338282162000041 ], [ -15.892226849999929, 21.338609056000053 ], [ -16.017781892999949, 21.338891191000073 ], [ -16.146117882999931, 21.339718150000067 ], [ -16.60472684399997, 21.339718150000067 ], [ -16.953754992999961, 21.336664119000034 ], [ -16.960554894999973, 21.300554042000044 ], [ -16.994999823999933, 21.128053972000032 ], [ -17.038063862999934, 21.004164245000027 ], [ -17.049163849999957, 20.974445034000041 ], [ -17.070281886999965, 20.920827005000035 ], [ -17.07555494199994, 20.899027016000048 ], [ -17.052326844999982, 20.764100168000027 ], [ -17.057036803999949, 20.767391070000031 ], [ -17.101526771999943, 20.837427068000068 ], [ -17.094372817999954, 20.943744973000037 ], [ -17.06360888599994, 21.09750009000004 ], [ -17.029445924999948, 21.285000080000032 ], [ -17.021117833999938, 21.36527323100006 ], [ -17.010563843999932, 21.441109171000051 ], [ -17.005836785999975, 21.463054 ], [ -16.981946014999949, 21.553609064000057 ], [ -16.968890865999981, 21.625273163000031 ], [ -16.95999984599996, 21.707500136000078 ], [ -16.964172859999962, 21.77500010600005 ], [ -16.959445969999933, 21.822218049000071 ], [ -16.956945982999969, 21.833327088000033 ], [ -16.91625486099997, 21.945418112000027 ], [ -16.851945881999939, 22.073473141000022 ], [ -16.71944592899996, 22.260827118000066 ], [ -16.665208812999936, 22.292982110000025 ], [ -16.635763857999962, 22.276527093000027 ], [ -16.598608891999959, 22.281391111000062 ], [ -16.534726719999981, 22.305827041000043 ], [ -16.49812680499997, 22.325344973000028 ], [ -16.465417767999952, 22.384027013000036 ], [ -16.46055492399995, 22.412500170000044 ], [ -16.424099846999979, 22.520273173000078 ], [ -16.389036836999935, 22.544218091000062 ], [ -16.362708776999966, 22.56458209300007 ], [ -16.345836843999962, 22.634718003000046 ], [ -16.339999853999927, 22.687500189000048 ], [ -16.342499839999959, 22.719444963000058 ], [ -16.337081945999955, 22.756945095000049 ], [ -16.323608873999945, 22.794445059000054 ], [ -16.267290866999929, 22.899854030000029 ], [ -16.228472931999931, 22.91430007200006 ], [ -16.200836790999972, 22.932218067000065 ], [ -16.185554904999947, 22.948473092000029 ], [ -16.163890870999978, 22.988882079000064 ], [ -16.152363909999963, 23.024718068000027 ], [ -16.151390938999953, 23.06389106000006 ], [ -16.178336745999957, 23.085000045000072 ], [ -16.109445882999978, 23.248054047000039 ], [ -16.072499794999942, 23.328336083000067 ], [ -16.054308885999944, 23.345691149000061 ], [ -16.035836679999932, 23.362782185000071 ], [ -16.012636744999952, 23.392636009000057 ], [ -15.996945989999972, 23.415273183000068 ], [ -15.980554842999936, 23.44763604700006 ], [ -15.969999847999929, 23.497218021000037 ], [ -15.962781855999935, 23.517218081000067 ], [ -15.921672810999951, 23.583473170000048 ], [ -15.882781953999938, 23.638609161000034 ], [ -15.868608825999956, 23.652773069000034 ], [ -15.829999768999926, 23.683818130000077 ], [ -15.764726870999937, 23.786527122000052 ], [ -15.760281947999943, 23.858054093000078 ], [ -15.779445995999936, 23.90943599700006 ], [ -15.874717892999968, 23.822917993000033 ], [ -15.890836794999927, 23.803891072000056 ], [ -15.90208195699995, 23.784027135000031 ], [ -15.927081820999945, 23.718891198000051 ], [ -15.94333667799998, 23.682218024000065 ], [ -15.993972928999938, 23.648509027000046 ], [ -15.933054932999937, 23.788053969000032 ], [ -15.911663980999947, 23.821945021000033 ], [ -15.866390806999959, 23.868609088000028 ], [ -15.832226839999976, 23.901726993000068 ], [ -15.702781923999964, 23.984991143000059 ], [ -15.582226853999941, 24.060554001000071 ], [ -15.52610883899996, 24.126109033000034 ], [ -15.457499775999963, 24.201109130000077 ], [ -15.36249978799998, 24.277218152000046 ], [ -15.298336821999953, 24.331945107000024 ], [ -15.282217751999951, 24.355000034000057 ], [ -15.256672895999941, 24.395000153000069 ], [ -15.245554971999979, 24.412500058000035 ], [ -15.229863880999972, 24.439718109000069 ], [ -15.173336828999936, 24.491945077000025 ], [ -15.138336683999967, 24.507636 ], [ -15.100836718999972, 24.517218024000044 ], [ -15.062226822999946, 24.525973090000036 ], [ -15.03139080699998, 24.541664180000055 ], [ -14.900899828999968, 24.689645005000045 ], [ -14.834581875999959, 24.918609096000068 ], [ -14.830554874999962, 25.038054066000029 ], [ -14.833336827999972, 25.071944951000035 ], [ -14.84528187799998, 25.091945010000074 ], [ -14.847363942999948, 25.113335962000065 ], [ -14.845972882999945, 25.213891140000044 ], [ -14.82889089899993, 25.290000163000059 ], [ -14.815554955999971, 25.341109153000048 ], [ -14.790972844999942, 25.431244954000078 ], [ -14.753608835999955, 25.480554015000052 ], [ -14.682781920999957, 25.623882212000069 ], [ -14.648054857999966, 25.732773193000071 ], [ -14.629026763999946, 25.77374511000005 ], [ -14.608054906999939, 25.806944990000034 ], [ -14.588054847999956, 25.830273168000076 ], [ -14.564863965999962, 25.85430006100006 ], [ -14.538472872999932, 25.892909119000024 ], [ -14.517226759999971, 25.934444969000026 ], [ -14.497217815999932, 25.987500070000067 ], [ -14.493054859999972, 26.000273084000071 ], [ -14.489172864999944, 26.015273171000047 ], [ -14.483608789999948, 26.055826998000043 ], [ -14.479308873999969, 26.098745024000038 ], [ -14.489308819999962, 26.126873183000043 ], [ -14.483336713999961, 26.163327085000049 ], [ -14.422499854999955, 26.247500169000034 ], [ -14.40652679699997, 26.260691105000035 ], [ -14.374726861999932, 26.269164204000049 ], [ -14.345281906999958, 26.276391081000043 ], [ -14.321663882999928, 26.283054023000034 ], [ -14.296672902999944, 26.297354053000049 ], [ -14.251945893999959, 26.335554074000072 ], [ -14.220699834999948, 26.366109128000062 ], [ -14.197781867999936, 26.397500026000046 ], [ -14.106108824999978, 26.430554062000056 ], [ -14.066945890999932, 26.435273073000076 ], [ -14.032781923999949, 26.443536121000079 ], [ -13.90791788599995, 26.510418009000034 ], [ -13.709726778999936, 26.62555401000003 ], [ -13.624026847999971, 26.682364203000077 ], [ -13.60110888, 26.703054093000048 ], [ -13.574163910999971, 26.731664211000066 ], [ -13.548472874999959, 26.764164203000064 ], [ -13.51778186599995, 26.820827042000076 ], [ -13.503890872999932, 26.850553964000028 ], [ -13.481390827999974, 26.900827111000069 ], [ -13.427499883999928, 27.064718129000028 ], [ -13.417217802999971, 27.09805396400003 ], [ -13.41694589399998, 27.11805402300007 ], [ -13.414717816999939, 27.145000165000056 ], [ -13.409445934999951, 27.169444980000037 ], [ -13.397226795999927, 27.197218081000074 ], [ -13.37173675799994, 27.237291122000045 ], [ -13.350281935999931, 27.259718078000049 ], [ -13.333608821999974, 27.279718137000032 ], [ -13.303336739999963, 27.328054058000077 ], [ -13.247781820999933, 27.445409085000051 ], [ -13.220699891999971, 27.516527019000023 ], [ -13.174963868999953, 27.666954018000069 ], [ -13.16958184899994, 27.682218134000038 ], [ -13.151390939999942, 27.700691178000056 ], [ -13.115836750999961, 27.713053983000066 ], [ -13.067781957999955, 27.738609064000059 ], [ -13.03986385099995, 27.758191202000035 ], [ -13.022363944999938, 27.777354077000041 ], [ -13.002499840999974, 27.819718059000024 ], [ -12.98528190299993, 27.860835989000066 ], [ -12.97721784099997, 27.889445101000035 ], [ -12.962708766999981, 27.920482115000027 ], [ -12.902499879999937, 27.954164122000066 ], [ -12.846390916999951, 27.964718112000071 ], [ -12.764445910999939, 27.978882187000067 ], [ -12.704726861999973, 27.985554014000058 ], [ -12.614726846999929, 27.990273193000064 ], [ -12.382499848999942, 28.031109155000024 ], [ -12.063054956999963, 28.08389117300004 ], [ -11.94194601099997, 28.148053972000071 ], [ -11.732781818999968, 28.226391071000023 ], [ -11.641390910999974, 28.260000156000046 ], [ -11.546663837999972, 28.290554037000049 ], [ -11.511945994999962, 28.30374497400004 ], [ -11.451108799999929, 28.340409095000041 ], [ -11.303336684999977, 28.524718094000036 ], [ -11.261108823999962, 28.556945003000067 ], [ -11.162499923999974, 28.642773177000038 ], [ -11.102154914999971, 28.700209163000068 ], [ -11.082781821999959, 28.736664239000049 ], [ -11.054445959999953, 28.756391048000069 ], [ -10.925281837999933, 28.818882160000044 ], [ -10.720281942999975, 28.917500112000027 ], [ -10.639581816999964, 28.947500117000061 ], [ -10.613608813999974, 28.962082114000054 ], [ -10.550554940999973, 29.006109067000068 ], [ -10.521108811999966, 29.028327145000048 ], [ -10.500972965999949, 29.045409129000063 ], [ -10.441663960999961, 29.097218008000027 ], [ -10.430763965999972, 29.117709079000065 ], [ -10.39444601799994, 29.168609024000034 ], [ -10.347636775999945, 29.229164251000043 ], [ -10.306945988999928, 29.263336097000035 ], [ -10.284581897999942, 29.274444969000058 ], [ -10.254926723999972, 29.290900154000042 ], [ -10.228199851999932, 29.317918045000056 ], [ -10.138054997999973, 29.428054074000045 ], [ -10.080554974999927, 29.519444982000039 ], [ -10.074445907999973, 29.543053953000026 ], [ -10.072781932999931, 29.563891197000032 ], [ -10.061945975999947, 29.586391075000051 ], [ -9.877226766999968, 29.776945095000031 ], [ -9.821945935999963, 29.833327140000051 ], [ -9.807781860999967, 29.84889116100004 ], [ -9.792917728999953, 29.867636114000049 ], [ -9.769726846999959, 29.906391184000029 ], [ -9.736945893999973, 29.962773230000039 ], [ -9.663472811999952, 30.097918008000079 ], [ -9.640972933999933, 30.165000056000054 ], [ -9.608199860999946, 30.373744984000041 ], [ -9.60839985299998, 30.402500109000073 ], [ -9.704999777999944, 30.543191193000041 ], [ -9.793608899999981, 30.612500144000023 ], [ -9.831254877999982, 30.627564101000075 ], [ -9.853890877999959, 30.726944974000048 ], [ -9.837499897999976, 30.755554086000075 ], [ -9.823890872999925, 30.77944502500003 ], [ -9.812990877999937, 30.818609132000063 ], [ -9.817263971999978, 30.882354009000039 ], [ -9.826254904999928, 30.951945096000031 ], [ -9.844445981999968, 31.115000103000057 ], [ -9.842636831999926, 31.13500016200004 ], [ -9.8277819199999, 31.209164247000047 ], [ -9.814581930999964, 31.25597315300007 ], [ -9.806808888999967, 31.281944983000074 ], [ -9.80278188799997, 31.326182154000037 ], [ -9.818754944999966, 31.377009176000058 ], [ -9.809163868999974, 31.44666413300007 ], [ -9.775281868999969, 31.503054057000043 ], [ -9.735281917999941, 31.560554081000078 ], [ -9.689163848999954, 31.626944957000035 ], [ -9.684999886999947, 31.67082707000003 ], [ -9.680690917999925, 31.706244970000057 ], [ -9.643054998999958, 31.755835997000077 ], [ -9.625836725999932, 31.77583605600006 ], [ -9.454445915999941, 31.943335987000069 ], [ -9.374999890999959, 32.014445036000041 ], [ -9.356663974999947, 32.033464245000062 ], [ -9.277781883999978, 32.183609109000031 ], [ -9.264999816999932, 32.227491054000041 ], [ -9.260554892999949, 32.316382144000045 ], [ -9.270836805999977, 32.510273167000037 ], [ -9.279336726999929, 32.543954001000031 ], [ -9.214445875999957, 32.607500059000074 ], [ -9.170281795999927, 32.638882072000058 ], [ -9.135554899999931, 32.664718115000028 ], [ -9.085699842999929, 32.705691205000051 ], [ -9.05317286199994, 32.734800046000032 ], [ -9.029999916999941, 32.76478211400007 ], [ -8.948890921999975, 32.827282110000056 ], [ -8.841663916999948, 32.915273151000065 ], [ -8.75194586899994, 32.991945101000056 ], [ -8.629581816999973, 33.114027019000048 ], [ -8.615072909999981, 33.145344994000027 ], [ -8.567781876999959, 33.219718124000053 ], [ -8.538336753999943, 33.250545088000024 ], [ -8.501945882999962, 33.254854056000056 ], [ -8.475281874999951, 33.253327041000034 ], [ -8.451390936999928, 33.258045047000053 ], [ -8.407781905999968, 33.277636069000039 ], [ -8.355836736999947, 33.320273135000036 ], [ -8.329726772999948, 33.347218103000046 ], [ -8.306181839999965, 33.372982230000048 ], [ -8.248754905999931, 33.395136103000027 ], [ -8.178890904999946, 33.408609174000048 ], [ -8.113545922999947, 33.42304499100004 ], [ -7.950281870999959, 33.487218015000053 ], [ -7.857917823999969, 33.527500101000044 ], [ -7.833608795999965, 33.535827019000067 ], [ -7.707499877999965, 33.576109104000068 ], [ -7.636599872999966, 33.612945054000079 ], [ -7.606108855999935, 33.606382192000069 ], [ -7.496663830999978, 33.648327079000069 ], [ -7.388608861999955, 33.718891137000071 ], [ -7.228336813999931, 33.796391052000047 ], [ -7.195545970999945, 33.809891113000049 ], [ -7.086663874999942, 33.851944966000076 ], [ -7.080836775999956, 33.853609109000047 ], [ -7.039026836999938, 33.868744982000067 ], [ -6.968890925999972, 33.916382188000057 ], [ -6.933336736999934, 33.941664187000072 ], [ -6.843054921999965, 34.018609053000034 ], [ -6.797499780999942, 34.062073244000032 ], [ -6.716390785999977, 34.196109096000043 ], [ -6.654999882999959, 34.295554007000078 ], [ -6.639717829999938, 34.31832713600005 ], [ -6.597781826999949, 34.376109126000074 ], [ -6.582499772999938, 34.391109045000064 ], [ -6.488336801999935, 34.540835988000026 ], [ -6.379163853999955, 34.72138218300006 ], [ -6.35860874499997, 34.755554028000063 ], [ -6.334163929999931, 34.800282211000024 ], [ -6.315281848999973, 34.835000054000034 ], [ -6.279445860999942, 34.906945114000052 ], [ -6.242499771999974, 35.00832708300004 ], [ -6.211663923999936, 35.093044991000056 ], [ -6.17139089099993, 35.183882190000077 ], [ -6.104717879999953, 35.333054083000036 ], [ -6.052217828999972, 35.450273155000048 ], [ -5.996663915999932, 35.579436104000024 ], [ -5.966108860999952, 35.664718114000038 ], [ -5.937499916999968, 35.759436134000055 ], [ -5.918745910999974, 35.790644977000056 ], [ -5.848336750999977, 35.796664190000058 ], [ -5.744445910999957, 35.805544984000051 ], [ -5.595836778999967, 35.821936131000029 ], [ -5.543754984999964, 35.84249107200003 ], [ -5.50902674799994, 35.871526991000053 ], [ -5.488336690999972, 35.897218027000065 ], [ -5.455554899999925, 35.914436132000048 ], [ -5.407781906999958, 35.919164196000054 ], [ -5.395554889999971, 35.916335975000038 ], [ -5.392363898999974, 35.90055402400003 ], [ -5.377217799999926, 35.871518106000053 ], [ -5.354446012999972, 35.847218130000044 ], [ -5.345836792999933, 35.841664114000025 ], [ -5.344999775999952, 35.829991140000061 ], [ -5.338890876999926, 35.79055395000006 ], [ -5.329717721999941, 35.737500191000038 ], [ -5.320281878999936, 35.700273141000025 ], [ -5.248954899999944, 35.57437309900007 ], [ -5.210690840999973, 35.550554078000062 ], [ -4.966390884999953, 35.366944968000041 ], [ -4.916808741999944, 35.318473092000033 ], [ -4.791663909999954, 35.250827110000046 ], [ -4.729999756999973, 35.220827105000069 ], [ -4.69583679599998, 35.208882222000057 ], [ -4.601945900999965, 35.192218160000039 ], [ -4.519008812999971, 35.179982090000067 ], [ -4.420417849999978, 35.151245071000062 ] ] ] }
        }
    ]
}