{
    "type": "FeatureCollection",
    "features": [
        {
            "type": "Feature",
            "properties": {
                "WCID": "MEX",
                "COUNTRY": "Mexico"
            },
            "geometry": { "type": "MultiPolygon", "coordinates": [ [ [ [ -111.560008898999968, 24.42944508100004 ], [ -111.576117910999983, 24.435691108000071 ], [ -111.602781917999948, 24.459718001000056 ], [ -111.616672910999966, 24.480826986000068 ], [ -111.641681995999988, 24.521591198000067 ], [ -111.65363593099994, 24.549164140000073 ], [ -111.68695500199999, 24.563891144000024 ], [ -111.793617904999962, 24.562500083000032 ], [ -111.826946028999942, 24.642500152000025 ], [ -111.843063925999957, 24.668609110000034 ], [ -111.863681898999971, 24.695691039000053 ], [ -111.923890953999944, 24.756664188000059 ], [ -111.969317850999971, 24.791944960000023 ], [ -111.97812689599999, 24.753536062000023 ], [ -112.08750888899999, 24.756109139000046 ], [ -112.115835865999941, 24.866664095000033 ], [ -112.095290982999984, 24.938609155000051 ], [ -112.107226813999944, 25.023954029000038 ], [ -112.13445509099995, 24.973326998000061 ], [ -112.142790893999972, 24.931109028000037 ], [ -112.150982024999962, 24.899582176000024 ], [ -112.174999864999961, 24.895864131000053 ], [ -112.169726809999986, 24.957218154000032 ], [ -112.12639991399999, 25.172918051000067 ], [ -112.105564011999945, 25.213473219000036 ], [ -112.078717948999952, 25.231909047000045 ], [ -112.067373042999975, 25.278745111000035 ], [ -112.060835828999984, 25.36860917100006 ], [ -112.083335874999989, 25.601035994000028 ], [ -112.086955012999965, 25.55916419700003 ], [ -112.10278189, 25.520764184000029 ], [ -112.111955044999945, 25.552273099000047 ], [ -112.108335906999969, 25.668327086000033 ], [ -112.102508975999967, 25.69139106700004 ], [ -112.100145948999966, 25.728054014000065 ], [ -112.109863927999982, 25.765973074000044 ], [ -112.193072924999967, 25.958327023000038 ], [ -112.20556397199999, 25.980827069000043 ], [ -112.222781909999981, 26.006109068000058 ], [ -112.248055024999985, 26.04124500100005 ], [ -112.325290909999978, 26.080553947000055 ], [ -112.346117927999956, 26.16305400300007 ], [ -112.358608974999981, 26.218327123000051 ], [ -112.36778196299997, 26.237218088000077 ], [ -112.378346009999973, 26.255000128000063 ], [ -112.400690990999976, 26.276109113000075 ], [ -112.426317988999983, 26.289509094000039 ], [ -112.45062685, 26.28465396100006 ], [ -112.470781973999976, 26.264926984000056 ], [ -112.673199906999969, 26.330553933000033 ], [ -112.782499924999968, 26.417773168000053 ], [ -112.853617858999939, 26.481391143000053 ], [ -112.892717928999957, 26.52194497000005 ], [ -112.947646048999957, 26.547218084000065 ], [ -112.977572963999989, 26.551109131000032 ], [ -113.079999988999987, 26.63110903300003 ], [ -113.104445976999955, 26.654718004000074 ], [ -113.116672993999941, 26.672218077000025 ], [ -113.186955084999965, 26.693336115000079 ], [ -113.21500898, 26.703336060000026 ], [ -113.222646066999971, 26.729353991000039 ], [ -113.213681956999949, 26.774918017000061 ], [ -113.200846077999984, 26.800826982000046 ], [ -113.183064037999941, 26.819445033000079 ], [ -113.132508923999978, 26.874164109000048 ], [ -113.124090978999959, 26.902427049000039 ], [ -113.130981908999956, 26.960000162000028 ], [ -113.167572939999957, 26.971109034000051 ], [ -113.186117900999989, 26.939582181000048 ], [ -113.183064037999941, 26.90250013900004 ], [ -113.183626966999952, 26.880827052000029 ], [ -113.206390874999954, 26.826382064000029 ], [ -113.27525508299999, 26.781353977000038 ], [ -113.40292689099999, 26.83173608900006 ], [ -113.431390995999948, 26.844164104000072 ], [ -113.451808976999985, 26.843191133000062 ], [ -113.476117836999947, 26.830973168000071 ], [ -113.536390929999982, 26.75409116700007 ], [ -113.598826888999952, 26.739582092000035 ], [ -113.724308840999981, 26.825136010000051 ], [ -113.74139099199999, 26.857082126000023 ], [ -113.755355074999954, 26.893609119000075 ], [ -113.77250897499999, 26.914164228000061 ], [ -113.81541794899999, 26.95791809800005 ], [ -113.842226963999963, 26.978609161000065 ], [ -113.88389994299996, 26.995136095000078 ], [ -113.904872972999954, 27.000136068000074 ], [ -113.954446062999978, 26.998473098000034 ], [ -113.97619089899996, 26.981944991000034 ], [ -113.998754982999969, 26.981664197000043 ], [ -114.049026955999977, 27.026109071000064 ], [ -114.062090989999945, 27.055000150000069 ], [ -114.076117937999982, 27.083191173000046 ], [ -114.091945987999964, 27.099864120000063 ], [ -114.127791029999969, 27.123053996000067 ], [ -114.16514598699996, 27.145000165000056 ], [ -114.191964053999982, 27.155827070000043 ], [ -114.222499997999989, 27.163609164000036 ], [ -114.247090992999972, 27.165000057000043 ], [ -114.281626948999985, 27.148091076000071 ], [ -114.330290937999962, 27.162500070000078 ], [ -114.47549098199994, 27.238054043000034 ], [ -114.47834602599994, 27.271664134000048 ], [ -114.479735912999956, 27.322218074000034 ], [ -114.48604597799999, 27.361800103000064 ], [ -114.515908854999964, 27.41513599700005 ], [ -114.60986395499998, 27.487918074000049 ], [ -114.668617910999956, 27.510273113000039 ], [ -114.776399965999985, 27.594718106000073 ], [ -114.889181993999955, 27.694718067000053 ], [ -114.928073018999953, 27.688053951000029 ], [ -114.988890934999972, 27.721109159000036 ], [ -115.023063954999941, 27.768609069000036 ], [ -115.043899856999985, 27.817773123000052 ], [ -115.020573020999961, 27.846664202000056 ], [ -114.92499987799999, 27.836109039000064 ], [ -114.833890936999978, 27.821391087000052 ], [ -114.790008991999969, 27.812773150000055 ], [ -114.681945974999962, 27.783191066000029 ], [ -114.613617873999942, 27.767218009000032 ], [ -114.508346030999974, 27.769026991000032 ], [ -114.484455092999951, 27.775000103000025 ], [ -114.460282018999976, 27.787773118000075 ], [ -114.433899978999989, 27.805000108000058 ], [ -114.334308886999963, 27.786245097000062 ], [ -114.317499985999973, 27.760273099000074 ], [ -114.287299988999962, 27.737153966000051 ], [ -114.175417841999945, 27.695000034000032 ], [ -114.005982026999959, 27.686800186000028 ], [ -113.985008996999966, 27.700836018000075 ], [ -113.973063946999957, 27.723327011000038 ], [ -113.984735913999941, 27.739718158000073 ], [ -114.030272950999972, 27.768745024000054 ], [ -114.07430895499999, 27.752636012000039 ], [ -114.11500896299998, 27.730409049000059 ], [ -114.158055064999985, 27.716109019000044 ], [ -114.217226942999957, 27.759854004000033 ], [ -114.220408880999969, 27.806164187000036 ], [ -114.249726933999966, 27.839373120000062 ], [ -114.307635826999956, 27.865926989000059 ], [ -114.291399912999964, 27.934718107000037 ], [ -114.278617845999975, 27.951391053000066 ], [ -114.207672913999943, 28.000273139000058 ], [ -114.184517906999986, 28.016873163000071 ], [ -114.152017914999988, 28.043782090000036 ], [ -114.150973026999964, 28.019582194000066 ], [ -114.161582001999989, 28.000553933000049 ], [ -114.159346045999939, 28.000553933000049 ], [ -114.153635957999938, 28.012236127000051 ], [ -114.128554955999959, 28.023653955000043 ], [ -114.135008853999977, 28.059718100000055 ], [ -114.119455058999961, 28.107218010000054 ], [ -114.113345992999939, 28.144164098000033 ], [ -114.112646103999964, 28.181109013000025 ], [ -114.128346078999982, 28.217782186000079 ], [ -114.14584598499999, 28.310554097000079 ], [ -114.109999936999941, 28.375273118000052 ], [ -114.097500004999972, 28.398891142000025 ], [ -114.084455081999977, 28.429164229000037 ], [ -114.067364045999966, 28.473327136000023 ], [ -114.061317843999973, 28.517573192000043 ], [ -114.080564033999963, 28.553053955000053 ], [ -114.167717889999949, 28.671873133000076 ], [ -114.214035951999961, 28.685135986000034 ], [ -114.261672989999965, 28.713609144000031 ], [ -114.315, 28.749164171000075 ], [ -114.361390983999968, 28.823609050000073 ], [ -114.412299981999979, 28.889164250000078 ], [ -114.426963953999973, 28.885000121000076 ], [ -114.44084606199999, 28.913327098000025 ], [ -114.504246106999972, 28.939164147000042 ], [ -114.557508910999957, 28.975273218000041 ], [ -114.701399869999989, 29.130000134000056 ], [ -114.945981960999973, 29.373891054000069 ], [ -114.977773010999954, 29.391109159000052 ], [ -115.097781915999974, 29.419164227000067 ], [ -115.189873047999981, 29.437636098000041 ], [ -115.20418196299994, 29.459444972000028 ], [ -115.21694609299999, 29.475273190000053 ], [ -115.232508939999946, 29.489164183000071 ], [ -115.278199867999945, 29.518054089000032 ], [ -115.339582053999948, 29.543744957000058 ], [ -115.505835929999989, 29.62527321500005 ], [ -115.69667292299999, 29.774236064000036 ], [ -115.735573, 29.938891176000027 ], [ -115.783072909999987, 30.107500032000075 ], [ -115.793326827999977, 30.225827024000068 ], [ -115.797500009999965, 30.248609037000051 ], [ -115.804735938999954, 30.276391190000027 ], [ -115.811682021999957, 30.297773090000078 ], [ -115.823063975999958, 30.324718059000077 ], [ -115.83653587399999, 30.350136013000053 ], [ -115.849035805999961, 30.369718151000029 ], [ -115.931399907999946, 30.456945097000073 ], [ -115.97971789199994, 30.494445061000079 ], [ -116.011317833999954, 30.435136055000044 ], [ -115.999182011999949, 30.410553945000061 ], [ -116.004199921999941, 30.385100116000046 ], [ -116.039026897999975, 30.450554063000027 ], [ -116.042226940999967, 30.473745113000064 ], [ -116.033890969999959, 30.53250007500003 ], [ -116.030290942999954, 30.570554083000047 ], [ -116.030008975999976, 30.596945008000034 ], [ -116.038063983999962, 30.724444988000073 ], [ -116.055490966999969, 30.796527008000055 ], [ -116.262226920999979, 30.96041802600007 ], [ -116.303072941999972, 31.121391136000057 ], [ -116.30862695799999, 31.150273163000065 ], [ -116.315290906999962, 31.171664115000056 ], [ -116.333055008999963, 31.207082182000079 ], [ -116.352226935999965, 31.234445073000074 ], [ -116.479735800999947, 31.390273203000049 ], [ -116.594099996999944, 31.471109116000036 ], [ -116.675626912999974, 31.560764132000031 ], [ -116.649172955999973, 31.604445079000072 ], [ -116.605008875999943, 31.775554089000025 ], [ -116.598546092999982, 31.819653964000054 ], [ -116.60812694399999, 31.844509157000061 ], [ -116.627790888999982, 31.860273170000028 ], [ -116.663408947999983, 31.868891107000024 ], [ -116.729735953999977, 31.908336009000038 ], [ -116.843199933999983, 31.990827012000068 ], [ -116.864172963999977, 32.021382066000058 ], [ -116.870981919999963, 32.042082182000058 ], [ -116.87417291, 32.086518004000027 ], [ -116.873899994999988, 32.109445024000024 ], [ -116.876955030999966, 32.134436003000076 ], [ -116.894726845999969, 32.193745009000054 ], [ -116.906254979999972, 32.221245028000055 ], [ -116.926608922999947, 32.244509168000036 ], [ -116.954172978999964, 32.255136080000057 ], [ -116.991117893999956, 32.268327016000057 ], [ -117.010273057999939, 32.279445108000061 ], [ -117.026672921999989, 32.300000049000062 ], [ -117.06584608199995, 32.361664202000043 ], [ -117.124164010999948, 32.464300104000074 ], [ -117.126955016999943, 32.491391086000078 ], [ -117.122372965999944, 32.535327011000049 ], [ -117.095291036999981, 32.536664260000066 ], [ -116.914173028999983, 32.552218054000036 ], [ -116.713054960999955, 32.568600149000076 ], [ -116.508146093999983, 32.585000181000055 ], [ -116.24263589899999, 32.605773219000071 ], [ -115.90778205099997, 32.631945041000051 ], [ -115.605563981999978, 32.654718002000038 ], [ -115.404163946999972, 32.669718088000025 ], [ -115.202499882999973, 32.684436039000047 ], [ -115.02589100299997, 32.696991125000068 ], [ -114.87134597499994, 32.707854071000042 ], [ -114.729799936999939, 32.717709178000064 ], [ -114.719090881999989, 32.718453994000072 ], [ -114.721390875999987, 32.711109099000055 ], [ -114.731390989999966, 32.685273224000071 ], [ -114.791672966999954, 32.557782129000032 ], [ -114.809826827999984, 32.506991149000044 ], [ -114.795226893999939, 32.500500035000073 ], [ -114.585535815999947, 32.437091105000036 ], [ -114.343899963999945, 32.364945047000049 ], [ -114.061317843999973, 32.279727075000039 ], [ -113.858281996999949, 32.218300130000046 ], [ -113.69200884199995, 32.167573187000073 ], [ -113.344508880999967, 32.061082113000055 ], [ -113.052890901999945, 31.971073213000068 ], [ -112.867282037999985, 31.913409072000036 ], [ -112.499999947999981, 31.798373150000032 ], [ -112.299435923999965, 31.735545086000059 ], [ -111.946381946999963, 31.623609127000066 ], [ -111.417509000999985, 31.454164093000031 ], [ -111.045835798999974, 31.333053973000062 ], [ -110.311955079999962, 31.332773179000071 ], [ -110.245564035999962, 31.332773179000071 ], [ -109.879181994999954, 31.332773179000071 ], [ -109.512217913999962, 31.33332705600003 ], [ -109.058926935999978, 31.332873092000057 ], [ -109.047363932999986, 31.332600177000074 ], [ -108.832764076999979, 31.332600177000074 ], [ -108.831935944999941, 31.33262699900007 ], [ -108.816655064999964, 31.333173164000073 ], [ -108.778635924999946, 31.332773179000071 ], [ -108.208345983999948, 31.333053973000062 ], [ -108.207781881999949, 31.366391149000037 ], [ -108.208617892999939, 31.433327016000078 ], [ -108.207781881999949, 31.532773101000032 ], [ -108.208617892999939, 31.599445106000076 ], [ -108.207781881999949, 31.699445067000056 ], [ -108.208617892999939, 31.783336016000078 ], [ -108.174999922999973, 31.783882180000035 ], [ -107.908335874999977, 31.783054048000054 ], [ -107.708072929999958, 31.783882180000035 ], [ -107.60806391599999, 31.783336016000078 ], [ -107.57500887499998, 31.783882180000035 ], [ -107.507781987999977, 31.783336016000078 ], [ -107.441390944999966, 31.783882180000035 ], [ -107.374999900999967, 31.783336016000078 ], [ -107.341135838999946, 31.783882180000035 ], [ -107.274726857999951, 31.783336016000078 ], [ -107.241954956999962, 31.783882180000035 ], [ -107.174726896999971, 31.783336016000078 ], [ -107.141681913999946, 31.783882180000035 ], [ -107.07529087099999, 31.783336016000078 ], [ -106.608335881999949, 31.783609098000056 ], [ -106.539564041999938, 31.782054087000063 ], [ -106.522882042999981, 31.780754054000056 ], [ -106.496399922999956, 31.75708221800005 ], [ -106.46000888399999, 31.750273096000058 ], [ -106.439182033999941, 31.751664156000061 ], [ -106.41653580799999, 31.754027015000077 ], [ -106.395846085999949, 31.747500194000054 ], [ -106.334308834999945, 31.687354004000042 ], [ -106.303346083999941, 31.637500120000027 ], [ -106.289172956999948, 31.597500169000057 ], [ -106.272226927999952, 31.559300148000034 ], [ -106.209872943999983, 31.472218041000076 ], [ -106.143617854999945, 31.431945008000071 ], [ -106.062926948999973, 31.40250005300004 ], [ -106.011672951999969, 31.395273176000046 ], [ -105.972781926999971, 31.369718094000064 ], [ -105.858064014999968, 31.282500033000076 ], [ -105.841945949999968, 31.269164257000057 ], [ -105.827517844999988, 31.254444965000062 ], [ -105.786954965999939, 31.208191108000051 ], [ -105.771664026999986, 31.178264193000075 ], [ -105.71000892699999, 31.144164097000044 ], [ -105.600008851999974, 31.081527140000048 ], [ -105.580699964999951, 31.057918001000075 ], [ -105.541399902999956, 30.996391143000039 ], [ -105.490708834999964, 30.94639107900008 ], [ -105.393064020999986, 30.865836128000069 ], [ -105.253063941999983, 30.79721801200003 ], [ -105.222572924999952, 30.804718139000045 ], [ -105.169446074999939, 30.77860901400004 ], [ -105.124999859999946, 30.749718102000031 ], [ -105.061955039999987, 30.694164189000048 ], [ -104.990845990999958, 30.632218069000032 ], [ -104.934726801999943, 30.607636126000045 ], [ -104.896526948999963, 30.566245114000026 ], [ -104.879726931999983, 30.525000116000058 ], [ -104.86500898099996, 30.466391166000051 ], [ -104.822235793999937, 30.386109130000079 ], [ -104.776946023999983, 30.318053943000052 ], [ -104.705564059999972, 30.23332698300004 ], [ -104.682235881999986, 30.187500101000069 ], [ -104.67499995299994, 30.167773124000064 ], [ -104.679308920999972, 30.105418135000036 ], [ -104.701326839999979, 30.058882144000052 ], [ -104.69500889699998, 30.005000085000063 ], [ -104.678064040999971, 29.940973241000052 ], [ -104.541817880999986, 29.672918132000063 ], [ -104.453335828999968, 29.595835971000042 ], [ -104.419173034999972, 29.569445046000055 ], [ -104.338054987999953, 29.525000172000034 ], [ -104.316746010999964, 29.530900194000026 ], [ -104.285135841999988, 29.525973143000044 ], [ -104.252790915999981, 29.508327058000077 ], [ -104.228346100999943, 29.494444950000059 ], [ -104.202435793999939, 29.460973160000037 ], [ -104.169726925999953, 29.422773140000061 ], [ -104.080835835999949, 29.355273170000032 ], [ -104.063608845999966, 29.342500156000028 ], [ -104.045290866999949, 29.330827014000079 ], [ -104.023617947999981, 29.321109036000053 ], [ -103.975008943999967, 29.305826982000042 ], [ -103.889173057999983, 29.285827090000055 ], [ -103.735835861999988, 29.199164246000066 ], [ -103.531399901999976, 29.126109087000032 ], [ -103.484999864999963, 29.088891090000061 ], [ -103.461945943999979, 29.073053987000037 ], [ -103.401117968999984, 29.036391207000065 ], [ -103.374999958999979, 29.023609140000076 ], [ -103.296254995999959, 28.997364227000048 ], [ -103.290872975999946, 28.996518158000072 ], [ -103.163691005999965, 28.984027110000056 ], [ -103.051955038999949, 29.094164145000036 ], [ -102.954999888999964, 29.183054061000064 ], [ -102.895845947999987, 29.254164116000027 ], [ -102.851117932999955, 29.352218134000054 ], [ -102.804763996999952, 29.474082122000027 ], [ -102.670290943999987, 29.742773081000053 ], [ -102.560835861999976, 29.767773113000032 ], [ -102.496254973999953, 29.781664106000051 ], [ -102.35556405799997, 29.850553963000038 ], [ -102.301808900999958, 29.887982178000073 ], [ -102.261255073999962, 29.867918081000028 ], [ -102.227781943999958, 29.847218133000069 ], [ -102.12194599899999, 29.810554012000068 ], [ -102.097500010999966, 29.802773091000063 ], [ -102.072781945999964, 29.798191208000048 ], [ -102.048200002999977, 29.798473175000026 ], [ -101.990845991999947, 29.805827122000039 ], [ -101.892226865999987, 29.806109089000074 ], [ -101.825835822999977, 29.804718028000025 ], [ -101.774735884999984, 29.796664193000026 ], [ -101.745008961999986, 29.78889115100003 ], [ -101.706682038999986, 29.778054021000059 ], [ -101.628764034999961, 29.766391105000025 ], [ -101.539173056999971, 29.771109111000044 ], [ -101.456681885999956, 29.772218037000073 ], [ -101.405008960999965, 29.772782139000071 ], [ -101.369355026999983, 29.692473113000062 ], [ -101.355835855999942, 29.660553987000071 ], [ -101.310835931999975, 29.61527310200006 ], [ -101.218608844999949, 29.54027317300006 ], [ -101.13903591799999, 29.490691198000036 ], [ -101.106673053999941, 29.482082145000049 ], [ -101.042999926999983, 29.461500047000072 ], [ -101.025281923999955, 29.437773226000047 ], [ -100.936954936999939, 29.350000115000057 ], [ -100.795708971999943, 29.25874499400004 ], [ -100.665835907999963, 29.109027103000074 ], [ -100.628208873999938, 28.995826986000054 ], [ -100.634455067999966, 28.958609157000069 ], [ -100.621946083999944, 28.933326990000069 ], [ -100.590564069999971, 28.894718100000034 ], [ -100.564454944999966, 28.863609169000028 ], [ -100.527364016999968, 28.822773207000068 ], [ -100.491817874999981, 28.725709091000056 ], [ -100.492372923999937, 28.704164247000051 ], [ -100.479863939999973, 28.675836097000058 ], [ -100.443890989999943, 28.626391082000055 ], [ -100.399445948999983, 28.571109078000063 ], [ -100.359172914999988, 28.518327060000047 ], [ -100.350845996999965, 28.49471808900006 ], [ -100.329591, 28.425418022000031 ], [ -100.331264027999964, 28.400409105000051 ], [ -100.281463955999982, 28.280554092000045 ], [ -100.240281988999982, 28.242773166000063 ], [ -100.186399929999936, 28.197500160000061 ], [ -100.108473040999968, 28.165691172000038 ], [ -100.078335907999985, 28.155618136000044 ], [ -100.050845946999971, 28.116391165000039 ], [ -99.962235818999943, 27.984718003000069 ], [ -99.935008882999966, 27.961664249000023 ], [ -99.880835804999947, 27.903891143000067 ], [ -99.871945957999969, 27.855554048000045 ], [ -99.860908835999965, 27.805136063000077 ], [ -99.832926857999951, 27.774300046000064 ], [ -99.806699882999965, 27.771745075000069 ], [ -99.798199961999956, 27.766664133000063 ], [ -99.78229999499996, 27.737636093000049 ], [ -99.7588999, 27.727144968000061 ], [ -99.741399994999938, 27.714718126000037 ], [ -99.727435911999976, 27.689164217000041 ], [ -99.713899976999983, 27.668936003000056 ], [ -99.696399903999975, 27.656945020000023 ], [ -99.653626883999948, 27.641391057000078 ], [ -99.606181958999969, 27.641245045000062 ], [ -99.530835857999989, 27.600064251000049 ], [ -99.503899940999986, 27.568054098000061 ], [ -99.473199879999981, 27.476664196000058 ], [ -99.44334605499995, 27.258053935000078 ], [ -99.458617882999988, 27.046944974000041 ], [ -99.319245942999942, 26.86985396700004 ], [ -99.271126945999981, 26.859927111000047 ], [ -99.253346078999982, 26.830826987000023 ], [ -99.239726827999959, 26.803609104000031 ], [ -99.200564060999966, 26.714445100000034 ], [ -99.132508874999985, 26.526945110000042 ], [ -99.10473594199999, 26.435000158000037 ], [ -98.975572992999957, 26.405827112000054 ], [ -98.925290960999973, 26.391391128000066 ], [ -98.784181955999941, 26.348891190000074 ], [ -98.730008876999989, 26.31444508900006 ], [ -98.695563948999961, 26.289718139000058 ], [ -98.604735801999936, 26.256664104000038 ], [ -98.578335823999964, 26.256109054000035 ], [ -98.439872985999955, 26.223327095000059 ], [ -98.388063939999938, 26.191664121000031 ], [ -98.361390879999988, 26.153609107000023 ], [ -98.305281916999945, 26.109164233000058 ], [ -98.286117867999963, 26.097773226000072 ], [ -98.20000890099999, 26.062500166000063 ], [ -98.060145948999946, 26.038891195000076 ], [ -98.033335928999975, 26.047773162000055 ], [ -97.979735836999964, 26.058609119000039 ], [ -97.847508966999953, 26.063609092000036 ], [ -97.803346060999957, 26.058054069000036 ], [ -97.678899943999966, 26.038054010000053 ], [ -97.648055042999943, 26.029444957000067 ], [ -97.614455009999972, 26.005000142000029 ], [ -97.559446087999959, 25.951109031000044 ], [ -97.514445996999939, 25.898327013000028 ], [ -97.417226815999982, 25.843327144000057 ], [ -97.364726932999986, 25.83985401800004 ], [ -97.344735926999988, 25.859654085000045 ], [ -97.346682036999937, 25.893053958000053 ], [ -97.315290970999968, 25.920000100000038 ], [ -97.265290906999951, 25.941109085000051 ], [ -97.160846022999976, 25.967218043000059 ], [ -97.140735825999968, 25.966427127000031 ], [ -97.138617885999963, 25.959326984000029 ], [ -97.13750896, 25.933191204000025 ], [ -97.160281920999978, 25.772218094000038 ], [ -97.188608897999984, 25.674718120000023 ], [ -97.254454949999968, 25.510827102000064 ], [ -97.271117838999942, 25.47416415500004 ], [ -97.28806403499999, 25.437635988000068 ], [ -97.312090927999975, 25.397500083000068 ], [ -97.336117820999959, 25.36500009100007 ], [ -97.388063995999971, 25.289445113000056 ], [ -97.442781897999964, 25.201664123000057 ], [ -97.458073003999971, 25.170554019000065 ], [ -97.47472684, 25.13389107100005 ], [ -97.513063988999988, 25.044236055000056 ], [ -97.584163985999965, 24.78471808300003 ], [ -97.609726945999967, 24.685553966000043 ], [ -97.651673007999989, 24.520273228000065 ], [ -97.676117821999981, 24.395827111000074 ], [ -97.680281951999973, 24.370282088000067 ], [ -97.688064045999965, 24.322500043000048 ], [ -97.697235859999978, 24.255836084000066 ], [ -97.715564064999967, 24.075000043000045 ], [ -97.72249992199994, 23.95527310600005 ], [ -97.724726825999937, 23.899164143000064 ], [ -97.724455084999988, 23.820827043000065 ], [ -97.740008879999948, 23.588891064000052 ], [ -97.75418200699994, 23.472773207000046 ], [ -97.760835896999936, 23.407500141000071 ], [ -97.763063974999966, 23.381664098000044 ], [ -97.765017963999981, 23.338054062000026 ], [ -97.766399971999988, 23.30082701200007 ], [ -97.765563960999941, 23.270827007000037 ], [ -97.761945996999941, 23.194718152000064 ], [ -97.756390973999942, 23.125827122000032 ], [ -97.749454948999983, 23.088336043000027 ], [ -97.742645993999986, 23.059582092000028 ], [ -97.740846063999982, 23.027500022000027 ], [ -97.740281961999983, 23.003609083000072 ], [ -97.741390887999955, 22.905827142000078 ], [ -97.752017967999961, 22.858053981000069 ], [ -97.787435866999942, 22.815809022000053 ], [ -97.805846046999989, 22.773609156000077 ], [ -97.835008866999942, 22.738053961000048 ], [ -97.877226837999956, 22.655554073000076 ], [ -97.884735848999981, 22.632218017000071 ], [ -97.888263959999961, 22.598818144000063 ], [ -97.87028192799994, 22.582564125000033 ], [ -97.80347296299999, 22.325827100000026 ], [ -97.79444598799995, 22.301800040000046 ], [ -97.776872992999984, 22.26805399400007 ], [ -97.781682025999942, 22.198473134000039 ], [ -97.779172986999981, 22.157773126000052 ], [ -97.768617823999989, 22.116945044000033 ], [ -97.740008879999948, 22.054718130000026 ], [ -97.697917811999957, 21.974718060000043 ], [ -97.641399978999971, 21.883609119000027 ], [ -97.627499933999957, 21.863054011000031 ], [ -97.61249984799997, 21.843053951000059 ], [ -97.572508948999939, 21.793891072000065 ], [ -97.556117969999946, 21.77500010600005 ], [ -97.535846001999971, 21.755000047000067 ], [ -97.519181939999953, 21.73916411700003 ], [ -97.403626842999984, 21.643609079000043 ], [ -97.338617975999966, 21.597773145000076 ], [ -97.325290916999961, 21.582773226000029 ], [ -97.315008835999947, 21.556527140000071 ], [ -97.313608890999944, 21.530282060000047 ], [ -97.318072924999967, 21.503609168000025 ], [ -97.328608976999988, 21.467782064000062 ], [ -97.343899915999941, 21.429717997000068 ], [ -97.413472896999963, 21.271736053000041 ], [ -97.462781956999947, 21.391391074000069 ], [ -97.470217878999961, 21.442500064000058 ], [ -97.418899843999952, 21.467782064000062 ], [ -97.388617871999941, 21.470691087000034 ], [ -97.368272980999961, 21.499300031000075 ], [ -97.372917896999979, 21.543536028000062 ], [ -97.398055056999965, 21.56721809000004 ], [ -97.431117808999943, 21.586664105000068 ], [ -97.462781956999947, 21.613054025000054 ], [ -97.488063956999952, 21.638609106000047 ], [ -97.522781966999958, 21.675282112000048 ], [ -97.622299968999982, 21.792353998000067 ], [ -97.682490918999974, 21.915864192000072 ], [ -97.696746020999967, 21.955482095000036 ], [ -97.742235783999945, 22.012500159000069 ], [ -97.73167290899994, 21.989718147000076 ], [ -97.722781888999975, 21.959445059000075 ], [ -97.714173003999974, 21.928891178000072 ], [ -97.705835859999979, 21.892500139000049 ], [ -97.703335873999947, 21.870000094000034 ], [ -97.688608869999939, 21.773609045000057 ], [ -97.670699927999976, 21.673954083000069 ], [ -97.651673007999989, 21.629718086000025 ], [ -97.620563908999941, 21.565827029000047 ], [ -97.572790916999963, 21.493609054000046 ], [ -97.55555504099999, 21.478336053000078 ], [ -97.501108879999947, 21.426391052000042 ], [ -97.454726947999973, 21.319445008000059 ], [ -97.376681873999985, 21.140000028000031 ], [ -97.355835912999964, 21.094164093000074 ], [ -97.338346066999975, 21.057500140000059 ], [ -97.292781872999967, 20.962500152000075 ], [ -97.249173009999936, 20.893891089000078 ], [ -97.213199892999967, 20.837500159000058 ], [ -97.200564006999969, 20.812773209000056 ], [ -97.192508829999952, 20.794445004000067 ], [ -97.181881917999988, 20.750418052000043 ], [ -97.19215494599996, 20.732082136000031 ], [ -97.175354929999969, 20.683954086000028 ], [ -97.143890941999985, 20.641109149000044 ], [ -97.085555074999945, 20.568882122000048 ], [ -97.05833585, 20.540273177000074 ], [ -96.787226878999945, 20.262773173000028 ], [ -96.744445979999966, 20.225554002000024 ], [ -96.674863945999959, 20.155273085000033 ], [ -96.578335936999963, 20.025273119000076 ], [ -96.480835794999962, 19.89916420000003 ], [ -96.46000894499997, 19.877500166000061 ], [ -96.444454981999968, 19.855000120000057 ], [ -96.407499841999936, 19.76221815100007 ], [ -96.396255015999941, 19.72486420000007 ], [ -96.394172950999973, 19.693191167000066 ], [ -96.387790969999969, 19.631664142000034 ], [ -96.367508942999962, 19.549445047000063 ], [ -96.295290967999961, 19.341109155000026 ], [ -96.276946, 19.314718063000043 ], [ -96.245008936999966, 19.288609105000035 ], [ -96.228055028999961, 19.276391140000044 ], [ -96.209164062999946, 19.265273216000026 ], [ -96.185008926999956, 19.251944984000033 ], [ -96.139726867999968, 19.229445106000071 ], [ -96.094590989999972, 19.124718087000076 ], [ -96.079182034999974, 19.096109142000046 ], [ -96.04111796799998, 19.062773140000047 ], [ -96.013063905999957, 19.05778205200005 ], [ -95.958617911999966, 18.98860905500004 ], [ -95.936400001999971, 18.926391193000029 ], [ -95.908335880999971, 18.879718074000039 ], [ -95.899172951999958, 18.845836074000033 ], [ -95.911390916999949, 18.825273086000038 ], [ -95.80111792799994, 18.745000102000063 ], [ -95.533335901999976, 18.711936009000055 ], [ -95.40042691299999, 18.702909034000072 ], [ -95.34668198199995, 18.706664127000067 ], [ -95.315008948999946, 18.710554 ], [ -95.215981959999965, 18.711245005000023 ], [ -95.182226861999936, 18.701800108000043 ], [ -95.045426825999982, 18.605135977000032 ], [ -95.02587301899996, 18.56510015200007 ], [ -94.935008829999958, 18.535409104000053 ], [ -94.886672908999969, 18.53305395700005 ], [ -94.854581953999968, 18.531800024000063 ], [ -94.808063899999979, 18.524445072000049 ], [ -94.782373030999963, 18.507709093000074 ], [ -94.75479992299995, 18.436182122000048 ], [ -94.734172896999951, 18.391944952000074 ], [ -94.570090938999954, 18.180909081000038 ], [ -94.536526948999949, 18.160136043000023 ], [ -94.512217920999944, 18.152773211000067 ], [ -94.469181876999983, 18.146245050000061 ], [ -94.418064001999937, 18.148891049000042 ], [ -94.267782009999962, 18.173745068000073 ], [ -94.16806401599996, 18.198609146000024 ], [ -94.137599988999966, 18.208873122000057 ], [ -94.015290922999952, 18.245282098000075 ], [ -93.874308986999949, 18.252636044000042 ], [ -93.792990946999964, 18.262564241000064 ], [ -93.576808922999987, 18.355973176000077 ], [ -93.57180895099998, 18.409164231000034 ], [ -93.592926819999946, 18.408336099000053 ], [ -93.613064007999981, 18.403327073000071 ], [ -93.778790997999977, 18.326600137000071 ], [ -93.808063955999955, 18.307782094000061 ], [ -93.845835829999942, 18.306454065000025 ], [ -93.826126789999989, 18.322500046000073 ], [ -93.780563937999943, 18.348327036000057 ], [ -93.587091003999944, 18.421391081000024 ], [ -93.45000883299997, 18.440553955000041 ], [ -93.429735858999948, 18.441664222000043 ], [ -93.18167293099998, 18.438891153000043 ], [ -93.172235913999941, 18.407364133000044 ], [ -93.17125506299999, 18.370418045000065 ], [ -93.129864051999959, 18.339582197000027 ], [ -93.089590850999969, 18.379235975000029 ], [ -93.087781868999969, 18.403609041000038 ], [ -92.954999948999955, 18.439164236000067 ], [ -92.920699859999957, 18.447500038000044 ], [ -92.884735795999973, 18.461109064000027 ], [ -92.822781963999944, 18.49666409200006 ], [ -92.805281890999936, 18.507500049000043 ], [ -92.741391001999943, 18.560000099000035 ], [ -92.680008983999983, 18.517773077000072 ], [ -92.588617907999947, 18.62360902100005 ], [ -92.480454978999944, 18.656982072000062 ], [ -92.46000883499994, 18.664444983000067 ], [ -92.405290932999947, 18.681109045000028 ], [ -92.312917832999972, 18.685136047000071 ], [ -92.153064042999972, 18.695273120000024 ], [ -92.004172943999947, 18.726245091000067 ], [ -91.978481906999946, 18.727500029000055 ], [ -91.956254943999966, 18.717500084000051 ], [ -91.858617841999944, 18.615691140000024 ], [ -91.903881962999947, 18.59124498400007 ], [ -91.941417969999975, 18.595500141000059 ], [ -92.035845975999962, 18.592636045000063 ], [ -92.041955042999973, 18.560000099000035 ], [ -91.993554915999937, 18.533818051000026 ], [ -91.957646004999958, 18.549164142000052 ], [ -91.965073041999972, 18.586800061000076 ], [ -91.897645994999948, 18.551245034000033 ], [ -91.825290891999941, 18.492773212000031 ], [ -91.83279085099997, 18.472917992000077 ], [ -91.850699960999975, 18.445064090000074 ], [ -91.855626842999982, 18.424436058000026 ], [ -91.813126905999979, 18.382636010000056 ], [ -91.803346062999935, 18.380000069000062 ], [ -91.77361796699995, 18.445553928000038 ], [ -91.679735789999938, 18.449444975000063 ], [ -91.63694600599996, 18.443882074000044 ], [ -91.495708925999963, 18.435553982000044 ], [ -91.475008977999948, 18.448264133000066 ], [ -91.488681873999951, 18.489373177000061 ], [ -91.437499960999958, 18.541109133000077 ], [ -91.311673008999946, 18.592218123000066 ], [ -91.186190888999988, 18.650073204000023 ], [ -91.263626933999944, 18.74083597300006 ], [ -91.289599937999981, 18.767773230000046 ], [ -91.316117932999987, 18.783473206000053 ], [ -91.341290966999964, 18.766182177000076 ], [ -91.372090940999954, 18.771391195000035 ], [ -91.387264029999983, 18.823509031000071 ], [ -91.359172919999935, 18.858300132000068 ], [ -91.329999872999963, 18.893891034000035 ], [ -91.398154971999986, 18.854236082000057 ], [ -91.428608940999936, 18.851773144000049 ], [ -91.385073, 18.907354047000069 ], [ -91.362955001999978, 18.920273074000022 ], [ -91.304735810999944, 18.955827096000064 ], [ -91.260008969999944, 18.975000029000057 ], [ -91.134735893999959, 19.029445016000068 ], [ -91.021664019999946, 19.107218014000068 ], [ -90.913072943999964, 19.182500078000032 ], [ -90.753890878999982, 19.320273085000053 ], [ -90.731672967999941, 19.361527136000063 ], [ -90.713481890999958, 19.479164130000072 ], [ -90.700699991999954, 19.640827071000047 ], [ -90.71222695299997, 19.670409154000026 ], [ -90.676672930999985, 19.768327050000039 ], [ -90.646955060999971, 19.802636024000037 ], [ -90.600572960999955, 19.83805409100006 ], [ -90.579182008999965, 19.851945084000022 ], [ -90.561399968999979, 19.862500079000029 ], [ -90.528263958999958, 19.87742707600006 ], [ -90.502235802999962, 19.902635985000074 ], [ -90.455273004999981, 19.97597311100003 ], [ -90.46583587899994, 20.016109017000076 ], [ -90.480564056999981, 20.043053986000075 ], [ -90.499790968999946, 20.081044962000078 ], [ -90.496945982999989, 20.194445071000075 ], [ -90.488064015999953, 20.308054058000039 ], [ -90.484726844999955, 20.54944499100003 ], [ -90.455908855999951, 20.732291180000061 ], [ -90.439455011999939, 20.751391191000039 ], [ -90.405563959999938, 20.789164237000023 ], [ -90.385555015999955, 20.815209158000073 ], [ -90.373364040999945, 20.845909052000025 ], [ -90.353055024999946, 20.895826973000055 ], [ -90.33889983399996, 20.941664249000041 ], [ -90.34014605599998, 20.967909161000023 ], [ -90.35196403599997, 20.951664195000035 ], [ -90.378963989999988, 20.863227069000061 ], [ -90.385417887999949, 20.84041806700003 ], [ -90.430946039999981, 20.787673097000038 ], [ -90.418335800999955, 20.838054035000027 ], [ -90.405717851999952, 20.863227069000061 ], [ -90.385835809999946, 20.925826978000032 ], [ -90.375563954999961, 20.950836063000054 ], [ -90.351254926999957, 21.005273171000056 ], [ -90.332645928999966, 21.027500135000025 ], [ -90.2797269499999, 21.063053989000025 ], [ -90.239454922999983, 21.086664134000046 ], [ -90.10639992099999, 21.16027316900005 ], [ -89.919726889999936, 21.235000183000068 ], [ -89.868054971999982, 21.255000075000055 ], [ -89.828063905999954, 21.270273076000024 ], [ -89.80555497499995, 21.276664109000023 ], [ -89.776117898999985, 21.282500093000067 ], [ -89.70445497299994, 21.296391086000028 ], [ -89.501108827999985, 21.31750007100004 ], [ -89.338054994999936, 21.332773072000066 ], [ -89.318073039999945, 21.334164133000058 ], [ -89.241117948999943, 21.342782071000045 ], [ -89.102508929999942, 21.362353982000059 ], [ -88.843335789999969, 21.413609153000039 ], [ -88.708472978999964, 21.448054081000066 ], [ -88.686672989999977, 21.462773206000065 ], [ -88.640973008999936, 21.498609027000043 ], [ -88.620846047999976, 21.521391040000026 ], [ -88.59465494799997, 21.535973205000062 ], [ -88.451399839999965, 21.568882065000025 ], [ -88.425563964999981, 21.571391104000043 ], [ -88.351746051999953, 21.568264151000051 ], [ -88.309245946999965, 21.555344956000056 ], [ -88.267917799999964, 21.553891199000077 ], [ -88.090217930999984, 21.586600068000052 ], [ -88.143617862999974, 21.596735968000075 ], [ -88.206035884999949, 21.576764239000056 ], [ -88.241464009999959, 21.568953982000039 ], [ -88.22472685799994, 21.580827116000023 ], [ -88.183335846999967, 21.597218095000073 ], [ -88.147790877999967, 21.608054052000057 ], [ -88.119445962999976, 21.610000162000063 ], [ -87.99417288799998, 21.602773117000027 ], [ -87.965008893999936, 21.596382084000027 ], [ -87.714655023999967, 21.527600186000029 ], [ -87.802508936999971, 21.532773162000069 ], [ -87.851326816999972, 21.542635980000057 ], [ -87.806945980999956, 21.517218026000023 ], [ -87.748208955999985, 21.504300172000058 ], [ -87.676390964999939, 21.502773157000036 ], [ -87.652508910999984, 21.505836072000022 ], [ -87.605281915999967, 21.512218053000026 ], [ -87.539181891999988, 21.495454079000069 ], [ -87.476390875999982, 21.476391116000059 ], [ -87.329454938999959, 21.448054081000066 ], [ -87.249172902999987, 21.441391138000029 ], [ -87.201255070999935, 21.452218043000073 ], [ -87.146045988999958, 21.483891076000077 ], [ -87.133617805999961, 21.512500188000047 ], [ -87.133826850999981, 21.557218144000046 ], [ -87.161126876999958, 21.567500057000075 ], [ -87.199390935999986, 21.556591178000076 ], [ -87.22195501899995, 21.542500025000038 ], [ -87.24833588599995, 21.529854080000064 ], [ -87.405699915999946, 21.509236107000049 ], [ -87.410772978999944, 21.528609032000077 ], [ -87.370008933999941, 21.560836109000036 ], [ -87.328755050999973, 21.568327016000069 ], [ -87.304172939999944, 21.562918006000075 ], [ -87.272226824999962, 21.561382106000053 ], [ -87.239873013999954, 21.567918146000068 ], [ -87.148472885999979, 21.604444972000067 ], [ -87.078608883999948, 21.606109115000038 ], [ -87.054835794999974, 21.599536026000067 ], [ -87.049454948999937, 21.598053938000078 ], [ -87.027790913999979, 21.590273185000058 ], [ -87.005426822999937, 21.579718022000066 ], [ -86.894172982999976, 21.441945015000044 ], [ -86.871126940999943, 21.443882072000065 ], [ -86.829726876999985, 21.429236038000056 ], [ -86.815563974999975, 21.408609012000056 ], [ -86.810008951999976, 21.368473107000057 ], [ -86.811955062999971, 21.343327062000071 ], [ -86.826190886999939, 21.293745087000048 ], [ -86.811190967999948, 21.180209023000032 ], [ -86.775281888999984, 21.152636082000072 ], [ -86.826399931999958, 20.987782151000033 ], [ -86.852781971999946, 20.928336017000049 ], [ -86.913073001999976, 20.801936079000029 ], [ -87.069455007999977, 20.61305408100003 ], [ -87.137090931999978, 20.566800057000023 ], [ -87.156808855999941, 20.561945091000041 ], [ -87.204454946999988, 20.52443607400005 ], [ -87.226390889999948, 20.503891191000037 ], [ -87.276399838999964, 20.440000134000059 ], [ -87.306672926999966, 20.399436081000033 ], [ -87.425564020999957, 20.222773222000058 ], [ -87.437226935999945, 20.200553970000044 ], [ -87.454172964999941, 20.164300060000073 ], [ -87.472226913999975, 20.085973186000047 ], [ -87.469172883999988, 19.98319110400007 ], [ -87.459172937999938, 19.952364140000043 ], [ -87.446735869999941, 19.933118117000049 ], [ -87.444808870999964, 19.900191151000058 ], [ -87.46905503399995, 19.849027008000064 ], [ -87.463855068999976, 19.880982176000032 ], [ -87.449717815999975, 19.897982184000057 ], [ -87.44948194899996, 19.926444948000039 ], [ -87.481808937999972, 19.950726987000053 ], [ -87.472781963999978, 19.913609069000074 ], [ -87.475854936999951, 19.870554083000059 ], [ -87.510582, 19.827073127000062 ], [ -87.540454935999946, 19.811036032000061 ], [ -87.580981940999948, 19.799582161000046 ], [ -87.660563919999959, 19.678891137000051 ], [ -87.736599851999983, 19.677573167000048 ], [ -87.740008939999939, 19.636945076000075 ], [ -87.733408861999976, 19.599864207000053 ], [ -87.691390883999986, 19.564444966000053 ], [ -87.666399903999945, 19.547773193000069 ], [ -87.657717928999944, 19.505554050000057 ], [ -87.6326459799999, 19.524445015000026 ], [ -87.612508960999946, 19.549718130000031 ], [ -87.526672906999977, 19.584718108000061 ], [ -87.424099869999964, 19.604373168000052 ], [ -87.412226903999965, 19.58166424500007 ], [ -87.427654969999935, 19.505836017000036 ], [ -87.443335834999971, 19.471664171000043 ], [ -87.471264000999952, 19.442218042000036 ], [ -87.527226783999936, 19.402909095000041 ], [ -87.563063945999943, 19.394445049000069 ], [ -87.543408885999952, 19.403609152000058 ], [ -87.54111794399995, 19.432154058000037 ], [ -87.628763985999967, 19.396873119000077 ], [ -87.645572886999958, 19.376664183000059 ], [ -87.662508856999978, 19.351109101000077 ], [ -87.676946014999942, 19.315000030000078 ], [ -87.687781971999982, 19.250136001000044 ], [ -87.672373015999938, 19.227918091000049 ], [ -87.635081928999966, 19.214791192000064 ], [ -87.592090979999966, 19.258191178000061 ], [ -87.586817923999945, 19.281245100000035 ], [ -87.575290963999976, 19.300973082000041 ], [ -87.547373022999977, 19.318891077000046 ], [ -87.500272929999937, 19.325064181000073 ], [ -87.488617893999958, 19.291382174000034 ], [ -87.548335768999948, 19.139445091000027 ], [ -87.596046064999939, 19.05034495700005 ], [ -87.615699950999954, 18.961391171000059 ], [ -87.619445990999964, 18.925827091000031 ], [ -87.62360894699998, 18.875827027000071 ], [ -87.654317893999973, 18.759854008000048 ], [ -87.665555008999945, 18.742773198000066 ], [ -87.71055493199998, 18.697773107000046 ], [ -87.729799949999972, 18.664300144000038 ], [ -87.739455063999969, 18.606109116000027 ], [ -87.748335857999962, 18.520000148000065 ], [ -87.755008858999986, 18.444164209000064 ], [ -87.762363978999986, 18.408609013000046 ], [ -87.790846020999936, 18.372500110000033 ], [ -87.816681896999967, 18.334864191000065 ], [ -87.828064017999964, 18.310835957000052 ], [ -87.839863893999961, 18.267500176000055 ], [ -87.847499974999948, 18.190827052000031 ], [ -87.871672880999938, 18.293326999000044 ], [ -87.87681786099995, 18.330273087000023 ], [ -87.893064000999971, 18.364164139000025 ], [ -87.925563992999969, 18.420273102000067 ], [ -87.97361794699998, 18.448054082000056 ], [ -88.033899923999968, 18.471391145000041 ], [ -88.07333577299994, 18.493609056000025 ], [ -88.079590851999967, 18.52527320400003 ], [ -88.066954964999979, 18.541664183000023 ], [ -88.002708849999976, 18.675900027000068 ], [ -88.002508857999942, 18.78444500300003 ], [ -88.039726854999969, 18.868191113000023 ], [ -88.061117807999949, 18.854164165000043 ], [ -88.08917304299996, 18.815000058000066 ], [ -88.161117935999982, 18.737782110000069 ], [ -88.217791000999966, 18.700000178000039 ], [ -88.169446026999935, 18.67721799800006 ], [ -88.267226795999989, 18.513054065000063 ], [ -88.284172991999981, 18.492217995000033 ], [ -88.299499972999968, 18.482926991000056 ], [ -88.343899919999956, 18.481391091000035 ], [ -88.371399937999968, 18.482082095000067 ], [ -88.40544605599996, 18.48990006300005 ], [ -88.473790920999988, 18.483709022000028 ], [ -88.506390991999979, 18.447500038000044 ], [ -88.516955039999971, 18.430273216000046 ], [ -88.58907293499999, 18.290735985000026 ], [ -88.600017856999955, 18.235836028000051 ], [ -88.681117966999977, 18.185553996000067 ], [ -88.704455029999963, 18.110000024000044 ], [ -88.728054948999954, 18.054718020000053 ], [ -88.774081990999946, 17.988836093000032 ], [ -88.841399904999946, 17.903891036000061 ], [ -88.872035928999935, 17.907254023000064 ], [ -88.983417843999973, 17.965818046000038 ], [ -88.996999879999976, 17.987400105000063 ], [ -89.022572898999954, 18.004509078000069 ], [ -89.072054960999935, 17.994973155000025 ], [ -89.121617825999977, 17.970936036000069 ], [ -89.143008945999952, 17.951073104000045 ], [ -89.141955004999943, 17.818882109000072 ], [ -89.43043580599999, 17.819718120000061 ], [ -89.742235898999979, 17.820827046000034 ], [ -89.999999873999968, 17.820973226000035 ], [ -90.238345996999954, 17.821109013000068 ], [ -90.590835871999957, 17.821109013000068 ], [ -90.77779087, 17.820273170000064 ], [ -90.921672943999965, 17.820000087000039 ], [ -90.979172967999943, 17.820000087000039 ], [ -90.982417937999969, 17.820654043000047 ], [ -90.983064014999968, 17.817773183000043 ], [ -90.983608838999942, 17.585000020000052 ], [ -90.983899857999972, 17.25610905800005 ], [ -91.436954969999988, 17.257500119000042 ], [ -91.433999845999949, 17.237218093000024 ], [ -91.332226944999945, 17.188054039000065 ], [ -91.268481899999983, 17.134026973000061 ], [ -91.184445944999936, 17.035554028000035 ], [ -91.063608907999935, 16.924445028000036 ], [ -90.986681979999958, 16.896109166000031 ], [ -90.948899879999942, 16.88916408800003 ], [ -90.919099867999989, 16.82985407700005 ], [ -90.866672906999952, 16.817773072000023 ], [ -90.804735838999989, 16.805418147000069 ], [ -90.748608938999951, 16.756945097000028 ], [ -90.714282027999957, 16.726464139000029 ], [ -90.678890949999982, 16.675827050000066 ], [ -90.658063932999937, 16.644164243000034 ], [ -90.644181991999972, 16.595273105000047 ], [ -90.643481935999944, 16.563609124000038 ], [ -90.645290917999944, 16.520691098000043 ], [ -90.609172961999946, 16.48916424500004 ], [ -90.59070897, 16.476391063000051 ], [ -90.545290956999963, 16.473326974000031 ], [ -90.505008870999973, 16.468609136000055 ], [ -90.486117905999947, 16.46110900900004 ], [ -90.406399970999985, 16.416382168000041 ], [ -90.393335936999961, 16.401109167000072 ], [ -90.384446089999983, 16.37694497800004 ], [ -90.406535925999947, 16.335000090000051 ], [ -90.438608942999963, 16.307500072000039 ], [ -90.458072895999976, 16.256664164000028 ], [ -90.457326905999935, 16.194436077000034 ], [ -90.430072979999977, 16.172364179000056 ], [ -90.43209100699994, 16.13277309700004 ], [ -90.441954998999961, 16.088336102000028 ], [ -90.447617812999965, 16.078844938000032 ], [ -90.45377297899995, 16.074882142000035 ], [ -90.625835849999987, 16.075554035000039 ], [ -90.804455044999941, 16.075836002000074 ], [ -90.991545997999935, 16.075744975000077 ], [ -91.540008960999955, 16.075836002000074 ], [ -91.704181945999949, 16.075554035000039 ], [ -91.72917292599999, 16.075000159000069 ], [ -91.797499852999977, 15.961109037000028 ], [ -91.828608951999968, 15.908891122000057 ], [ -92.107935875999942, 15.437600174000067 ], [ -92.211399909999955, 15.262218070000074 ], [ -92.07069088899999, 15.077291157000047 ], [ -92.093926865999947, 15.025800120000042 ], [ -92.14973592399997, 14.934718001000022 ], [ -92.183826800999952, 14.845273203000033 ], [ -92.182917866999958, 14.810554019000051 ], [ -92.169172886999945, 14.768609131000062 ], [ -92.15833592499996, 14.729445024000029 ], [ -92.15264595299999, 14.703336066000077 ], [ -92.15334601, 14.683054040000059 ], [ -92.187226835999979, 14.588336019000053 ], [ -92.216672964999987, 14.558054047000041 ], [ -92.237946067999985, 14.55199108100004 ], [ -92.246781934999944, 14.550545035000027 ], [ -92.255708828999957, 14.55497319400007 ], [ -92.289172906999966, 14.587500176000049 ], [ -92.384445977999974, 14.684164139000075 ], [ -92.527235889999986, 14.828609141000072 ], [ -92.555554987999983, 14.855836078000038 ], [ -92.583891016999985, 14.880000099000029 ], [ -92.601117839999972, 14.894164174000025 ], [ -92.632508905999941, 14.926109116000077 ], [ -92.696117827999956, 14.992500159000031 ], [ -92.753063974999975, 15.053336013000035 ], [ -92.810135850999984, 15.142191060000073 ], [ -92.773963915999957, 15.146245051000051 ], [ -92.746990950999987, 15.09200910800007 ], [ -92.754181953999989, 15.131109010000046 ], [ -92.770490957999982, 15.171600141000056 ], [ -92.861181976999944, 15.205727060000072 ], [ -92.889446089999979, 15.212218005000068 ], [ -92.979735783999956, 15.262500037000052 ], [ -93.087781868999969, 15.353745100000026 ], [ -93.109172988999944, 15.377500084000076 ], [ -93.150008949999972, 15.427500148000036 ], [ -93.206808916999989, 15.491245025000069 ], [ -93.283063951999964, 15.540273124000066 ], [ -93.41222690099994, 15.64166414500005 ], [ -93.47445498899998, 15.695418129000075 ], [ -93.56834605099999, 15.773053998000023 ], [ -93.649172910999937, 15.830554022000058 ], [ -93.69862681099994, 15.86527320600004 ], [ -93.788890855999966, 15.922782114000029 ], [ -93.876108916999954, 16.000000062000026 ], [ -93.938608912999939, 16.093891125000027 ], [ -94.023899974999949, 16.109164126000053 ], [ -94.077926872999967, 16.139582052000037 ], [ -94.085346030999972, 16.145582154000067 ], [ -94.111955053999964, 16.175282087000028 ], [ -94.214935786999945, 16.205209002000061 ], [ -94.26835499699996, 16.219326976000048 ], [ -94.346954952999965, 16.263191152000047 ], [ -94.364381935999972, 16.287500180000052 ], [ -94.400291014999937, 16.29555401600004 ], [ -94.419726803999936, 16.284027055000024 ], [ -94.438608884999951, 16.240553979000026 ], [ -94.433063920999984, 16.215136025000049 ], [ -94.416117891999988, 16.200554028000056 ], [ -94.378064051999957, 16.176391180000053 ], [ -94.32528203399994, 16.150000087000024 ], [ -94.272990859999936, 16.143300097000065 ], [ -94.33264603899994, 16.175482079000062 ], [ -94.298290963999989, 16.173000030000026 ], [ -94.233155026999952, 16.159745056000077 ], [ -94.170535839999957, 16.119373116000077 ], [ -94.129454958999986, 16.106109090000075 ], [ -94.092346093999936, 16.099818136000067 ], [ -94.072299933999943, 16.090691082000035 ], [ -94.055555070999958, 16.074444941000024 ], [ -94.052646047999986, 16.04763609500003 ], [ -94.065046067999958, 16.041500039000027 ], [ -94.089173040999981, 16.045000154000036 ], [ -94.23499988399999, 16.103882186000021 ], [ -94.374726880999958, 16.162773102000074 ], [ -94.395573008999975, 16.170273229000031 ], [ -94.441117923999968, 16.18139115300005 ], [ -94.47750896299999, 16.188327010000023 ], [ -94.603899848999959, 16.194718044000069 ], [ -94.691255037999952, 16.190691042000026 ], [ -94.723745976999965, 16.207773193000037 ], [ -94.691954926999983, 16.227500170000042 ], [ -94.655290973999968, 16.236109055000043 ], [ -94.631954916999973, 16.246109001000036 ], [ -94.615846071999954, 16.258054051000045 ], [ -94.586117808999973, 16.288609106000024 ], [ -94.578826893999974, 16.315209076000031 ], [ -94.60278187099999, 16.340000063000048 ], [ -94.664317947999962, 16.359645065000052 ], [ -94.680008870999984, 16.337500077000072 ], [ -94.720835779999959, 16.306109011000046 ], [ -94.79153579299998, 16.260064199000055 ], [ -94.806735870999944, 16.289091066000026 ], [ -94.784590882999964, 16.308053948000065 ], [ -94.772090950999939, 16.329582196000047 ], [ -94.80514599199995, 16.393609040000058 ], [ -94.836254922999956, 16.419717998000067 ], [ -94.859172889999968, 16.427082170000062 ], [ -94.910564014999977, 16.409718052000073 ], [ -95.030835775999947, 16.322218023000062 ], [ -95.062672926999937, 16.272118047000049 ], [ -95.039463939999962, 16.259444944000052 ], [ -94.905290959999945, 16.231109083000035 ], [ -94.857790881999961, 16.215827029000025 ], [ -94.927090948999989, 16.213891145000048 ], [ -95.100008940999942, 16.183327038000073 ], [ -95.213335792999942, 16.152773156000023 ], [ -95.251108839999972, 16.133054059000074 ], [ -95.365490972999964, 16.045973125000046 ], [ -95.371946043999969, 16.008054066000057 ], [ -95.395490977999941, 15.989927026000032 ], [ -95.420291017999944, 15.978054061000023 ], [ -95.482791013999986, 15.961945048000075 ], [ -95.521954953999966, 15.956526986000029 ], [ -95.589446038999938, 15.938609159000066 ], [ -95.609999973999948, 15.932782060000022 ], [ -95.716399852999984, 15.901664245000063 ], [ -95.746672940999986, 15.892500142000074 ], [ -95.951263965999942, 15.815136014000075 ], [ -96.062790887999938, 15.753609156000039 ], [ -96.177781881999977, 15.693473192000056 ], [ -96.214446002999978, 15.685553970000058 ], [ -96.263899902999981, 15.67721799900005 ], [ -96.286390895999943, 15.674445098000035 ], [ -96.372790883999983, 15.676945085000057 ], [ -96.436955022999939, 15.685627060000058 ], [ -96.476117956999985, 15.643609082000069 ], [ -96.557782001999954, 15.656391149000058 ], [ -96.839308839999944, 15.727709075000064 ], [ -97.07028190599999, 15.853054068000063 ], [ -97.103054979999968, 15.877773138000066 ], [ -97.135281888999941, 15.896809111000039 ], [ -97.196672958999955, 15.913326992000066 ], [ -97.23139985499995, 15.918336018000048 ], [ -97.520573000999946, 15.945273108000038 ], [ -97.644864051999946, 15.95902697300005 ], [ -97.672646037999982, 15.950344997000059 ], [ -97.754726830999971, 15.960282079000024 ], [ -97.792782012999965, 15.972082122000074 ], [ -97.812790956999947, 15.985000144000026 ], [ -97.83944607899997, 16.008054066000057 ], [ -97.860563948999982, 16.027500081000028 ], [ -97.930008854999983, 16.082500118000041 ], [ -98.090008825999973, 16.186109159000068 ], [ -98.125564020999946, 16.208882119000066 ], [ -98.215290953999954, 16.222773112000027 ], [ -98.40833590799997, 16.263745028000073 ], [ -98.446399973999974, 16.275553957000056 ], [ -98.544026850999956, 16.310691062000046 ], [ -98.55469097799994, 16.319345042000066 ], [ -98.562646074999975, 16.339445014000034 ], [ -98.578754919999938, 16.36097309400003 ], [ -98.593608825999979, 16.374718074000043 ], [ -98.616391005999958, 16.388054017000059 ], [ -98.65737298099998, 16.419026994000035 ], [ -98.704181886999947, 16.476391063000051 ], [ -98.729235897999956, 16.518744987000048 ], [ -98.753481893999947, 16.540554029000077 ], [ -98.78222696099999, 16.553053961000046 ], [ -99.036955010999975, 16.596944959000041 ], [ -99.233064052999964, 16.628891074000023 ], [ -99.440563933999954, 16.672218138000062 ], [ -99.537226890999989, 16.68166420700004 ], [ -99.558063967999942, 16.684444988000052 ], [ -99.685982035999984, 16.706945033000068 ], [ -99.738617873999942, 16.729026990000023 ], [ -99.850417877999973, 16.795035986000073 ], [ -99.84112687399994, 16.818054033000067 ], [ -99.857373013999961, 16.855000122000035 ], [ -99.872926807999988, 16.867918143000054 ], [ -99.979446045999964, 16.90083605600006 ], [ -100.228054970999949, 16.980000114000063 ], [ -100.284446068999955, 17.005554023000059 ], [ -100.321955085999946, 17.02055394100006 ], [ -100.44971792199999, 17.067218008000054 ], [ -100.51167292699995, 17.088336046000052 ], [ -100.678617974999952, 17.144445009000037 ], [ -100.79709986499995, 17.181944973000043 ], [ -100.888635946999955, 17.20860914800005 ], [ -100.909999909999954, 17.217500168000072 ], [ -101.011126901999944, 17.265273161000039 ], [ -101.049445944999945, 17.295553959000074 ], [ -101.066264066999963, 17.319791071000054 ], [ -101.08639991299998, 17.341664150000042 ], [ -101.104445982999948, 17.358891140000026 ], [ -101.135835874999941, 17.379164114000048 ], [ -101.266399942999954, 17.459718060000057 ], [ -101.341399870999965, 17.489718065000034 ], [ -101.44500891199999, 17.540836107000075 ], [ -101.577790998999944, 17.628327083000045 ], [ -101.638817959999983, 17.678054065000026 ], [ -101.653326866999976, 17.710418102000062 ], [ -101.672235937999972, 17.736109139000064 ], [ -101.792090950999977, 17.879718130000072 ], [ -101.818617829999937, 17.900554033000049 ], [ -101.898355042999981, 17.948327025000026 ], [ -101.921399912999959, 17.961936051000066 ], [ -101.952790977999939, 17.97847321100005 ], [ -102.00069992499999, 17.988609111000073 ], [ -102.038199889999987, 17.990418093000073 ], [ -102.06736405099997, 17.982218077000027 ], [ -102.095699912999976, 17.961664142000075 ], [ -102.119455064999954, 17.935554011000022 ], [ -102.14500897299996, 17.919444998000074 ], [ -102.170290972999965, 17.918327020000049 ], [ -102.180999859999986, 17.920827007000071 ], [ -102.229590925999958, 17.944582159000049 ], [ -102.290555022999968, 17.963335996000069 ], [ -102.455835927999942, 18.011391124000056 ], [ -102.574446060999946, 18.04458211900004 ], [ -102.607926901999974, 18.047918117000052 ], [ -102.637508985999943, 18.048336039000048 ], [ -102.681399983999938, 18.050826973000028 ], [ -102.720291008999936, 18.059164116000034 ], [ -102.750417915999947, 18.067773169000077 ], [ -102.824308918999975, 18.095273188000021 ], [ -102.903899950999971, 18.130836094000074 ], [ -102.934455005999951, 18.147773071000074 ], [ -102.95472680599994, 18.160273171000028 ], [ -103.038335787999983, 18.192636034000031 ], [ -103.06139993499994, 18.196945003000053 ], [ -103.102926900999989, 18.200064244000032 ], [ -103.357508938999956, 18.27278211600003 ], [ -103.450008939999975, 18.313609026000051 ], [ -103.478335916999981, 18.32930011600007 ], [ -103.49667300699997, 18.349445014000025 ], [ -103.509172938999939, 18.380273152000029 ], [ -103.519445966999967, 18.403327073000071 ], [ -103.538890976999937, 18.438327051000044 ], [ -103.560835804999954, 18.477773126000045 ], [ -103.575845949999973, 18.497218136000072 ], [ -103.705563947999963, 18.650553990000049 ], [ -103.725008957999989, 18.673336003000031 ], [ -103.745481923999989, 18.688073066000072 ], [ -103.755146090999972, 18.693745099000068 ], [ -103.776399914999956, 18.708609064000029 ], [ -103.839735922999978, 18.766391054000053 ], [ -103.943617877999941, 18.855273091000072 ], [ -103.97194602899998, 18.877218087000074 ], [ -104.004463957999974, 18.896382135000067 ], [ -104.025281922999966, 18.905282208000074 ], [ -104.047235803999968, 18.91360912600004 ], [ -104.136945972999968, 18.94416418000003 ], [ -104.205291005999982, 18.966664226000034 ], [ -104.317572968999968, 19.010900056000025 ], [ -104.329799986999944, 19.039373213000033 ], [ -104.316400005999981, 19.07660009500006 ], [ -104.327791011999977, 19.095273131000056 ], [ -104.371117907999974, 19.108745029000033 ], [ -104.513063929999987, 19.127218073000051 ], [ -104.592417921999981, 19.147945011000047 ], [ -104.675900000999945, 19.177353924000045 ], [ -104.805845987999987, 19.251664190000042 ], [ -104.899035819999938, 19.285135979000074 ], [ -104.95168188299999, 19.315273112000057 ], [ -104.98360888799999, 19.339445012000056 ], [ -105.022508964999986, 19.371945004000054 ], [ -105.078608875999976, 19.495282195000073 ], [ -105.099173036999957, 19.558191061000059 ], [ -105.117654965999975, 19.581527117000064 ], [ -105.169726868999987, 19.606945071000041 ], [ -105.209172943999988, 19.620273135000048 ], [ -105.268335936999961, 19.677917998000055 ], [ -105.30285496099998, 19.725064192000048 ], [ -105.318482013999983, 19.758473117000051 ], [ -105.329317970999966, 19.778473176000034 ], [ -105.386946069999965, 19.85000014700006 ], [ -105.414582042999939, 19.879582063000043 ], [ -105.437646022999957, 19.899236117000044 ], [ -105.456946025999969, 19.922218122000061 ], [ -105.497790871999939, 19.991109152000035 ], [ -105.515290944999947, 20.021664207000072 ], [ -105.527790876999973, 20.043891170000052 ], [ -105.546399875999953, 20.090973159000043 ], [ -105.595572981999965, 20.243326990000071 ], [ -105.66222688199997, 20.349718152000037 ], [ -105.678335893999986, 20.383053987000039 ], [ -105.675364005999938, 20.424164204000078 ], [ -105.620008911999946, 20.462218045000043 ], [ -105.594872924999947, 20.475691116000064 ], [ -105.551399848999949, 20.491245079000066 ], [ -105.496672893999971, 20.494164160000025 ], [ -105.450564044999965, 20.491527046000044 ], [ -105.335354952999978, 20.519164192000062 ], [ -105.244726965999973, 20.574645015000044 ], [ -105.235073024999963, 20.630900159000078 ], [ -105.263881960999981, 20.696664236000061 ], [ -105.266890896999939, 20.699045032000072 ], [ -105.321808958999952, 20.765482176000035 ], [ -105.34334609199999, 20.773327134000056 ], [ -105.367235856999969, 20.769864235000057 ], [ -105.407717934999937, 20.754645046000064 ], [ -105.536190884999939, 20.792573157000049 ], [ -105.312926823999987, 21.022636116000058 ], [ -105.292364003999978, 21.037773163000054 ], [ -105.258826834999979, 21.042982180000024 ], [ -105.241390967999962, 21.064718132000053 ], [ -105.23250883299994, 21.085282125000049 ], [ -105.22515505399997, 21.111109116000023 ], [ -105.213481912999953, 21.233609123000065 ], [ -105.228055024999946, 21.311664087000054 ], [ -105.189455018999979, 21.437500091000061 ], [ -105.245845949999989, 21.513745068000048 ], [ -105.276808867999989, 21.52082710600007 ], [ -105.436390916999983, 21.609373196000035 ], [ -105.442499982999948, 21.634444977000044 ], [ -105.441399941999975, 21.657500072000062 ], [ -105.457782036999959, 21.698609116000057 ], [ -105.50861794399998, 21.79194496100007 ], [ -105.558535865999943, 21.873682096000039 ], [ -105.576946045999989, 21.895827084000075 ], [ -105.59611797299999, 21.912500031000036 ], [ -105.609455089999983, 21.927500117000022 ], [ -105.628482009999971, 21.950836006000031 ], [ -105.650272946999962, 21.981245048000062 ], [ -105.656117982999945, 22.002082124000026 ], [ -105.65556393899999, 22.056109023000033 ], [ -105.645573045999981, 22.134718031000034 ], [ -105.638899876999972, 22.186664206000046 ], [ -105.636535844999969, 22.223191199000041 ], [ -105.638064033999967, 22.256944955000051 ], [ -105.640290937999964, 22.286664166000037 ], [ -105.644181984999989, 22.315273111000067 ], [ -105.649726948999955, 22.342782182000064 ], [ -105.66014599, 22.369445016000043 ], [ -105.690846051999984, 22.43082703400006 ], [ -105.714573040999937, 22.468364214000076 ], [ -105.730564035999976, 22.513054007000051 ], [ -105.744746047999968, 22.54389119700005 ], [ -105.799181982999983, 22.635827096000071 ], [ -105.820426922999957, 22.664027004000047 ], [ -105.919726826999977, 22.758327103000056 ], [ -105.974163934999979, 22.798609021000061 ], [ -106.000835821999942, 22.816109094000069 ], [ -106.079999879999946, 22.888053986000045 ], [ -106.110290904999943, 22.921664245000045 ], [ -106.139446013999986, 22.956391140000051 ], [ -106.226672959999974, 23.053609147000031 ], [ -106.370008868999946, 23.17833605800007 ], [ -106.47861788299997, 23.326109011000028 ], [ -106.493346059999965, 23.354164247000028 ], [ -106.511400008999942, 23.384445046000053 ], [ -106.527645981999967, 23.406800085000043 ], [ -106.661664063999979, 23.523054065000053 ], [ -106.784999913999968, 23.629164098000047 ], [ -106.803482010999971, 23.649718033000056 ], [ -106.84113586699999, 23.725827055000025 ], [ -106.868064071999981, 23.781109059000073 ], [ -106.899317841999959, 23.842918052000073 ], [ -106.915699936999943, 23.865135963000057 ], [ -106.958346053999946, 23.902218005000066 ], [ -107.001108847999944, 23.945273160000056 ], [ -107.025145966999958, 23.968053999000063 ], [ -107.043063961999962, 23.982773124000062 ], [ -107.071117855999944, 23.999445065000032 ], [ -107.388635916999988, 24.224718101000065 ], [ -107.422499978999952, 24.252500087000044 ], [ -107.522508991999985, 24.328054059000067 ], [ -107.548072958999967, 24.34638209700006 ], [ -107.566117854999959, 24.358054064000044 ], [ -107.58945508499994, 24.372354094000059 ], [ -107.650008971999966, 24.401664101000051 ], [ -107.675281917999939, 24.423900117000073 ], [ -107.727726815999972, 24.471127112000033 ], [ -107.675754992999941, 24.446727057000032 ], [ -107.653064007999944, 24.431936015000076 ], [ -107.630955061999941, 24.432000053000024 ], [ -107.596408879999956, 24.428244960000029 ], [ -107.590572895999969, 24.452327006000075 ], [ -107.618035866999946, 24.517209139000045 ], [ -107.642082037999955, 24.511000161000027 ], [ -107.653117818999988, 24.489582219000056 ], [ -107.681826843999943, 24.479745050000076 ], [ -107.748364067999944, 24.516918120000071 ], [ -107.748900006999975, 24.537500051000052 ], [ -107.808326861999944, 24.587218148000034 ], [ -107.872790905999977, 24.613609073000077 ], [ -107.93111788799996, 24.630273135000039 ], [ -107.894182025999953, 24.586109054000076 ], [ -107.85160899899995, 24.555418045000067 ], [ -107.817263982999975, 24.527500105000058 ], [ -107.916399936999937, 24.58277322400005 ], [ -107.941964070999973, 24.601109141000052 ], [ -107.99549090499994, 24.649100063000049 ], [ -108.006673033999959, 24.672500157000059 ], [ -108.016682032999938, 24.735000154000033 ], [ -107.996946002999948, 24.751109166000049 ], [ -107.990008972999988, 24.959509096000033 ], [ -108.011946089999981, 24.982500153000046 ], [ -108.041855066999972, 24.991953934000037 ], [ -108.044308952999984, 24.950827120000042 ], [ -108.028190888999973, 24.920000157000061 ], [ -108.047499943999981, 24.826344961000075 ], [ -108.104173008999965, 24.821944965000057 ], [ -108.127790864999952, 24.840418009000075 ], [ -108.181400008999958, 24.936382083000069 ], [ -108.221264004999966, 25.029445014000032 ], [ -108.178199965999966, 24.98173605900007 ], [ -108.130146011999955, 24.972364253000023 ], [ -108.096308938999982, 25.012982118000025 ], [ -108.000835876999986, 25.008054061000053 ], [ -108.007781959999988, 25.033327008000072 ], [ -108.021390985999972, 25.051391183000078 ], [ -108.042508855999984, 25.073609094000062 ], [ -108.06028201099997, 25.088473226000076 ], [ -108.09583586499997, 25.108891039000071 ], [ -108.125835869999946, 25.123882073000061 ], [ -108.243054941999958, 25.159164186000055 ], [ -108.352508851999971, 25.167218021000053 ], [ -108.394181997999965, 25.141109063000044 ], [ -108.392508969999938, 25.200136102000045 ], [ -108.406817884999953, 25.231800082000063 ], [ -108.420564037999952, 25.250273127000071 ], [ -108.43695501799999, 25.263054020000027 ], [ -108.455835924999974, 25.273891150000054 ], [ -108.55832682, 25.314718060000075 ], [ -108.616672912999945, 25.340000059000033 ], [ -108.72861792399999, 25.396664239000074 ], [ -108.762217955999972, 25.434444997000071 ], [ -108.76375503, 25.492564108000067 ], [ -108.76529093, 25.539300092000076 ], [ -108.837781986999971, 25.561664183000062 ], [ -108.896081979999963, 25.549409170000047 ], [ -108.877081880999981, 25.522500076000028 ], [ -108.879454965999969, 25.501391091000073 ], [ -108.886126960999945, 25.480000138000037 ], [ -108.920008959999961, 25.456109032000029 ], [ -109.031326836999938, 25.462154061000035 ], [ -109.06833579, 25.487218131000077 ], [ -109.108900009999957, 25.526109156000075 ], [ -109.084726936999971, 25.538664241000049 ], [ -109.05759991299999, 25.563827049000054 ], [ -109.01823581299999, 25.560164158000077 ], [ -108.991254969999943, 25.55916419700003 ], [ -108.970290991999946, 25.564444963000028 ], [ -108.901955010999984, 25.639300053000056 ], [ -108.8783460399999, 25.670273197000029 ], [ -108.834926942999971, 25.793609047000075 ], [ -108.87639993, 25.743609150000054 ], [ -108.897855086999982, 25.699300063000067 ], [ -109.041599865999956, 25.609664158000044 ], [ -109.076973005999946, 25.600418080000054 ], [ -109.141045949999977, 25.583053962000065 ], [ -109.15389993399998, 25.613191095000047 ], [ -109.169172934999949, 25.64374497600005 ], [ -109.307508870999982, 25.738327042000037 ], [ -109.381882000999951, 25.759064206000062 ], [ -109.437499952999985, 25.820273222000026 ], [ -109.44278189299996, 25.946526980000044 ], [ -109.432499979999989, 26.005691146000061 ], [ -109.421808861999978, 26.03527323000003 ], [ -109.402790993999986, 26.064445103000025 ], [ -109.305555049999953, 26.201664234000077 ], [ -109.283999979999976, 26.162391162000063 ], [ -109.229735873999971, 26.263053964000051 ], [ -109.231664046999981, 26.319445062000057 ], [ -109.205008923999969, 26.342353977000073 ], [ -109.164799928999969, 26.323954023000056 ], [ -109.16017295099999, 26.304718058000049 ], [ -109.173899992999964, 26.262500088000024 ], [ -109.123063917999957, 26.224445074000073 ], [ -109.096046026999943, 26.214791133000062 ], [ -109.103899869999964, 26.283609073000036 ], [ -109.143717932999948, 26.338309038000034 ], [ -109.154517847999955, 26.367982148000067 ], [ -109.264717914999949, 26.513336085000049 ], [ -109.444308907999982, 26.715554025000074 ], [ -109.519926917999953, 26.764300157000037 ], [ -109.55417302799998, 26.750827086000072 ], [ -109.647354980999978, 26.697354064000024 ], [ -109.677226909999945, 26.67250004400006 ], [ -109.69181796, 26.674164187000031 ], [ -109.71750899599999, 26.679718037000043 ], [ -109.753890981999973, 26.696109016000037 ], [ -109.772508864999963, 26.707500190000076 ], [ -109.822091007999973, 26.751527142000043 ], [ -109.866673009999943, 26.823327028000051 ], [ -109.875554977999968, 26.848609027000066 ], [ -109.880282035999983, 26.870827106000036 ], [ -109.887508912999976, 26.910553974000038 ], [ -109.898355094999943, 26.974164238000071 ], [ -109.92090895299998, 27.056664126000044 ], [ -109.949045995999938, 27.093473086000074 ], [ -109.976254994999977, 27.110764114000062 ], [ -110.02381793699999, 27.11180011700003 ], [ -110.051808966999943, 27.096873121000044 ], [ -110.225008926999976, 27.136944989000028 ], [ -110.301964018999968, 27.162218103000043 ], [ -110.335009000999946, 27.18444506700007 ], [ -110.44639996899997, 27.311664252000071 ], [ -110.529717929999947, 27.371109045000026 ], [ -110.622217931999955, 27.601944983000067 ], [ -110.63403591299999, 27.635000191000074 ], [ -110.634590961999947, 27.662364255000057 ], [ -110.605291013999988, 27.757500030000074 ], [ -110.555008981999947, 27.832773209000038 ], [ -110.511364076999939, 27.855000172000075 ], [ -110.596681960999945, 27.887500164000073 ], [ -110.789464057999965, 27.916944951000062 ], [ -110.871672926999963, 27.842782207000027 ], [ -110.960855034999952, 27.907500055000071 ], [ -111.05584597099994, 27.949164149000069 ], [ -111.08222683799994, 27.938745108000035 ], [ -111.103335822999952, 27.936945011000034 ], [ -111.21613595599996, 28.035554079000065 ], [ -111.249735819999955, 28.068054070000073 ], [ -111.267917844999943, 28.089300183000034 ], [ -111.306400000999986, 28.147218128000077 ], [ -111.325564048999979, 28.177773183000056 ], [ -111.341945975999977, 28.20360905800004 ], [ -111.463346108999986, 28.375000036000074 ], [ -111.534726898999963, 28.403609148000044 ], [ -111.578899864999983, 28.420554003000063 ], [ -111.640554964999978, 28.443336016000046 ], [ -111.669726837999974, 28.45277320100007 ], [ -111.696946062999984, 28.468609131000051 ], [ -111.7125089099999, 28.503609109000024 ], [ -111.72583580099996, 28.53597314600006 ], [ -111.738063991999979, 28.555553942000074 ], [ -111.766672935999964, 28.592218063000075 ], [ -111.795835924999949, 28.621109142000023 ], [ -111.822245959999975, 28.639445058000035 ], [ -111.847499963999951, 28.65833602400005 ], [ -111.934790947999943, 28.739027097000076 ], [ -111.94724595299999, 28.761664103000044 ], [ -111.917717849999974, 28.787218012000039 ], [ -112.03722685799994, 28.883891195000047 ], [ -112.11500890799999, 28.966391083000076 ], [ -112.161946056999966, 28.971391056000073 ], [ -112.176390925999954, 29.05860911700006 ], [ -112.189726868999969, 29.174718090000056 ], [ -112.19695508699999, 29.260273182000049 ], [ -112.201400010999976, 29.283054022000044 ], [ -112.213482020999948, 29.306109117000062 ], [ -112.249664014999951, 29.332045072000028 ], [ -112.288617903999977, 29.335282163000045 ], [ -112.329455039999971, 29.327636024000071 ], [ -112.38993583599995, 29.421809053000061 ], [ -112.377508993999982, 29.460000189000027 ], [ -112.37618197099999, 29.494927077000057 ], [ -112.42556395299999, 29.554444960000069 ], [ -112.44056404, 29.569445046000055 ], [ -112.47153584299997, 29.59110908100007 ], [ -112.493899933999955, 29.613054077000072 ], [ -112.576745993999964, 29.712427071000036 ], [ -112.70583585299994, 29.921664186000044 ], [ -112.735573001999967, 29.971109033000062 ], [ -112.751682013999982, 30.046109129000058 ], [ -112.749454941999943, 30.135273133000055 ], [ -112.748899892999987, 30.161945019000029 ], [ -112.754455082999982, 30.203473159000055 ], [ -112.765555068999959, 30.227500052000039 ], [ -112.858063955999967, 30.402500109000073 ], [ -112.928072963999966, 30.49166411300007 ], [ -113.002782040999989, 30.577773081000032 ], [ -113.04250890899999, 30.631382225000038 ], [ -113.061535828999979, 30.65889112900004 ], [ -113.072772943999951, 30.679445064000049 ], [ -113.08139088199999, 30.698891079000077 ], [ -113.116191034999986, 30.814582131000066 ], [ -113.109455001999947, 30.842782206000038 ], [ -113.095835917999977, 30.879718068000045 ], [ -113.04945499199999, 31.053891167000074 ], [ -113.037782018999962, 31.105000157000063 ], [ -113.039026898999964, 31.164927077000073 ], [ -113.091672961999961, 31.22971801500006 ], [ -113.11680894899996, 31.235418044000028 ], [ -113.137217876999955, 31.233054012000025 ], [ -113.327791007999963, 31.260554031000026 ], [ -113.475846095999941, 31.284027048000041 ], [ -113.510835847999942, 31.295827091000035 ], [ -113.589735875999963, 31.331664254000032 ], [ -113.613617929999975, 31.348609109000051 ], [ -113.622217930999966, 31.390273203000049 ], [ -113.628754976999971, 31.430973210000047 ], [ -113.625417973999959, 31.455409140000029 ], [ -113.629035937999959, 31.481391196000061 ], [ -113.644035856999949, 31.502218046000053 ], [ -113.667781955999942, 31.516244994000033 ], [ -113.821954995999988, 31.580827055000043 ], [ -113.974690873999975, 31.655691197000067 ], [ -113.970346030999963, 31.572773220000045 ], [ -113.94735497299996, 31.566945115000067 ], [ -113.975572985999975, 31.532218051000029 ], [ -113.990572903999976, 31.517773182000042 ], [ -114.020845991999977, 31.497635995000053 ], [ -114.050146107999979, 31.492636022000056 ], [ -114.130835839999975, 31.495282189000079 ], [ -114.169726864999973, 31.504445118000035 ], [ -114.21750891, 31.522218106000025 ], [ -114.254999989999988, 31.541664121000053 ], [ -114.431535946999986, 31.644864125000026 ], [ -114.48222684699999, 31.677500071000054 ], [ -114.502499988999944, 31.694164133000072 ], [ -114.518054956999947, 31.711391123000055 ], [ -114.58451791799996, 31.760409163000077 ], [ -114.6338999, 31.76763604000007 ], [ -114.711673065999946, 31.783054048000054 ], [ -114.808617989999959, 31.822218156000076 ], [ -114.825008969999942, 31.835554099000035 ], [ -114.928890924999962, 31.903891085000055 ], [ -115.017246074999946, 31.954427088000045 ], [ -115.031145952999964, 31.96000004800004 ], [ -115.013335917999939, 31.910344983000073 ], [ -114.975835952999944, 31.906182195000042 ], [ -114.9445909, 31.890000092000037 ], [ -114.922081969999965, 31.871736093000038 ], [ -114.820008996999945, 31.740273150000064 ], [ -114.786663941999961, 31.664164128000039 ], [ -114.78583581, 31.63187318100006 ], [ -114.808326970999985, 31.61389114900004 ], [ -114.832926850999968, 31.583473222000066 ], [ -114.843899934999968, 31.554718097000034 ], [ -114.851117927999951, 31.526391120000028 ], [ -114.855290941999954, 31.501944964000074 ], [ -114.864181961999975, 31.426109024000027 ], [ -114.878617945999963, 31.229445100000078 ], [ -114.880700010999988, 31.151664224000058 ], [ -114.87473595099999, 31.126664191000032 ], [ -114.824790872999984, 30.992009084000074 ], [ -114.78626395699996, 30.96860915700006 ], [ -114.762508972999967, 30.964718110000035 ], [ -114.720145995999985, 30.942918121000048 ], [ -114.706390957999986, 30.927500113000065 ], [ -114.689181904999941, 30.83889115900007 ], [ -114.685563939999952, 30.802218153000069 ], [ -114.69111795699996, 30.734164140000075 ], [ -114.69570000799996, 30.669582079000065 ], [ -114.692508849999967, 30.645691140000054 ], [ -114.677372976999948, 30.605135972000028 ], [ -114.663746013999969, 30.586382134000075 ], [ -114.646390947999976, 30.564164223000034 ], [ -114.62541791699999, 30.483745059000057 ], [ -114.63278192199999, 30.361945109000033 ], [ -114.642226817999983, 30.273609069000031 ], [ -114.65972689099999, 30.19860914000003 ], [ -114.628617959999985, 30.139164180000023 ], [ -114.556399984999985, 30.018609110000057 ], [ -114.545290945999966, 30.001109038000038 ], [ -114.458890957999984, 29.92582714200006 ], [ -114.396390961999941, 29.828609134000033 ], [ -114.375763935999942, 29.797427113000026 ], [ -114.30035497099999, 29.76284505700005 ], [ -114.255281956999966, 29.771664160000057 ], [ -114.212155052999947, 29.761945008000055 ], [ -114.096390911999947, 29.648891072000026 ], [ -114.064726930999939, 29.61527310200006 ], [ -114.03361783299999, 29.587773083000059 ], [ -113.914026849999971, 29.496809149000057 ], [ -113.88639992899999, 29.479445031000068 ], [ -113.848617829999966, 29.463891069000056 ], [ -113.794173009999952, 29.415827056000069 ], [ -113.667917910999961, 29.28416412100006 ], [ -113.650845985999979, 29.261664243000041 ], [ -113.545145994999984, 29.102918037000052 ], [ -113.539309005999939, 29.040726998000025 ], [ -113.544726899999944, 28.951109030000055 ], [ -113.508754956999951, 28.896245115000056 ], [ -113.45709091699996, 28.892709125000067 ], [ -113.462017966999952, 28.926591125000073 ], [ -113.45166397, 28.952773173000026 ], [ -113.40930887199994, 28.964164179000079 ], [ -113.36263592099999, 28.941245038000034 ], [ -113.348345948999963, 28.908609092000063 ], [ -113.348073033999981, 28.882773217000079 ], [ -113.290281990999972, 28.809718057000055 ], [ -113.229800021999949, 28.829445034000059 ], [ -113.194926945999953, 28.813818149000042 ], [ -113.176673004999941, 28.780836031000035 ], [ -113.138899957999968, 28.623882211000023 ], [ -113.129463945999987, 28.559164195000051 ], [ -113.115908899999965, 28.486454035000065 ], [ -113.039308865999942, 28.443327131000046 ], [ -113.011126895999951, 28.436527061000049 ], [ -112.982508898999981, 28.436109139000052 ], [ -112.957226899999966, 28.440827145000071 ], [ -112.9181999199999, 28.449445082000068 ], [ -112.86319988299999, 28.418509154000049 ], [ -112.87000883799999, 28.361664092000069 ], [ -112.874026954999977, 28.284164177000036 ], [ -112.866954975999988, 28.263609068000051 ], [ -112.86083585099999, 28.258609096000043 ], [ -112.820981912999969, 28.228536 ], [ -112.790635902999952, 28.179064164000067 ], [ -112.794590987999982, 28.12777311900004 ], [ -112.791672911999967, 28.100554061000025 ], [ -112.778617929999939, 28.031318032000058 ], [ -112.757782027999951, 28.013609082000073 ], [ -112.723281946999975, 27.99973602700004 ], [ -112.732226945999969, 27.983400033000066 ], [ -112.75306402199999, 27.837500099000067 ], [ -112.670490875999974, 27.718818050000039 ], [ -112.572772971999939, 27.630554095000036 ], [ -112.537226829999952, 27.627773147000028 ], [ -112.493617966999977, 27.615835976000028 ], [ -112.346672977999958, 27.54138221200003 ], [ -112.317435892999981, 27.502845071000024 ], [ -112.23000895499996, 27.23277310900005 ], [ -112.094726880999985, 27.133891126000037 ], [ -112.014181987999962, 27.041382072000033 ], [ -112.029163969999956, 27.005382133000069 ], [ -111.971682050999959, 26.917500057000041 ], [ -111.914945953999961, 26.844344986000067 ], [ -111.909199991999969, 26.822473080000066 ], [ -111.902926807999961, 26.76812699900006 ], [ -111.91667296199995, 26.747844972000053 ], [ -111.908072960999959, 26.726664238000069 ], [ -111.85860900299997, 26.661945049000053 ], [ -111.765564010999981, 26.567500111000072 ], [ -111.73507299399995, 26.552500192000025 ], [ -111.710008923999965, 26.569164254000043 ], [ -111.68750887799996, 26.60059119400006 ], [ -111.722226888999955, 26.654027 ], [ -111.754464023999958, 26.670553934000054 ], [ -111.803826895999975, 26.704236109000078 ], [ -111.831681971999956, 26.758327045000044 ], [ -111.856226866999975, 26.853053951000049 ], [ -111.84499092499999, 26.902082217000043 ], [ -111.809726916999978, 26.893326984000055 ], [ -111.748899948999963, 26.853609168000048 ], [ -111.697508991999939, 26.809445088000075 ], [ -111.644455064999988, 26.760691077000047 ], [ -111.598055027999976, 26.739444964000029 ], [ -111.561881918999973, 26.719653950000065 ], [ -111.559445969999956, 26.665836096000078 ], [ -111.5625, 26.62555401000003 ], [ -111.560291033999988, 26.585000183000034 ], [ -111.552782021999974, 26.558400046000031 ], [ -111.499309, 26.529718011000057 ], [ -111.398063990999958, 26.33860911000005 ], [ -111.392155084999956, 26.305554069000038 ], [ -111.408472973999949, 26.290973078000036 ], [ -111.39779090899998, 26.24486422800004 ], [ -111.383055019999972, 26.201109017000078 ], [ -111.35000886399996, 26.136527123000064 ], [ -111.34333586299999, 26.026944971000034 ], [ -111.361117902999979, 25.957145007000065 ], [ -111.325008998999976, 25.844718037000064 ], [ -111.299726831999976, 25.780282156000055 ], [ -111.167090924999968, 25.579300043000046 ], [ -111.118473036999944, 25.547009096000068 ], [ -111.064208930999939, 25.544200153000077 ], [ -111.018955035999966, 25.521800187000053 ], [ -111.016954945999942, 25.474718031000066 ], [ -111.021535823999955, 25.436382055000024 ], [ -111.017499936999968, 25.41416414400004 ], [ -110.948055030999967, 25.254164174000039 ], [ -110.911117827999988, 25.17305400500004 ], [ -110.859873050999965, 25.094100165000043 ], [ -110.825699863999944, 25.063327013000048 ], [ -110.793326941999965, 25.053609035000079 ], [ -110.770426911999948, 25.042909032000068 ], [ -110.746672933999946, 25.019718150000074 ], [ -110.686255001999939, 24.896391185000027 ], [ -110.671108902999947, 24.833609054000078 ], [ -110.667781957999978, 24.803891184000065 ], [ -110.67529097, 24.767773227000077 ], [ -110.686526910999987, 24.739164115000051 ], [ -110.69805504499999, 24.718053957000052 ], [ -110.723890920999963, 24.682218136000074 ], [ -110.72973578899996, 24.662773126000047 ], [ -110.73375508, 24.634027054000057 ], [ -110.734173000999988, 24.578327128000069 ], [ -110.730563920999941, 24.542082102000052 ], [ -110.721945983999944, 24.529445042000077 ], [ -110.714455076999968, 24.515973144000043 ], [ -110.695008893999955, 24.453745056000059 ], [ -110.695846077999988, 24.426936042000023 ], [ -110.69118188499999, 24.386873227000024 ], [ -110.657508929999949, 24.333891049000044 ], [ -110.614582017999965, 24.286244959000044 ], [ -110.495081894999942, 24.217291064000051 ], [ -110.44917303699998, 24.209164139000052 ], [ -110.420563924999954, 24.208882171000027 ], [ -110.33967302799999, 24.197327047000044 ], [ -110.306455041999982, 24.185482077000074 ], [ -110.340008973999943, 24.160000085000036 ], [ -110.35689096499999, 24.180344976000072 ], [ -110.395517960999939, 24.181391205000068 ], [ -110.376535799999942, 24.124164096000072 ], [ -110.354173049999986, 24.115836005000062 ], [ -110.324173044999952, 24.125409144000059 ], [ -110.310863922999943, 24.157564137000065 ], [ -110.270835808999948, 24.190618004000044 ], [ -110.270281932999978, 24.225000068000043 ], [ -110.285490896999988, 24.259718079000038 ], [ -110.305417865999971, 24.303473122000071 ], [ -110.28958193599999, 24.342291057000068 ], [ -110.231808997999963, 24.355973173000052 ], [ -110.21000884099999, 24.34819107900006 ], [ -110.165281998999944, 24.293609131000039 ], [ -110.040846108999972, 24.192218110000056 ], [ -110.018335836999938, 24.17805403400007 ], [ -110.003345976999981, 24.164164215000028 ], [ -109.981673056999966, 24.129164237000055 ], [ -109.974164044999952, 24.096382111000025 ], [ -109.871946064999975, 24.035553969000034 ], [ -109.799726916999987, 24.012218080000025 ], [ -109.811954939999964, 23.988054058000046 ], [ -109.823617854999952, 23.945000077000032 ], [ -109.82431791199997, 23.92236424500004 ], [ -109.81249993099999, 23.893054071000051 ], [ -109.78389098699995, 23.870827107000025 ], [ -109.750073024999949, 23.84791802500007 ], [ -109.721682009999938, 23.823891132000028 ], [ -109.697635838999986, 23.794582131000027 ], [ -109.700563972999987, 23.768326992000027 ], [ -109.705000010999981, 23.739718048000043 ], [ -109.700008922999984, 23.700836075000041 ], [ -109.694164053999941, 23.679718038000033 ], [ -109.682508849999977, 23.656664116000059 ], [ -109.658072919999938, 23.643891101000065 ], [ -109.596245990999989, 23.625827094000044 ], [ -109.575008929999967, 23.620554039000069 ], [ -109.543764044999989, 23.610000049000064 ], [ -109.520846077999977, 23.599445054000057 ], [ -109.478345972999989, 23.575553948000049 ], [ -109.407499947999952, 23.461245072000054 ], [ -109.400846056999967, 23.397500028000024 ], [ -109.438899897999988, 23.22582708300007 ], [ -109.485146042999986, 23.15943604000006 ], [ -109.518754959999967, 23.124582075000035 ], [ -109.543608979999988, 23.110417999000049 ], [ -109.576945987999977, 23.100827090000053 ], [ -109.603335906999973, 23.091809168000054 ], [ -109.63640000099997, 23.074718132000044 ], [ -109.665554941999972, 23.053891115000056 ], [ -109.697017924999955, 23.024718068000027 ], [ -109.701254976999962, 22.998264111000026 ], [ -109.71750899599999, 22.980553988000054 ], [ -109.819726807999984, 22.913745023000047 ], [ -109.854172909999988, 22.89471810200007 ], [ -109.923063939999963, 22.866664208000032 ], [ -109.955281963999937, 22.864445015000058 ], [ -109.978764033999937, 22.871245085000055 ], [ -109.99819093799999, 22.881945088000066 ], [ -110.02848196299999, 22.906109109000056 ], [ -110.080563924999979, 22.986664228000052 ], [ -110.090008987999965, 23.012218136000058 ], [ -110.100146061999965, 23.046109020000074 ], [ -110.115835810999954, 23.12082698200004 ], [ -110.120008992999942, 23.150000028000022 ], [ -110.126399858999946, 23.193327092000061 ], [ -110.13389998599996, 23.22305401400007 ], [ -110.171745955999938, 23.32687310600005 ], [ -110.311190984999939, 23.560691157000065 ], [ -110.373899858999948, 23.612782171000049 ], [ -110.40486395, 23.632918017000065 ], [ -110.458891015999939, 23.647500181000055 ], [ -110.520572938999976, 23.668609166000067 ], [ -110.57049102799999, 23.687982092000027 ], [ -110.634455007999975, 23.731664212000055 ], [ -110.694455017999985, 23.794718085000056 ], [ -110.810008940999978, 23.910000100000047 ], [ -111.016399895999939, 24.093891177000046 ], [ -111.04680893799997, 24.115000162000058 ], [ -111.096681932999957, 24.139718059000074 ], [ -111.221945955999956, 24.20305406600005 ], [ -111.472435947999941, 24.344654083000023 ], [ -111.501399948999961, 24.392500166000048 ], [ -111.53583582499999, 24.426245038000047 ], [ -111.560008898999968, 24.42944508100004 ] ] ], [ [ [ -112.296399998999959, 28.756382163000069 ], [ -112.304173039999966, 28.756664131000036 ], [ -112.38334598299997, 28.778326992000075 ], [ -112.445845979999945, 28.806664195000053 ], [ -112.538617889999955, 28.857500102000074 ], [ -112.550000011999941, 28.864718094000068 ], [ -112.56361792199999, 28.881109074000051 ], [ -112.476817949999941, 29.150554069000066 ], [ -112.463055032999989, 29.176664201000051 ], [ -112.456945966999967, 29.186109097000042 ], [ -112.447226814999965, 29.194445067000061 ], [ -112.356946005999987, 29.230000095000037 ], [ -112.34583579299999, 29.233609175000026 ], [ -112.29000896499997, 29.237500054000066 ], [ -112.26639999299999, 29.222218001000044 ], [ -112.212226914999974, 29.064164140000059 ], [ -112.202790903999983, 29.032218025000077 ], [ -112.200290916999961, 28.995282162000024 ], [ -112.200845966999964, 28.98166425200003 ], [ -112.203054933999965, 28.969445113000063 ], [ -112.250145973999963, 28.780000187000041 ], [ -112.261946017999946, 28.773327019000078 ], [ -112.296399998999959, 28.756382163000069 ] ] ], [ [ [ -113.139717863999977, 29.017773156000032 ], [ -113.182508987999938, 29.035554022000042 ], [ -113.207781934999957, 29.048053954000068 ], [ -113.231399958999987, 29.061945115000071 ], [ -113.240572945999986, 29.067773220000049 ], [ -113.357226910999941, 29.170827043000031 ], [ -113.410573030999956, 29.219718014000023 ], [ -113.525008975999981, 29.34500014200006 ], [ -113.592217925999989, 29.425827002000062 ], [ -113.599173060999988, 29.436664132000033 ], [ -113.60057300699998, 29.452218095000035 ], [ -113.582435908999969, 29.585973153000054 ], [ -113.527790929999981, 29.571945033000077 ], [ -113.500290910999979, 29.557500164000032 ], [ -113.469726970999943, 29.535827076000032 ], [ -113.407235859999957, 29.484309050000036 ], [ -113.396663932999957, 29.470000135000078 ], [ -113.37360900499999, 29.422773140000061 ], [ -113.366055065999944, 29.395554082000046 ], [ -113.37056402799999, 29.380273202000069 ], [ -113.376681978999954, 29.371664150000072 ], [ -113.380835881999985, 29.361664204000078 ], [ -113.384746039999982, 29.343891049000035 ], [ -113.383063959999959, 29.32235408400004 ], [ -113.368064040999968, 29.314718002000063 ], [ -113.310008967999977, 29.300554094000063 ], [ -113.276399882999954, 29.298609158000033 ], [ -113.260835861999965, 29.298053940000045 ], [ -113.195846104999987, 29.228336119000062 ], [ -113.19056399699997, 29.153609105000044 ], [ -113.189455071999987, 29.141109173000075 ], [ -113.186955084999965, 29.130273216000035 ], [ -113.167791036999972, 29.086391103000039 ], [ -113.158764062999978, 29.07721811600004 ], [ -113.14499997199999, 29.071945061000065 ], [ -113.125146092999955, 29.05680013500006 ], [ -113.126955074999955, 29.039718152000034 ], [ -113.130573039999945, 29.029164162000029 ], [ -113.135555074999957, 29.019718092000062 ], [ -113.139717863999977, 29.017773156000032 ] ] ], [ [ [ -86.993345985999952, 20.255554007000057 ], [ -86.999999875999947, 20.256382139000038 ], [ -87.017235917999983, 20.295000082000058 ], [ -87.02139099599998, 20.325836098000025 ], [ -87.022508973999948, 20.33833603000005 ], [ -87.022781888999987, 20.351391180000064 ], [ -87.020564036999986, 20.388609009000049 ], [ -87.015017898999986, 20.408054019000076 ], [ -87.003063963999978, 20.439164123000069 ], [ -86.99583591399994, 20.453327025000078 ], [ -86.971117848999938, 20.493326976000048 ], [ -86.935572879999938, 20.54305395800003 ], [ -86.91667302899998, 20.559718019000059 ], [ -86.903345970999965, 20.564026988000023 ], [ -86.889735770999948, 20.563891201000047 ], [ -86.878617846999987, 20.556944950000059 ], [ -86.868617901999983, 20.55221806000003 ], [ -86.83327292499996, 20.542218114000036 ], [ -86.793335837999962, 20.551109134000058 ], [ -86.78418196199999, 20.556109107000054 ], [ -86.771117926999977, 20.564717992000055 ], [ -86.756117840999934, 20.577773142000069 ], [ -86.738617935999969, 20.588953930000059 ], [ -86.791673035999963, 20.488609138000072 ], [ -86.885563930999979, 20.353882114000044 ], [ -86.932508958999961, 20.301664198000026 ], [ -86.945290857999964, 20.289445059000059 ], [ -86.976117821999935, 20.266391138000074 ], [ -86.984454965999987, 20.260553980000054 ], [ -86.993345985999952, 20.255554007000057 ] ] ], [ [ [ -115.179455012999938, 28.024718122000024 ], [ -115.26334596199996, 28.072500167000044 ], [ -115.310008854999978, 28.100273100000038 ], [ -115.324317936999989, 28.139718001000062 ], [ -115.306117975999939, 28.154445005000071 ], [ -115.29889093099996, 28.161664171000041 ], [ -115.26334596199996, 28.206109045000062 ], [ -115.25446399399999, 28.218891112000051 ], [ -115.249935922999953, 28.233127104000062 ], [ -115.264717911999981, 28.26916409100005 ], [ -115.27930896099997, 28.308473205000041 ], [ -115.27863589399999, 28.328327084000023 ], [ -115.266108971999984, 28.351945108000052 ], [ -115.25417297499996, 28.365273172000059 ], [ -115.240835857999969, 28.370553939000047 ], [ -115.222435903999951, 28.367500076000056 ], [ -115.210854963999964, 28.355554020000056 ], [ -115.178890910999939, 28.308891127000038 ], [ -115.146117836999963, 28.178891161000024 ], [ -115.143063974999961, 28.154718088000038 ], [ -115.17013584599999, 28.03263600300005 ], [ -115.179455012999938, 28.024718122000024 ] ] ], [ [ [ -118.304455004999966, 28.917218145000049 ], [ -118.30222692699999, 28.919445049000046 ], [ -118.305846064999969, 28.936382193000043 ], [ -118.31444606599996, 28.971945100000028 ], [ -118.332781981999972, 29.023327005000056 ], [ -118.337508871999944, 29.032773074000033 ], [ -118.34749993299999, 29.051391125000066 ], [ -118.355290911999987, 29.058326983000029 ], [ -118.385008949999985, 29.073327069000072 ], [ -118.392790876999982, 29.080273152000075 ], [ -118.400555033999979, 29.093891063000058 ], [ -118.404163945999983, 29.150554069000066 ], [ -118.389181963999988, 29.173053947000028 ], [ -118.37903583799999, 29.181245078000074 ], [ -118.365008890999945, 29.186109097000042 ], [ -118.342790979999961, 29.190000144000066 ], [ -118.30611797399996, 29.193882139000038 ], [ -118.249735928999939, 29.074718130000065 ], [ -118.240573, 29.041945056000031 ], [ -118.238346095999987, 29.030282140000054 ], [ -118.237646038999969, 28.950136058000055 ], [ -118.244717850999962, 28.922082164000074 ], [ -118.26569993399994, 28.885273203000054 ], [ -118.289172950999955, 28.881664123000064 ], [ -118.30222692699999, 28.881109074000051 ], [ -118.304455004999966, 28.917218145000049 ] ] ], [ [ [ -111.708073039999988, 24.328327142000035 ], [ -111.732508969999969, 24.354164191000052 ], [ -111.743055079999976, 24.365000148000036 ], [ -111.756117940999957, 24.373882115000072 ], [ -111.835008916999982, 24.427500144000078 ], [ -111.935835835999967, 24.486945105000075 ], [ -112.007235904999959, 24.517218024000044 ], [ -112.015908995999951, 24.528191109000034 ], [ -111.839163993999989, 24.542500024000049 ], [ -111.700290944999949, 24.400273208000044 ], [ -111.694735922999939, 24.391664155000058 ], [ -111.69555500199999, 24.364718013000072 ], [ -111.704872996999939, 24.334300086000042 ], [ -111.708073039999988, 24.328327142000035 ] ] ], [ [ [ -112.133617905999984, 25.281109143000037 ], [ -112.129464002999953, 25.272782057000029 ], [ -112.12583581199999, 25.256109110000068 ], [ -112.126663943999972, 25.23305401500005 ], [ -112.13445509099995, 25.193882196000061 ], [ -112.140973025999983, 25.175418037000043 ], [ -112.1561089, 25.143327083000031 ], [ -112.172235848999946, 25.080000127000062 ], [ -112.175290884999981, 25.06166421100005 ], [ -112.202508935999958, 24.871109018000027 ], [ -112.203335894999952, 24.857218025000066 ], [ -112.202508935999958, 24.845000060000075 ], [ -112.198626941999976, 24.828327114000047 ], [ -112.194735894999951, 24.818609135000031 ], [ -112.171108985999979, 24.791944960000023 ], [ -112.042917834999969, 24.542218056000024 ], [ -112.04126391799997, 24.525273201000061 ], [ -112.049172913999939, 24.518609085000037 ], [ -112.070554980999987, 24.524300062000066 ], [ -112.08750888899999, 24.534718097000052 ], [ -112.1561089, 24.629164209000066 ], [ -112.180146018999949, 24.664864243000068 ], [ -112.174735834999979, 24.681318087000022 ], [ -112.157499959999939, 24.691109156000039 ], [ -112.153617965999956, 24.705409018000068 ], [ -112.155008858999963, 24.733609093000041 ], [ -112.157499959999939, 24.74471813200006 ], [ -112.161663921999946, 24.754444996000075 ], [ -112.180555055999946, 24.78416420700006 ], [ -112.18779098499999, 24.791382199000054 ], [ -112.198054960999968, 24.795827122000048 ], [ -112.222645955999951, 24.805273192000072 ], [ -112.248899920999975, 24.809718115000067 ], [ -112.211935894999954, 24.984164128000032 ], [ -112.198626941999976, 25.021945054000071 ], [ -112.15139994599997, 25.176664091000077 ], [ -112.145555077999973, 25.203609060000076 ], [ -112.133617905999984, 25.281109143000037 ] ] ], [ [ [ -106.621081906999962, 21.565309028000058 ], [ -106.628345998999976, 21.572500030000072 ], [ -106.640835872999958, 21.613327107000032 ], [ -106.642790867999963, 21.62444503100005 ], [ -106.645846071999983, 21.688327036000032 ], [ -106.634172930999966, 21.694164193000063 ], [ -106.585563926999953, 21.715827054000044 ], [ -106.539726818999952, 21.695826995000061 ], [ -106.528617946999987, 21.688609171000053 ], [ -106.500835793999954, 21.619445058000053 ], [ -106.497790983999948, 21.596664219000047 ], [ -106.51500892199999, 21.513054064000073 ], [ -106.527226886999983, 21.510000034000029 ], [ -106.588899923999975, 21.540273121000041 ], [ -106.597226841999941, 21.54666415500003 ], [ -106.621081906999962, 21.565309028000058 ] ] ], [ [ [ -110.696090997999988, 25.088835995000068 ], [ -110.666945946999988, 25.060273151000047 ], [ -110.64110889799997, 25.048609062000025 ], [ -110.626945995999961, 25.043891056000064 ], [ -110.603617985999961, 25.039718042000061 ], [ -110.588617899999974, 25.039164166000035 ], [ -110.578899920999959, 25.033882058000074 ], [ -110.573335845999964, 25.025273173000073 ], [ -110.53028203299999, 24.893745018000061 ], [ -110.539245974999972, 24.882709069000043 ], [ -110.558064017999982, 24.883326983000075 ], [ -110.580290981999951, 24.891391045000034 ], [ -110.641673, 24.92971813500003 ], [ -110.707917862999977, 25.040135963000068 ], [ -110.708617919999938, 25.062500055000044 ], [ -110.704935916999943, 25.089509061000058 ], [ -110.696090997999988, 25.088835995000068 ] ] ], [ [ [ -110.975008884999966, 18.716109023000058 ], [ -110.995563993999951, 18.735000156000069 ], [ -111.003346087999944, 18.741391190000058 ], [ -111.01722685499999, 18.749164232000055 ], [ -111.029445992999968, 18.75166421800003 ], [ -111.05111790699999, 18.752773144000059 ], [ -111.064173055999959, 18.757909071000029 ], [ -111.072917895999979, 18.775136062000058 ], [ -111.056400014999952, 18.812218104000067 ], [ -111.050845997999943, 18.820826989000068 ], [ -111.000699920999978, 18.866245003000074 ], [ -110.985417866999967, 18.863327094000056 ], [ -110.951399912999989, 18.836936002000073 ], [ -110.939455030999966, 18.827500158000078 ], [ -110.921108888999981, 18.783053943000027 ], [ -110.917235945999948, 18.773327079000069 ], [ -110.91028198399999, 18.737782110000069 ], [ -110.92264596199999, 18.722773139000026 ], [ -110.975008884999966, 18.716109023000058 ] ] ], [ [ [ -111.206126956999981, 25.802773149000075 ], [ -111.223346068999945, 25.848891051000066 ], [ -111.192364039999973, 26.036245028000053 ], [ -111.149599904999945, 26.06624503300003 ], [ -111.085908839999945, 26.071454050000057 ], [ -111.08222683799994, 26.059718045000068 ], [ -111.099455001999956, 26.004445093000072 ], [ -111.138899902999981, 25.982773179000048 ], [ -111.177363953999986, 25.900973180000051 ], [ -111.197508851999942, 25.845000172000027 ], [ -111.206126956999981, 25.802773149000075 ] ] ], [ [ [ -91.834454993999941, 18.638054058000023 ], [ -91.841808940999954, 18.641527016000055 ], [ -91.843617922999954, 18.657364119000022 ], [ -91.833346067999969, 18.664718066000034 ], [ -91.809717817999967, 18.676664122000034 ], [ -91.646117819999972, 18.753609155000049 ], [ -91.56499994, 18.785827012000027 ], [ -91.553346076999958, 18.788326998000059 ], [ -91.539463968999939, 18.788609133000023 ], [ -91.52500887399998, 18.772918042000072 ], [ -91.521535916999937, 18.762635962000047 ], [ -91.522917924999945, 18.750691079000035 ], [ -91.571117890999972, 18.736382165000066 ], [ -91.801117817999966, 18.644445092000069 ], [ -91.828608951999968, 18.639164157000039 ], [ -91.834454993999941, 18.638054058000023 ] ] ], [ [ [ -106.399173030999975, 21.419718051000075 ], [ -106.468335801999956, 21.426664134000077 ], [ -106.507226826999954, 21.43742700100006 ], [ -106.50945507199998, 21.454853984000067 ], [ -106.49945495899999, 21.473327028000028 ], [ -106.485573018999958, 21.495553991000065 ], [ -106.478899849999948, 21.503327033000062 ], [ -106.471682025999939, 21.510554077000052 ], [ -106.459726916999955, 21.512218053000026 ], [ -106.44555496299995, 21.511664177000057 ], [ -106.339517851999972, 21.500553964000062 ], [ -106.328617857999973, 21.468118010000069 ], [ -106.382990928999959, 21.42242708200007 ], [ -106.399173030999975, 21.419718051000075 ] ] ], [ [ [ -109.788355020999973, 24.131945017000078 ], [ -109.839446073999966, 24.148054029000036 ], [ -109.850008947999982, 24.158882107000068 ], [ -109.863063929999953, 24.174718037000048 ], [ -109.871399899999972, 24.187500104000037 ], [ -109.88305493699994, 24.217218142000036 ], [ -109.900555009999948, 24.267773088000069 ], [ -109.924173033999978, 24.338191133000066 ], [ -109.917226949999986, 24.366664123000078 ], [ -109.88334595699996, 24.330000170000062 ], [ -109.869172995999975, 24.309164099000043 ], [ -109.860835852999969, 24.296391085000039 ], [ -109.798608938999962, 24.191109016000041 ], [ -109.789463946999945, 24.172500185000047 ], [ -109.783617904999971, 24.157773181000039 ], [ -109.78305497599996, 24.139100145000043 ], [ -109.788355020999973, 24.131945017000078 ] ] ], [ [ [ -110.335009000999946, 24.400554002000035 ], [ -110.345290913999975, 24.405000098000073 ], [ -110.357791013999986, 24.433891178000067 ], [ -110.403899863999982, 24.563053959000058 ], [ -110.40249991799999, 24.577636124000037 ], [ -110.379381958999943, 24.586664104000079 ], [ -110.368054989999962, 24.579718021000076 ], [ -110.299999970999977, 24.484444950000068 ], [ -110.299181896999983, 24.461664111000061 ], [ -110.310699972999942, 24.43041805200005 ], [ -110.32805503899999, 24.40083596900007 ], [ -110.335009000999946, 24.400554002000035 ] ] ] ] }
        }
    ]
}