{
    "type": "FeatureCollection",
    "features": [
        {
            "type": "Feature",
            "properties": {
                "WCID": "MOZ",
                "COUNTRY": "Mozambique"
            },
            "geometry": { "type": "MultiPolygon", "coordinates": [ [ [ [ 32.133400126000026, -26.83962689599997 ], [ 32.132500245000074, -26.796672994999938 ], [ 32.126109211000028, -26.499026918999959 ], [ 32.089163291000034, -26.424999960999969 ], [ 32.072218100000043, -26.393335812999965 ], [ 32.061100176000025, -26.261390909999932 ], [ 32.101936138000042, -26.155417837999948 ], [ 32.074718086000075, -26.03722696799997 ], [ 31.998609232000035, -25.990835815999958 ], [ 31.968509147000077, -25.957835926999962 ], [ 31.919445174000032, -25.814164071999983 ], [ 31.982363259000067, -25.671390923999979 ], [ 32.006100139000068, -25.615835836999963 ], [ 32.005000265000035, -25.536946033999982 ], [ 31.988191197000049, -25.511117869999964 ], [ 31.991109105000078, -25.421108969999977 ], [ 32.009991186000036, -25.346108873999981 ], [ 32.016663348000066, -25.110555097999963 ], [ 32.018609123000033, -25.034999951999964 ], [ 32.011382246000039, -24.924999877999937 ], [ 32.002491226000075, -24.800835895999967 ], [ 31.995554028000072, -24.704446020999967 ], [ 32.016109137000058, -24.459446007999929 ], [ 32.007500252000057, -24.432226950999961 ], [ 31.96389122100004, -24.306945995999968 ], [ 31.941800212000032, -24.267654986999958 ], [ 31.885827204000066, -24.171117925999965 ], [ 31.884163228000034, -24.143617906999964 ], [ 31.877218151000079, -23.964172926999936 ], [ 31.877400206000061, -23.950646043999939 ], [ 31.84471816000007, -23.907217893999928 ], [ 31.76971823100007, -23.856390871999963 ], [ 31.720000134000031, -23.748608983999929 ], [ 31.688609236000048, -23.680281888999957 ], [ 31.686109249000026, -23.639163959999962 ], [ 31.683609263000051, -23.61360887799998 ], [ 31.651109104000057, -23.573890893999931 ], [ 31.621527188000073, -23.540835852999976 ], [ 31.550827176000041, -23.476673054999935 ], [ 31.537500117000036, -23.417226920999951 ], [ 31.545827203000044, -23.306391002999931 ], [ 31.555691194000076, -23.228226905999975 ], [ 31.561663300000077, -23.186672949999945 ], [ 31.516109165000046, -23.050835826999958 ], [ 31.302918139000042, -22.424826848999942 ], [ 31.297500245000037, -22.414764038999976 ], [ 31.306000165000057, -22.409517972999936 ], [ 31.354718134000052, -22.379446050999945 ], [ 31.400409229000047, -22.347226853999928 ], [ 31.688609236000048, -22.054445968999971 ], [ 31.926391257000034, -21.811108925999974 ], [ 32.404127217000052, -21.318399868999961 ], [ 32.416109148000032, -21.307217906999938 ], [ 32.465409156000078, -21.324999946999981 ], [ 32.488873288000036, -21.344445961999952 ], [ 32.476227175000076, -21.321855056999937 ], [ 32.412218101000065, -21.217781993999949 ], [ 32.360554061000073, -21.135555020999959 ], [ 32.376109197000062, -21.106108891999952 ], [ 32.480827164000061, -20.992226822999953 ], [ 32.521382164000045, -20.914173030999962 ], [ 32.510273292000079, -20.859446076999973 ], [ 32.500827223000044, -20.81944595799996 ], [ 32.484163329000069, -20.670281943999953 ], [ 32.502218116000051, -20.598608959999979 ], [ 32.550827119000076, -20.554999929999951 ], [ 32.665836219000028, -20.557226833999948 ], [ 32.802500133000024, -20.36278193499993 ], [ 32.873891150000077, -20.27402696799993 ], [ 32.884445139000036, -20.230835858999967 ], [ 32.892491263000068, -20.166390924999973 ], [ 32.904163231000041, -20.124172954999949 ], [ 32.982773246000079, -20.022226883999963 ], [ 33.018882149000035, -19.943335907999938 ], [ 33.059436144000074, -19.78028190699996 ], [ 32.984718183000041, -19.687226855999938 ], [ 32.850554087000035, -19.617781949999937 ], [ 32.851800141000069, -19.499999948999971 ], [ 32.840209142000049, -19.475554966999937 ], [ 32.812218112000039, -19.474099867999939 ], [ 32.785409265000055, -19.467082035999965 ], [ 32.792845187000069, -19.362435817999938 ], [ 32.840273180000054, -19.302500013999975 ], [ 32.855000184000062, -19.274173036999969 ], [ 32.884854176000033, -19.105282045999957 ], [ 32.834018101000026, -19.023055071999977 ], [ 32.78270023400006, -19.022217887999943 ], [ 32.73971817000006, -19.025835852999933 ], [ 32.714509260000057, -19.017990893999979 ], [ 32.69943608400007, -18.947917847999975 ], [ 32.704163310000069, -18.833054928999957 ], [ 32.790273283000033, -18.78889101599998 ], [ 32.832218171000079, -18.77833585299993 ], [ 32.869163253000067, -18.787499955999976 ], [ 32.893054024000037, -18.791117919999976 ], [ 32.920273249000047, -18.77673591599995 ], [ 32.949718205000067, -18.690281947999949 ], [ 32.905827207000073, -18.613335908999943 ], [ 32.889445112000033, -18.571391021999943 ], [ 32.888327134000065, -18.530555059999926 ], [ 32.91527327600005, -18.514026952999927 ], [ 32.945554075000075, -18.507082042999969 ], [ 32.996245143000067, -18.481526960999929 ], [ 33.020554171000072, -18.459726804999946 ], [ 33.071591245000036, -18.349726897999972 ], [ 33.050282268000046, -18.328890994999938 ], [ 33.020000128000049, -18.301672943999961 ], [ 32.974054055000067, -18.250099931999955 ], [ 32.999300180000034, -18.187708899999961 ], [ 32.988054180000063, -18.122226957999942 ], [ 32.977218223000079, -18.102217845999974 ], [ 32.964573284000039, -18.078335791999962 ], [ 32.954718178000064, -18.041673011999933 ], [ 32.946109125000078, -17.975000000999955 ], [ 32.952354146000062, -17.880835856999965 ], [ 32.97499115200003, -17.817635803999963 ], [ 33.015000155000052, -17.745282041999928 ], [ 33.042354161000048, -17.629308855999966 ], [ 33.040827145000037, -17.599999854999965 ], [ 33.028473226000074, -17.578055025999959 ], [ 32.978263279000032, -17.557435879999957 ], [ 32.956527160000064, -17.505490878999979 ], [ 33.042027099000052, -17.356481929999973 ], [ 33.037491148000072, -17.340973061999932 ], [ 33.017491256000028, -17.324717869999972 ], [ 32.993818247000036, -17.308054980999941 ], [ 32.987809261000052, -17.264999993999936 ], [ 32.988609230000066, -17.252226811999947 ], [ 32.987218169000073, -17.227781996999965 ], [ 32.979854164000074, -17.182917859999975 ], [ 32.968327203000058, -17.147499960999937 ], [ 32.934718118000035, -17.085555013999965 ], [ 32.917500180000047, -17.05472687699995 ], [ 32.865000130000055, -16.918608959999972 ], [ 32.892218181000032, -16.896526835999964 ], [ 32.912773290000075, -16.874446052999929 ], [ 32.926663277000046, -16.85917305199996 ], [ 32.938609165000059, -16.842226854999979 ], [ 32.948327144000075, -16.822782012999937 ], [ 32.959163268000054, -16.796945969999967 ], [ 32.966945195000051, -16.775281935999942 ], [ 32.973609143000033, -16.752226839999935 ], [ 32.981136092000042, -16.709055009999929 ], [ 32.93048224000006, -16.702708902999973 ], [ 32.799436212000046, -16.718335787999933 ], [ 32.767463275000068, -16.71803588399996 ], [ 32.728054081000039, -16.693608838999978 ], [ 32.707363353000062, -16.611735916999976 ], [ 32.579991281000048, -16.545835884999974 ], [ 32.407218128000068, -16.478335915999935 ], [ 32.377782225000033, -16.469999944999927 ], [ 32.353609151000057, -16.463608911999927 ], [ 32.293054092000034, -16.448335910999958 ], [ 32.254718116000049, -16.440281907999974 ], [ 32.230554095000059, -16.439026800999955 ], [ 32.156109216000061, -16.441391000999943 ], [ 32.084854154000027, -16.448199955999939 ], [ 32.055554038000025, -16.448473038999964 ], [ 31.983054096000046, -16.435281934999978 ], [ 31.911182293000024, -16.412708965999968 ], [ 31.902982277000035, -16.365491023999937 ], [ 31.782218163000039, -16.260835920999966 ], [ 31.715136115000064, -16.210555062999958 ], [ 31.662218143000075, -16.198608839999963 ], [ 31.577082146000066, -16.192499940999937 ], [ 31.556245070000045, -16.194999926999969 ], [ 31.510827225000071, -16.186390874999972 ], [ 31.426245105000078, -16.162363980999942 ], [ 31.40083620300004, -16.146390923999945 ], [ 31.343745049000063, -16.093335822999961 ], [ 31.342082247000064, -16.072781887999952 ], [ 31.311945114000025, -16.032499969999947 ], [ 31.27666333600007, -16.018608976999928 ], [ 31.148882228000048, -15.994655006999949 ], [ 31.071109230000047, -16.015282031999959 ], [ 30.820827110000039, -16.004446074999976 ], [ 30.422363334000067, -16.005555000999948 ], [ 30.417291277000061, -15.642146020999974 ], [ 30.415754036000067, -15.631872992999945 ], [ 30.39666324500007, -15.593608933999974 ], [ 30.388054025000031, -15.478891021999971 ], [ 30.361109223000028, -15.33742695899997 ], [ 30.332773194000026, -15.312499849999938 ], [ 30.303336117000072, -15.291390864999926 ], [ 30.271527130000038, -15.257781946999955 ], [ 30.252500210000051, -15.216108968999947 ], [ 30.227773260000049, -15.139446069999963 ], [ 30.219163202000061, -15.096108948999927 ], [ 30.213018093000073, -14.981717930999935 ], [ 30.343609151000067, -14.96778201099994 ], [ 30.504718215000025, -14.88472690499998 ], [ 30.527773310000043, -14.875835884999958 ], [ 30.602500157000065, -14.849726926999949 ], [ 30.808054095000045, -14.778054949999955 ], [ 30.912218185000029, -14.750554930999954 ], [ 31.045827231000032, -14.71639096399997 ], [ 31.094445119000056, -14.711672957999951 ], [ 31.116391289000035, -14.708335787999943 ], [ 31.304718237000031, -14.66555505599996 ], [ 31.463336200000072, -14.625282022999954 ], [ 31.484718099000077, -14.619717947999959 ], [ 31.50374518700005, -14.611526816999969 ], [ 31.534927208000056, -14.588755029999959 ], [ 31.700836086000038, -14.502081959999941 ], [ 31.730827206000072, -14.494999922999966 ], [ 31.782500130000074, -14.486946086999978 ], [ 31.80971818200004, -14.480555053999979 ], [ 31.835554057000024, -14.472782011999982 ], [ 31.855554116000064, -14.465554966999946 ], [ 31.875000132000025, -14.457781924999949 ], [ 31.950836072000072, -14.42360890599997 ], [ 32.094718146000048, -14.377226806999943 ], [ 32.230273302000057, -14.341390984999975 ], [ 32.343327071000033, -14.317217911999933 ], [ 32.37277320000004, -14.308335943999964 ], [ 32.983891224000047, -14.096672938999973 ], [ 33.22222712100006, -14.012564060999978 ], [ 33.257773264000036, -14.03610899499995 ], [ 33.30235409200003, -14.142781956999954 ], [ 33.346382218000031, -14.208890864999944 ], [ 33.435000225000067, -14.321390925999935 ], [ 33.53194515000007, -14.431663914999945 ], [ 33.633327119000057, -14.539717878999966 ], [ 33.696391217000041, -14.533054936999974 ], [ 33.777218245000029, -14.51778193499996 ], [ 33.892491207000035, -14.489446073999943 ], [ 34.129436211000041, -14.443890932999977 ], [ 34.363745107000057, -14.385972986999946 ], [ 34.384027133000075, -14.393335818999958 ], [ 34.410827095000059, -14.429726856999935 ], [ 34.426936107000074, -14.461672972999963 ], [ 34.446109208000053, -14.496108847999949 ], [ 34.467009148000045, -14.526255033999973 ], [ 34.496109104000027, -14.550555008999936 ], [ 34.522218230000078, -14.571663993999948 ], [ 34.532218176000072, -14.592782031999946 ], [ 34.541109196000036, -14.615554991999943 ], [ 34.561945098000024, -14.76639102799993 ], [ 34.588882188000071, -14.963890963999972 ], [ 34.567218154000045, -15.061108970999953 ], [ 34.563609241000051, -15.117782035999937 ], [ 34.575409117000049, -15.211526917999947 ], [ 34.586791239000036, -15.223735829999953 ], [ 34.590273249000063, -15.233054997999943 ], [ 34.593327112000054, -15.253055056999926 ], [ 34.58971819900006, -15.282781979999982 ], [ 34.566382310000051, -15.321946086999958 ], [ 34.54971824900008, -15.334026923999943 ], [ 34.528609264000067, -15.342499854999971 ], [ 34.434300280000059, -15.469581911999967 ], [ 34.426527070000077, -15.501808988999926 ], [ 34.435963249000054, -15.522081962999948 ], [ 34.443327087000057, -15.547499916999982 ], [ 34.43832711400006, -15.611664055999938 ], [ 34.42500022300004, -15.652426927999954 ], [ 34.375827117000028, -15.714173055999936 ], [ 34.346936206000066, -15.736664048999955 ], [ 34.324163245000079, -15.743608958999971 ], [ 34.30055410600005, -15.759446061999938 ], [ 34.280273253000075, -15.777500010999972 ], [ 34.266800182000054, -15.79291785199996 ], [ 34.251109259000032, -15.837781987999961 ], [ 34.254436204000058, -15.888890978999939 ], [ 34.262500266000075, -15.911526810999931 ], [ 34.286382152000044, -15.929726939999966 ], [ 34.315136103000043, -15.944726858999957 ], [ 34.331527082000036, -15.957917962999943 ], [ 34.420691254000076, -16.050135829999931 ], [ 34.428745090000064, -16.069026962999942 ], [ 34.426800153000045, -16.09209094299996 ], [ 34.407500150000033, -16.131946054999958 ], [ 34.409582215000057, -16.199172941999961 ], [ 34.437500155000066, -16.265282017999937 ], [ 34.450691259000052, -16.280699857999934 ], [ 34.467773243000067, -16.292499901999975 ], [ 34.49832712400007, -16.29347304099997 ], [ 34.525000184000078, -16.294726805999971 ], [ 34.548609155000065, -16.300973 ], [ 34.571663245000025, -16.320490931999927 ], [ 34.59416329000004, -16.37944605399997 ], [ 34.660000122000042, -16.453608965999933 ], [ 34.719991248000042, -16.508054958999935 ], [ 34.767491158000041, -16.546390934999977 ], [ 34.840973291000068, -16.62152681799995 ], [ 34.998473276000027, -16.79430885599993 ], [ 35.022909206000065, -16.813054981999926 ], [ 35.043745109000042, -16.822081956999966 ], [ 35.076109146000078, -16.823890938999966 ], [ 35.124236190000033, -16.817990917999964 ], [ 35.145136130000026, -16.836108903999957 ], [ 35.143327148000026, -16.937573015999931 ], [ 35.129718122000043, -16.963608883999939 ], [ 35.100273167000068, -16.982781983999928 ], [ 35.068473232000031, -17.000554971999975 ], [ 35.054645103000041, -17.023963950999928 ], [ 35.087773234000053, -17.127081979999957 ], [ 35.127218136000067, -17.130554937999932 ], [ 35.271945105000043, -17.135281995999947 ], [ 35.29005404000003, -17.134263929999975 ], [ 35.304300258000069, -17.108263936999947 ], [ 35.308054177000031, -17.061390992999975 ], [ 35.29666333800003, -17.015281975999926 ], [ 35.282773183000074, -16.966391004999934 ], [ 35.289163211000073, -16.867781936999961 ], [ 35.302218193000044, -16.809172987999943 ], [ 35.278054172000054, -16.704726929999936 ], [ 35.255827208000028, -16.677226911999981 ], [ 35.223118172000056, -16.646046063999961 ], [ 35.190827225000078, -16.633890962999942 ], [ 35.172773277000033, -16.624172984999973 ], [ 35.156109215000072, -16.599164067999936 ], [ 35.13861819400006, -16.549746042999971 ], [ 35.193882262000045, -16.506672950999928 ], [ 35.242982277000067, -16.473264025999981 ], [ 35.25500025000008, -16.400555038999983 ], [ 35.274163292000026, -16.304445957999974 ], [ 35.291663365000034, -16.228335929999957 ], [ 35.411663217000068, -16.126255077999929 ], [ 35.442218104000062, -16.122781951999968 ], [ 35.486936061000051, -16.132781897999962 ], [ 35.540273296000066, -16.164446045999966 ], [ 35.709445081000069, -16.110554934999982 ], [ 35.774163264000038, -16.070554983999955 ], [ 35.793563347000031, -16.055181902999948 ], [ 35.815963312000065, -16.013608836999936 ], [ 35.831663288000072, -15.854999925999948 ], [ 35.862500142000044, -15.476390867999953 ], [ 35.863118223000072, -15.458355023999957 ], [ 35.864436194000064, -15.45360885499997 ], [ 35.867218148000063, -15.419446060999974 ], [ 35.853882204000058, -15.372499859999948 ], [ 35.840191204000064, -15.32411783799995 ], [ 35.802363339000067, -15.186664012999927 ], [ 35.868045106000068, -15.019726843999933 ], [ 35.920963246000042, -14.893891007999969 ], [ 35.881100256000025, -14.884999987999947 ], [ 35.87860915400006, -14.774026941999978 ], [ 35.877500228000031, -14.699773002999962 ], [ 35.876027193000027, -14.661117844999978 ], [ 35.821391265000045, -14.602781977999939 ], [ 35.54471821900006, -14.269446092999942 ], [ 35.530000268000038, -14.251108834999968 ], [ 35.505000236000058, -14.191664042999946 ], [ 35.490827108000076, -14.155835932999935 ], [ 35.205554062000033, -13.844446048999941 ], [ 35.171100249000062, -13.796108954999966 ], [ 35.095273194000072, -13.686108880999939 ], [ 34.899436060000028, -13.522499996999954 ], [ 34.865991261000033, -13.506308842999942 ], [ 34.830827165000073, -13.496946088999948 ], [ 34.658054180000079, -13.496390871999949 ], [ 34.581663358000071, -13.373608897999929 ], [ 34.56569113900008, -13.339581891999956 ], [ 34.563045139000053, -13.30930897199994 ], [ 34.563045139000053, -13.28889099099996 ], [ 34.556109115000027, -13.046108828999934 ], [ 34.549163367000062, -13.013335922999943 ], [ 34.541663240000048, -12.96055507899996 ], [ 34.539027131000068, -12.926526898999953 ], [ 34.53416328000003, -12.841663984999968 ], [ 34.532773225000028, -12.782781952999926 ], [ 34.530000157000075, -12.758891013999971 ], [ 34.523891258000049, -12.714726933999941 ], [ 34.507773193000048, -12.653890912999941 ], [ 34.498882173000027, -12.632499959999961 ], [ 34.476527135000026, -12.595417917999953 ], [ 34.465554050000037, -12.568890870999951 ], [ 34.446800212000028, -12.511391014999958 ], [ 34.424436121000042, -12.410281959999963 ], [ 34.407491265000033, -12.319446101999972 ], [ 34.373291256000073, -12.246417931999929 ], [ 34.369445136000024, -12.227217841999959 ], [ 34.370000186000027, -12.18610896499996 ], [ 34.375273241000059, -12.155835877999948 ], [ 34.384445055000072, -12.129864047999945 ], [ 34.410827095000059, -12.080835780999962 ], [ 34.471109240000033, -11.981317947999969 ], [ 34.515000238000027, -11.923335796999936 ], [ 34.552773285000058, -11.87180888499995 ], [ 34.608191243000078, -11.776808896999967 ], [ 34.616800129000069, -11.756526870999949 ], [ 34.629436183000053, -11.714172945999962 ], [ 34.633609197000055, -11.691945982999925 ], [ 34.634163241000067, -11.667226911999933 ], [ 34.631800215000055, -11.625835900999959 ], [ 34.626245192000056, -11.60430899399995 ], [ 34.624854132000053, -11.579373 ], [ 34.703327186000024, -11.575835836999943 ], [ 34.890545040000063, -11.573890899999981 ], [ 34.957773269000029, -11.572500006999974 ], [ 34.966727153000079, -11.572108906999972 ], [ 35.011109163000071, -11.573335849999978 ], [ 35.238609103000044, -11.575835836999943 ], [ 35.437073292000036, -11.593755004999934 ], [ 35.573327164000034, -11.607081894999965 ], [ 35.648054178000052, -11.587082003999967 ], [ 35.672491281000077, -11.558335930999931 ], [ 35.733327135000025, -11.483335834999934 ], [ 35.828473303000067, -11.416873041999963 ], [ 35.938191242000073, -11.432781894999948 ], [ 36.168191169000067, -11.585835781999947 ], [ 36.177773193000064, -11.64360888799996 ], [ 36.174582203000057, -11.66881796499996 ], [ 36.187636179000037, -11.70541788099996 ], [ 36.267218159000038, -11.709446055999933 ], [ 36.29388216600006, -11.707499945999928 ], [ 36.342500222000069, -11.696108938999942 ], [ 36.375545205000037, -11.683890973999951 ], [ 36.51749122700005, -11.720346049999932 ], [ 36.557427140000073, -11.740417858999933 ], [ 36.677773165000076, -11.714726821999932 ], [ 36.725000160000036, -11.681946036999932 ], [ 36.746109145000048, -11.663890914999968 ], [ 36.766109205000078, -11.64360888799996 ], [ 36.78582712900004, -11.617499929999951 ], [ 36.826945058000035, -11.572190881999973 ], [ 36.997773274000053, -11.591390972999932 ], [ 37.11895413700006, -11.670072903999937 ], [ 37.190827113000068, -11.689999872999977 ], [ 37.267773319000071, -11.702781939999966 ], [ 37.399582268000074, -11.723190867999961 ], [ 37.473209241000063, -11.718708896999942 ], [ 37.597218157000043, -11.639717840999936 ], [ 37.693327239000041, -11.602781978999928 ], [ 37.791936139000029, -11.561108832999935 ], [ 37.816936171000066, -11.536254980999956 ], [ 37.822700238000039, -11.510072932999947 ], [ 37.810200138000027, -11.483817961999932 ], [ 37.819163243000048, -11.451108925999961 ], [ 37.865136138000025, -11.332781933999968 ], [ 37.900273244000061, -11.304446071999962 ], [ 37.934436205000054, -11.288054924999926 ], [ 37.962491273000069, -11.278917811999975 ], [ 38.032773196000051, -11.260835867999958 ], [ 38.096691243000066, -11.256326906999959 ], [ 38.173609119000048, -11.284999888999948 ], [ 38.333882172000074, -11.347917974999973 ], [ 38.357218229000068, -11.364308953999966 ], [ 38.377782222000064, -11.377226807999932 ], [ 38.416800149000039, -11.397226866999972 ], [ 38.49170921800004, -11.415308978999974 ], [ 38.533882261000031, -11.372499916999971 ], [ 38.571109143000058, -11.342781879999961 ], [ 38.635136155000055, -11.294445957999926 ], [ 38.655273174000058, -11.281108841999981 ], [ 38.672491280000031, -11.270835813999952 ], [ 38.905691249000029, -11.170135795999954 ], [ 38.93139117000004, -11.165555085999927 ], [ 39.136100213000077, -11.142364035999947 ], [ 39.182636204000062, -11.159446019999962 ], [ 39.20596320900006, -11.173191 ], [ 39.233054190000075, -11.174163970999928 ], [ 39.26250015100004, -11.169445965999955 ], [ 39.292636111000036, -11.15236398199994 ], [ 39.315282169000056, -11.135281998999972 ], [ 39.391391192000071, -11.078055056999972 ], [ 39.503891252000074, -10.997635892999938 ], [ 39.522909120000065, -10.990281945999982 ], [ 39.663891223000064, -10.946108980999952 ], [ 39.691245061000075, -10.944235793999951 ], [ 39.766936162000036, -10.920555072999946 ], [ 39.795273197000029, -10.90180894699995 ], [ 39.811945138000056, -10.88555492699993 ], [ 39.83902723500006, -10.866108911999959 ], [ 39.868327183000076, -10.848608838999951 ], [ 39.898327188000053, -10.831663983999931 ], [ 39.942218186000048, -10.81499992199997 ], [ 39.962773295000034, -10.808891022999944 ], [ 40.01971810100008, -10.77916393299995 ], [ 40.158882170000027, -10.677499996999927 ], [ 40.346109244000047, -10.564372969999965 ], [ 40.381382305000045, -10.540282038999976 ], [ 40.427773289000072, -10.499446076999959 ], [ 40.436809148000066, -10.478172973999961 ], [ 40.44777318000007, -10.471108873999981 ], [ 40.516245115000061, -10.481946003999951 ], [ 40.569445055000074, -10.597226844999966 ], [ 40.58444514100006, -10.654163939999933 ], [ 40.588336188000028, -10.686672983999927 ], [ 40.50305417900006, -10.791108982999958 ], [ 40.55138222100004, -10.799717867999959 ], [ 40.60221812900005, -10.823754987999962 ], [ 40.617218215000037, -10.841672981999977 ], [ 40.608327195000072, -10.862364044999936 ], [ 40.575273328000037, -10.878890978999948 ], [ 40.533191144000057, -10.897917898999935 ], [ 40.509227115000044, -10.929790924999963 ], [ 40.501663286000053, -10.958055036999951 ], [ 40.506245170000057, -11.031390990999967 ], [ 40.531245202000036, -11.016317813999933 ], [ 40.56381811600005, -11.024235862999944 ], [ 40.561663296000063, -11.06639096899994 ], [ 40.49860020300008, -11.176673009999945 ], [ 40.467500157000075, -11.218608844999949 ], [ 40.41721812600008, -11.281390976999944 ], [ 40.38777317000006, -11.317782014999977 ], [ 40.476663254000073, -11.404099859999974 ], [ 40.451245132000054, -11.52208202099996 ], [ 40.42889126700004, -11.574717857999929 ], [ 40.424163371000077, -11.649726839999971 ], [ 40.446109205000027, -11.736946073999945 ], [ 40.471382320000032, -11.811390952999943 ], [ 40.505554165000035, -11.957226848999937 ], [ 40.514718100000039, -12.316390897999952 ], [ 40.510000262000062, -12.43402688599997 ], [ 40.474163267000051, -12.504926890999968 ], [ 40.498891223000044, -12.520973038999955 ], [ 40.558882181000058, -12.553335901999958 ], [ 40.611109149000072, -12.708890949999955 ], [ 40.645973172000026, -12.755417888999943 ], [ 40.644027230000063, -12.777364057999932 ], [ 40.513609174000067, -12.88499993299996 ], [ 40.476663254000073, -12.884163921999971 ], [ 40.449718117000032, -12.903055054999982 ], [ 40.415836118000072, -12.935417918999974 ], [ 40.412773203000029, -12.969235880999975 ], [ 40.461109124000075, -13.016390958999978 ], [ 40.494018152000081, -13.025417933999961 ], [ 40.510827221000056, -13.006808934999981 ], [ 40.509163245000025, -12.986108986999966 ], [ 40.492736224000055, -12.955045988999927 ], [ 40.518327180000028, -12.954999888999964 ], [ 40.592909187000032, -12.970690978999926 ], [ 40.571936157000039, -13.202782022999941 ], [ 40.53944505000004, -13.312226879999969 ], [ 40.559718192000048, -13.329445990999943 ], [ 40.589854151000054, -13.37187300599993 ], [ 40.541936152000062, -13.476108844999942 ], [ 40.525836192000043, -13.51528200499996 ], [ 40.54860915200004, -13.530835799999977 ], [ 40.578891292000037, -13.567217953999943 ], [ 40.576945182000031, -13.587226897999926 ], [ 40.539300211000068, -13.64041795299994 ], [ 40.547773309000036, -13.687781907999977 ], [ 40.602773178000064, -13.896808971999974 ], [ 40.625273224000068, -13.924445950999939 ], [ 40.635827214000074, -13.946254992999968 ], [ 40.649718207000035, -14.021663957999976 ], [ 40.642773297000076, -14.070835889999955 ], [ 40.616309114000046, -14.132017915999938 ], [ 40.585000191000063, -14.148055011999929 ], [ 40.554718219000051, -14.156664064999973 ], [ 40.532773223000049, -14.167499853999971 ], [ 40.559436224000081, -14.20805502199994 ], [ 40.598609217000046, -14.245835947999979 ], [ 40.622773238000036, -14.226526892999971 ], [ 40.649163325000075, -14.197499858999947 ], [ 40.668882255000028, -14.190282033999949 ], [ 40.698882260000062, -14.183190943999932 ], [ 40.722773199000073, -14.202081909999947 ], [ 40.744718195000075, -14.274726858999941 ], [ 40.728609182000071, -14.34305496099995 ], [ 40.682291288000044, -14.365626922999979 ], [ 40.643609140000081, -14.401390994999929 ], [ 40.636109181000052, -14.484726893999948 ], [ 40.670554109000079, -14.487781929999926 ], [ 40.68999124000004, -14.435835923999946 ], [ 40.708327156000053, -14.427781919999973 ], [ 40.77506336600004, -14.404372940999963 ], [ 40.806382180000071, -14.405973045999929 ], [ 40.821109184000079, -14.423472951999941 ], [ 40.831109130000073, -14.459446067999977 ], [ 40.846109216000059, -14.69778196599998 ], [ 40.845273205000069, -14.73416395199996 ], [ 40.832218223000041, -14.781108979999942 ], [ 40.82000025800005, -14.811108984999976 ], [ 40.728463337000051, -14.889026821999948 ], [ 40.750691139000025, -14.933199953999974 ], [ 40.770273276000069, -14.97833583299996 ], [ 40.703882233000058, -15.081808918999968 ], [ 40.607500237000068, -15.115281881999977 ], [ 40.573609184000077, -15.122782008999934 ], [ 40.53784511200007, -15.124026888999936 ], [ 40.514445185000056, -15.183890943999927 ], [ 40.538327239000068, -15.194173024999941 ], [ 40.581591271000036, -15.196046044999946 ], [ 40.605554126000072, -15.163335835999931 ], [ 40.63180021200003, -15.157781986999964 ], [ 40.668327205000026, -15.191526857999975 ], [ 40.684300263000068, -15.254864038999926 ], [ 40.671663370000033, -15.289163960999929 ], [ 40.587773260000063, -15.479726864999975 ], [ 40.578327190000039, -15.498890912999968 ], [ 40.559163310000031, -15.521946008999976 ], [ 40.543327212000065, -15.534173025999962 ], [ 40.480000257000029, -15.574717967999959 ], [ 40.437909189000038, -15.602082031999942 ], [ 40.410273216000064, -15.645835901999931 ], [ 40.381109222000077, -15.694864000999928 ], [ 40.360273320000033, -15.723335816999963 ], [ 40.338609117000033, -15.744445975999952 ], [ 40.244718223000064, -15.833890940999936 ], [ 40.125545161000048, -15.939999968999928 ], [ 40.133327088000044, -15.976663921999943 ], [ 40.134018092000076, -15.997635946999935 ], [ 40.097500151000077, -16.08291795599996 ], [ 40.028054072000032, -16.177226939999969 ], [ 39.976663282000061, -16.235554927999942 ], [ 39.932773290000057, -16.243335848999948 ], [ 39.905418111000074, -16.240699907999954 ], [ 39.883891204000065, -16.239308846999961 ], [ 39.808054091000031, -16.281946079999955 ], [ 39.782636137000054, -16.305555050999942 ], [ 39.803054118000034, -16.372499970999968 ], [ 39.817500160000066, -16.412781888999973 ], [ 39.69860923400006, -16.536946038999929 ], [ 39.674436160000027, -16.555281954999941 ], [ 39.506663315000026, -16.653335804999926 ], [ 39.438891269000067, -16.685281920999955 ], [ 39.310554105000051, -16.752226839999935 ], [ 39.283882219000077, -16.76833585199995 ], [ 39.192500196000026, -16.831390898999928 ], [ 39.127491160000034, -16.870417877999955 ], [ 39.128054089000045, -16.881390962999944 ], [ 39.125000226000054, -16.937781892999965 ], [ 39.09618223700005, -16.984373036999955 ], [ 38.896945069000026, -17.039445996999973 ], [ 38.824436074000062, -17.056808941999975 ], [ 38.686100138000029, -17.070835888999966 ], [ 38.604718228000024, -17.099164039999948 ], [ 38.391936072000078, -17.176390871999956 ], [ 38.330554053000071, -17.198890917999961 ], [ 38.249718141000074, -17.22944597299994 ], [ 38.214718163000043, -17.250554957999952 ], [ 38.19811813900003, -17.269582045999982 ], [ 38.09652712500008, -17.316946000999963 ], [ 38.041663210000024, -17.329446100999974 ], [ 38.000827081000068, -17.337226853999937 ], [ 37.960827130000041, -17.344999895999933 ], [ 37.932500153000035, -17.353335865999952 ], [ 37.911663244000067, -17.360555031999979 ], [ 37.872218175000057, -17.376390961999959 ], [ 37.853054127000064, -17.38583585799995 ], [ 37.781391202000066, -17.426108890999956 ], [ 37.609163208000041, -17.525835936999954 ], [ 37.416936160000034, -17.632781980999937 ], [ 37.220554035000077, -17.750072969999962 ], [ 37.088609133000034, -17.871946009999931 ], [ 37.067500148000079, -17.894726849999927 ], [ 37.055273298000031, -17.911390910999955 ], [ 37.031800281000073, -17.952082033999943 ], [ 37.004163302000052, -17.989446043999976 ], [ 36.983891166000035, -18.001390926999932 ], [ 36.916382312000053, -17.950555018999978 ], [ 36.908191181000063, -17.909308846999977 ], [ 36.899854037000068, -17.889999958999965 ], [ 36.870136167000055, -17.87569992899995 ], [ 36.846382189000053, -17.875555089999978 ], [ 36.821518111000046, -17.894790886999942 ], [ 36.891936156000043, -17.968890934999934 ], [ 36.952218133000031, -18.029445994999946 ], [ 36.970482300000072, -18.059446 ], [ 36.943882163000069, -18.108608879999963 ], [ 36.89360918400007, -18.172781903999976 ], [ 36.77360916400005, -18.301526930999955 ], [ 36.61250026700003, -18.453890987999955 ], [ 36.502218226000025, -18.554999874999965 ], [ 36.479718180000077, -18.576946043999953 ], [ 36.418882159000077, -18.674164051999981 ], [ 36.398609185000055, -18.733335929999953 ], [ 36.320545168000024, -18.794446038999979 ], [ 36.25278217400006, -18.891390963999982 ], [ 36.158054095000068, -18.90389089599995 ], [ 36.131036204000054, -18.900072938999926 ], [ 36.12263619600003, -18.840972977999968 ], [ 36.131045089000054, -18.808754952999948 ], [ 36.123054117000038, -18.802499873999977 ], [ 36.100136150000026, -18.81305503699997 ], [ 36.059163228000045, -18.866108963999977 ], [ 35.982773244000043, -18.926945990999968 ], [ 35.878882236000038, -18.974999944999979 ], [ 35.811945196000067, -19.021390928999949 ], [ 35.74860013600005, -19.06583580299997 ], [ 35.670409216000053, -19.121946107999975 ], [ 35.656109187000027, -19.152499988999978 ], [ 35.636663339000052, -19.187226883999926 ], [ 35.576109117000044, -19.271390914999927 ], [ 35.447145155000044, -19.419026907999978 ], [ 35.363054046000059, -19.496673003999945 ], [ 35.291663365000034, -19.560835801999929 ], [ 35.112218217000077, -19.716946066999981 ], [ 34.890691221000054, -19.860417930999972 ], [ 34.847563311000044, -19.855590959999972 ], [ 34.828609146000076, -19.811672972999929 ], [ 34.812700126000038, -19.778400001999955 ], [ 34.626800242000058, -19.618608907999942 ], [ 34.633045095000057, -19.652499960999933 ], [ 34.641391292000037, -19.671945975999961 ], [ 34.683882176000054, -19.738954932999945 ], [ 34.723045110000044, -19.755973046999941 ], [ 34.742500178000057, -19.769026854999936 ], [ 34.763054114000056, -19.797364057999971 ], [ 34.776100211000028, -19.825899911999954 ], [ 34.765000224000062, -19.898890866999977 ], [ 34.759718116000045, -19.936108863999948 ], [ 34.755000278000068, -19.970281882999927 ], [ 34.750545129000045, -20.036664041999927 ], [ 34.752491239000051, -20.069446 ], [ 34.759436149000067, -20.180555000999959 ], [ 34.695136055000035, -20.381108965999942 ], [ 34.666936147000058, -20.391182001999937 ], [ 34.739300135000065, -20.557781882999961 ], [ 34.871109251000064, -20.656672918999959 ], [ 34.952982173000066, -20.695555058999958 ], [ 34.98360025900007, -20.723335870999961 ], [ 34.990273260000038, -20.727364045999934 ], [ 35.012500223000075, -20.778890957999977 ], [ 35.008891143000028, -20.806946025999935 ], [ 35.074436118000051, -20.913063937999937 ], [ 35.111800128000027, -20.933299863999935 ], [ 35.102963255000077, -20.957326924999961 ], [ 35.117909194000049, -20.974445955999954 ], [ 35.082491294000079, -21.087226810999937 ], [ 35.050282155000048, -21.097781973999929 ], [ 35.079163343000062, -21.32417298799993 ], [ 35.137500216000035, -21.431664023999929 ], [ 35.183882148000066, -21.516672950999975 ], [ 35.21166329600004, -21.553890947999946 ], [ 35.228191235000054, -21.569446083999935 ], [ 35.246800234000034, -21.590555068999947 ], [ 35.269645111000045, -21.648608967999962 ], [ 35.271936221000033, -21.679172907999941 ], [ 35.263609135000024, -21.711673066999936 ], [ 35.276736201000062, -21.819235850999974 ], [ 35.300827132000052, -21.883608867999953 ], [ 35.329991294000024, -21.993335859999945 ], [ 35.337491253000053, -22.074446027999954 ], [ 35.338191142000028, -22.103890983999975 ], [ 35.326936090000061, -22.234026903999961 ], [ 35.309863327000073, -22.310555020999971 ], [ 35.302354147000074, -22.330417952999937 ], [ 35.300282308000078, -22.357499881999956 ], [ 35.306736206000039, -22.407499945999973 ], [ 35.371663267000031, -22.466117947999976 ], [ 35.397218181000028, -22.459999996999954 ], [ 35.409436146000075, -22.41417294699994 ], [ 35.391382197000041, -22.347090898999966 ], [ 35.389300132000074, -22.298754977999977 ], [ 35.39332713400006, -22.269999852999945 ], [ 35.403054165000071, -22.221391016999974 ], [ 35.418609133000075, -22.171108985999979 ], [ 35.445827184000052, -22.120281962999968 ], [ 35.480554080000047, -22.095799932999967 ], [ 35.545273269000063, -22.232499888999939 ], [ 35.542773283000031, -22.390555090999953 ], [ 35.540554090000057, -22.41417294699994 ], [ 35.533609180000042, -22.45278200499996 ], [ 35.523745189000067, -22.47708198 ], [ 35.512554175000048, -22.505690924999953 ], [ 35.491936201000044, -22.570282037999959 ], [ 35.485836188000064, -22.629172954999945 ], [ 35.504436134000059, -22.834163964999959 ], [ 35.522354128000075, -22.915282011999977 ], [ 35.535273323000069, -22.950281989999951 ], [ 35.59726336500006, -22.919672955999943 ], [ 35.56332721800004, -23.015281972999958 ], [ 35.548473312000056, -23.041945980999969 ], [ 35.532636209000032, -23.061526944999969 ], [ 35.519163305000063, -23.083055024999965 ], [ 35.479791159000058, -23.178472933999956 ], [ 35.478882225000063, -23.217782048999936 ], [ 35.486382185000025, -23.249308900999949 ], [ 35.486800274000075, -23.281808892999948 ], [ 35.480554080000047, -23.312226818999932 ], [ 35.468609197000035, -23.341117898999983 ], [ 35.454163322000056, -23.380835881999928 ], [ 35.42110023500004, -23.489446068999939 ], [ 35.412627136000026, -23.521255056999962 ], [ 35.408336105000046, -23.612226869999972 ], [ 35.406945044000054, -23.656108982999967 ], [ 35.347773166000025, -23.695281974999943 ], [ 35.338336149000042, -23.905835885999977 ], [ 35.33971815700005, -23.969445981999968 ], [ 35.360273266000036, -23.953335795999976 ], [ 35.376318240000046, -23.857990976999929 ], [ 35.43971811800003, -23.878608949999943 ], [ 35.475273313000059, -23.825699861999965 ], [ 35.490000149000025, -23.792917903999978 ], [ 35.522909178000077, -23.795490979999954 ], [ 35.539791169000068, -23.873054932999935 ], [ 35.517082246000029, -23.921117939999931 ], [ 35.501663232000055, -23.966664027999968 ], [ 35.483254058000057, -24.048126906999983 ], [ 35.485136131000047, -24.076946069999963 ], [ 35.495554166000034, -24.102217842999949 ], [ 35.456109265000066, -24.169446070999982 ], [ 35.404718140000057, -24.244726960999969 ], [ 35.390000189000034, -24.266108860999964 ], [ 35.309436185000038, -24.365835906999962 ], [ 35.285273170000039, -24.391946038999947 ], [ 35.263400258000047, -24.408890893999967 ], [ 35.192363293000028, -24.490282023999953 ], [ 35.185482253000032, -24.522217912999963 ], [ 35.143882197000039, -24.569999957999983 ], [ 35.118327116000046, -24.588608956999963 ], [ 35.096936163000066, -24.604172977999951 ], [ 35.078891267000074, -24.615835892999939 ], [ 35.050554064000039, -24.632499954999957 ], [ 35.012218088000054, -24.654163989999972 ], [ 34.97138229400008, -24.674446015999933 ], [ 34.812773216000039, -24.743335872999978 ], [ 34.693882290000033, -24.786108891999959 ], [ 34.653882171000078, -24.799999884999977 ], [ 34.61388222000005, -24.813890877999938 ], [ 34.482600159000071, -24.85605503599993 ], [ 34.443054172000075, -24.868335864999949 ], [ 34.374163309000039, -24.891672927999934 ], [ 34.328745129000026, -24.914172973999939 ], [ 34.303891277000048, -24.926945987999943 ], [ 34.245827151000071, -24.94639099799997 ], [ 34.10805414400005, -24.986945997999953 ], [ 33.994718240000054, -25.019999865999978 ], [ 33.722636130000069, -25.109026909999955 ], [ 33.365827228000057, -25.264999878999959 ], [ 33.237909159000026, -25.327363920999971 ], [ 33.222082282000031, -25.34069986399993 ], [ 33.131900212000062, -25.381154951999974 ], [ 33.109445093000033, -25.394445968999946 ], [ 33.048609240000076, -25.430555039999945 ], [ 32.903609187000029, -25.523055041999953 ], [ 32.882082281000066, -25.538335921999931 ], [ 32.811109186000067, -25.612081917999944 ], [ 32.77027322400005, -25.68360888899997 ], [ 32.762500182000053, -25.703608947999953 ], [ 32.738609244000031, -25.775555013999963 ], [ 32.733400226000072, -25.806181984999967 ], [ 32.704436057000066, -25.825835871999971 ], [ 32.697500199000046, -25.846255025999938 ], [ 32.693882235000046, -25.874099875999946 ], [ 32.675282289000052, -25.899446080999951 ], [ 32.647918225000069, -25.926526836999983 ], [ 32.606663335000064, -25.962226870999928 ], [ 32.587154120000037, -25.972435861999941 ], [ 32.60388222000006, -26.031390983999984 ], [ 32.723054108000042, -26.179446071999962 ], [ 32.806527135000067, -26.27528190299995 ], [ 32.843191256000068, -26.29110894799993 ], [ 32.873300226000026, -26.272417974999939 ], [ 32.869163253000067, -26.23889103199997 ], [ 32.864163280000071, -26.209308948999933 ], [ 32.893327107000061, -26.126664053999946 ], [ 32.902354081000055, -26.107781972999931 ], [ 32.94561811300008, -26.087708990999943 ], [ 32.943054089000043, -26.152781896999954 ], [ 32.936945190000074, -26.198890913999946 ], [ 32.929109116000063, -26.279500011999971 ], [ 32.927773209000065, -26.353617828999973 ], [ 32.902500262000046, -26.715282032999937 ], [ 32.881936100000075, -26.819173040999942 ], [ 32.890427136000028, -26.847145965999971 ], [ 32.767773238000075, -26.851673031999951 ], [ 32.688891147000049, -26.85361796899997 ], [ 32.395000163000077, -26.859726867999939 ], [ 32.348327211000026, -26.860281916999952 ], [ 32.175000182000076, -26.851673031999951 ], [ 32.154163274000041, -26.846945973999937 ], [ 32.133400126000026, -26.83962689599997 ] ], [ [ 34.726100146000078, -12.096390916999951 ], [ 34.744127106000064, -12.085073000999955 ], [ 34.751173269000049, -12.039235892999955 ], [ 34.720827091000046, -12.038263926999946 ], [ 34.709018163000053, -12.085417832999951 ], [ 34.726100146000078, -12.096390916999951 ] ], [ [ 34.618327144000034, -12.037226917999931 ], [ 34.62811821300005, -12.030763967999974 ], [ 34.61687321900007, -12.008263921999969 ], [ 34.618327144000034, -12.037226917999931 ] ] ], [ [ [ 39.886109223000062, -16.417782029999955 ], [ 39.849445102000061, -16.415282042999934 ], [ 39.834373267000046, -16.406735854999965 ], [ 39.810554077000063, -16.360690874999932 ], [ 39.812773270000037, -16.324863938999954 ], [ 39.818054037000024, -16.312499960999958 ], [ 39.835000233000073, -16.290135869999972 ], [ 39.864300182000079, -16.277499982999927 ], [ 39.898054106000075, -16.272917931999928 ], [ 39.908745056000043, -16.274864041999933 ], [ 39.914854122000065, -16.282917877999978 ], [ 39.902909239000053, -16.412363966999976 ], [ 39.886109223000062, -16.417782029999955 ] ] ], [ [ [ 35.452218218000041, -21.787499953999941 ], [ 35.445545049000032, -21.787226871999962 ], [ 35.43555415600008, -21.783335824999938 ], [ 35.428054029000066, -21.776108947999944 ], [ 35.423191184000075, -21.762781888999939 ], [ 35.424436064000076, -21.727499943999931 ], [ 35.435827071000062, -21.65528196899993 ], [ 35.471382266000035, -21.533608920999939 ], [ 35.483327149000047, -21.525282002999973 ], [ 35.496800220000068, -21.546390987999928 ], [ 35.497218142000065, -21.581390965999958 ], [ 35.494718155000044, -21.658335831999977 ], [ 35.488327122000044, -21.685000006999928 ], [ 35.452218218000041, -21.787499953999941 ] ] ] ] }
        }
    ]
}