{
    "type": "FeatureCollection",
    "features": [
        {
            "type": "Feature",
            "properties": {
                "WCID": "NAM",
                "COUNTRY": "Namibia"
            },
            "geometry": { "type": "Polygon", "coordinates": [ [ [ 19.998900257000059, -23.308699881999928 ], [ 19.999445081000033, -23.454173008999931 ], [ 20.000000130000046, -23.647499929999981 ], [ 20.000273213000071, -23.757226921999973 ], [ 20.000536069000077, -23.864409 ], [ 20.000000130000046, -23.950835809999944 ], [ 20.000554174000058, -24.282217872999979 ], [ 20.001109224000061, -24.406390907999935 ], [ 20.001945067000065, -24.57222686199998 ], [ 20.002218150000033, -24.72416394499993 ], [ 20.001663268000073, -24.765554956999949 ], [ 20.000945106000074, -24.765408943999944 ], [ 20.001663268000073, -24.793608851999977 ], [ 20.001663268000073, -24.862782015999983 ], [ 20.001391191000039, -25.083617840999977 ], [ 20.000554174000058, -25.221672982999962 ], [ 20.000273213000071, -25.414999903999956 ], [ 20.000436157000024, -25.616490965999958 ], [ 20.000000130000046, -25.870835795999938 ], [ 20.000000130000046, -26.409172915999932 ], [ 19.999445081000033, -27.030282001999979 ], [ 19.999163281000051, -27.320281937999937 ], [ 19.998763297000039, -27.369499970999982 ], [ 19.998336155000061, -27.485835925999936 ], [ 19.998054020000041, -27.58222697399998 ], [ 19.997773226000049, -27.871946116999936 ], [ 19.998336155000061, -28.064999955999951 ], [ 19.998054020000041, -28.354726977999974 ], [ 19.996945094000068, -28.415590993999956 ], [ 19.812218174000066, -28.492499984999938 ], [ 19.789718128000061, -28.495555021999962 ], [ 19.743609111000069, -28.485555075999969 ], [ 19.567454027000053, -28.528326921999962 ], [ 19.513336102000039, -28.59499993299994 ], [ 19.493891260000055, -28.633054946999948 ], [ 19.490691217000062, -28.669026889999941 ], [ 19.466391241000053, -28.69971789899995 ], [ 19.447773190000078, -28.710835822999968 ], [ 19.41832706100007, -28.718891 ], [ 19.349027162000027, -28.735835854999948 ], [ 19.322500115000025, -28.727499884999929 ], [ 19.30138224500007, -28.725417987999947 ], [ 19.277218224000023, -28.731254977999981 ], [ 19.261245166000037, -28.744864002999975 ], [ 19.239791182000033, -28.802426890999982 ], [ 19.248054062000051, -28.831673027999955 ], [ 19.26000011800005, -28.855417953999961 ], [ 19.253891220000071, -28.899446079999962 ], [ 19.183891264000067, -28.937226837999958 ], [ 19.145827197000074, -28.954999992999944 ], [ 19.108327065000026, -28.961872985999946 ], [ 19.002500173000044, -28.92791789599994 ], [ 18.985691272000054, -28.904999928999928 ], [ 18.970418103000043, -28.877635864999945 ], [ 18.951527138000074, -28.86639103899995 ], [ 18.719163347000062, -28.83652682 ], [ 18.338336101000039, -28.884445992999929 ], [ 18.181318076000025, -28.908473053999955 ], [ 18.044445117000066, -28.868126930999949 ], [ 18.026109201000054, -28.849863936999952 ], [ 18.001391136000052, -28.8269459699999 ], [ 17.969927148000068, -28.804099918999952 ], [ 17.912500214000033, -28.779163924999978 ], [ 17.749718122000047, -28.74639101799994 ], [ 17.710827097000049, -28.756672931999958 ], [ 17.679300245000036, -28.769864034999955 ], [ 17.643400218000068, -28.773963959999946 ], [ 17.605273287000045, -28.753126883999983 ], [ 17.602218084000071, -28.720690929999932 ], [ 17.589754026000037, -28.68954595699995 ], [ 17.49777320000004, -28.694726978999938 ], [ 17.461109246000035, -28.70278198799997 ], [ 17.422009177000064, -28.715281919999939 ], [ 17.400900192000051, -28.708399874999941 ], [ 17.361382200000037, -28.53499992299993 ], [ 17.385418146000063, -28.42423592199998 ], [ 17.396109096000032, -28.402226887999973 ], [ 17.39958222100006, -28.363191023999946 ], [ 17.398054032000061, -28.342226877999963 ], [ 17.343118201000038, -28.23305510299997 ], [ 17.309573154000077, -28.22103595699997 ], [ 17.278818107000063, -28.238263952999944 ], [ 17.218809212000053, -28.242073024999968 ], [ 17.198609160000046, -28.22360886599995 ], [ 17.184373168000036, -28.200499958999956 ], [ 17.188327080000022, -28.171654979999971 ], [ 17.189018084000054, -28.114108855999973 ], [ 17.171654133000061, -28.102264053999932 ], [ 17.154136123000058, -28.09749994699996 ], [ 17.134300182000061, -28.087081911999974 ], [ 17.120418074000042, -28.065417877999948 ], [ 17.107909089000032, -28.045835907999958 ], [ 17.075763317000053, -28.030345982999961 ], [ 16.911873304000039, -28.067499941999984 ], [ 16.886945021000031, -28.092364019999934 ], [ 16.822500256000069, -28.237781993999931 ], [ 16.801600148000034, -28.362781986999948 ], [ 16.776663315000064, -28.441672962999974 ], [ 16.719509129000073, -28.499026972999957 ], [ 16.700618163000058, -28.490346003999946 ], [ 16.677118156000063, -28.464308962999951 ], [ 16.62500015300003, -28.496108897999932 ], [ 16.489591177000023, -28.578181978999964 ], [ 16.451627191000057, -28.614617944999964 ], [ 16.393327198000065, -28.591117937999968 ], [ 16.354445058000067, -28.562781908999966 ], [ 16.171945042000061, -28.399173024999982 ], [ 16.158054049000043, -28.383890971999961 ], [ 16.117218087000026, -28.337499987999934 ], [ 16.049718118000044, -28.266390937999972 ], [ 16.023191238000038, -28.241673040999956 ], [ 15.997500202000026, -28.229172940999945 ], [ 15.973327128000051, -28.214999980999949 ], [ 15.898609167000075, -28.162781897999935 ], [ 15.75639123600007, -28.034172991999981 ], [ 15.736109209000062, -28.011108844999967 ], [ 15.689718225000036, -27.95610897499995 ], [ 15.676527121000049, -27.929173058999936 ], [ 15.682709110000076, -27.909099908999963 ], [ 15.671391194000023, -27.873472964999962 ], [ 15.646945038000069, -27.843890881999982 ], [ 15.60555402600005, -27.797499896999966 ], [ 15.570273255000075, -27.76722697699995 ], [ 15.552500099000042, -27.754446083999937 ], [ 15.531045109000047, -27.730417849999981 ], [ 15.521945045000052, -27.681808845999967 ], [ 15.531109147000052, -27.661463954999931 ], [ 15.519163259000038, -27.626946103999956 ], [ 15.399163239000075, -27.45499991 ], [ 15.360554013000069, -27.40721786499995 ], [ 15.294163305000041, -27.32249995799998 ], [ 15.287218228000029, -27.302226815999973 ], [ 15.264373183000032, -27.214726954999946 ], [ 15.270000122000056, -27.162226903999965 ], [ 15.235282279000046, -26.969445980999978 ], [ 15.218609165000032, -26.936672906999945 ], [ 15.202218185000049, -26.923335957999939 ], [ 15.179163258000074, -26.918335816999956 ], [ 15.157773311000028, -26.90278202199994 ], [ 15.11250013800003, -26.783890927999948 ], [ 15.095000232000075, -26.735281923999935 ], [ 15.084027148000075, -26.696873025999935 ], [ 15.079718179000054, -26.649999914999967 ], [ 15.094027093000022, -26.634173037999972 ], [ 15.131736102000048, -26.631699872999945 ], [ 15.136800113000049, -26.674654947999954 ], [ 15.166663325000059, -26.623335906999955 ], [ 15.171800259000065, -26.601663993999978 ], [ 15.131109136000077, -26.478617989999975 ], [ 15.117363318000059, -26.447090969999977 ], [ 15.08809119700004, -26.403163929999948 ], [ 15.047500155000023, -26.374999896999952 ], [ 15.023191127000075, -26.364863996999929 ], [ 14.991945068000064, -26.353617828999973 ], [ 14.969863279000037, -26.34014609899998 ], [ 14.959163277000073, -26.308054976999983 ], [ 14.947363233000033, -26.137364055999967 ], [ 14.974300156000027, -26.130208928999934 ], [ 14.981663322000031, -26.088891006999972 ], [ 14.980836196000041, -26.063473052999939 ], [ 14.969445022000059, -26.014163992999954 ], [ 14.957500140000036, -25.987781952999967 ], [ 14.935554138000043, -25.963055002999965 ], [ 14.915273285000069, -25.936808916999951 ], [ 14.837773202000051, -25.761945987999979 ], [ 14.834300244000076, -25.741946096999982 ], [ 14.849163203000046, -25.633608991999949 ], [ 14.86471817100005, -25.590281927999968 ], [ 14.88090010600007, -25.56729103899994 ], [ 14.840973245000043, -25.418608983999945 ], [ 14.830000160000054, -25.401390877999972 ], [ 14.817082139000036, -25.379172967999978 ], [ 14.800973294000073, -25.280417886999942 ], [ 14.811663238000051, -25.25333595799998 ], [ 14.834163284000056, -25.187499963999983 ], [ 14.857773261000034, -25.087226920999967 ], [ 14.85666333000006, -25.058890890999976 ], [ 14.838891180000076, -25.011390980999977 ], [ 14.832073172000037, -24.999435871999935 ], [ 14.801109249000035, -24.956672910999941 ], [ 14.791663347000053, -24.937917899999945 ], [ 14.787082134000059, -24.893054935999942 ], [ 14.794300126000053, -24.858545969999966 ], [ 14.779300207000063, -24.804026886999964 ], [ 14.72944515000006, -24.714026871999977 ], [ 14.664718082000036, -24.642226817999983 ], [ 14.606800136000061, -24.578755023999975 ], [ 14.598054123000054, -24.55986405799996 ], [ 14.605100119000042, -24.52110898799998 ], [ 14.619300236000072, -24.486808898999982 ], [ 14.614309148000075, -24.461672911999983 ], [ 14.570836072000077, -24.35972684099994 ], [ 14.554445093000027, -24.333617882999931 ], [ 14.510827177000067, -24.251945958999954 ], [ 14.488336184000048, -24.199446075999958 ], [ 14.47277316900005, -24.153335885999979 ], [ 14.46263609500005, -24.103335820999973 ], [ 14.455273264000027, -23.98778189799998 ], [ 14.46006318600007, -23.958608851999941 ], [ 14.510273301000041, -23.826391033999982 ], [ 14.500554149000038, -23.616946048999978 ], [ 14.49500013200003, -23.582781913999952 ], [ 14.480900262000034, -23.55347291299995 ], [ 14.440836106000063, -23.451390887999935 ], [ 14.434309118000044, -23.414581926999972 ], [ 14.44124514300006, -23.392917892999947 ], [ 14.47368227000004, -23.346045954999965 ], [ 14.481563271000027, -23.373126877999937 ], [ 14.496109226000044, -23.35056396799996 ], [ 14.498054162000074, -23.324308997999935 ], [ 14.482782167000039, -23.23958203799998 ], [ 14.461391215000049, -23.166390923999927 ], [ 14.453882203000035, -23.14639991699994 ], [ 14.451109134000035, -23.142226902999937 ], [ 14.440554139000028, -23.12417295399996 ], [ 14.431109243000037, -23.099446003999958 ], [ 14.409300201000065, -23.026317921999976 ], [ 14.410554134000051, -22.96722684599996 ], [ 14.436600227000042, -22.882226970999966 ], [ 14.447773304000066, -22.926526837999972 ], [ 14.444718101000035, -22.96055501799998 ], [ 14.462363348000054, -22.997017973999959 ], [ 14.517082256000037, -22.926046051999947 ], [ 14.535000251000042, -22.881600004999939 ], [ 14.539027084000054, -22.801808979999976 ], [ 14.529163261000065, -22.719999928999982 ], [ 14.524845072000062, -22.692064050999932 ], [ 14.527400211000042, -22.667955014999961 ], [ 14.524582215000066, -22.629026941999939 ], [ 14.511391279000065, -22.552781965999941 ], [ 14.416391124000029, -22.334445959999982 ], [ 14.38763616600005, -22.283472923999966 ], [ 14.285827056000073, -22.123335825999959 ], [ 14.127782247000027, -21.940555014999973 ], [ 14.102500248000069, -21.91402696199998 ], [ 14.042500238000059, -21.862226967999959 ], [ 13.952673226000059, -21.778890900999954 ], [ 13.967982269000061, -21.734655071999953 ], [ 13.956663347000074, -21.701946035999981 ], [ 13.935554026000034, -21.67444601699998 ], [ 13.877918216000069, -21.594581902999948 ], [ 13.86597316600006, -21.548890974999949 ], [ 13.859163205000073, -21.507708839999964 ], [ 13.812773226000047, -21.43152689599998 ], [ 13.779163303000075, -21.394172943999934 ], [ 13.701109176000045, -21.296108867999976 ], [ 13.576945027000022, -21.129173038999966 ], [ 13.403891248000036, -20.862363984999945 ], [ 13.385000114000036, -20.824446098999942 ], [ 13.377782290000027, -20.804446039999959 ], [ 13.374582247000035, -20.781526898999971 ], [ 13.376391229000035, -20.73986397799996 ], [ 13.369445146000032, -20.703891028999976 ], [ 13.352773205000062, -20.64666392 ], [ 13.306391273000031, -20.555764023999927 ], [ 13.279100132000053, -20.520073041999979 ], [ 13.252636116000076, -20.469308883999929 ], [ 13.244163186000037, -20.433054972999969 ], [ 13.242218081000033, -20.402499917999933 ], [ 13.238891136000063, -20.373054962999959 ], [ 13.223891218000063, -20.307781897999973 ], [ 13.217500184000073, -20.287499870999966 ], [ 13.198891185000036, -20.238335817999939 ], [ 13.175000247000071, -20.180835793999961 ], [ 13.15971819300006, -20.154726835999952 ], [ 13.140273184000023, -20.131108979999965 ], [ 13.116663206000055, -20.11507305799995 ], [ 13.084445182000024, -20.099446005999937 ], [ 13.055691231000026, -20.073608956999976 ], [ 13.041945077000037, -20.046390904999953 ], [ 13.030282162000049, -20.001390980999929 ], [ 12.989163227000063, -19.90944603 ], [ 12.97971816300003, -19.891390906999959 ], [ 12.970273267000039, -19.873335951999934 ], [ 12.944445103000021, -19.823890937999977 ], [ 12.927773162000051, -19.789308881999943 ], [ 12.811945150000042, -19.598335933999977 ], [ 12.791391215000033, -19.564999931999978 ], [ 12.773336093000069, -19.539090965999947 ], [ 12.707218131000047, -19.417782027999976 ], [ 12.698609246000046, -19.399173029999929 ], [ 12.688054083000054, -19.369446106999931 ], [ 12.640000129000043, -19.261672936999958 ], [ 12.586945029000049, -19.152499988999978 ], [ 12.542218188000049, -19.067781913999966 ], [ 12.460836110000059, -18.928055084999983 ], [ 12.441663345000052, -18.899173057999974 ], [ 12.418745042000069, -18.866526885999974 ], [ 12.306663239000045, -18.717226916999948 ], [ 12.290836194000065, -18.700835937999955 ], [ 12.230836184000054, -18.650555079999947 ], [ 12.213609193000025, -18.638617908999947 ], [ 12.196663332000071, -18.62694610899996 ], [ 12.174582214000054, -18.612782032999974 ], [ 12.146109224000043, -18.593055055999969 ], [ 12.125554115000057, -18.577781887999947 ], [ 12.083054010000069, -18.53555503299998 ], [ 12.020836148000058, -18.471108925999943 ], [ 11.997918181000045, -18.413335819999929 ], [ 11.997500259000049, -18.374308840999959 ], [ 11.953054044000055, -18.26583594899995 ], [ 11.943891115000042, -18.247782 ], [ 11.892363198000055, -18.180554945999972 ], [ 11.847082145000059, -18.139163933999953 ], [ 11.80721814900005, -18.08625501399996 ], [ 11.767636120000077, -17.988190937999946 ], [ 11.761109132000058, -17.961808896999969 ], [ 11.741945083000076, -17.830281915999933 ], [ 11.732500187000028, -17.761946103999946 ], [ 11.716663252000046, -17.56416403399993 ], [ 11.716391175000069, -17.539173053999946 ], [ 11.717218134000063, -17.483608914999934 ], [ 11.720554131000029, -17.457226873999957 ], [ 11.73221822000005, -17.372217946999967 ], [ 11.747773188000053, -17.329726894999965 ], [ 11.749718125000072, -17.309172959999955 ], [ 11.753736074000074, -17.265008878999936 ], [ 11.752782214000035, -17.254835930999946 ], [ 11.81166324000003, -17.270281934999957 ], [ 11.88458227700005, -17.224446 ], [ 11.902218137000034, -17.205835827999977 ], [ 11.933054153000057, -17.180700008999963 ], [ 11.976109140000062, -17.164172906999966 ], [ 12.048054032000039, -17.143890880999948 ], [ 12.087773189000075, -17.136526875999948 ], [ 12.205827099000032, -17.194726955999954 ], [ 12.238054008000063, -17.215281896999954 ], [ 12.292218202000072, -17.229726933999927 ], [ 12.434163218000037, -17.212781910999979 ], [ 12.47889123300007, -17.241672989999927 ], [ 12.55721810600005, -17.243335791999982 ], [ 12.604445102000057, -17.22583588699996 ], [ 12.817918095000039, -17.107081920999974 ], [ 12.851391225000043, -17.072499864999941 ], [ 12.879791125000054, -17.040135827999961 ], [ 12.923336118000066, -17.016390901999955 ], [ 12.985836114000051, -16.991108901999951 ], [ 13.018473234000055, -16.978055093999956 ], [ 13.149163198000053, -16.954173039999944 ], [ 13.170900155000027, -16.95631796899994 ], [ 13.20889113100003, -16.973608996999928 ], [ 13.26082708000007, -16.984864048999953 ], [ 13.317782280000074, -16.978055093999956 ], [ 13.346309081000072, -16.970672983999975 ], [ 13.376036172000056, -16.970908850999933 ], [ 13.472082221000051, -17.010835878999956 ], [ 13.494300132000035, -17.025555003999955 ], [ 13.528018182000039, -17.087573040999928 ], [ 13.660691136000025, -17.218890976999944 ], [ 13.697773179000023, -17.241391022999949 ], [ 13.841391223000073, -17.323608943999943 ], [ 13.928891252000028, -17.401108858999976 ], [ 13.993218168000055, -17.423946024999964 ], [ 14.016663189000042, -17.410899927999935 ], [ 14.05110912300006, -17.419445948999964 ], [ 14.082918111000026, -17.42999993799998 ], [ 14.171391278000044, -17.421117970999944 ], [ 14.194718115000057, -17.411390939999933 ], [ 14.218054004000066, -17.386945956999966 ], [ 14.361663331000045, -17.387217865999958 ], [ 14.448054098000057, -17.387500000999978 ], [ 14.634718077000059, -17.388335843999982 ], [ 14.993891178000069, -17.389726904999975 ], [ 15.496945180000068, -17.389445943999931 ], [ 15.583054148000031, -17.389163975999963 ], [ 15.956663234000075, -17.386673041999927 ], [ 16.003327133000028, -17.386673041999927 ], [ 16.606109187000072, -17.390835830999947 ], [ 17.278827159000059, -17.39222689099995 ], [ 17.510554093000053, -17.391946097999949 ], [ 17.561663251000027, -17.390835830999947 ], [ 17.733891245000052, -17.388890893999928 ], [ 18.000545067000076, -17.386172977999934 ], [ 18.11721814200007, -17.386945956999966 ], [ 18.188891126000044, -17.387217865999958 ], [ 18.39000014100003, -17.386945956999966 ], [ 18.451536051000062, -17.389835869999956 ], [ 18.513336158000072, -17.472782009999946 ], [ 18.578327089000027, -17.57222692199997 ], [ 18.641945063000037, -17.648054981999962 ], [ 18.753682203000039, -17.745282041999928 ], [ 18.804300181000031, -17.768891012999973 ], [ 18.919445068000073, -17.816390923999961 ], [ 18.983891175000053, -17.825972947999958 ], [ 19.025836062000053, -17.829999948999955 ], [ 19.05582718200003, -17.827781929999958 ], [ 19.11680016400004, -17.819445959999939 ], [ 19.133609232000026, -17.804372950999948 ], [ 19.175282211000024, -17.80110887 ], [ 19.245554076000076, -17.806255022999949 ], [ 19.298745131000032, -17.824999975999958 ], [ 19.337218234000034, -17.843890941999973 ], [ 19.413327089000063, -17.861117931999956 ], [ 19.445827080000072, -17.862781907999931 ], [ 19.559163319000049, -17.86749991399995 ], [ 19.701382256000045, -17.870554949999928 ], [ 19.79791814400005, -17.863755046999927 ], [ 19.818609207000065, -17.85805501699997 ], [ 19.920554105000065, -17.857226884999932 ], [ 19.946245141000077, -17.863335951999943 ], [ 19.971318096000061, -17.880135799999948 ], [ 20.016945154000041, -17.890835802999959 ], [ 20.098891165000055, -17.896390992999955 ], [ 20.128891170000031, -17.894446055999936 ], [ 20.244718176000049, -17.880135799999948 ], [ 20.270836187000043, -17.861255059999962 ], [ 20.321318210000072, -17.857226884999932 ], [ 20.445200225000065, -17.901872924999964 ], [ 20.492554122000058, -17.941890980999972 ], [ 20.553682169000069, -17.9830550099999 ], [ 20.595554134000054, -17.981390866999959 ], [ 20.63847316600004, -17.97847295899993 ], [ 20.75194519300004, -17.996108985999967 ], [ 20.78158226100004, -18.010199971999953 ], [ 20.854163340000071, -18.016391012999975 ], [ 20.889718200000061, -17.994446016999973 ], [ 20.953327122000076, -17.968263968999963 ], [ 21.021382141000061, -17.953335798999944 ], [ 21.138609093000071, -17.934446006999963 ], [ 21.165863354000066, -17.931464060999929 ], [ 21.236873161000062, -17.938890929999957 ], [ 21.263327118000063, -17.956391002999965 ], [ 21.379354116000059, -18.014890986999944 ], [ 21.755409209000049, -17.947346090999929 ], [ 22.290273204000073, -17.850000007999938 ], [ 22.564163291000057, -17.798891017999949 ], [ 22.881109202000061, -17.739446057999942 ], [ 22.91000011400007, -17.733335817999944 ], [ 22.996391217000053, -17.716946011999937 ], [ 23.28471812600003, -17.66249985099995 ], [ 23.289163216000077, -17.661108957999943 ], [ 23.476109162000057, -17.625835897999934 ], [ 23.82082716900004, -17.560282038999958 ], [ 24.029027106000058, -17.51958203199996 ], [ 24.23909117900007, -17.478426886999955 ], [ 24.38124507200007, -17.473473013999978 ], [ 24.44013615700004, -17.482364033999943 ], [ 24.502500199000053, -17.508055070999944 ], [ 24.542218182000056, -17.524999925999964 ], [ 24.565418117000036, -17.533473023999932 ], [ 24.590273310000043, -17.533890945999929 ], [ 24.619163215000071, -17.505835877999971 ], [ 24.63819114100005, -17.496672948999958 ], [ 24.663891230000047, -17.49361791299998 ], [ 24.708609187000036, -17.498335918999942 ], [ 24.817773250000073, -17.515555029999973 ], [ 24.912500155000032, -17.540835855999944 ], [ 24.970000179000067, -17.559717936999959 ], [ 24.984300209000025, -17.583891009999945 ], [ 25.030000189000077, -17.609999967999954 ], [ 25.065282302000071, -17.624726804999966 ], [ 25.25194510700004, -17.783055088999959 ], [ 25.26442710200007, -17.802245958999947 ], [ 25.252382139000076, -17.795708912999942 ], [ 25.179373248000047, -17.782081949999963 ], [ 25.136391183000057, -17.796564033999971 ], [ 25.099091211000029, -17.827845967999963 ], [ 25.066391228000043, -17.832226852999952 ], [ 25.000000184000044, -17.826046037999959 ], [ 24.972773248000067, -17.821108928999934 ], [ 24.936109127000066, -17.81389093699994 ], [ 24.832773168000074, -17.837708952999947 ], [ 24.679163225000025, -17.944173037999974 ], [ 24.566318165000041, -18.054235808999977 ], [ 24.524163227000031, -18.059999875999949 ], [ 24.497909095000068, -18.059308871999974 ], [ 24.473609119000059, -18.032781991999968 ], [ 24.451945085000034, -17.999172906999945 ], [ 24.439791157000059, -17.978055036999933 ], [ 24.41694510700006, -17.953755061999971 ], [ 24.38833616200003, -17.945835839999972 ], [ 24.363054163000072, -17.949163957999929 ], [ 24.268891192000069, -18.013335808999955 ], [ 24.006663350000053, -18.167781930999979 ], [ 23.967218114000048, -18.184999868999967 ], [ 23.912218077000034, -18.236946042999932 ], [ 23.88693607700003, -18.264764070999945 ], [ 23.87041819600006, -18.263055000999941 ], [ 23.84402710300003, -18.2899999699999 ], [ 23.829854143000034, -18.315000001999977 ], [ 23.791663342000049, -18.354172994999942 ], [ 23.719163232000028, -18.425282043999971 ], [ 23.650554170000078, -18.46971786499995 ], [ 23.613254030000064, -18.485164036999947 ], [ 23.582427066000037, -18.475208849999945 ], [ 23.563891158000047, -18.437226925999937 ], [ 23.555063338000025, -18.361664068999971 ], [ 23.55416328900003, -18.326117925999938 ], [ 23.519718193000074, -18.266946047999966 ], [ 23.503054131000056, -18.248335875999942 ], [ 23.453473162000023, -18.203608866999957 ], [ 23.431109238000033, -18.193890888999931 ], [ 23.398054030000026, -18.176108848999945 ], [ 23.363054052000052, -18.127226930999939 ], [ 23.330000184000028, -18.076391022999928 ], [ 23.325836055000025, -18.044999956999959 ], [ 23.316391158000044, -18.015417873999979 ], [ 23.297109093000074, -17.995946041999957 ], [ 23.287109147000024, -17.99633580099993 ], [ 23.077773294000053, -18.004445962999966 ], [ 22.637218115000053, -18.086672935999957 ], [ 22.500000157000045, -18.111263930999939 ], [ 22.262218136000058, -18.153890937999961 ], [ 21.816945119000025, -18.238335930999938 ], [ 21.462500249000072, -18.304446012999961 ], [ 21.235554017000027, -18.311945971999933 ], [ 20.993291199000055, -18.318417974999932 ], [ 20.993609208000066, -18.338608973999953 ], [ 20.994163252000078, -18.475564074999966 ], [ 20.994163252000078, -18.695281920999946 ], [ 20.993527065000023, -19.171946003999949 ], [ 20.993073269000035, -19.998217927999974 ], [ 20.993327073000046, -20.179172991999963 ], [ 20.992809239000053, -20.82427292899996 ], [ 20.993027169000072, -20.992454977999955 ], [ 20.992500115000041, -21.018890997999961 ], [ 20.992500115000041, -21.322226877999981 ], [ 20.992773197000076, -21.597226895999938 ], [ 20.992773197000076, -21.941946075999965 ], [ 20.992773197000076, -21.969446094999967 ], [ 20.991945065000039, -21.996946112999979 ], [ 20.917773268000076, -21.998335832999942 ], [ 20.649718160000077, -21.99999997599997 ], [ 20.308327098000063, -22.001390868999977 ], [ 20.000473205000048, -22.001564038999959 ], [ 19.996663295000076, -22.004999948999966 ], [ 19.996109251000064, -22.087500003999935 ], [ 19.997218177000036, -22.266945990999943 ], [ 19.997591171000067, -22.499999947999981 ], [ 19.997500144000071, -22.722499914999958 ], [ 19.997773226000049, -22.943335906999948 ], [ 19.998282176000032, -22.95991782599998 ], [ 19.998609237000039, -22.97083592499996 ], [ 19.998891205000064, -23.122781892999967 ], [ 19.998900257000059, -23.308699881999928 ] ] ] }
        }
    ]
}