{
    "type": "FeatureCollection",
    "features": [
        {
            "type": "Feature",
            "properties": {
                "WCID": "NCA",
                "COUNTRY": "Nicaragua"
            },
            "geometry": { "type": "Polygon", "coordinates": [ [ [ -83.131854981999936, 14.992982119000033 ], [ -83.196672909999961, 14.956664170000067 ], [ -83.325981871999943, 14.912636045000056 ], [ -83.349455055999954, 14.901109084000041 ], [ -83.368899897999938, 14.882218118000026 ], [ -83.401672971999972, 14.841664123000044 ], [ -83.419108839999978, 14.809445093000022 ], [ -83.373890985999935, 14.746945097000037 ], [ -83.342154921999963, 14.730900122000037 ], [ -83.325008899999943, 14.741809002000025 ], [ -83.278064039999947, 14.646664175000069 ], [ -83.240846042999976, 14.552218063000055 ], [ -83.207364027999972, 14.446109036000053 ], [ -83.19445505799996, 14.387500086000045 ], [ -83.1877818899999, 14.353191112000047 ], [ -83.186954930999946, 14.323891164000031 ], [ -83.19236394099994, 14.299582136000026 ], [ -83.214317821999941, 14.251664136000045 ], [ -83.257782013999986, 14.178609145000053 ], [ -83.344726824999952, 14.053744938000023 ], [ -83.376399857999957, 14.024444990000063 ], [ -83.398335800999973, 14.007636089000073 ], [ -83.426117954999938, 13.96763597000006 ], [ -83.444455043999938, 13.921664081000074 ], [ -83.47278202199999, 13.818336002000024 ], [ -83.47778199399994, 13.796945050000033 ], [ -83.493899890999955, 13.726664132000053 ], [ -83.513335848999986, 13.63555401800005 ], [ -83.551117947999956, 13.450554015000023 ], [ -83.558064030999958, 13.39778205600004 ], [ -83.563064003999955, 13.356245031000071 ], [ -83.564999887999988, 13.276109008000049 ], [ -83.563899846999959, 13.229309154000077 ], [ -83.560290934999955, 13.188327012000059 ], [ -83.557235898999977, 13.167218027000047 ], [ -83.532790915999954, 13.043609094000033 ], [ -83.501955067999972, 12.903473061000057 ], [ -83.505499941999972, 12.858609091000062 ], [ -83.51639993699996, 12.832217999000022 ], [ -83.521117942999979, 12.812773157000038 ], [ -83.539463916999978, 12.653053980000038 ], [ -83.539455031999978, 12.601809035000031 ], [ -83.532917817999987, 12.558473087000039 ], [ -83.521117942999979, 12.526664100000062 ], [ -83.504455053999948, 12.498053982000044 ], [ -83.482846004999942, 12.465900163000072 ], [ -83.478481882999972, 12.423891070000025 ], [ -83.495073022999975, 12.390936109000052 ], [ -83.571117838999953, 12.390000018000023 ], [ -83.600282000999982, 12.411109003000036 ], [ -83.63270890199999, 12.47958211100007 ], [ -83.635008895999988, 12.510000038000044 ], [ -83.62413589199997, 12.55669109400003 ], [ -83.575008885999978, 12.565482202000055 ], [ -83.561808897999981, 12.585136089000059 ], [ -83.537091, 12.770691141000043 ], [ -83.540699912999969, 12.79097316800005 ], [ -83.558890988999963, 12.805827074000035 ], [ -83.602917941999976, 12.818191051000042 ], [ -83.644035870999971, 12.797009144000072 ], [ -83.645708898999942, 12.750209123000047 ], [ -83.62090885899994, 12.739164121000044 ], [ -83.594181986999956, 12.685418017000075 ], [ -83.591399865999961, 12.624718118000033 ], [ -83.696254959999976, 12.552782110000066 ], [ -83.735835815999963, 12.481109126000035 ], [ -83.706390859999942, 12.328336032000038 ], [ -83.669726906999983, 12.278327083000022 ], [ -83.668063937999989, 12.234164176000036 ], [ -83.676954957999953, 12.050554061000071 ], [ -83.722499872999947, 12.068053966000036 ], [ -83.739181871999961, 12.044718077000027 ], [ -83.749726808999981, 12.013891113000057 ], [ -83.764508965999937, 11.93187318400004 ], [ -83.800417876999973, 11.895836030000055 ], [ -83.828090897999971, 11.875827086000072 ], [ -83.801390847999983, 11.832773105000058 ], [ -83.77583576699999, 11.802635972000076 ], [ -83.742335813999944, 11.807082068000057 ], [ -83.746126780999987, 11.831944973000077 ], [ -83.728055062999942, 11.86110913400006 ], [ -83.697990851999975, 11.842153963000044 ], [ -83.676390854999966, 11.765553929000077 ], [ -83.670835832999956, 11.743326966000041 ], [ -83.655008955999961, 11.662218138000071 ], [ -83.653446065999958, 11.602809053000044 ], [ -83.67930893099998, 11.600418031000061 ], [ -83.758681865999961, 11.554444968000041 ], [ -83.841672933999973, 11.420827038000027 ], [ -83.857790998999974, 11.392500060000032 ], [ -83.866954932999988, 11.363609149000069 ], [ -83.87167293899995, 11.33721805600004 ], [ -83.871399856999972, 11.314164134000066 ], [ -83.855835835999983, 11.216109110000048 ], [ -83.84750891799996, 11.174582144000055 ], [ -83.81195506399996, 11.080553954000038 ], [ -83.788073009999948, 11.038891034000073 ], [ -83.761126867999963, 10.996391097000071 ], [ -83.742508816999987, 10.973609084000032 ], [ -83.717226816999982, 10.943054029000052 ], [ -83.654308898999943, 10.929773071000056 ], [ -83.645799925999938, 10.924845015000074 ], [ -83.662226779999969, 10.888609042000041 ], [ -83.65472682099994, 10.824445070000024 ], [ -83.660146055999974, 10.801945024000077 ], [ -83.684172949999947, 10.787082066000039 ], [ -83.751708960999963, 10.770482042000026 ], [ -83.760846073999971, 10.771364153000036 ], [ -83.772381919999987, 10.770254054000077 ], [ -83.827517910999973, 10.746109143000069 ], [ -83.870008963999965, 10.722500172000025 ], [ -83.920626941999956, 10.709691115000055 ], [ -83.958617917999959, 10.734445055000037 ], [ -83.997363935999942, 10.766527124000049 ], [ -84.040555044999962, 10.778053918000069 ], [ -84.08029096599995, 10.766945046000046 ], [ -84.115981947999956, 10.763745003000054 ], [ -84.158054910999965, 10.784109005000062 ], [ -84.193272985999954, 10.783644982000055 ], [ -84.225045930999954, 10.811909095000033 ], [ -84.273345977999952, 10.898609155000031 ], [ -84.343063966999978, 10.953891159000023 ], [ -84.674454914999956, 11.078053968000063 ], [ -84.902790865999975, 10.940836010000055 ], [ -85.087781983999946, 11.010000122000065 ], [ -85.13361791899996, 11.027218060000052 ], [ -85.161390851999954, 11.039445078000028 ], [ -85.16471779699998, 11.042427024000062 ], [ -85.173754997999936, 11.044864146000066 ], [ -85.221572916999946, 11.065253963000032 ], [ -85.266399837999984, 11.084445001000063 ], [ -85.359590843999968, 11.122218048000036 ], [ -85.420835901999965, 11.126391062000039 ], [ -85.526945934999958, 11.166109046000031 ], [ -85.564181868999981, 11.209718077000048 ], [ -85.613546081999971, 11.21284503000004 ], [ -85.69238190499999, 11.076064104000068 ], [ -85.734655027999963, 11.087982165000028 ], [ -85.785564025999975, 11.11368208600004 ], [ -85.80020888699994, 11.153536024000061 ], [ -85.822508940999967, 11.190136107000058 ], [ -85.920973001999982, 11.29986410500004 ], [ -86.048335852999969, 11.401944957000069 ], [ -86.141108936999956, 11.465827129000047 ], [ -86.17556392399996, 11.518891114000041 ], [ -86.265290855999979, 11.580827008000028 ], [ -86.382646050999938, 11.670553941000037 ], [ -86.400008827999955, 11.686391044000061 ], [ -86.496946040999944, 11.759445030000052 ], [ -86.504635766999968, 11.764309049000076 ], [ -86.519181888999981, 11.800000031000025 ], [ -86.550290987999972, 11.845273205000069 ], [ -86.637855053999942, 11.967982088000042 ], [ -86.660845943999959, 11.990836018000039 ], [ -86.671399933999965, 12.000000120000038 ], [ -86.676390853999976, 12.006664236000063 ], [ -86.706390858999953, 12.053054047000046 ], [ -86.724164013999939, 12.08666413800006 ], [ -86.751108815999942, 12.146391065000046 ], [ -86.766535875999978, 12.18305401300006 ], [ -86.779872992999969, 12.206182198000022 ], [ -86.921108899999979, 12.292500043000075 ], [ -86.966946007999979, 12.319445012000074 ], [ -87.020846003999964, 12.353053930000044 ], [ -87.08278189899994, 12.398609070000077 ], [ -87.139726872999972, 12.443891129000065 ], [ -87.122081959999946, 12.457373085000029 ], [ -87.141954949999956, 12.46416410300003 ], [ -87.196945934999974, 12.500553968000077 ], [ -87.356808944999955, 12.631527073000029 ], [ -87.441390897999952, 12.732773088000044 ], [ -87.597226906999936, 12.840827051000076 ], [ -87.640017863999958, 12.870282065000026 ], [ -87.68982682099994, 12.917709053000067 ], [ -87.660772964999978, 12.984027006000076 ], [ -87.585835900999939, 13.050554004000048 ], [ -87.557499870999948, 13.051245008000024 ], [ -87.531108945999961, 13.037773111000035 ], [ -87.510281927999984, 13.021526971000071 ], [ -87.46770890099998, 12.970900108000023 ], [ -87.462508935999949, 12.942635995000046 ], [ -87.418063893999943, 12.915836033000062 ], [ -87.392090889999963, 12.908473201000049 ], [ -87.371945991999951, 12.906109002000051 ], [ -87.297781906999944, 12.922118101000024 ], [ -87.326946067999984, 12.926945072000024 ], [ -87.310290890999966, 12.976391092000028 ], [ -87.301390985999944, 12.986600083000042 ], [ -87.093063978999965, 12.99860900300007 ], [ -87.048755059999962, 12.985173148000058 ], [ -87.022781888999987, 12.988191136000069 ], [ -86.955699840999955, 13.036664185000063 ], [ -86.924726864999968, 13.082773202000055 ], [ -86.913346083999954, 13.163326980000022 ], [ -86.918063921999988, 13.195000013000026 ], [ -86.902581875999942, 13.248609157000033 ], [ -86.85999996399994, 13.283336052000038 ], [ -86.817508911999937, 13.29840017600003 ], [ -86.775699977999977, 13.283745089000035 ], [ -86.745281883999951, 13.260827122000023 ], [ -86.735772949999955, 13.263609075000033 ], [ -86.696054966999952, 13.298818098000027 ], [ -86.696117830999981, 13.353891058000045 ], [ -86.710846007999976, 13.434164209000073 ], [ -86.727054932999977, 13.465473132000056 ], [ -86.750835900999959, 13.567782140000077 ], [ -86.764208891999942, 13.710691075000057 ], [ -86.758599889999971, 13.754009086000053 ], [ -86.710772917999975, 13.774654049000048 ], [ -86.566390946999945, 13.779164183000034 ], [ -86.469999898999959, 13.764164097000048 ], [ -86.40111792099998, 13.749164178000058 ], [ -86.325573000999952, 13.763473093000073 ], [ -86.1323639299999, 13.995209079000063 ], [ -86.119664004999947, 14.030691184000034 ], [ -86.070146067999985, 14.055973184000038 ], [ -86.008608816999981, 14.055173215000025 ], [ -86.020281957999941, 14.005344979000029 ], [ -85.996126821999951, 13.980273198000077 ], [ -85.968335783999976, 13.95889113100003 ], [ -85.828899973999967, 13.859445046000076 ], [ -85.794308865999938, 13.836527079000064 ], [ -85.736390919999963, 13.828609030000052 ], [ -85.728663978999975, 13.833091169000056 ], [ -85.724726831999988, 13.864509057000078 ], [ -85.748272938999946, 13.885064166000063 ], [ -85.72889984599999, 13.962573133000035 ], [ -85.557717912999976, 14.043536116000041 ], [ -85.543964047999964, 14.045718093000062 ], [ -85.436954971999967, 14.122500014000025 ], [ -85.416535817999943, 14.145691064000061 ], [ -85.409454953999955, 14.171244972000068 ], [ -85.378199842999948, 14.235553951000043 ], [ -85.322226833999935, 14.276245073000041 ], [ -85.29833589499998, 14.289445062000027 ], [ -85.276399951999963, 14.295827043000031 ], [ -85.254181872999936, 14.298336082000048 ], [ -85.217226899999957, 14.296454010000048 ], [ -85.180281985999954, 14.314718009000046 ], [ -85.1591269, 14.335653992000061 ], [ -85.15966401299994, 14.35965406300005 ], [ -85.17945502699996, 14.385273182000049 ], [ -85.18055506799999, 14.426664194000068 ], [ -85.146390933999953, 14.489164190000054 ], [ -85.080354946999989, 14.544509059000063 ], [ -85.061108923999939, 14.553336041000023 ], [ -85.027454911999939, 14.58090009700004 ], [ -85.018926828999952, 14.598236052000061 ], [ -85.03000887799999, 14.670000064000021 ], [ -84.995281982999984, 14.726109027000064 ], [ -84.984364050999943, 14.741309105000028 ], [ -84.910008857999969, 14.80666414500007 ], [ -84.826390991999972, 14.829027063000069 ], [ -84.797017952999965, 14.813891190000049 ], [ -84.688608931999966, 14.67833603400004 ], [ -84.480490968999959, 14.618817983000042 ], [ -84.260281943999985, 14.681944946000044 ], [ -84.196673020999981, 14.716391048000048 ], [ -84.035281989999987, 14.754445056000066 ], [ -83.978617809999946, 14.755282073000046 ], [ -83.93806398299995, 14.753891180000039 ], [ -83.864454946999956, 14.777773066000066 ], [ -83.84237299099999, 14.785553987000071 ], [ -83.566955050999979, 14.917917985000031 ], [ -83.546399941999937, 14.948327027000062 ], [ -83.485835829999985, 15.006109017000028 ], [ -83.384172899999953, 15.022218030000033 ], [ -83.358899952999934, 15.01500003700005 ], [ -83.324172888999954, 15.004718124000021 ], [ -83.229717892999986, 14.981664203000037 ], [ -83.158890977999988, 14.98721805200006 ], [ -83.131854981999936, 14.992982119000033 ] ] ] }
        }
    ]
}