{
    "type": "FeatureCollection",
    "features": [
        {
            "type": "Feature",
            "properties": {
                "WCID": "NLD",
                "COUNTRY": "Netherlands"
            },
            "geometry": { "type": "MultiPolygon", "coordinates": [ [ [ [ 3.764163277000023, 51.345273158000055 ], [ 3.864582166000048, 51.339582181000026 ], [ 3.961391136000032, 51.369718141000078 ], [ 4.212400135000053, 51.370553984000026 ], [ 4.238900193000063, 51.350427023000066 ], [ 4.221663312000032, 51.33541805200008 ], [ 4.167218157000036, 51.297364211000058 ], [ 4.127782140000022, 51.278882115000044 ], [ 4.062218223000059, 51.252218107000033 ], [ 3.952500116000067, 51.214436008000064 ], [ 3.895418182000071, 51.205691168000044 ], [ 3.793818116000068, 51.230273111000031 ], [ 3.788745052000024, 51.262845019000054 ], [ 3.669163289000039, 51.292773108000063 ], [ 3.60000018300002, 51.304164114000059 ], [ 3.521736173000022, 51.283264174000067 ], [ 3.522982227000057, 51.258953972000029 ], [ 3.474718223000025, 51.242636083000036 ], [ 3.439863252000066, 51.244782186000066 ], [ 3.388327120000042, 51.268673124000031 ], [ 3.380136156000049, 51.275273202000051 ], [ 3.37360916800003, 51.310000098000046 ], [ 3.370863257000053, 51.373854107000057 ], [ 3.40666320400004, 51.385554070000069 ], [ 3.528891133000059, 51.411664202000054 ], [ 3.550282253000034, 51.409718092000048 ], [ 3.639718166000023, 51.381664197000077 ], [ 3.734373155000071, 51.350764143000049 ], [ 3.764163277000023, 51.345273158000055 ] ] ], [ [ [ 3.81250020400006, 51.744718120000073 ], [ 3.824863176000065, 51.742291223000052 ], [ 3.881945110000061, 51.743891161000079 ], [ 3.964027077000026, 51.733535990000064 ], [ 4.004445117000046, 51.710000109000077 ], [ 4.066945113000031, 51.679445054000041 ], [ 4.104163278000044, 51.661944981000033 ], [ 4.106145095000045, 51.650982123000063 ], [ 4.090973180000049, 51.64034498500007 ], [ 4.066391237000062, 51.62971807200006 ], [ 4.01430910800002, 51.61874498800006 ], [ 3.973745055000052, 51.61458219900004 ], [ 3.901527080000051, 51.634445131000064 ], [ 3.76194509000004, 51.675000131000047 ], [ 3.712654135000037, 51.674673237000036 ], [ 3.693682200000069, 51.68513603100007 ], [ 3.688954136000063, 51.71013606300005 ], [ 3.716182246000074, 51.733954080000046 ], [ 3.780836056000055, 51.746391147000054 ], [ 3.81250020400006, 51.744718120000073 ] ] ], [ [ [ 5.545554077000077, 52.346800117000043 ], [ 5.559445070000038, 52.324027157000046 ], [ 5.529927192000059, 52.283264117000044 ], [ 5.422218059000045, 52.264164274000052 ], [ 5.400973287000056, 52.269435989000044 ], [ 5.363745064000057, 52.29083599300003 ], [ 5.330554069000073, 52.309164198000076 ], [ 5.305554037000036, 52.317773251000062 ], [ 5.278609235000033, 52.325827086000061 ], [ 5.248609230000056, 52.332500087000028 ], [ 5.202363253000044, 52.339718079000079 ], [ 5.172845040000027, 52.33596416000006 ], [ 5.148954101000072, 52.343054077000033 ], [ 5.136663213000077, 52.381518128000039 ], [ 5.174654022000027, 52.399673162000056 ], [ 5.203054089000034, 52.414718176000065 ], [ 5.296391108000023, 52.451664264000044 ], [ 5.381945026000039, 52.484445049000044 ], [ 5.413100225000051, 52.49331813200007 ], [ 5.45134517300005, 52.509473244000048 ], [ 5.454900106000025, 52.522582206000038 ], [ 5.478054107000048, 52.548882103000039 ], [ 5.573336062000067, 52.588336057000049 ], [ 5.643609101000038, 52.601109072000042 ], [ 5.834373171000038, 52.565273250000075 ], [ 5.860700226000063, 52.530909124000061 ], [ 5.851527071000021, 52.487500085000079 ], [ 5.831109090000041, 52.463336064000032 ], [ 5.79173610600003, 52.426318059000039 ], [ 5.759027070000059, 52.413891217000071 ], [ 5.720836101000032, 52.413054033000037 ], [ 5.693891132000033, 52.40805406000004 ], [ 5.631663212000035, 52.384164127000076 ], [ 5.61194512000003, 52.369718084000056 ], [ 5.570209110000064, 52.366173210000056 ], [ 5.545554077000077, 52.346800117000043 ] ] ], [ [ [ 4.764718103000064, 52.990273126000034 ], [ 4.753609231000041, 52.988609150000059 ], [ 4.738609145000055, 52.989718076000031 ], [ 4.724163270000076, 52.99540905300006 ], [ 4.715836185000057, 53.003882152000074 ], [ 4.708336058000043, 53.020554092000054 ], [ 4.707363254000029, 53.040136062000045 ], [ 4.713891248000039, 53.056109120000031 ], [ 4.721663284000044, 53.066109066000081 ], [ 4.743336035000027, 53.086109125000064 ], [ 4.856527100000051, 53.18360909900008 ], [ 4.868891246000032, 53.188327105000042 ], [ 4.88354515900005, 53.183464260000051 ], [ 4.912218142000029, 53.141936121000072 ], [ 4.910553998000069, 53.094582223000032 ], [ 4.90333617400006, 53.084164188000045 ], [ 4.876663282000038, 53.056936078000035 ], [ 4.858609165000075, 53.039164264000078 ], [ 4.80471822100003, 53.006945067000061 ], [ 4.787500116000047, 52.998882179000077 ], [ 4.764718103000064, 52.990273126000034 ] ] ], [ [ [ 5.213054035000027, 53.35000010400006 ], [ 5.200554103000059, 53.349445054000057 ], [ 5.186663278000026, 53.349718136000035 ], [ 5.169373255000039, 53.359091116000059 ], [ 5.170000222000056, 53.375691140000072 ], [ 5.18000016700006, 53.381100150000066 ], [ 5.218054008000024, 53.393882217000055 ], [ 5.228054121000071, 53.396664170000065 ], [ 5.539718093000033, 53.449436130000038 ], [ 5.556663284000024, 53.45194500100007 ], [ 5.579027207000024, 53.448464165000075 ], [ 5.573191223000038, 53.435618060000081 ], [ 5.561109213000066, 53.430273255000031 ], [ 5.353336082000055, 53.381100150000066 ], [ 5.311391194000066, 53.371664138000028 ], [ 5.213054035000027, 53.35000010400006 ] ] ], [ [ [ 6.867918162000024, 53.42739122200004 ], [ 6.901663201000076, 53.350273186000038 ], [ 6.942500169000027, 53.323053961000028 ], [ 7.092291149000062, 53.25645404100004 ], [ 7.200482241000032, 53.240409066000041 ], [ 7.208363242000075, 53.242809140000077 ], [ 7.207218106000028, 53.176109140000051 ], [ 7.210973199000023, 53.008882124000081 ], [ 7.196182157000067, 52.962500193000039 ], [ 7.179718088000072, 52.934164163000048 ], [ 7.133054021000021, 52.888882104000061 ], [ 7.091063200000065, 52.836909108000043 ], [ 7.073336146000031, 52.819718160000036 ], [ 7.066245056000071, 52.79250010800007 ], [ 7.065000175000023, 52.760418038000068 ], [ 7.063609115000077, 52.721382174000041 ], [ 7.053473214000064, 52.649582121000037 ], [ 7.033745064000072, 52.633191142000044 ], [ 6.906218095000042, 52.648118138000029 ], [ 6.76576321400006, 52.651173174000064 ], [ 6.720836045000055, 52.629436049000049 ], [ 6.718918098000074, 52.626782171000059 ], [ 6.727773243000058, 52.61860914500005 ], [ 6.758127132000027, 52.564645111000061 ], [ 6.722500188000026, 52.559436093000045 ], [ 6.689582275000021, 52.55055395800008 ], [ 6.704027144000065, 52.488191089000054 ], [ 6.75889122600006, 52.460964153000077 ], [ 6.954236174000073, 52.437218054000027 ], [ 6.984027135000076, 52.45735406700004 ], [ 7.06298214800006, 52.390964197000073 ], [ 7.070418070000073, 52.355827091000037 ], [ 7.058118130000025, 52.337636015000044 ], [ 7.035136125000065, 52.305827027000078 ], [ 7.029100149000044, 52.278264144000048 ], [ 7.053091167000048, 52.237764129000027 ], [ 7.04221816200004, 52.231664115000058 ], [ 6.964718080000068, 52.190273104000028 ], [ 6.90263617200003, 52.172218149000059 ], [ 6.875073290000046, 52.142354099000045 ], [ 6.85603614300004, 52.120482193000043 ], [ 6.759427165000034, 52.114564234000056 ], [ 6.736391181000045, 52.076664117000064 ], [ 6.728609087000052, 52.035273106000034 ], [ 6.797500117000027, 52.008745053000041 ], [ 6.828954047000025, 51.975754050000035 ], [ 6.783054074000063, 51.924718150000047 ], [ 6.746391127000038, 51.906109151000067 ], [ 6.722500188000026, 51.897909135000077 ], [ 6.684654051000052, 51.911664174000066 ], [ 6.59471807400007, 51.896109038000077 ], [ 6.527500239000062, 51.874445003000062 ], [ 6.462782223000033, 51.853609100000028 ], [ 6.351109121000036, 51.848054078000075 ], [ 6.182218130000024, 51.895273194000026 ], [ 6.123609181000063, 51.888054029000045 ], [ 6.00305411100004, 51.829991077000045 ], [ 5.963609210000072, 51.806664240000032 ], [ 5.982745095000041, 51.767218165000031 ], [ 5.952054086000032, 51.747527063000064 ], [ 6.028891160000057, 51.706664111000066 ], [ 6.093609176000029, 51.605827134000037 ], [ 6.134027048000064, 51.570827156000064 ], [ 6.158609159000036, 51.558327056000053 ], [ 6.204863183000043, 51.513464260000035 ], [ 6.222082127000022, 51.467354070000056 ], [ 6.222500216000071, 51.363191153000059 ], [ 6.143054023000047, 51.29527326200008 ], [ 6.077636118000044, 51.241382150000049 ], [ 6.071663342000022, 51.214091176000068 ], [ 6.08444507400003, 51.174264228000027 ], [ 6.097500223000054, 51.131100109000045 ], [ 6.00305411100004, 51.084164133000058 ], [ 5.905554137000024, 51.06311818000006 ], [ 5.865000142000042, 51.045345025000074 ], [ 5.869445066000026, 51.018882183000073 ], [ 5.902009095000039, 50.973118165000074 ], [ 5.943745105000062, 50.98430012700004 ], [ 6.024927191000074, 50.977982183000051 ], [ 6.080836161000036, 50.914718093000033 ], [ 6.08444507400003, 50.872082201000069 ], [ 6.05816328100002, 50.850482204000059 ], [ 6.016663305000066, 50.841664274000038 ], [ 6.008054084000037, 50.802218032000042 ], [ 6.011800124000047, 50.75727326100008 ], [ 5.926391213000045, 50.75610013000005 ], [ 5.898918184000024, 50.753882111000053 ], [ 5.870554159000051, 50.760827020000079 ], [ 5.79750017300006, 50.769436073000065 ], [ 5.739863189000062, 50.759854049000069 ], [ 5.698609138000052, 50.757773158000077 ], [ 5.691909147000047, 50.760554106000029 ], [ 5.704236077000076, 50.782009096000081 ], [ 5.701945135000074, 50.805827112000031 ], [ 5.693936059000066, 50.808818110000061 ], [ 5.683609219000061, 50.811382134000041 ], [ 5.653609214000028, 50.823609152000074 ], [ 5.638818172000072, 50.848882099000036 ], [ 5.651391195000031, 50.87513606300007 ], [ 5.758054098000059, 50.960000151000031 ], [ 5.764163332000066, 50.990000156000065 ], [ 5.776945064000074, 51.025836145000028 ], [ 5.818054108000069, 51.115000149000082 ], [ 5.847136127000056, 51.153191118000052 ], [ 5.75416321900002, 51.189991193000026 ], [ 5.644718194000063, 51.203609104000066 ], [ 5.568336090000059, 51.220709192000072 ], [ 5.552918082000076, 51.26964509000004 ], [ 5.508336080000049, 51.294227032000038 ], [ 5.474236150000024, 51.286873254000056 ], [ 5.40437315500003, 51.26603601000005 ], [ 5.329718058000026, 51.262218053000026 ], [ 5.238973227000031, 51.262282091000031 ], [ 5.233336062000035, 51.309373132000076 ], [ 5.19347323900007, 51.319509199000038 ], [ 5.161527123000042, 51.315127140000072 ], [ 5.141945153000052, 51.319718076000072 ], [ 5.08107325800006, 51.401244993000034 ], [ 5.101245146000053, 51.434718124000028 ], [ 5.076809216000072, 51.469300180000062 ], [ 5.038473241000077, 51.486945092000042 ], [ 5.017154038000058, 51.470618150000064 ], [ 4.997082229000057, 51.436318061000065 ], [ 4.940482254000074, 51.402354087000049 ], [ 4.853054143000065, 51.414444982000077 ], [ 4.832782174000045, 51.429991066000071 ], [ 4.845482266000033, 51.475273124000068 ], [ 4.825836091000042, 51.492218147000074 ], [ 4.797636184000055, 51.501245122000057 ], [ 4.766182254000057, 51.499927151000065 ], [ 4.70208215200006, 51.466945033000059 ], [ 4.671145050000064, 51.43255408400006 ], [ 4.647636159000058, 51.42319116300007 ], [ 4.540345115000036, 51.43117324900004 ], [ 4.540418206000027, 51.454509138000049 ], [ 4.544336075000047, 51.483044992000032 ], [ 4.484300190000056, 51.480136137000045 ], [ 4.395691236000062, 51.451518140000076 ], [ 4.399027066000031, 51.413882221000051 ], [ 4.417782245000069, 51.398327085000062 ], [ 4.433473167000045, 51.370136062000029 ], [ 4.412918059000049, 51.358464262000041 ], [ 4.388054149000027, 51.35750017600003 ], [ 4.352918216000035, 51.361245042000064 ], [ 4.279673290000062, 51.37659113400008 ], [ 4.252363206000041, 51.375145088000068 ], [ 4.202500102000045, 51.40500008600003 ], [ 4.056109157000037, 51.425827104000064 ], [ 3.926945034000028, 51.429854105000061 ], [ 3.903191223000022, 51.397500127000058 ], [ 3.826391197000021, 51.389853987000038 ], [ 3.573054040000045, 51.444444987000054 ], [ 3.538473158000045, 51.456245030000048 ], [ 3.444236090000061, 51.52937311200003 ], [ 3.457427194000047, 51.548882160000062 ], [ 3.485554012000023, 51.56332702900005 ], [ 3.517363334000038, 51.577218022000068 ], [ 3.571182194000073, 51.596664205000081 ], [ 3.69190020800005, 51.600309159000062 ], [ 3.835000250000064, 51.606664151000075 ], [ 3.870836071000042, 51.600273117000029 ], [ 3.899309229000039, 51.568536046000077 ], [ 3.865282222000076, 51.546664141000065 ], [ 3.843536045000064, 51.554027140000073 ], [ 3.820554040000047, 51.54916412700004 ], [ 3.86585403600003, 51.538664117000053 ], [ 3.886336054000026, 51.543045002000042 ], [ 3.929718103000027, 51.547844983000061 ], [ 4.006663304000028, 51.525273188000028 ], [ 4.048054148000062, 51.50916417600007 ], [ 4.068336174000024, 51.493327073000046 ], [ 4.081945032000021, 51.469164225000043 ], [ 4.10347328000006, 51.447491138000032 ], [ 4.125554063000038, 51.438327036000032 ], [ 4.149027080000053, 51.435691095000038 ], [ 4.246736099000032, 51.436873111000068 ], [ 4.264282272000059, 51.44397325400007 ], [ 4.283609097000067, 51.448054067000044 ], [ 4.292009105000034, 51.46958214700004 ], [ 4.284718190000035, 51.488327100000049 ], [ 4.264863306000052, 51.509444970000061 ], [ 4.229636178000021, 51.518618125000046 ], [ 4.209582139000076, 51.515691164000032 ], [ 4.082782217000045, 51.530827037000051 ], [ 3.997845039000026, 51.59013604300003 ], [ 4.041945081000051, 51.605273258000068 ], [ 4.070691154000031, 51.611382156000047 ], [ 4.169718143000068, 51.60555405100007 ], [ 4.19305403200002, 51.599991150000051 ], [ 4.207509127000037, 51.589482087000079 ], [ 4.201318086000072, 51.605236042000058 ], [ 4.186163270000065, 51.617044970000052 ], [ 4.159863204000033, 51.614854108000031 ], [ 4.137218152000059, 51.615553997000063 ], [ 4.111945037000055, 51.633609120000074 ], [ 4.115173243000072, 51.647991124000043 ], [ 4.140100185000051, 51.651891224000053 ], [ 4.174382169000069, 51.652282156000069 ], [ 4.205536027000051, 51.652282156000069 ], [ 4.20943612700006, 51.674091197000052 ], [ 4.169318159000056, 51.685773224000059 ], [ 4.127218206000066, 51.706664111000066 ], [ 4.058191221000072, 51.754718065000077 ], [ 4.020900134000044, 51.792073190000053 ], [ 3.986809090000065, 51.802082189000032 ], [ 3.955836113000032, 51.801664267000035 ], [ 3.874191179000036, 51.786373161000029 ], [ 3.867982201000075, 51.812144999000054 ], [ 3.99208214500004, 51.846800145000032 ], [ 4.021527100000071, 51.839436140000032 ], [ 4.061109130000034, 51.860273216000053 ], [ 4.018054143000029, 51.97905400500008 ], [ 4.051809073000072, 51.985409164000032 ], [ 4.089718074000075, 51.984027156000082 ], [ 4.118336071000044, 51.987636068000029 ], [ 4.143745140000021, 51.999164202000031 ], [ 4.36541814800006, 52.174436001000061 ], [ 4.40444512800002, 52.210273163000068 ], [ 4.424718102000043, 52.23138214800008 ], [ 4.441663293000033, 52.252491133000035 ], [ 4.494491243000027, 52.327218147000053 ], [ 4.517782206000049, 52.360836117000076 ], [ 4.540836127000034, 52.395973223000055 ], [ 4.551109156000052, 52.419718149000062 ], [ 4.574373296000033, 52.454473207000035 ], [ 4.657954114000063, 52.453127074000065 ], [ 4.706845085000054, 52.427227160000029 ], [ 4.845254111000031, 52.410200162000081 ], [ 4.885982282000043, 52.390373106000027 ], [ 4.906882222000036, 52.374153955000054 ], [ 4.952400147000048, 52.373127004000082 ], [ 4.991945128000054, 52.361109199000055 ], [ 5.126945067000065, 52.330273183000031 ], [ 5.244300094000039, 52.311873229000071 ], [ 5.295000215000073, 52.299236001000054 ], [ 5.330445104000034, 52.275827022000044 ], [ 5.337782287000039, 52.275554107000062 ], [ 5.371736035000026, 52.269100210000033 ], [ 5.407500108000022, 52.251936084000079 ], [ 5.422500194000065, 52.24901817500006 ], [ 5.528745176000029, 52.265691122000078 ], [ 5.548609113000055, 52.278745098000059 ], [ 5.566245140000035, 52.305273151000051 ], [ 5.581391239000027, 52.325273210000034 ], [ 5.627082167000026, 52.355273215000068 ], [ 5.670554070000037, 52.371382227000026 ], [ 5.695127128000024, 52.380118182000047 ], [ 5.731909098000074, 52.390636130000075 ], [ 5.770418076000055, 52.403591199000061 ], [ 5.813736087000052, 52.428464162000068 ], [ 5.851245104000043, 52.463054097000054 ], [ 5.878054118000023, 52.509436029000028 ], [ 5.87241812700006, 52.523418049000043 ], [ 5.848054113000046, 52.577773183000033 ], [ 5.855000196000049, 52.606909181000049 ], [ 5.75889111500004, 52.606664262000038 ], [ 5.671800123000025, 52.607773188000067 ], [ 5.600554114000033, 52.658191174000081 ], [ 5.596736157000066, 52.748264279000068 ], [ 5.619163280000066, 52.779445126000041 ], [ 5.665973192000024, 52.823400162000041 ], [ 5.718354052000052, 52.838018034000072 ], [ 5.714445068000032, 52.840273101000037 ], [ 5.648609074000035, 52.855409142000042 ], [ 5.584509139000033, 52.839818131000072 ], [ 5.411945031000073, 52.853744999000071 ], [ 5.37080011200004, 52.880200129000059 ], [ 5.405973260000053, 52.91131811200006 ], [ 5.419582286000036, 52.956936118000044 ], [ 5.409582172000057, 53.031936046000055 ], [ 5.369863183000064, 53.070409150000046 ], [ 5.339163289000055, 53.065554016000078 ], [ 5.296245095000074, 53.050000054000066 ], [ 5.263054099000044, 53.035273217000054 ], [ 5.198309094000024, 52.995318026000064 ], [ 5.100273181000034, 52.948053982000033 ], [ 5.091663290000042, 52.885827068000026 ], [ 5.126109224000061, 52.822491228000047 ], [ 5.196391147000043, 52.755691148000039 ], [ 5.223473244000047, 52.756800074000068 ], [ 5.284754009000039, 52.744891066000037 ], [ 5.30319117800002, 52.704854067000042 ], [ 5.255300168000076, 52.691591214000027 ], [ 5.235973176000073, 52.657082248000052 ], [ 5.19666322300003, 52.637773193000044 ], [ 5.167782202000069, 52.628882173000079 ], [ 5.139300160000062, 52.623882200000082 ], [ 5.103891145000034, 52.643191087000048 ], [ 5.050627168000062, 52.641527112000063 ], [ 5.029718175000028, 52.62409107700006 ], [ 5.045136183000068, 52.569018117000041 ], [ 5.067782242000021, 52.541382144000067 ], [ 5.089791108000043, 52.510827089000031 ], [ 5.090282287000036, 52.433327007000059 ], [ 5.078054096000074, 52.416109069000072 ], [ 5.046373184000061, 52.402627113000051 ], [ 5.023891244000026, 52.375691196000048 ], [ 4.914863303000061, 52.387218157000063 ], [ 4.875527198000043, 52.415600120000079 ], [ 4.825791164000066, 52.425700145000064 ], [ 4.713154143000054, 52.441018073000066 ], [ 4.668463176000046, 52.465882151000073 ], [ 4.582009209000034, 52.477082218000078 ], [ 4.598336151000069, 52.513882126000055 ], [ 4.622218205000024, 52.596664148000059 ], [ 4.634027133000075, 52.643191087000048 ], [ 4.635836115000075, 52.680545039000037 ], [ 4.654163314000073, 52.751664146000053 ], [ 4.738818190000075, 52.956664209000053 ], [ 4.783473282000045, 52.965000179000072 ], [ 4.80576327700004, 52.949927002000038 ], [ 4.808682191000059, 52.926245108000046 ], [ 4.831245101000036, 52.910136096000031 ], [ 4.86750018500004, 52.898609135000072 ], [ 4.896109129000024, 52.89708212000005 ], [ 4.937782276000064, 52.903745063000031 ], [ 5.094445076000056, 52.959164195000028 ], [ 5.180273250000027, 53.003054020000036 ], [ 5.184209224000028, 53.00552701600003 ], [ 5.22444504200007, 53.032491096000058 ], [ 5.250691127000039, 53.049164210000072 ], [ 5.30166332500005, 53.072773182000049 ], [ 5.327218071000061, 53.07943612400004 ], [ 5.369718176000049, 53.088054062000026 ], [ 5.387363256000071, 53.098327090000055 ], [ 5.402500135000025, 53.121382185000073 ], [ 5.411109188000069, 53.140273151000031 ], [ 5.415627201000063, 53.170345073000078 ], [ 5.442500253000048, 53.211936076000029 ], [ 5.462363185000072, 53.228464184000075 ], [ 5.579718211000056, 53.291382102000057 ], [ 5.599163221000026, 53.300282174000074 ], [ 5.890836185000069, 53.382218128000034 ], [ 5.981663327000035, 53.398891074000062 ], [ 6.092500250000057, 53.410827072000075 ], [ 6.177918214000044, 53.413744980000047 ], [ 6.187291193000021, 53.412427010000044 ], [ 6.194718063000039, 53.41000011400007 ], [ 6.296945095000069, 53.401936052000053 ], [ 6.452500143000066, 53.425282167000034 ], [ 6.697500156000046, 53.461936062000063 ], [ 6.721109127000034, 53.464718184000048 ], [ 6.741945030000068, 53.465827109000031 ], [ 6.77750022500004, 53.45916416700004 ], [ 6.867918162000024, 53.42739122200004 ] ] ] ] }
        }
    ]
}