{
    "type": "FeatureCollection",
    "features": [
        {
            "type": "Feature",
            "properties": {
                "WCID": "NMC",
                "COUNTRY": "North Macedonia"
            },
            "geometry": { "type": "Polygon", "coordinates": [ [ [ 20.568954164000047, 41.874544976000038 ], [ 20.589645060000066, 41.882191116000058 ], [ 20.618954061000068, 41.861518157000035 ], [ 20.707782286000054, 41.856391115000065 ], [ 20.736945106000064, 41.868118068000058 ], [ 20.777563306000047, 41.937391145000049 ], [ 20.759854021000024, 41.985618101000057 ], [ 20.770836158000066, 42.04680012700004 ], [ 20.795409216000053, 42.083118076000062 ], [ 20.915000200000065, 42.11999107400004 ], [ 21.11083615900003, 42.200691200000051 ], [ 21.136454105000041, 42.20000019500003 ], [ 21.218191240000067, 42.147636099000067 ], [ 21.305554141000073, 42.149582210000062 ], [ 21.346245096000075, 42.194300166000062 ], [ 21.472636149000039, 42.265973150000036 ], [ 21.619718099000067, 42.254164222000043 ], [ 21.681391137000048, 42.239718011000036 ], [ 21.707773177000036, 42.232491134000043 ], [ 21.729854127000067, 42.235136128000079 ], [ 21.788954089000072, 42.268264259000034 ], [ 21.803191254000069, 42.298745050000036 ], [ 21.850691164000068, 42.33034499300004 ], [ 22.023609157000067, 42.316936127000076 ], [ 22.075209159000053, 42.300973128000066 ], [ 22.196182150000027, 42.31639113600005 ], [ 22.216873213000042, 42.33613605000005 ], [ 22.32534509900006, 42.358954105000066 ], [ 22.365273301000059, 42.323882210000079 ], [ 22.407773238000061, 42.279445047000081 ], [ 22.519445167000072, 42.149718164000035 ], [ 22.609445182000059, 42.103336064000075 ], [ 22.685836171000062, 42.065273172000047 ], [ 22.82305412900007, 42.027354112000069 ], [ 22.876945073000059, 41.938191114000062 ], [ 22.897636136000074, 41.882218105000049 ], [ 22.942500105000079, 41.807782111000051 ], [ 22.965900200000078, 41.77569115600005 ], [ 23.00923614800007, 41.766309125000078 ], [ 23.030973273000029, 41.725064126000063 ], [ 23.015000215000043, 41.695409120000079 ], [ 22.986945147000029, 41.665836089000038 ], [ 22.954236111000057, 41.635964160000071 ], [ 22.951663202000077, 41.598609035000038 ], [ 22.959163329000035, 41.476391163000073 ], [ 22.966663288000063, 41.374164130000054 ], [ 22.955900254000028, 41.355618164000077 ], [ 22.935600123000029, 41.342127155000071 ], [ 22.926391261000049, 41.343044974000065 ], [ 22.808473306000053, 41.347773205000067 ], [ 22.776800105000063, 41.328054107000071 ], [ 22.762036053000031, 41.306635998000047 ], [ 22.761545041000034, 41.251736041000072 ], [ 22.758054146000063, 41.227773185000046 ], [ 22.737745130000064, 41.156109086000072 ], [ 22.586736091000034, 41.119854002000068 ], [ 22.484718104000024, 41.121382191000066 ], [ 22.442500134000056, 41.121382191000066 ], [ 22.343327131000024, 41.134435999000061 ], [ 22.30471807400005, 41.153327133000062 ], [ 22.259582195000064, 41.170973218000029 ], [ 22.205554124000059, 41.167773175000036 ], [ 21.977082218000078, 41.131800058000067 ], [ 21.916109237000057, 41.095273233000057 ], [ 21.91082712900004, 41.065582185000039 ], [ 21.786245058000077, 40.930826998000043 ], [ 21.600000174000058, 40.872773098000039 ], [ 21.575763231000053, 40.873118097000031 ], [ 21.548336135000056, 40.891109182000037 ], [ 21.528400113000032, 40.907836108000026 ], [ 21.410136153000053, 40.913882142000034 ], [ 21.374582299000053, 40.883191133000025 ], [ 21.349863228000061, 40.873191187000032 ], [ 21.314718076000077, 40.868609136000032 ], [ 21.150836110000057, 40.85750009700007 ], [ 21.121554099000036, 40.857218130000035 ], [ 20.983491245000039, 40.855891107000048 ], [ 20.980536121000057, 40.897209028000077 ], [ 20.96305415300003, 40.911382156000059 ], [ 20.944163355000057, 40.919164250000051 ], [ 20.837427194000043, 40.927427130000069 ], [ 20.821109137000064, 40.908882169000037 ], [ 20.807218144000046, 40.900554078000027 ], [ 20.740809164000041, 40.909536125000045 ], [ 20.662500227000066, 41.089164167000035 ], [ 20.60060909200007, 41.093182116000037 ], [ 20.57832714400007, 41.162773202000039 ], [ 20.519163312000046, 41.246382184000026 ], [ 20.502500256000076, 41.304444968000041 ], [ 20.498854128000062, 41.341800093000074 ], [ 20.524163285000043, 41.350273192000031 ], [ 20.550000166000075, 41.373054031000038 ], [ 20.561873300000059, 41.40867309600003 ], [ 20.508609155000045, 41.45971804900006 ], [ 20.470691269000042, 41.499300078000033 ], [ 20.458818135000058, 41.520827152000038 ], [ 20.466109218000042, 41.555544995000048 ], [ 20.533882270000049, 41.634718106000037 ], [ 20.517773257000044, 41.744027008000046 ], [ 20.533609187000025, 41.776936037000041 ], [ 20.568954164000047, 41.874544976000038 ] ] ] }
        }
    ]
}