{
    "type": "FeatureCollection",
    "features": [
        {
            "type": "Feature",
            "properties": {
                "WCID": "NZL",
                "COUNTRY": "New Zealand"
            },
            "geometry": { "type": "MultiPolygon", "coordinates": [ [ [ [ 167.205227274000094, -45.47777303 ], [ 167.213027305000082, -45.471244867999985 ], [ 167.209409341000082, -45.46139093499994 ], [ 167.173581398000124, -45.422772991999977 ], [ 167.158018216000073, -45.406663979999962 ], [ 167.132045212000094, -45.383755064999946 ], [ 167.115509226000086, -45.372217878999948 ], [ 167.097745291000024, -45.366108979999979 ], [ 167.087463378000052, -45.363617877999957 ], [ 167.061645272000078, -45.344999994999966 ], [ 167.051091282000016, -45.333326853999949 ], [ 167.082745204000048, -45.323499909999953 ], [ 167.094818330000066, -45.31549988699993 ], [ 167.11422729800006, -45.310335963999933 ], [ 167.170863482000073, -45.305290895999974 ], [ 167.177563473000077, -45.313835910999956 ], [ 167.215791322000086, -45.315835832999937 ], [ 167.235927335000042, -45.329172949999986 ], [ 167.248563390000072, -45.334164037999983 ], [ 167.260254301000032, -45.335826839999982 ], [ 167.270809296000039, -45.334444831999974 ], [ 167.305663429000106, -45.327782056999979 ], [ 167.304000292000069, -45.316526836999969 ], [ 167.194636236000065, -45.271444938999934 ], [ 167.138291406000121, -45.26894495199997 ], [ 167.093218225000101, -45.270235932999981 ], [ 167.002200312000014, -45.201108867999949 ], [ 166.996918371000106, -45.145835916999943 ], [ 167.146363347000033, -45.001673048999976 ], [ 167.201491292000014, -44.953608868999936 ], [ 167.228300306000051, -44.930826855999953 ], [ 167.241054210000016, -44.921391011999958 ], [ 167.264009226000098, -44.905282 ], [ 167.316772468000067, -44.873191045999931 ], [ 167.400272317000031, -44.862872922999941 ], [ 167.422381431000076, -44.896417969999959 ], [ 167.419300243000066, -44.910326899999973 ], [ 167.440381400000092, -44.933055100999979 ], [ 167.441927359000033, -44.944999983999935 ], [ 167.459691294000095, -44.994717912999931 ], [ 167.506191410000042, -45.000144859999978 ], [ 167.511109241000099, -44.986944870999935 ], [ 167.479081318000112, -44.903444854999975 ], [ 167.464327324000124, -44.872190916999955 ], [ 167.460827209000058, -44.858699907999949 ], [ 167.459654246000014, -44.84119095099993 ], [ 167.450809326000012, -44.792090934999976 ], [ 167.458591420000062, -44.783618004999937 ], [ 167.599700258000098, -44.683881905999954 ], [ 167.743009345000019, -44.611672983999938 ], [ 167.838863449000087, -44.498608987999944 ], [ 167.850254287000098, -44.488054998999985 ], [ 167.949981334000086, -44.40360900099995 ], [ 167.96359136500007, -44.394999947999963 ], [ 168.034972323000034, -44.353617988999986 ], [ 168.128018322000116, -44.316944814999943 ], [ 168.143191411000089, -44.304444882999974 ], [ 168.144136219000075, -44.2925 ], [ 168.124100285000054, -44.251400008999951 ], [ 168.143309260000024, -44.253063983999937 ], [ 168.153591341000038, -44.251400008999951 ], [ 168.16970923800011, -44.244717954999942 ], [ 168.291072323000094, -44.170135947999938 ], [ 168.338300324000102, -44.120273011999984 ], [ 168.336072414000114, -44.105972981999969 ], [ 168.336363434000077, -44.094444847999966 ], [ 168.372327331000065, -44.040555077999954 ], [ 168.383027333000086, -44.034444837999956 ], [ 168.402772415000072, -44.029726831999938 ], [ 168.674563337000109, -43.990700019999963 ], [ 168.686645180000028, -44.000282044999949 ], [ 168.719127235000087, -44.012364054999978 ], [ 168.753872403000059, -44.010000022999975 ], [ 168.764163368000027, -44.008608961999983 ], [ 168.824400251000043, -43.988335820999964 ], [ 168.862472364000041, -43.974990992999949 ], [ 168.882463371000085, -43.961808940999958 ], [ 168.961918281000067, -43.903608860999952 ], [ 169.080763442000034, -43.848473036999962 ], [ 169.142209331000117, -43.794164003999981 ], [ 169.224400262000017, -43.743326922999984 ], [ 169.271636310000076, -43.72249990499995 ], [ 169.387481420000086, -43.679173008999953 ], [ 169.491318281000076, -43.643464089999952 ], [ 169.539154305000125, -43.633608983999977 ], [ 169.626618292000103, -43.613890891999972 ], [ 169.648881297000116, -43.607226942999944 ], [ 169.660518229000104, -43.601944834999983 ], [ 169.724963330000037, -43.571108986999946 ], [ 169.739136290000033, -43.558055010999965 ], [ 169.767491263000124, -43.522773065999957 ], [ 169.790527247000114, -43.496663939999962 ], [ 169.871063423000123, -43.406664092999961 ], [ 169.884154279000086, -43.397781957999939 ], [ 169.961636257000123, -43.371935855999936 ], [ 170.025254232000066, -43.350135866999949 ], [ 170.035945182000091, -43.339308962999951 ], [ 170.049409368000056, -43.306944925999971 ], [ 170.111354315000085, -43.254172965999942 ], [ 170.288300315000015, -43.107782020999935 ], [ 170.418027198000118, -43.052500016999943 ], [ 170.527481443000056, -43.00930890799998 ], [ 170.583036195000091, -42.990555069999971 ], [ 170.67434529500008, -42.958735856999965 ], [ 170.704409338000119, -42.945826886999953 ], [ 170.750545177000049, -42.924717901999941 ], [ 170.781100400000014, -42.910555000999977 ], [ 170.794127218000085, -42.901390897999931 ], [ 171.065800291000073, -42.648055081999985 ], [ 171.108309281000061, -42.608054963999962 ], [ 171.151654282000095, -42.560417925999957 ], [ 171.196072334000064, -42.476663936999955 ], [ 171.225800262000121, -42.43360895099994 ], [ 171.230254238000043, -42.408891052999934 ], [ 171.235781432000067, -42.394164048999983 ], [ 171.247463459000073, -42.375000000999933 ], [ 171.260254243000077, -42.366108980999968 ], [ 171.270536323000101, -42.354999941999949 ], [ 171.297763427000064, -42.31028198599995 ], [ 171.304409271000054, -42.296672959999967 ], [ 171.309691378000025, -42.281944949999968 ], [ 171.316654225000093, -42.249726925999937 ], [ 171.321072327000024, -42.224717840999972 ], [ 171.322754239000119, -42.20721793599995 ], [ 171.324400277000109, -42.189717862999942 ], [ 171.326354267000056, -42.172226842999976 ], [ 171.329127336000056, -42.155826978999983 ], [ 171.343845287000022, -42.110835939999959 ], [ 171.361081330000047, -42.067781958999944 ], [ 171.461636340000041, -41.859726860999956 ], [ 171.510800394000057, -41.764454963999981 ], [ 171.533054179000032, -41.766391015999943 ], [ 171.557736202000115, -41.766664097999978 ], [ 171.569118323000112, -41.76610888099998 ], [ 171.650818242000014, -41.761391042999946 ], [ 171.663027323000051, -41.757781962999957 ], [ 171.685791398000106, -41.74694483299993 ], [ 171.7905273020001, -41.696390891999954 ], [ 171.855227213000035, -41.65278202899998 ], [ 171.886654153000109, -41.63000001599994 ], [ 171.942200355000068, -41.550281913999981 ], [ 172.022763353000073, -41.44305507699994 ], [ 172.053863399000079, -41.417499994999957 ], [ 172.064972438000041, -41.403609001999939 ], [ 172.122191333000046, -41.277782049999985 ], [ 172.11163633700005, -41.236117956999976 ], [ 172.105227199000069, -41.15305497199995 ], [ 172.106081315000097, -40.911381903999938 ], [ 172.10760933600011, -40.889309 ], [ 172.113863409000032, -40.879999890999954 ], [ 172.186645318000046, -40.813326879999977 ], [ 172.218563438000047, -40.785835913999961 ], [ 172.224700332000111, -40.781108855999946 ], [ 172.259563350000121, -40.77555500699998 ], [ 172.271363393000115, -40.770555033999983 ], [ 172.299409241000035, -40.754999897999937 ], [ 172.348300380000069, -40.727490994999982 ], [ 172.382718318000116, -40.698335884999949 ], [ 172.426909389000116, -40.657773005999957 ], [ 172.478300346000083, -40.613890892999962 ], [ 172.520191422000039, -40.60314613099996 ], [ 172.520127216000105, -40.628190922999977 ], [ 172.529845195000121, -40.632081969999945 ], [ 172.571900388000017, -40.61777305499993 ], [ 172.596345203000055, -40.601390960999936 ], [ 172.629818334000106, -40.570555111999965 ], [ 172.631618263000064, -40.559999948999973 ], [ 172.60496347600008, -40.557917884999938 ], [ 172.593354205000082, -40.556081911999968 ], [ 172.582136201000026, -40.554999975999976 ], [ 172.589845205000074, -40.541173020999963 ], [ 172.630245308000099, -40.510563986999955 ], [ 172.661372343000039, -40.502782060999948 ], [ 172.712191320000102, -40.495555015999969 ], [ 172.817745297000101, -40.504172953999955 ], [ 172.861354160000019, -40.507782032999955 ], [ 172.988218288000098, -40.531035946999964 ], [ 172.978027235000013, -40.533890990999964 ], [ 172.945254161000094, -40.530826902999934 ], [ 172.8952634850001, -40.524446094999973 ], [ 172.797209299000087, -40.516108950999978 ], [ 172.735791406000089, -40.518335854999975 ], [ 172.656918368000106, -40.653326908999929 ], [ 172.701354189000085, -40.748335949999955 ], [ 172.860654271000044, -40.853055089999941 ], [ 172.875245321000079, -40.851108978999946 ], [ 172.907200321000118, -40.828890900999966 ], [ 172.932754229000125, -40.799446112999931 ], [ 172.980927206000047, -40.781526944999939 ], [ 173.005263391000085, -40.788890949999939 ], [ 173.013309348000121, -40.796673043999931 ], [ 173.020536225000114, -40.809717967999973 ], [ 173.051091280000037, -40.869446068999935 ], [ 173.059691280000038, -40.967355079999948 ], [ 173.05609142000003, -40.978608958999985 ], [ 173.031645264000076, -41.027499929999976 ], [ 173.077745229000016, -41.29430898399994 ], [ 173.085781462000114, -41.302226864999966 ], [ 173.105527215000052, -41.313326851999932 ], [ 173.168027211000094, -41.316108972999984 ], [ 173.188872334000052, -41.313326851999932 ], [ 173.203018304000125, -41.309999906999963 ], [ 173.275272321000102, -41.27208202099996 ], [ 173.326081407000061, -41.222499877999951 ], [ 173.340518229000054, -41.205835816999979 ], [ 173.351627269000119, -41.195544850999966 ], [ 173.377163407000012, -41.17805500399993 ], [ 173.426091426000085, -41.15027301899994 ], [ 173.602327311000067, -41.053055010999969 ], [ 173.639709258000039, -41.073617998999964 ], [ 173.672763461000045, -41.070555083999977 ], [ 173.724136313000031, -41.058335945999943 ], [ 173.739963358000068, -41.047226905999935 ], [ 173.743991366000046, -41.028335940999966 ], [ 173.738281446000087, -41.018608909999955 ], [ 173.72314523700004, -41.020972941999958 ], [ 173.693863394000118, -41.035973027999944 ], [ 173.679136222000125, -41.038754981999944 ], [ 173.674136249000071, -41.024999942999955 ], [ 173.678318316000059, -41.014455005999935 ], [ 173.696627242000091, -41.000282045999938 ], [ 173.751372470000092, -40.976945988999944 ], [ 173.800263441000084, -40.969164062999937 ], [ 173.913300278000065, -40.931672982999942 ], [ 173.989545255000053, -40.8968089599999 ], [ 174.02527244700002, -40.915835879999975 ], [ 174.030409380000037, -40.930555004999974 ], [ 174.025818276000109, -40.945417962999954 ], [ 173.929963334000036, -40.992226868999978 ], [ 173.832181393000042, -40.994999937999978 ], [ 173.821072353000091, -40.994164094999974 ], [ 173.780400342000121, -41.012364055999967 ], [ 173.769718277000038, -41.098608978999948 ], [ 173.778591359000075, -41.114446081999972 ], [ 173.794436341000051, -41.109446108999975 ], [ 173.822209275000091, -41.080835823999962 ], [ 173.821900318000075, -41.062217939999982 ], [ 173.841491340000061, -41.054026976999978 ], [ 173.930818288000069, -41.049446098999965 ], [ 173.949827271000117, -41.058190938999985 ], [ 173.917754254000101, -41.0874999399999 ], [ 173.887481334000086, -41.103335868999977 ], [ 173.848845287000017, -41.144163951999985 ], [ 173.820527362000121, -41.245835934999945 ], [ 173.76205420000008, -41.27028192299997 ], [ 173.775818290000075, -41.28972693299994 ], [ 173.78802720300007, -41.290555064999978 ], [ 173.80636345400012, -41.289444797999977 ], [ 174.037200398000095, -41.218326863999948 ], [ 174.099700394000024, -41.198335856999961 ], [ 174.130527358000109, -41.179790895999929 ], [ 174.004854298000055, -41.177082032999976 ], [ 174.000827297000114, -41.190555103999941 ], [ 173.993009328000085, -41.198335856999961 ], [ 173.981900289000123, -41.199435897999933 ], [ 173.932736235000107, -41.2 ], [ 173.904018326000028, -41.198744893999958 ], [ 173.893581348000112, -41.192772955999942 ], [ 173.886509369000123, -41.16569102699998 ], [ 173.888027331000103, -41.154164065999964 ], [ 173.900118227000121, -41.130973015999984 ], [ 174.032745249000072, -40.99972682899994 ], [ 174.089263416000108, -41.022354949999965 ], [ 174.246336259000032, -41.04472692 ], [ 174.258327242000064, -41.035282023999969 ], [ 174.299409296000022, -41.003617875999964 ], [ 174.31954531000008, -41.001946020999981 ], [ 174.322736301000077, -41.014446120999935 ], [ 174.209963493000032, -41.197490960999971 ], [ 174.157072343000095, -41.226108957999941 ], [ 174.114681370000085, -41.231382013999962 ], [ 174.052181374000043, -41.234999977999962 ], [ 174.026645235000046, -41.236117956999976 ], [ 174.053863454000066, -41.254173078999941 ], [ 174.210663382000121, -41.268055018999974 ], [ 174.291654192000124, -41.23889102499993 ], [ 174.303591363000123, -41.229717870999934 ], [ 174.323854279000102, -41.221526906999941 ], [ 174.288572334000037, -41.276944865999951 ], [ 174.245372340000017, -41.324308988999974 ], [ 174.231900275000044, -41.328055028999984 ], [ 174.208591375000083, -41.329444916999933 ], [ 174.19357234600011, -41.320281987999977 ], [ 174.15164522800012, -41.306800031999956 ], [ 174.111636225000098, -41.33666408199997 ], [ 174.050945210000123, -41.424444904999973 ], [ 174.045118279000121, -41.446663988999944 ], [ 174.049991350000028, -41.466390965999949 ], [ 174.063872452000055, -41.493054972999971 ], [ 174.084136206000039, -41.526109007999935 ], [ 174.096772428000122, -41.515281935999951 ], [ 174.104554187000076, -41.507364054999982 ], [ 174.114681370000085, -41.513891042999944 ], [ 174.125791415000094, -41.523890988999938 ], [ 174.151091352000094, -41.551391007999939 ], [ 174.17747238600009, -41.582363983999983 ], [ 174.179554283000016, -41.59860895099996 ], [ 174.174136221000026, -41.608335813999929 ], [ 174.160245228000122, -41.620963988999961 ], [ 174.193027354000037, -41.685555102999956 ], [ 174.289700370000105, -41.737635890999968 ], [ 174.289154205000045, -41.748335892999933 ], [ 174.283327274000044, -41.762218000999951 ], [ 174.23635425000009, -41.837217929999952 ], [ 174.21219140300002, -41.865282050999951 ], [ 174.201354272000117, -41.87555507899998 ], [ 174.181091357000014, -41.892782068999963 ], [ 174.160945285000025, -41.905417955999951 ], [ 174.143581334000032, -41.915835823999942 ], [ 174.08856336000008, -41.95778205199997 ], [ 174.009154215000081, -42.027499872999954 ], [ 173.979672379000021, -42.061108957999977 ], [ 173.965236227000105, -42.086944833999951 ], [ 173.959136213000079, -42.100835826999969 ], [ 173.953854273000047, -42.119717907999984 ], [ 173.953581358000065, -42.133326932999978 ], [ 173.956363479000061, -42.166391026999975 ], [ 173.930818288000069, -42.199717976999978 ], [ 173.88109130700002, -42.245835878999969 ], [ 173.866763449000018, -42.253755100999967 ], [ 173.834691270000121, -42.271381907999967 ], [ 173.798172323000017, -42.29528206699996 ], [ 173.568572381000081, -42.476944898999932 ], [ 173.558591378000074, -42.487782028999959 ], [ 173.541354162000061, -42.511944876999962 ], [ 173.532627260000027, -42.52860893899998 ], [ 173.500827325000046, -42.599726872999952 ], [ 173.480809328000078, -42.621935898999936 ], [ 173.466063381000026, -42.656944928999962 ], [ 173.459963367000114, -42.670835921999981 ], [ 173.448854161000099, -42.690281936999952 ], [ 173.387754277000113, -42.793617895999944 ], [ 173.351627269000119, -42.840835838999965 ], [ 173.328036234000024, -42.902635945999975 ], [ 173.325809330000084, -42.913608862999979 ], [ 173.285518360000083, -42.958055077999973 ], [ 173.103145245000064, -43.059582053999975 ], [ 173.09051824300002, -43.064444898999966 ], [ 173.026363492000087, -43.081944803999932 ], [ 172.975800331000073, -43.091108906999978 ], [ 172.953036256000019, -43.092773049999948 ], [ 172.935518245000026, -43.098335950999967 ], [ 172.920254297000042, -43.105835910999986 ], [ 172.838009386000067, -43.14805505399994 ], [ 172.818027264000079, -43.160826894999957 ], [ 172.797763343000042, -43.183064084999955 ], [ 172.772218319000103, -43.219717979999984 ], [ 172.759418315000062, -43.242917913999975 ], [ 172.726763426000048, -43.419444818999978 ], [ 172.77581834700004, -43.612217863999945 ], [ 172.894136286000048, -43.619717990999959 ], [ 172.90554523000003, -43.620835968999984 ], [ 173.059691280000038, -43.653054998999949 ], [ 173.103027228000087, -43.700417948999984 ], [ 173.114409350000074, -43.74139103899995 ], [ 173.116909336000049, -43.766255115999968 ], [ 173.111481383000068, -43.829163981999955 ], [ 173.09164527400003, -43.856390917999931 ], [ 173.058591407000108, -43.871108869999944 ], [ 173.001691360000109, -43.867455029999974 ], [ 172.990909382000041, -43.849672989999931 ], [ 172.965236283000081, -43.802226891999965 ], [ 172.96011829300005, -43.760699925999972 ], [ 172.95135417500012, -43.755282031999968 ], [ 172.939972389000104, -43.756108989999973 ], [ 172.924545328000022, -43.768890889999966 ], [ 172.92053626400002, -43.828755112999943 ], [ 172.920581359000039, -43.872555082999952 ], [ 172.934327345000042, -43.884635919999937 ], [ 172.938563391000116, -43.894299918999934 ], [ 172.8662092940001, -43.902917856999977 ], [ 172.808163441000033, -43.880272971999943 ], [ 172.743281307000075, -43.834999965999941 ], [ 172.736909384000114, -43.825835862999952 ], [ 172.715236297000047, -43.80833595799993 ], [ 172.642763345000049, -43.772226886999931 ], [ 172.513027241000032, -43.729435929999966 ], [ 172.495236316000046, -43.723881912999957 ], [ 172.483581448000109, -43.722772987999974 ], [ 172.472200332000057, -43.723608998999964 ], [ 172.424991274000035, -43.733608943999968 ], [ 172.413300363000076, -43.743617942999947 ], [ 172.390254152000125, -43.763890916999969 ], [ 172.384981432000018, -43.778608867999935 ], [ 172.382445236000081, -43.795008899999971 ], [ 172.384018352000112, -43.816672934999986 ], [ 172.39400924500012, -43.854444807999982 ], [ 172.386936260000084, -43.863335827999947 ], [ 172.367463422000014, -43.867773039999975 ], [ 172.297209327000019, -43.881108982999933 ], [ 172.286927246000118, -43.883055092999939 ], [ 172.27554529300005, -43.883890936999933 ], [ 172.189700355000014, -43.909164050999948 ], [ 172.050809369000035, -43.965282066999976 ], [ 171.978572451000105, -43.995835947999979 ], [ 171.955227341000068, -44.006673077999949 ], [ 171.941072319000114, -44.015008880999972 ], [ 171.782472461000111, -44.076955000999931 ], [ 171.6546913520001, -44.122499915999981 ], [ 171.583591356000056, -44.153881928999965 ], [ 171.547209369000029, -44.173891040999933 ], [ 171.53848146100006, -44.178772996999953 ], [ 171.355563355000072, -44.28549105299993 ], [ 171.344463369000096, -44.293872955999973 ], [ 171.319972453000105, -44.316390938999973 ], [ 171.293581361000065, -44.34360899099994 ], [ 171.285518305000096, -44.356390889999943 ], [ 171.278591332000019, -44.369991030999984 ], [ 171.27051821900011, -44.387499987999945 ], [ 171.277345279000087, -44.399164076999966 ], [ 171.277891276000105, -44.424863997999978 ], [ 171.275545181000098, -44.437217917999931 ], [ 171.269991332000018, -44.451944921999939 ], [ 171.263309279000055, -44.46555495299998 ], [ 171.254972470000098, -44.478335846999983 ], [ 171.211636187000067, -44.535281993999945 ], [ 171.200527315000045, -44.541117977999932 ], [ 171.196072334000064, -44.560282025999982 ], [ 171.192200397000079, -44.645835944999931 ], [ 171.193027356000016, -44.663326964999953 ], [ 171.204954301000043, -44.700281937999932 ], [ 171.214691391000088, -44.743326866999951 ], [ 171.207181373000026, -44.85110892199998 ], [ 171.197191318000023, -44.923744817999932 ], [ 171.18524526200008, -44.938326982999968 ], [ 171.182127361000084, -44.941726850999942 ], [ 171.175018334000015, -44.94989987699995 ], [ 171.166672473000062, -44.96321788299997 ], [ 171.164700379000124, -44.970272930999954 ], [ 171.163300266000078, -44.978335818999938 ], [ 171.149718230000076, -44.996664022999937 ], [ 171.079954308000083, -45.067217854999967 ], [ 171.026645236000036, -45.103335978999951 ], [ 170.975527361000104, -45.151108971999975 ], [ 170.963991348000036, -45.166108890999965 ], [ 170.921627198000124, -45.243055096999967 ], [ 170.873427231000051, -45.362635853999961 ], [ 170.876891304000083, -45.373890905999986 ], [ 170.871336281000026, -45.42417293799997 ], [ 170.8578813150001, -45.490699935999942 ], [ 170.750272430000109, -45.61971787799996 ], [ 170.674681410000062, -45.745000005999941 ], [ 170.616909309000107, -45.839435891999983 ], [ 170.556636217000118, -45.88486396299993 ], [ 170.555545228000028, -45.896108956999967 ], [ 170.595791272000042, -45.89291796599997 ], [ 170.608581386000083, -45.888054953999983 ], [ 170.658600393000029, -45.858608991999972 ], [ 170.721345309000071, -45.81528192899998 ], [ 170.777209352000114, -45.784582034999971 ], [ 170.790800273000059, -45.80694495299997 ], [ 170.790800273000059, -45.846391026999981 ], [ 170.788881320000087, -45.863890931999947 ], [ 170.779709339000078, -45.880554993999965 ], [ 170.699981346000072, -45.911664092999956 ], [ 170.66442732500002, -45.908335973999954 ], [ 170.573300279000023, -45.916664065999953 ], [ 170.550536203000092, -45.919164051999985 ], [ 170.484409357000118, -45.926944804999948 ], [ 170.452454189000036, -45.93194494599993 ], [ 170.424409347000051, -45.939435851999974 ], [ 170.382718264000118, -45.956108966999977 ], [ 170.342472388000033, -45.973608871999943 ], [ 170.312472383000113, -45.994163980999986 ], [ 170.294436203000032, -46.013890957999934 ], [ 170.2816452510001, -46.029444919999946 ], [ 170.263609240000051, -46.051935912999966 ], [ 170.256381357000123, -46.065554996999936 ], [ 170.25276339200002, -46.086526853999942 ], [ 170.253600409000114, -46.111809020999942 ], [ 170.239254279000079, -46.150555038999983 ], [ 170.226627277000034, -46.16499990799997 ], [ 170.214418364000039, -46.174717886999986 ], [ 170.193845318000058, -46.188044944999945 ], [ 170.169436210000072, -46.198608992999937 ], [ 170.067745284000011, -46.246663952999938 ], [ 169.911927213000013, -46.340281932999972 ], [ 169.860791401000029, -46.374026971999967 ], [ 169.849400394000099, -46.389444812999955 ], [ 169.848018218000107, -46.416944830999967 ], [ 169.851072416000079, -46.437082017999955 ], [ 169.852327355000057, -46.46110891099994 ], [ 169.845245317000035, -46.469991046999951 ], [ 169.701909240000077, -46.558055009999975 ], [ 169.631345182000018, -46.581944942999939 ], [ 169.458009268000069, -46.623326901999974 ], [ 169.266391417000023, -46.656390994999981 ], [ 169.133027291000076, -46.670835863999969 ], [ 169.107727354000076, -46.669164009999974 ], [ 169.097200354000051, -46.666944816999944 ], [ 169.084409235000066, -46.657499920999953 ], [ 169.067200349000018, -46.635000042999934 ], [ 169.057891408000046, -46.676808975999961 ], [ 169.008027298000115, -46.680826924999963 ], [ 168.88081833800004, -46.664864092999949 ], [ 168.862181344000078, -46.623891003999972 ], [ 168.864681331000043, -46.607500023999933 ], [ 168.84038135500009, -46.562082010999973 ], [ 168.823854254000025, -46.561108871999977 ], [ 168.733309247000079, -46.577500018999956 ], [ 168.637072426000032, -46.605135824999934 ], [ 168.614681345000122, -46.611117988999979 ], [ 168.593018316000098, -46.614163972999961 ], [ 168.568845242000066, -46.615008867999961 ], [ 168.516936283000064, -46.614163972999961 ], [ 168.492736220000097, -46.61333584099998 ], [ 168.439372330000083, -46.600581936999959 ], [ 168.446627203000048, -46.584000017999983 ], [ 168.442200385000092, -46.575000032999981 ], [ 168.454409297000097, -46.574444815999982 ], [ 168.490509316000043, -46.573063980999962 ], [ 168.503309320000085, -46.58110893099996 ], [ 168.551636189000078, -46.594444874999965 ], [ 168.563872427000092, -46.584654978999936 ], [ 168.546236232000069, -46.569026920999931 ], [ 168.391354251000052, -46.539999886999965 ], [ 168.357745166000086, -46.546118005999972 ], [ 168.351900297000043, -46.560273028999973 ], [ 168.362727202000087, -46.583882 ], [ 168.350572436000107, -46.583335835999947 ], [ 168.36216343500007, -46.589244909999934 ], [ 168.364381454000068, -46.601999986999942 ], [ 168.351409286000035, -46.603164065999977 ], [ 168.275272435000034, -46.557781926999951 ], [ 168.268718290000038, -46.532363972999974 ], [ 168.28137244900006, -46.524582046999967 ], [ 168.30773621700007, -46.520555044999981 ], [ 168.318572342000039, -46.524999968999964 ], [ 168.324963375000038, -46.538608993999958 ], [ 168.339418302000013, -46.53917292899996 ], [ 168.389572426000086, -46.494999963999931 ], [ 168.395809233000023, -46.481390937999947 ], [ 168.394136205000109, -46.470273013999986 ], [ 168.371336255000074, -46.419026895999934 ], [ 168.354963380000072, -46.416255 ], [ 168.250272403000054, -46.400835818999951 ], [ 168.208591378000051, -46.353335908999952 ], [ 168.190109281000105, -46.344026966999934 ], [ 168.17499134600007, -46.340281932999972 ], [ 168.116363453000076, -46.343608877999941 ], [ 168.063872455000023, -46.351672938999968 ], [ 167.95553618800011, -46.371381978999977 ], [ 167.893036192000068, -46.387217907999968 ], [ 167.850800285000105, -46.399444925999944 ], [ 167.828291354000044, -46.3965268499999 ], [ 167.753872459000036, -46.333882013999983 ], [ 167.779145238000069, -46.309582038999963 ], [ 167.78248140300002, -46.294591004999972 ], [ 167.778045197000097, -46.284172969999986 ], [ 167.701909353000019, -46.209444949999977 ], [ 167.596927357000027, -46.166390968999963 ], [ 167.556636218000108, -46.156391022999969 ], [ 167.546354305000023, -46.154163951999976 ], [ 167.534427360000109, -46.152781942999979 ], [ 167.4830362350001, -46.149726906999945 ], [ 167.471072409000044, -46.149990936999984 ], [ 167.456072323000058, -46.153055025999947 ], [ 167.446072377000064, -46.159999934999973 ], [ 167.415527213000018, -46.204717891999962 ], [ 167.356627244000038, -46.254444873999944 ], [ 167.280272465000053, -46.273055045999968 ], [ 167.261109255000065, -46.26777293799995 ], [ 167.23855422400004, -46.263890942999979 ], [ 167.086636252000062, -46.240555053999969 ], [ 167.001372347000029, -46.229164047999973 ], [ 166.96606341200004, -46.224717950999946 ], [ 166.949981390000062, -46.223881939999956 ], [ 166.915254159000028, -46.226099958999953 ], [ 166.883027250000055, -46.229991005999977 ], [ 166.836363351000045, -46.232499877999942 ], [ 166.823027240000101, -46.231664033999948 ], [ 166.768036255000084, -46.223609024999973 ], [ 166.721909301000096, -46.212499985999955 ], [ 166.705227302000026, -46.201108979999958 ], [ 166.670536281000068, -46.157635902999971 ], [ 166.689136227000063, -46.143890922999958 ], [ 166.709409369000014, -46.135272985999961 ], [ 166.73886337700003, -46.119163973999946 ], [ 166.761227300000087, -46.093608891999963 ], [ 166.784909362000121, -46.06494496199997 ], [ 166.804745303000118, -46.033281987999942 ], [ 166.829954212000075, -46.00389101199994 ], [ 166.854672445000119, -45.994163980999986 ], [ 166.886936234000018, -45.990281985999957 ], [ 166.944627198000035, -45.949235973999976 ], [ 166.929691317000106, -45.947217946999956 ], [ 166.832200395000086, -45.982917980999957 ], [ 166.788572421000026, -46.007644930999959 ], [ 166.78110029000004, -46.016390943999966 ], [ 166.761445230000049, -46.045635906999962 ], [ 166.739381378000076, -46.066308865999986 ], [ 166.670536281000068, -46.087217857999974 ], [ 166.614681457000074, -46.088608918999967 ], [ 166.619263341000078, -46.056108927999958 ], [ 166.64080935800007, -46.015008935999958 ], [ 166.661654146000046, -45.991944955999941 ], [ 166.625791335000031, -45.967218005999939 ], [ 166.488436249000074, -46.013755002999972 ], [ 166.474972398000091, -46.002781917999982 ], [ 166.46621833800009, -45.986808860999986 ], [ 166.464691323000011, -45.839435891999983 ], [ 166.470654209000031, -45.819444884999939 ], [ 166.476900403000059, -45.809717853999985 ], [ 166.537472394000019, -45.798890949999929 ], [ 166.613863384000069, -45.801108968999984 ], [ 166.652191312000014, -45.800282009999933 ], [ 166.699981404000027, -45.798890949999929 ], [ 166.886081448000027, -45.778891057999942 ], [ 166.974118254000018, -45.734999891999962 ], [ 166.987181450000094, -45.709726944999943 ], [ 166.923036253000078, -45.705835897999975 ], [ 166.912472373000014, -45.705272969999953 ], [ 166.88748139300003, -45.704999886999985 ], [ 166.854127286000107, -45.70778200899997 ], [ 166.825809361000097, -45.714717865999944 ], [ 166.809418214000061, -45.721381981999969 ], [ 166.787472380000054, -45.689990915999942 ], [ 166.775818350000122, -45.662773032999951 ], [ 166.812991420000117, -45.61119096799996 ], [ 166.869691307000039, -45.588781949999941 ], [ 166.884181438000041, -45.585691038999983 ], [ 166.898281308000037, -45.586355052999977 ], [ 166.912872357000083, -45.590944815999933 ], [ 166.980254310000078, -45.578609000999961 ], [ 166.995954285000039, -45.578473046999932 ], [ 167.005827329000113, -45.571672975999945 ], [ 167.032472393000035, -45.52778197899994 ], [ 167.041354193000075, -45.501399937999963 ], [ 166.989681436000069, -45.519164040999954 ], [ 166.891691288000061, -45.54472683399996 ], [ 166.794036248000111, -45.570055101999969 ], [ 166.780927287000054, -45.571391008999967 ], [ 166.707454206000079, -45.576944857999933 ], [ 166.698163369000099, -45.550690892999967 ], [ 166.75747237500002, -45.425282030999938 ], [ 166.801363373000072, -45.353617931999963 ], [ 166.821627295000098, -45.320555011999943 ], [ 166.868836185000077, -45.279726928999935 ], [ 166.880800346000115, -45.27916400099997 ], [ 167.008327315000088, -45.341663996999955 ], [ 167.038300330000084, -45.357782061999956 ], [ 167.146945219000031, -45.427226967999957 ], [ 167.168854172000124, -45.472499973999959 ], [ 167.205227274000094, -45.47777303 ] ] ], [ [ [ 176.644136243000048, -40.379999918999943 ], [ 176.628300313000068, -40.421945979999975 ], [ 176.539981373000046, -40.494999965999966 ], [ 176.521363489000123, -40.513890931999981 ], [ 176.500827323000067, -40.534999916999936 ], [ 176.441927354000086, -40.600282034999964 ], [ 176.405245296000089, -40.643890897999938 ], [ 176.386109243000078, -40.67499999599994 ], [ 176.352309386000115, -40.691109008999945 ], [ 176.288572389000024, -40.793890922999935 ], [ 176.23913625900002, -40.908890969999959 ], [ 176.220791290000079, -40.931672982999942 ], [ 176.19552722800006, -40.941664043999936 ], [ 176.172763488000101, -40.952226918999941 ], [ 176.155681337000033, -40.96236399199995 ], [ 176.14220927100007, -40.975272960999973 ], [ 176.134154262000038, -40.987499978999949 ], [ 176.120791329000099, -41.013617988999954 ], [ 176.11300923500005, -41.035282023999969 ], [ 176.098300336000079, -41.087217971999962 ], [ 176.087463374000095, -41.116108883999971 ], [ 176.080809316000114, -41.129164033999984 ], [ 176.062191265000024, -41.151935819999949 ], [ 175.984681459000058, -41.231382013999962 ], [ 175.955227284000102, -41.25528200499997 ], [ 175.819118251000077, -41.347217903999933 ], [ 175.739963413000055, -41.394172990999948 ], [ 175.557736312000088, -41.48499996399994 ], [ 175.471072462000052, -41.54139089399996 ], [ 175.427463431000092, -41.564444815999934 ], [ 175.318163413000093, -41.61541785199995 ], [ 175.23080939700003, -41.62083591399994 ], [ 175.219554178000067, -41.615554979999956 ], [ 175.184691328000099, -41.53583587199995 ], [ 175.181918259000099, -41.519444891999967 ], [ 175.181091300000048, -41.500835893999977 ], [ 175.188563432000024, -41.461108857999932 ], [ 175.193436335000115, -41.441935924999939 ], [ 175.188581369000076, -41.427781907999929 ], [ 175.080263375000072, -41.385563937999962 ], [ 175.063018280000051, -41.38028199799993 ], [ 175.049281346000043, -41.378608969999959 ], [ 175.027191343000027, -41.381673057999933 ], [ 174.98953631400002, -41.395281915999931 ], [ 174.97274518200004, -41.40582685399994 ], [ 174.96050928000011, -41.415272922999975 ], [ 174.947481456000105, -41.428335951999941 ], [ 174.939281440000059, -41.440555089999975 ], [ 174.913591409000105, -41.448191003999966 ], [ 174.872463422000124, -41.42944487699998 ], [ 174.863572402000045, -41.422364012999935 ], [ 174.862745276000055, -41.343890958999964 ], [ 174.87079140000003, -41.327226896999946 ], [ 174.881500287000108, -41.31221792599996 ], [ 174.894436246000055, -41.290000014999976 ], [ 174.898881337000034, -41.278755021999984 ], [ 174.901918268000031, -41.254726954999967 ], [ 174.898863400000096, -41.234444928999949 ], [ 174.891236203000062, -41.22624491299996 ], [ 174.823018240000124, -41.220408928999973 ], [ 174.787472432000072, -41.244444873999953 ], [ 174.776227271000039, -41.259026870999946 ], [ 174.774845263000088, -41.279717934999951 ], [ 174.796081317000016, -41.286944811999945 ], [ 174.821072465000043, -41.286944811999945 ], [ 174.831363430000124, -41.297917895999944 ], [ 174.831072410000047, -41.313055110999983 ], [ 174.823991379000063, -41.326108918999978 ], [ 174.811491279000052, -41.334999938999943 ], [ 174.744691366000097, -41.347499870999968 ], [ 174.700527286000124, -41.344444834999933 ], [ 174.671909289000041, -41.338335936999954 ], [ 174.651509245000057, -41.3308358099999 ], [ 174.62967237600003, -41.314999879999959 ], [ 174.591918272000044, -41.278609008999979 ], [ 174.592881353000053, -41.267635923999933 ], [ 174.601072484000042, -41.250835907999942 ], [ 174.612181355000075, -41.234717842999942 ], [ 174.632618279000098, -41.234717842999942 ], [ 174.648591337000084, -41.234444928999949 ], [ 174.66692725300004, -41.229717870999934 ], [ 174.68136340500007, -41.221935943999938 ], [ 174.69470035400002, -41.213617910999972 ], [ 174.71565427400003, -41.197081924999964 ], [ 174.800809381000022, -41.100282006999976 ], [ 174.844418244000053, -41.041673056999969 ], [ 174.874391427000091, -41.018055032999939 ], [ 174.88760030100002, -41.014035910999951 ], [ 174.904709274000083, -41.008335880999937 ], [ 174.9321913550001, -40.987499978999949 ], [ 174.941654189000019, -40.976390939999931 ], [ 174.946363477000091, -40.96597307199994 ], [ 175.014981425000087, -40.848608992999971 ], [ 175.098572469000032, -40.755835908999984 ], [ 175.112727324000048, -40.738891053999964 ], [ 175.120791386000064, -40.726946002999966 ], [ 175.127745180000034, -40.71361793899996 ], [ 175.164154156000109, -40.631946014999983 ], [ 175.169709346000104, -40.616946096999982 ], [ 175.17190926100011, -40.609726930999955 ], [ 175.187472443000047, -40.530826902999934 ], [ 175.238009285000089, -40.329726939999944 ], [ 175.231354221000061, -40.280826916999956 ], [ 175.201627298000062, -40.181673024999952 ], [ 175.196345191000091, -40.166946020999944 ], [ 175.178318231000048, -40.134172947999957 ], [ 175.155545271000051, -40.095835965999981 ], [ 175.071627333000038, -40.003064055999971 ], [ 175.05554531000007, -39.98778200199996 ], [ 175.022218360000124, -39.958055079999951 ], [ 174.98635420800008, -39.930000011999937 ], [ 174.974118306000037, -39.920835908999948 ], [ 174.960781357000087, -39.912773020999964 ], [ 174.938872403000119, -39.902217857999972 ], [ 174.923036305000096, -39.895835876999968 ], [ 174.832472356000039, -39.863754980999943 ], [ 174.790800383000033, -39.854717947999973 ], [ 174.781100342000059, -39.853054977999932 ], [ 174.751372413000013, -39.865555077999943 ], [ 174.740509299000109, -39.866664003999972 ], [ 174.729672337000125, -39.865835871999934 ], [ 174.576081336000016, -39.829172924999966 ], [ 174.558018335000042, -39.824717942999939 ], [ 174.545809255000108, -39.820417858999974 ], [ 174.523863421000101, -39.805000018999976 ], [ 174.421354253000118, -39.726946059999932 ], [ 174.410518296000077, -39.716946113999938 ], [ 174.376063478000106, -39.678608964999967 ], [ 174.351209291000032, -39.637217953999937 ], [ 174.336636346000091, -39.625555037999959 ], [ 174.312472325000044, -39.612091018999934 ], [ 174.213027246000024, -39.578473049999957 ], [ 174.040800258000104, -39.552782012999955 ], [ 173.997745271000099, -39.551390952999952 ], [ 173.986909314000059, -39.550555108999959 ], [ 173.966627288000041, -39.543473071999983 ], [ 173.871063365000055, -39.483326880999982 ], [ 173.851900323000109, -39.470555039999965 ], [ 173.839963487000091, -39.461390937999965 ], [ 173.810791279000114, -39.437499998999954 ], [ 173.795254248000106, -39.421946036999941 ], [ 173.786654247000115, -39.409999980999942 ], [ 173.775818290000075, -39.390835931999959 ], [ 173.769718277000038, -39.376946112999974 ], [ 173.762209265000024, -39.354717975999961 ], [ 173.754427338000028, -39.304999878999979 ], [ 173.751918299000067, -39.288608899999929 ], [ 173.751645217000032, -39.269999900999949 ], [ 173.783581441000024, -39.188191016999951 ], [ 173.800536188000024, -39.169164096999964 ], [ 173.829954153000017, -39.145835918999978 ], [ 173.844418301000019, -39.138335959999949 ], [ 173.868009335000124, -39.128882010999973 ], [ 173.892763442000046, -39.12055509299995 ], [ 174.011109377000025, -39.073335808999957 ], [ 174.114681370000085, -39.024446011999942 ], [ 174.187745247000066, -38.988609016999931 ], [ 174.209136199000113, -38.977217842999949 ], [ 174.226627219000079, -38.972500004999972 ], [ 174.248018339000055, -38.970555067999953 ], [ 174.259981327000105, -38.970272933999979 ], [ 174.281372447000081, -38.969990965999955 ], [ 174.293027315000018, -38.969990965999955 ], [ 174.313291404000097, -38.972500004999972 ], [ 174.351345245000061, -38.979435861999946 ], [ 174.375245236000069, -38.979163953999944 ], [ 174.388736245000018, -38.975826949999941 ], [ 174.456363451000016, -38.940281980999941 ], [ 174.546081331000096, -38.871935941999936 ], [ 174.557736200000022, -38.860554993999983 ], [ 174.568027333000032, -38.850281965999955 ], [ 174.587736205000056, -38.828891013999964 ], [ 174.594418258000019, -38.815835863999951 ], [ 174.60330039400003, -38.786117993999937 ], [ 174.608581328000014, -38.763064071999963 ], [ 174.625518304000025, -38.677782062999938 ], [ 174.642491323000058, -38.590835909999953 ], [ 174.681091329000083, -38.379164020999951 ], [ 174.724400287000094, -38.185826873999929 ], [ 174.838563485000122, -38.157217929999945 ], [ 174.852191286000107, -38.155554959999961 ], [ 174.929554241000119, -38.11375507899993 ], [ 174.940245191000031, -38.101108966999959 ], [ 174.898591323000119, -38.07500000899995 ], [ 174.877163490000044, -38.064164051999967 ], [ 174.893036300000063, -37.973190897999984 ], [ 174.868281355000022, -37.943608981999944 ], [ 174.858154172000013, -37.942355049999946 ], [ 174.834691381000084, -37.963617925999984 ], [ 174.829145243000085, -37.972908930999949 ], [ 174.828581309000015, -37.994999939999957 ], [ 174.818727208000041, -38.001109005999979 ], [ 174.800672421000058, -38.000146092999955 ], [ 174.788727203000121, -37.99097293799997 ], [ 174.783736283000053, -37.976246101999948 ], [ 174.788454288000025, -37.864163962999953 ], [ 174.793309254000064, -37.849863932999938 ], [ 174.823163414000078, -37.82722692699997 ], [ 174.841336219000027, -37.818608988999983 ], [ 174.872745222000049, -37.806108888999972 ], [ 174.883327207000093, -37.804999963999933 ], [ 174.903045299000041, -37.807499949999965 ], [ 174.94525421600008, -37.810554985999943 ], [ 174.971500302000095, -37.807781916999943 ], [ 174.974972422000064, -37.749999926999976 ], [ 174.970654233000118, -37.740417901999933 ], [ 174.947891331000051, -37.74402698199998 ], [ 174.930818232000092, -37.752499912999951 ], [ 174.906918241000085, -37.774173 ], [ 174.866209349000087, -37.78402693299995 ], [ 174.848300407000124, -37.769717850999939 ], [ 174.828309232000038, -37.710826933999954 ], [ 174.764163365000059, -37.527781925999932 ], [ 174.744418284000062, -37.487500007999984 ], [ 174.72497243600003, -37.447217922999982 ], [ 174.717472476000012, -37.425000011999941 ], [ 174.714691361000064, -37.404026980999959 ], [ 174.722454177000031, -37.391809015999968 ], [ 174.744418284000062, -37.385835903999975 ], [ 174.760527296000078, -37.380282054999952 ], [ 174.770263379000085, -37.374026975999982 ], [ 174.831636345000106, -37.308055027999956 ], [ 174.840654267000104, -37.294172919999937 ], [ 174.829954265000083, -37.290554954999948 ], [ 174.817318378000095, -37.292646071999968 ], [ 174.801227303000019, -37.298335875999953 ], [ 174.766081312000097, -37.321109003999936 ], [ 174.753036221000116, -37.333754948999967 ], [ 174.742736203000049, -37.361945971999944 ], [ 174.728854263000017, -37.368746041999941 ], [ 174.714281318000076, -37.362917936999963 ], [ 174.701627327000097, -37.349726832999977 ], [ 174.694427272000098, -37.33694610699996 ], [ 174.660191388000044, -37.273308853999936 ], [ 174.645809383000028, -37.236390928999981 ], [ 174.639709370000105, -37.224446045999969 ], [ 174.59997244300007, -37.153881988999956 ], [ 174.578309246000117, -37.115555065999956 ], [ 174.569972438000036, -37.103617893999967 ], [ 174.555545171000063, -37.087499996999952 ], [ 174.550809395000101, -37.07722696899998 ], [ 174.555818253000098, -37.064863996999975 ], [ 174.568845239000098, -37.061391038999943 ], [ 174.644136188000061, -37.061108904999969 ], [ 174.663181381000072, -37.068745991999947 ], [ 174.66415418400004, -37.083055073999958 ], [ 174.64893633600002, -37.099863974999948 ], [ 174.703854231000037, -37.197772985999961 ], [ 174.73385423600007, -37.196109010999976 ], [ 174.720109256000114, -37.152217844999939 ], [ 174.87911831800011, -37.088890889999959 ], [ 174.887481446000038, -37.05916396799995 ], [ 174.795536326000047, -37.023055063999948 ], [ 174.80440924100003, -36.97221798299995 ], [ 174.82498144900012, -36.960826976999954 ], [ 174.831072410000047, -36.95180888699997 ], [ 174.82343632900006, -36.942217977999974 ], [ 174.770263379000085, -36.936663960999965 ], [ 174.696627354000043, -36.939717991999942 ], [ 174.686100354000018, -36.940835969999966 ], [ 174.656372425000086, -36.949446027999954 ], [ 174.641663359000063, -36.960826976999954 ], [ 174.622463436000089, -36.982217928999944 ], [ 174.618145247000029, -36.992500008999968 ], [ 174.60052732500003, -37.022226931999967 ], [ 174.524691385000096, -37.045555109999952 ], [ 174.512072430000103, -37.043755011999963 ], [ 174.500245229000029, -37.034726863999936 ], [ 174.490781390000052, -37.01916401699998 ], [ 174.484681376000026, -37.005564043999982 ], [ 174.459227212000087, -36.944026959999974 ], [ 174.45190930800004, -36.923890946999961 ], [ 174.446927272000039, -36.909163942999953 ], [ 174.443027340000071, -36.89361785899996 ], [ 174.439145178000103, -36.86860894199998 ], [ 174.436645192000015, -36.85222684799993 ], [ 174.43387245800011, -36.835555074999945 ], [ 174.427763392000088, -36.812773061999962 ], [ 174.422763419000034, -36.79805511 ], [ 174.416654185000084, -36.784173001999932 ], [ 174.407900293000125, -36.768199944999935 ], [ 174.390536342000019, -36.740282003999937 ], [ 174.344300255000121, -36.679335844999969 ], [ 174.301091377000034, -36.627217841999936 ], [ 174.284972474000028, -36.612782024999944 ], [ 174.267491344000064, -36.599163946999965 ], [ 174.236909300000093, -36.568064067999956 ], [ 174.20886345200006, -36.535281941999983 ], [ 174.187745247000066, -36.496945966999931 ], [ 174.177900366000017, -36.462917953999977 ], [ 174.179981425000051, -36.446246013999939 ], [ 174.18719137100004, -36.433754965999981 ], [ 174.200945236000052, -36.428199943999971 ], [ 174.243836272000067, -36.440835829999969 ], [ 174.254836347000037, -36.445826917999966 ], [ 174.300263412000049, -36.515835926999955 ], [ 174.348845259000086, -36.601946067999961 ], [ 174.369327277000025, -36.630835805999936 ], [ 174.426518344000101, -36.667635881999956 ], [ 174.454700314000092, -36.647917956999947 ], [ 174.46551833400008, -36.582782019999968 ], [ 174.46551833400008, -36.532217853999953 ], [ 174.442472458000111, -36.41471798799995 ], [ 174.420536347000052, -36.368473015999939 ], [ 174.391936288000124, -36.394999895999945 ], [ 174.381072335000113, -36.400272950999977 ], [ 174.300400373000116, -36.393473047999976 ], [ 174.285245221000082, -36.38249996299993 ], [ 174.276918303000116, -36.370555080999964 ], [ 174.269991331000028, -36.357781897999985 ], [ 174.268581327000106, -36.345835841999929 ], [ 174.292209242000013, -36.316946103999953 ], [ 174.304000400000064, -36.31555504399995 ], [ 174.330109358000072, -36.331255018999968 ], [ 174.372863435000113, -36.331255018999968 ], [ 174.421245289000012, -36.310608882999929 ], [ 174.506927282000106, -36.267217948999985 ], [ 174.519345240000121, -36.253335840999966 ], [ 174.505245202000083, -36.231381959999965 ], [ 174.41330025000002, -36.263064044999965 ], [ 174.378300272000047, -36.286663963999956 ], [ 174.364681356000119, -36.294164090999971 ], [ 174.346618355000032, -36.298054970999942 ], [ 174.336363431000109, -36.298890981999932 ], [ 174.305236228000012, -36.287508859999946 ], [ 174.36523623800008, -36.259999956999934 ], [ 174.442200382000124, -36.169726858999979 ], [ 174.396091365000075, -36.144446033999941 ], [ 174.395245295000109, -36.15555507299996 ], [ 174.371627271000079, -36.209726977999935 ], [ 174.358854257000075, -36.222217857999965 ], [ 174.345245231000035, -36.229717984999979 ], [ 174.335100278000027, -36.230972922999968 ], [ 174.307736214000101, -36.17694602499995 ], [ 174.278872460000116, -36.119717909999963 ], [ 174.239409286000068, -36.11139099199994 ], [ 174.229127206000044, -36.112499917999969 ], [ 174.19525425900008, -36.131108916999949 ], [ 174.188563488000113, -36.144164065999973 ], [ 174.185791425000048, -36.171946051999953 ], [ 174.194827284000098, -36.178199957999936 ], [ 174.222318250000058, -36.182499873999973 ], [ 174.2401002900001, -36.181808869999941 ], [ 174.287754260000042, -36.210282026999948 ], [ 174.313581418000012, -36.240272979999929 ], [ 174.267209377000086, -36.270282037999948 ], [ 174.255400281000107, -36.27278202399998 ], [ 174.065800290000084, -36.168335965999972 ], [ 173.999118227000054, -36.121108970999956 ], [ 173.99273624500006, -36.112635872999931 ], [ 173.931091371000093, -35.981946075999929 ], [ 173.938563335000026, -35.93499987499996 ], [ 173.947481344000039, -35.923891002999937 ], [ 173.947327285000028, -35.91179994 ], [ 173.911100364000049, -35.872081955999931 ], [ 173.904418311000086, -35.884163966999949 ], [ 173.921354281000049, -36.003063945999941 ], [ 173.980809300000033, -36.121382052999934 ], [ 173.990100305000055, -36.136946073999979 ], [ 174.124391302000049, -36.26361792199998 ], [ 174.178318288000014, -36.279726933999939 ], [ 174.199418220000098, -36.348055034999959 ], [ 174.198027327000091, -36.368608969999968 ], [ 174.191927313000065, -36.377499989999933 ], [ 174.115236252000045, -36.403608947999942 ], [ 174.089963473000012, -36.411381989999938 ], [ 174.080809261000013, -36.409435879999933 ], [ 174.067609272000027, -36.39708196 ], [ 174.057463481000013, -36.374717868999937 ], [ 174.049136228000066, -36.353617936999967 ], [ 174.044436327000085, -36.338890932999959 ], [ 174.039700384000071, -36.323335963999966 ], [ 174.031100384000069, -36.293064049999941 ], [ 174.020536336000077, -36.273890949999952 ], [ 173.826081379000016, -36.032500016999961 ], [ 173.737454319000108, -35.933608981999953 ], [ 173.727172406000022, -35.923617920999959 ], [ 173.590518215000088, -35.778055106999943 ], [ 173.39720034700008, -35.57069989799993 ], [ 173.398863484000117, -35.553608861999976 ], [ 173.446627257000046, -35.440282010999965 ], [ 173.465791305000039, -35.429172970999957 ], [ 173.504154270000072, -35.422499970999979 ], [ 173.540254289000018, -35.430826887999956 ], [ 173.62994517900006, -35.356663976999982 ], [ 173.655545188000019, -35.317917957999953 ], [ 173.56414522700004, -35.278054967999935 ], [ 173.553863482000111, -35.283608984999944 ], [ 173.549709243000052, -35.302781917999937 ], [ 173.550809284000024, -35.324864041999945 ], [ 173.566927349000025, -35.344164043999967 ], [ 173.568027222000069, -35.361673001999975 ], [ 173.563036302000114, -35.371245973999976 ], [ 173.439700284000082, -35.376108985999963 ], [ 173.413163346000033, -35.386673033999955 ], [ 173.39135430500005, -35.423055019999936 ], [ 173.395536204000109, -35.453891035999959 ], [ 173.392763470000091, -35.482773062999968 ], [ 173.381772448000106, -35.524717950999957 ], [ 173.306918365000115, -35.449163977999945 ], [ 173.237727262000021, -35.370282054999961 ], [ 173.154145271000061, -35.276664074999928 ], [ 173.103300311000112, -35.22609990899997 ], [ 173.089691285000072, -35.214164077999953 ], [ 173.095381424000038, -35.185554965999984 ], [ 173.119109251000054, -35.185554965999984 ], [ 173.131363425000018, -35.189300000999935 ], [ 173.148881435000021, -35.190555106999966 ], [ 173.166227281000033, -35.17639103199997 ], [ 173.180818331000069, -35.156109004999962 ], [ 173.18747238800006, -35.143335822999973 ], [ 173.191927202000102, -35.128335903999982 ], [ 173.196918290000099, -35.100417963999973 ], [ 173.198581428000125, -35.078890889999968 ], [ 173.198581428000125, -35.051108903999932 ], [ 173.193845317000068, -35.027217964999977 ], [ 173.18941833100007, -35.012781980999932 ], [ 173.177609235000091, -34.990135922999968 ], [ 173.159145244000115, -34.958335819999945 ], [ 173.15109140800007, -34.946664019999957 ], [ 173.137754291000078, -34.929999957999939 ], [ 172.947209324000028, -34.716946059999941 ], [ 172.828036263000058, -34.584446107999952 ], [ 172.812472409000065, -34.568890971999963 ], [ 172.722472394000079, -34.495281935999969 ], [ 172.739136288000054, -34.435555008999984 ], [ 172.900818340000114, -34.414717932999963 ], [ 172.911927211000034, -34.414717932999963 ], [ 173.020809307000036, -34.422226943999931 ], [ 173.038881361000108, -34.43694606899993 ], [ 173.04164521000007, -34.520000000999971 ], [ 173.028872363000119, -34.526808955999968 ], [ 173.012072347000071, -34.527781927999968 ], [ 172.997463360000097, -34.498335966999946 ], [ 172.984127249000039, -34.472773005999954 ], [ 172.958572335000099, -34.467082028999982 ], [ 172.910536318000027, -34.546945975999961 ], [ 172.923854157000051, -34.558891025999969 ], [ 172.936100285000066, -34.567217943999935 ], [ 172.973018377000017, -34.581117989999939 ], [ 173.05331835100003, -34.665555102999974 ], [ 173.057736285000033, -34.68028193899994 ], [ 173.110500365000121, -34.791390938999939 ], [ 173.120791331000078, -34.810554987999978 ], [ 173.128572419000079, -34.822499869999945 ], [ 173.135800302000121, -34.830281963999937 ], [ 173.151918367000121, -34.839999942999953 ], [ 173.213591404000113, -34.871935831999963 ], [ 173.24273628800006, -34.884726951999937 ], [ 173.271091428000091, -34.94360898399998 ], [ 173.261091315000044, -34.962908985999945 ], [ 173.259427339000013, -34.978882043999931 ], [ 173.266918246000046, -35.017090949999954 ], [ 173.317472354000074, -35.018891046999954 ], [ 173.328581393000036, -35.009445982999978 ], [ 173.358854313000052, -34.981108947999928 ], [ 173.364681412000095, -34.972217927999964 ], [ 173.372254294000072, -34.932109012999945 ], [ 173.400818312000069, -34.863335831999962 ], [ 173.426091426000085, -34.819999883999969 ], [ 173.450809323000044, -34.807781918999979 ], [ 173.498027266000122, -34.868817931999956 ], [ 173.447872472000086, -34.888754958999982 ], [ 173.433318303000078, -34.890555056999972 ], [ 173.413027224000075, -34.888890913999944 ], [ 173.402481449000106, -34.894864025999937 ], [ 173.400954266000099, -34.910135852999929 ], [ 173.411591404000092, -34.931781950999948 ], [ 173.419127238000101, -34.945826834999934 ], [ 173.429272358000048, -34.960555012999976 ], [ 173.44165427300004, -34.973326853999936 ], [ 173.454127216000074, -34.981663997999931 ], [ 173.471500387000106, -34.990281934999985 ], [ 173.493281433000107, -34.995281907999981 ], [ 173.541654234000021, -34.988608906999957 ], [ 173.562054278000119, -34.954864035999947 ], [ 173.566927349000025, -34.936108856999965 ], [ 173.575809316000118, -34.929582035999942 ], [ 173.589418342000045, -34.928608896999947 ], [ 173.839145245000054, -35.004172927999946 ], [ 174.101072344000045, -35.121108859999936 ], [ 174.098572358000069, -35.170835841999974 ], [ 174.094972330000019, -35.159855044999972 ], [ 174.056636187000095, -35.15555496099995 ], [ 174.021909292000032, -35.164164013999937 ], [ 174.008027351000123, -35.207499962999975 ], [ 174.009709264000094, -35.218190911999955 ], [ 174.018309265000084, -35.224999867999941 ], [ 174.097181465000062, -35.227081931999976 ], [ 174.143581334000032, -35.328608907999978 ], [ 174.208009336000032, -35.323335852999946 ], [ 174.218018334000021, -35.322226926999974 ], [ 174.24774525700002, -35.278609011999947 ], [ 174.319972452000115, -35.232773076999933 ], [ 174.383881446000032, -35.337773010999967 ], [ 174.461636339000052, -35.445272930999977 ], [ 174.491909259000067, -35.485273048999943 ], [ 174.575809260000028, -35.601946123999937 ], [ 174.577163440000049, -35.614046071999951 ], [ 174.566636273000086, -35.649863955999933 ], [ 174.53027239100004, -35.649446034999983 ], [ 174.52026339300005, -35.64860885 ], [ 174.509281424000051, -35.643755057999954 ], [ 174.476700295000114, -35.646245991999933 ], [ 174.520672430000104, -35.726799936999953 ], [ 174.558027220000099, -35.751673066999956 ], [ 174.583863431000054, -35.764726875999941 ], [ 174.602445272000068, -35.844445982999957 ], [ 174.593036250000068, -35.850555049999969 ], [ 174.577754197000104, -35.852226903999963 ], [ 174.557872322000094, -35.845555076999972 ], [ 174.538572320000071, -35.819455003999963 ], [ 174.521518332000028, -35.793472947999931 ], [ 174.491054305000034, -35.769446054999946 ], [ 174.359681383000066, -35.723472991999984 ], [ 174.348572344000104, -35.734726869999974 ], [ 174.34872724100012, -35.836255019999953 ], [ 174.35800030900009, -35.84721787899997 ], [ 174.383027330000118, -35.847917934999941 ], [ 174.385527317000083, -35.828891014999954 ], [ 174.394972381000116, -35.822781948999932 ], [ 174.437472318000118, -35.822773063999932 ], [ 174.476072323000039, -35.824173008999935 ], [ 174.486354236000125, -35.824718000999951 ], [ 174.522627258000057, -35.846945969999979 ], [ 174.522891288000096, -35.8588910199999 ], [ 174.499145188000057, -35.892773019999936 ], [ 174.487181362000115, -35.914999982999973 ], [ 174.496763387000101, -35.991390971999977 ], [ 174.514163379000024, -36.008608909999964 ], [ 174.574009330000081, -36.038064091999956 ], [ 174.592181464000078, -36.037781956999936 ], [ 174.609818329000063, -36.039864020999971 ], [ 174.622191359000112, -36.053054957999962 ], [ 174.629254286000105, -36.070417902999964 ], [ 174.616363422000063, -36.100863992999962 ], [ 174.6349813060001, -36.12471788299996 ], [ 174.708863424000015, -36.205554968999934 ], [ 174.781100342000059, -36.266946039999937 ], [ 174.812745212000095, -36.339164014999938 ], [ 174.768309390000013, -36.346390891999931 ], [ 174.710781371000053, -36.525835871999959 ], [ 174.708163367000111, -36.53749996099998 ], [ 174.715945294000107, -36.599446081999929 ], [ 174.774418289000096, -36.730282058999933 ], [ 174.808318226000097, -36.805272934999948 ], [ 174.854400253000108, -36.847781924999936 ], [ 174.896636328000113, -36.878335805999939 ], [ 175.016236196000023, -36.872773071999973 ], [ 175.05554531000007, -36.880281915999944 ], [ 175.076627305000102, -36.89083590599995 ], [ 175.084963444000095, -36.898055070999931 ], [ 175.091645329000016, -36.925563974999932 ], [ 175.16165417000002, -36.955555094999966 ], [ 175.225663412000017, -36.938608897999984 ], [ 175.278318360000071, -36.965281957999935 ], [ 175.310518279000121, -36.994999995999933 ], [ 175.321918338000046, -37.009026942999981 ], [ 175.328854195000076, -37.026946110999972 ], [ 175.33040032100007, -37.039863964999938 ], [ 175.321900401000107, -37.064717984999959 ], [ 175.319427237000014, -37.095273038999949 ], [ 175.318436328000075, -37.148326965999956 ], [ 175.328854195000076, -37.168890959999942 ], [ 175.373291358000074, -37.216663951999976 ], [ 175.385254178000082, -37.225826880999932 ], [ 175.404972438000073, -37.228054958999962 ], [ 175.579127264000022, -37.244446105999941 ], [ 175.58914531400012, -37.169446008999955 ], [ 175.551636298000062, -37.024717865999946 ], [ 175.547481388000051, -37.009172955999929 ], [ 175.542481415000111, -36.994446119999964 ], [ 175.536100272000112, -36.980826867999951 ], [ 175.524991401000079, -36.96167304599993 ], [ 175.498563428000125, -36.927226943999983 ], [ 175.480381403000024, -36.919026927999937 ], [ 175.464418236000029, -36.908891027999971 ], [ 175.435245190000046, -36.866945972999929 ], [ 175.466918223000107, -36.809999992999963 ], [ 175.509427212000105, -36.776108940999961 ], [ 175.486354180000035, -36.67972694499997 ], [ 175.463591278000081, -36.621382024999946 ], [ 175.378300384000113, -36.570555001999935 ], [ 175.364000354000041, -36.559026867999933 ], [ 175.356627296000056, -36.541672975999973 ], [ 175.353854228000046, -36.525000028999955 ], [ 175.352445230000058, -36.489999883999928 ], [ 175.356900379000081, -36.47999088499995 ], [ 175.540391304000082, -36.517363947999968 ], [ 175.604945202000067, -36.622772917999953 ], [ 175.63107243200011, -36.710555081999985 ], [ 175.763609265000014, -36.713617996999972 ], [ 175.84079133900002, -36.754172996999955 ], [ 175.733581432000051, -36.80582697899996 ], [ 175.701627270000017, -36.844163959999946 ], [ 175.708709308000039, -36.872635943999967 ], [ 175.717609380000113, -36.883054984999944 ], [ 175.739809354000045, -36.892635834999965 ], [ 175.758945239000013, -36.871182018999946 ], [ 175.751081337000073, -36.854591046999928 ], [ 175.75110028000006, -36.839308993999964 ], [ 175.760954213000105, -36.82902691299995 ], [ 175.812609368000039, -36.824999911999953 ], [ 175.833591284000022, -36.83083589599994 ], [ 175.847318327000039, -36.842917905999968 ], [ 175.879818318000048, -36.918054962999975 ], [ 175.918309359000091, -37.067499937999969 ], [ 175.916363416000081, -37.079445993999968 ], [ 175.898318352000047, -37.115008900999953 ], [ 175.883745240000053, -37.172917960999939 ], [ 175.88970929900006, -37.246946091999973 ], [ 175.921081422000043, -37.251672982999935 ], [ 175.929000309000116, -37.259308895999936 ], [ 175.936372360000064, -37.278881980999984 ], [ 175.940091410000036, -37.299717883999961 ], [ 175.974400384000091, -37.418063986999982 ], [ 175.976072406000071, -37.453055079999956 ], [ 176.031245278000029, -37.485190961999933 ], [ 176.059418364000067, -37.502499926999974 ], [ 176.090791324000065, -37.528335969999944 ], [ 176.165600313000027, -37.62103596399993 ], [ 176.082454181000116, -37.602499887999954 ], [ 176.066927208000038, -37.596390988999929 ], [ 176.059145281000042, -37.588746022999942 ], [ 176.066772478000075, -37.57930900599996 ], [ 176.09051824200003, -37.576735928999938 ], [ 176.06247239400011, -37.546673059999932 ], [ 176.020918271000028, -37.527135848999933 ], [ 176.010754207000105, -37.524390943999947 ], [ 175.955536241000118, -37.521108925999954 ], [ 175.943572415000062, -37.525417893999929 ], [ 175.953581413000052, -37.55889102499998 ], [ 175.99441838100006, -37.638890925999931 ], [ 176.071900359000097, -37.655273020999971 ], [ 176.144991393000055, -37.675281964999954 ], [ 176.242191295000111, -37.7094461 ], [ 176.26749139900005, -37.676390890999983 ], [ 176.488281458000074, -37.756672926999954 ], [ 176.524700325000026, -37.771663960999945 ], [ 176.537472334000086, -37.784446027999934 ], [ 176.549709242000063, -37.793335874999968 ], [ 176.656645228000116, -37.855563961999962 ], [ 176.671081379000043, -37.862499986999978 ], [ 176.686645233000036, -37.868326918999969 ], [ 176.759154227000067, -37.89277307499998 ], [ 176.784145207000051, -37.900273033999952 ], [ 176.803036340000062, -37.903326896999943 ], [ 176.81970040200008, -37.904446047999954 ], [ 176.838291296000079, -37.907499910999945 ], [ 176.917754253000112, -37.926108909999982 ], [ 176.943845273000079, -37.932499942999982 ], [ 177.082736259000058, -37.967217953999977 ], [ 177.107463376000055, -37.987217844999975 ], [ 177.159427321000067, -38.013335855999969 ], [ 177.415254238000102, -37.982500006999942 ], [ 177.473572335000085, -37.962499947999959 ], [ 177.549136199000031, -37.917081934999942 ], [ 177.571627359000104, -37.90221797099997 ], [ 177.601345230000106, -37.875273001999972 ], [ 177.646945297000116, -37.804999963999933 ], [ 177.732181374000106, -37.682499956999948 ], [ 177.742891267000118, -37.676808979999976 ], [ 177.791927245000124, -37.666945994999935 ], [ 177.854127337000023, -37.656935822999969 ], [ 177.87190032400008, -37.652917873999968 ], [ 178.000000280000108, -37.592226859999982 ], [ 178.009427239000047, -37.585826940999937 ], [ 178.01800930200011, -37.550826962999963 ], [ 178.060391390000063, -37.542499877999944 ], [ 178.187745189000111, -37.546955026999967 ], [ 178.281918386000029, -37.560826908999957 ], [ 178.309418237000045, -37.570699952999973 ], [ 178.309691319000081, -37.58124606399997 ], [ 178.321072435000019, -37.602499887999954 ], [ 178.33636337300004, -37.618326932999935 ], [ 178.349700323000093, -37.626946043999965 ], [ 178.367736334000028, -37.63082686499996 ], [ 178.452745261000018, -37.645972963999952 ], [ 178.468018262000101, -37.646946102999948 ], [ 178.488863385000059, -37.644163981999952 ], [ 178.500809273000073, -37.648326937999968 ], [ 178.550536255000111, -37.687499929999944 ], [ 178.557618293000019, -37.695690893999938 ], [ 178.564000274000023, -37.716664091999974 ], [ 178.48330936800005, -37.82639091599998 ], [ 178.452609307000102, -37.862499986999978 ], [ 178.429691339000101, -37.876946029999942 ], [ 178.419981407000023, -37.887781986999983 ], [ 178.350527281000041, -38.004717917999983 ], [ 178.347336291000033, -38.015417919999948 ], [ 178.351900405000038, -38.029999916999941 ], [ 178.362181312000075, -38.040563964999933 ], [ 178.37579134300006, -38.072772936999968 ], [ 178.378018247000114, -38.094300010999973 ], [ 178.353854226000067, -38.185554964999938 ], [ 178.319972394000047, -38.248054961999969 ], [ 178.317745322000064, -38.259726928999953 ], [ 178.320800359000032, -38.398608862999936 ], [ 178.302463437000029, -38.528881910999985 ], [ 178.298445320000042, -38.539173043999938 ], [ 178.158872382000027, -38.649172950999969 ], [ 178.074981434000051, -38.713890965999951 ], [ 178.064272379000045, -38.719435930999964 ], [ 178.04761837500007, -38.719299975999945 ], [ 177.928863403000037, -38.722217883999974 ], [ 177.941072483000085, -38.793617952999966 ], [ 177.923854210000059, -38.918335810999963 ], [ 177.917781354000113, -38.942799904999958 ], [ 177.909700361000091, -38.969717883999976 ], [ 177.897709378000059, -39.047946018999937 ], [ 177.893863425000063, -39.064781909999965 ], [ 177.906709362000015, -39.064282012999968 ], [ 177.923036304000107, -39.089164027999971 ], [ 177.9422003520001, -39.091945980999981 ], [ 177.96774520800011, -39.098335841999983 ], [ 177.991336242000102, -39.11500895599994 ], [ 177.998000358000013, -39.123890922999976 ], [ 177.909972437000079, -39.256954977999953 ], [ 177.898863398000117, -39.267499914999973 ], [ 177.874972459000105, -39.286117965999949 ], [ 177.864963461000116, -39.288064075999955 ], [ 177.844972454000072, -39.251399954999954 ], [ 177.839418270000124, -39.23694603399997 ], [ 177.824127332000103, -39.193055035999976 ], [ 177.825100303000113, -39.180555102999961 ], [ 177.841645174000064, -39.152782001999981 ], [ 177.822018277000097, -39.114446026999929 ], [ 177.821136333000027, -39.103946016999942 ], [ 177.680263363000108, -39.075281919999952 ], [ 177.628845248000061, -39.07110890499996 ], [ 177.426091368000016, -39.064163995999934 ], [ 177.387754219000044, -39.077781905999984 ], [ 177.246918297000093, -39.12833584699996 ], [ 177.206081329000085, -39.143617899999981 ], [ 177.149136188000057, -39.164999967999961 ], [ 177.054963493000059, -39.204446041999972 ], [ 176.933581465000088, -39.352781923999942 ], [ 176.903872480000018, -39.398055097999929 ], [ 176.898863454000093, -39.412218 ], [ 176.898591378000106, -39.442218004999972 ], [ 176.946627227000022, -39.664446062999957 ], [ 177.010800251000092, -39.654999993999979 ], [ 177.107181409000077, -39.660826924999981 ], [ 177.118854215000056, -39.665408975999981 ], [ 177.117445217000068, -39.679308853999942 ], [ 177.082736259000058, -39.729991036999934 ], [ 177.070800261000045, -39.743746075999979 ], [ 177.054981431000101, -39.750281948999941 ], [ 177.030963422000013, -39.760008979999952 ], [ 177.021927228000095, -39.771390933999953 ], [ 176.89471826800002, -40.034726862999946 ], [ 176.890254234000054, -40.053890910999939 ], [ 176.894009327000049, -40.086526856999967 ], [ 176.874118232000114, -40.121381995999968 ], [ 176.834136219000015, -40.181673024999952 ], [ 176.808318280000094, -40.21666395099993 ], [ 176.796936326000036, -40.226390981999941 ], [ 176.687191397000106, -40.321390969999982 ], [ 176.644136243000048, -40.379999918999943 ] ] ], [ [ [ 168.011654204000024, -46.730608891999964 ], [ 168.05469142100003, -46.791944809999961 ], [ 168.095518330000118, -46.819173086999967 ], [ 168.182891289000054, -46.86652698499995 ], [ 168.191927316000033, -46.905273002999934 ], [ 168.172763436000082, -46.910282027999983 ], [ 168.159427325000024, -46.909717925999985 ], [ 168.048309272000097, -46.935826883999937 ], [ 168.225527349000117, -46.971664045999944 ], [ 168.259427286000118, -47.003335905999961 ], [ 168.242736234000063, -47.043890905999945 ], [ 168.217745255000068, -47.072500017999971 ], [ 168.156372456000099, -47.115009007999959 ], [ 168.144436291000034, -47.113617946999966 ], [ 168.113863467000101, -47.106108934999952 ], [ 168.101900312000112, -47.106663984999955 ], [ 168.053036330000054, -47.110281949999944 ], [ 168.042209258000071, -47.111673009999947 ], [ 168.001354186000071, -47.124308896999935 ], [ 167.956363482000029, -47.153326877999973 ], [ 167.904418314000054, -47.186664053999948 ], [ 167.891081364000115, -47.191108977999932 ], [ 167.879118209000012, -47.189717916999939 ], [ 167.782472351000024, -47.167500005999955 ], [ 167.778045197000097, -47.157217924999941 ], [ 167.769291305000024, -47.140972958999953 ], [ 167.724400346000039, -47.154999905999944 ], [ 167.693027218000111, -47.172226896999973 ], [ 167.61975429600011, -47.223263969999948 ], [ 167.636936192000121, -47.226664004999975 ], [ 167.648036179000087, -47.225272943999983 ], [ 167.689145223000082, -47.216944852999973 ], [ 167.719272465000017, -47.212635883999951 ], [ 167.71122734700009, -47.242635888999985 ], [ 167.701081389000024, -47.249444844999971 ], [ 167.678591401000062, -47.26139090099997 ], [ 167.60580932400012, -47.274172967999959 ], [ 167.536372465000113, -47.279444849999948 ], [ 167.522336297000038, -47.276526940999986 ], [ 167.518581372000085, -47.265835823999964 ], [ 167.521909323000045, -47.229435900999931 ], [ 167.529981431000124, -47.201244877999954 ], [ 167.543309328000078, -47.187217929999974 ], [ 167.624118251000027, -47.112499968999941 ], [ 167.740236276000019, -47.002499894999971 ], [ 167.796218337000028, -46.939164054999935 ], [ 167.80912730600005, -46.920000006999942 ], [ 167.813309373000038, -46.903755039999965 ], [ 167.811645230000067, -46.891673029999936 ], [ 167.802181390000101, -46.862781949999942 ], [ 167.792754264000109, -46.846808892999945 ], [ 167.779145238000069, -46.833608903999959 ], [ 167.766391334000105, -46.823890924999944 ], [ 167.756381330000067, -46.80833595699994 ], [ 167.757472319000044, -46.756390955999962 ], [ 167.772900385000071, -46.70291793399997 ], [ 167.798309286000062, -46.688326883999935 ], [ 167.92190933400002, -46.682217985999955 ], [ 167.998581452000053, -46.717782065999984 ], [ 168.011654204000024, -46.730608891999964 ] ] ], [ [ [ -176.655064064999976, -44.011982007999961 ], [ -176.645044840999986, -44.011118000999943 ], [ -176.630864001999981, -44.006817916999978 ], [ -176.563326984999975, -43.974717909999981 ], [ -176.523372966999972, -43.936109019999947 ], [ -176.517117887999973, -43.918754959999944 ], [ -176.517790953999963, -43.907782042999941 ], [ -176.532408993999979, -43.873744810999938 ], [ -176.553644880999968, -43.845835922999981 ], [ -176.564455020999986, -43.834726882999973 ], [ -176.579863976999974, -43.822644872999945 ], [ -176.618055112999969, -43.80500901299996 ], [ -176.63140899299998, -43.801663962999953 ], [ -176.654191005999962, -43.80014482699994 ], [ -176.663482010999985, -43.810699989999932 ], [ -176.683226924999985, -43.83098201699994 ], [ -176.79226408599996, -43.840844834999984 ], [ -176.833755009999976, -43.842091055999958 ], [ -176.848755095999962, -43.815973045999954 ], [ -176.842517953999987, -43.803055023999946 ], [ -176.749173056999979, -43.772499968999966 ], [ -176.604735932999972, -43.728890938999939 ], [ -176.557799957999976, -43.717508984999938 ], [ -176.479190948999985, -43.724026919999972 ], [ -176.463344960999962, -43.730555081999967 ], [ -176.452235921999971, -43.736117982999986 ], [ -176.385835992999972, -43.748890997999979 ], [ -176.374417996999966, -43.748890997999979 ], [ -176.330599921999976, -43.748890997999979 ], [ -176.269199965999974, -43.763890916999969 ], [ -176.313664118999981, -43.796390907999978 ], [ -176.351944940999971, -43.790563976999977 ], [ -176.361826869999987, -43.777508994999948 ], [ -176.371945000999972, -43.770844878999981 ], [ -176.397826976999966, -43.76307301099996 ], [ -176.424473046999964, -43.756108989999973 ], [ -176.435026868999984, -43.755008948999944 ], [ -176.511418025999973, -43.749444873999948 ], [ -176.527217912999987, -43.755573050999942 ], [ -176.535555056999982, -43.771673010999962 ], [ -176.532808977999963, -43.783900027999948 ], [ -176.498082081999968, -43.869990890999929 ], [ -176.45194490199998, -43.954999985999962 ], [ -176.354735946999966, -44.01250889399995 ], [ -176.377226940999975, -44.056117924999967 ], [ -176.512264094999978, -44.120554978999962 ], [ -176.522281977999967, -44.12306401799998 ], [ -176.533355142999966, -44.124999902999946 ], [ -176.545017890999986, -44.124999902999946 ], [ -176.577482006999986, -44.123326874999975 ], [ -176.602082054999983, -44.120282064999969 ], [ -176.610290955999972, -44.09402692599997 ], [ -176.608918, -44.082226882999976 ], [ -176.62889107, -44.042781981999951 ], [ -176.655064064999976, -44.011982007999961 ] ] ], [ [ [ 166.291927222000027, -50.568335858999944 ], [ 166.242191356000035, -50.599444957999935 ], [ 166.198854234000123, -50.628335868999955 ], [ 166.141354210000031, -50.698055030999967 ], [ 166.171354215000065, -50.723326971999938 ], [ 166.229400404000103, -50.754173046999938 ], [ 166.250545263000049, -50.822917895999979 ], [ 166.247881327000073, -50.83958195799994 ], [ 166.237872328000094, -50.851808974999983 ], [ 166.225527294000017, -50.857781919999979 ], [ 166.212463427000102, -50.858055001999958 ], [ 166.201354220000098, -50.855564067999978 ], [ 166.154418245000102, -50.838890953999964 ], [ 166.021500371000116, -50.838055109999971 ], [ 166.011381402000097, -50.845272934999969 ], [ 166.000827244000106, -50.847500006999951 ], [ 165.893036305000123, -50.84763596099998 ], [ 165.887072413000055, -50.808608981999953 ], [ 165.899136318000046, -50.771117901999958 ], [ 165.908018286000015, -50.762781931999939 ], [ 165.98358131100008, -50.720272941999951 ], [ 166.001645318000101, -50.713890960999947 ], [ 166.012209366000093, -50.71167294199995 ], [ 166.039836287000071, -50.707773009999983 ], [ 166.057191353000121, -50.695826953999983 ], [ 166.089536279000072, -50.665690993999931 ], [ 166.117736186000116, -50.576117952999937 ], [ 166.11636339800009, -50.564164017999985 ], [ 166.106763437000041, -50.548335967999947 ], [ 166.108309227000063, -50.536664 ], [ 166.123563453000088, -50.528055114999972 ], [ 166.133881408000093, -50.526109003999977 ], [ 166.188018277000083, -50.526944847999971 ], [ 166.199400399000069, -50.527217929999949 ], [ 166.223572466000064, -50.529444833999946 ], [ 166.281918224000037, -50.554999915999986 ], [ 166.291927222000027, -50.568335858999944 ] ] ], [ [ [ 175.523036238000032, -36.348309006999955 ], [ 175.513181467000095, -36.347082063999949 ], [ 175.464281444000108, -36.320555016999947 ], [ 175.35885420000011, -36.229435849999959 ], [ 175.359545205000018, -36.092500026999971 ], [ 175.364681467000082, -36.078755045999969 ], [ 175.375781454000048, -36.069173021999973 ], [ 175.38888136300011, -36.065835850999974 ], [ 175.413454253000054, -36.068335837999939 ], [ 175.529418219000036, -36.178608994999934 ], [ 175.559554179000088, -36.318755086999943 ], [ 175.542481415000111, -36.35055502199998 ], [ 175.523036238000032, -36.348309006999955 ] ] ], [ [ [ 166.736054265000121, -45.637799989999962 ], [ 166.741636278000101, -45.648055080999939 ], [ 166.748018259000105, -45.662217982999948 ], [ 166.751918358000012, -45.677226953999934 ], [ 166.753327356000113, -45.701944850999951 ], [ 166.749145290000115, -45.723608885999965 ], [ 166.741054238000061, -45.731944855999984 ], [ 166.716372383000021, -45.741673060999972 ], [ 166.652463389000104, -45.745835848999945 ], [ 166.504700326000034, -45.722773042999961 ], [ 166.508327343000019, -45.711944796999944 ], [ 166.526918237000018, -45.68694493299995 ], [ 166.565654197000072, -45.643890951999936 ], [ 166.576627282000118, -45.638054967999949 ], [ 166.616618348000088, -45.627499971999953 ], [ 166.715236300000015, -45.615973010999937 ], [ 166.728163374000019, -45.624444935999975 ], [ 166.736054265000121, -45.637799989999962 ] ] ], [ [ [ 173.784700258000044, -40.911381903999938 ], [ 173.799136242000031, -40.879717923999976 ], [ 173.809145240000021, -40.816109001999962 ], [ 173.822054210000033, -40.766108936999956 ], [ 173.829127362000122, -40.757782018999933 ], [ 173.960118237000074, -40.709726891999935 ], [ 173.966372478000039, -40.718054982999945 ], [ 173.967191390000039, -40.739726896999969 ], [ 173.959409295000114, -40.795146028999966 ], [ 173.923445231000073, -40.865972943999964 ], [ 173.805818295000108, -40.927781935999974 ], [ 173.783718234000048, -40.932499941999936 ], [ 173.777463490000059, -40.923335838999947 ], [ 173.783600385000113, -40.912217914999985 ], [ 173.784700258000044, -40.911381903999938 ] ] ], [ [ [ 169.209381400000098, -52.465791039999942 ], [ 169.209691363000047, -52.485835857999973 ], [ 169.216918240000041, -52.528335962999961 ], [ 169.236209357000121, -52.539035965999972 ], [ 169.238163347000068, -52.55430896699994 ], [ 169.226209244000074, -52.56528205099994 ], [ 169.185518289000015, -52.576955024999961 ], [ 169.161654173000102, -52.578055065999934 ], [ 169.124663493000071, -52.576108955999985 ], [ 169.113009294000108, -52.574173070999962 ], [ 169.028318377000119, -52.559164099999975 ], [ 169.017209338000043, -52.548055060999957 ], [ 169.00775421600008, -52.536117889999957 ], [ 169.000109249000047, -52.518890898999985 ], [ 169.003327230000082, -52.504172947999962 ], [ 169.163609335000046, -52.44582685499995 ], [ 169.174136335000071, -52.443326868999975 ], [ 169.208009282000035, -52.444164052999952 ], [ 169.212327304000041, -52.458191 ], [ 169.209381400000098, -52.465791039999942 ] ] ], [ [ [ 175.169436264000069, -36.829181977999951 ], [ 175.164700321000055, -36.833882046999975 ], [ 175.088863375000074, -36.83360896399995 ], [ 175.007336291000115, -36.802772947999983 ], [ 175.00247244000002, -36.792782054999975 ], [ 175.013872332000119, -36.76902690299994 ], [ 175.189272373000108, -36.728464023999948 ], [ 175.212054218000048, -36.756526970999971 ], [ 175.185809306000124, -36.821108864999928 ], [ 175.169436264000069, -36.829181977999951 ] ] ], [ [ [ 166.166900239000029, -50.903108904999954 ], [ 166.096618316000104, -50.923054984999965 ], [ 166.086363393000056, -50.923617913999976 ], [ 166.005827217000046, -50.911382010999944 ], [ 165.973572313000091, -50.905272944999979 ], [ 165.933027203000051, -50.872364083999969 ], [ 165.927472348000038, -50.854308961999948 ], [ 166.107727356000055, -50.855564067999978 ], [ 166.194427248000011, -50.876108950999935 ], [ 166.215381335000075, -50.888126923999948 ], [ 166.166900239000029, -50.903108904999954 ] ] ], [ [ [ 166.971345185000018, -45.166663939999978 ], [ 166.971772327000053, -45.18958190799998 ], [ 166.988009246000047, -45.23138195599995 ], [ 167.008454217000121, -45.244864079999957 ], [ 167.029981459000055, -45.30055495299996 ], [ 167.005263394000053, -45.311390909999943 ], [ 166.990236318000029, -45.310281983999971 ], [ 166.922609279000085, -45.278472996999938 ], [ 166.913027255000088, -45.271664041999941 ], [ 166.891081421000081, -45.246108959999958 ], [ 166.906372359000102, -45.21180887099996 ], [ 166.958709298000031, -45.155417940999939 ], [ 166.971618267000053, -45.164717996999968 ], [ 166.971345185000018, -45.166663939999978 ] ] ], [ [ [ 178.833281320000083, -49.669455027999959 ], [ 178.824691377000022, -49.715826901999947 ], [ 178.816372339000054, -49.723881910999978 ], [ 178.805236310000055, -49.726099929999975 ], [ 178.736909382000022, -49.71805497899993 ], [ 178.723163396000018, -49.713755062999951 ], [ 178.717191290000073, -49.703608936999956 ], [ 178.716354273000093, -49.681526979999944 ], [ 178.727445207000073, -49.666664021999964 ], [ 178.739136286000075, -49.656109025999967 ], [ 178.7540093020001, -49.6430550499999 ], [ 178.778591413000072, -49.627217946999963 ], [ 178.802463408000108, -49.615008866999972 ], [ 178.814972393000062, -49.613617973999965 ], [ 178.835800417000087, -49.622917862999941 ], [ 178.841063414000018, -49.633608980999952 ], [ 178.836763497000106, -49.660973044999935 ], [ 178.833281320000083, -49.669455027999959 ] ] ] ] }
        }
    ]
}