{
    "type": "FeatureCollection",
    "features": [
        {
            "type": "Feature",
            "properties": {
                "WCID": "PAN",
                "COUNTRY": "Panama"
            },
            "geometry": { "type": "MultiPolygon", "coordinates": [ [ [ [ -80.026490939999974, 8.401536089000047 ], [ -80.070554939999965, 8.383053992000043 ], [ -80.09945490399997, 8.367500030000031 ], [ -80.138617837999959, 8.339444962000073 ], [ -80.225708829999974, 8.29527317000003 ], [ -80.336946072999979, 8.287500128000033 ], [ -80.38209100399996, 8.290800083000022 ], [ -80.424317858999984, 8.264864128000056 ], [ -80.471263892999957, 8.215554062000024 ], [ -80.478899973999944, 8.196945063000044 ], [ -80.482090964999941, 8.15208210000003 ], [ -80.475282008999955, 8.090554069000063 ], [ -80.481399960999966, 8.083191070000055 ], [ -80.442363928999953, 8.02215405100003 ], [ -80.397917880999955, 8.003336008000076 ], [ -80.38209988899996, 7.998973059000036 ], [ -80.378064001999974, 7.998891084000036 ], [ -80.351735773999962, 7.992082129000039 ], [ -80.325835859999984, 7.951109039000073 ], [ -80.317226807999987, 7.915835979000065 ], [ -80.158617896999942, 7.755554041000039 ], [ -80.060290964999979, 7.64389116500007 ], [ -79.990426795999952, 7.518891172000053 ], [ -80.002299928999946, 7.468400096000039 ], [ -80.02473576899996, 7.451664117000064 ], [ -80.095835765999936, 7.430273165000074 ], [ -80.162226809999936, 7.412218043000053 ], [ -80.215008827999952, 7.416944933000025 ], [ -80.251573035999968, 7.428818067000066 ], [ -80.281399870999962, 7.430273165000074 ], [ -80.308335787999965, 7.416391057000055 ], [ -80.362090944999977, 7.372917981000057 ], [ -80.37583592499999, 7.309718095000051 ], [ -80.436872943999958, 7.244582158000071 ], [ -80.593899853999972, 7.236391027000025 ], [ -80.634154949999981, 7.234927044000074 ], [ -80.64333581599999, 7.229309157000046 ], [ -80.68333576699996, 7.216391135000038 ], [ -80.713899873999935, 7.209164091000048 ], [ -80.798063904999935, 7.20610905500007 ], [ -80.851117831999943, 7.210282069000073 ], [ -80.88250889699998, 7.220273130000066 ], [ -80.929035835999969, 7.255000025000072 ], [ -80.910981886999934, 7.318191026000022 ], [ -80.888346054999943, 7.334309091000023 ], [ -80.912508901999956, 7.444164158000035 ], [ -80.948626857999955, 7.557782197000051 ], [ -80.98250885799996, 7.612982059000046 ], [ -81.010846060999938, 7.637500131000024 ], [ -81.037226927999939, 7.676664071000062 ], [ -81.054735885999946, 7.74721807100002 ], [ -81.057508954999946, 7.828891168000041 ], [ -81.058064003999959, 7.873336042000062 ], [ -81.128345926999941, 7.839718072000039 ], [ -81.152817898999956, 7.850573140000051 ], [ -81.177381904999947, 7.848609092000061 ], [ -81.180826866999951, 7.820100060000073 ], [ -81.17167299099998, 7.800836100000026 ], [ -81.192226925999989, 7.69139107500007 ], [ -81.192163893999975, 7.638400012000034 ], [ -81.217926846999944, 7.60826422100007 ], [ -81.271117901999958, 7.629718037000032 ], [ -81.312226777999967, 7.649445014000037 ], [ -81.359590901999979, 7.665973121000036 ], [ -81.430281861999958, 7.683053931000074 ], [ -81.496945987999936, 7.698609067000064 ], [ -81.572235762999981, 7.757218016000024 ], [ -81.588899991999938, 7.796244996000041 ], [ -81.60000886399996, 7.870553921000067 ], [ -81.608608863999962, 7.940273083000022 ], [ -81.616672924999989, 7.972782127000073 ], [ -81.621781862999967, 7.977527122000026 ], [ -81.631954978999943, 7.970000173000074 ], [ -81.651117853999949, 7.980273201000045 ], [ -81.682235836999951, 8.018609009000045 ], [ -81.706681992999961, 8.06527307600004 ], [ -81.676746025999989, 8.065073083000073 ], [ -81.701117917999966, 8.12055407400004 ], [ -81.738617881999971, 8.162500135000073 ], [ -81.952517848999946, 8.188609093000025 ], [ -82.09529099699995, 8.214718051000034 ], [ -82.14222680499995, 8.181109134000053 ], [ -82.193208892999962, 8.195000127000071 ], [ -82.215908930999944, 8.218745053000021 ], [ -82.218063918999974, 8.272500042000047 ], [ -82.246945944999936, 8.292773183000065 ], [ -82.28722685799994, 8.313327119000064 ], [ -82.344999963999953, 8.305000033000056 ], [ -82.378617932999987, 8.290553991000024 ], [ -82.404445929999952, 8.285000142000058 ], [ -82.469454964999954, 8.274718061000044 ], [ -82.503135798999949, 8.271664198000053 ], [ -82.527235782999981, 8.280836012000066 ], [ -82.556117808999943, 8.290000115000055 ], [ -82.611955030999979, 8.306944970000075 ], [ -82.666535804999967, 8.319164109000042 ], [ -82.721682022999971, 8.317217998000046 ], [ -82.779446075999942, 8.302773129000059 ], [ -82.80750885599997, 8.293053977000056 ], [ -82.842845953999984, 8.273745090000034 ], [ -82.871263958999975, 8.224717997000027 ], [ -82.875145952999958, 8.185826972000029 ], [ -82.862364053999954, 8.098745033000057 ], [ -82.850008960999958, 8.061391081000068 ], [ -82.868617958999948, 8.021182085000021 ], [ -82.898845951999988, 8.025673109000024 ], [ -82.892781979999938, 8.035973127000034 ], [ -82.886808868999935, 8.075273189000029 ], [ -82.885981909999941, 8.101809121000031 ], [ -82.933346032999964, 8.257500123000057 ], [ -82.950008921999938, 8.27027313800005 ], [ -82.97209087799996, 8.276391089000072 ], [ -83.005008958999952, 8.291109040000038 ], [ -83.030290957999966, 8.310554050000064 ], [ -83.017790857999955, 8.340273094000054 ], [ -82.952517960999955, 8.399444972000026 ], [ -82.922290973999964, 8.416391168000075 ], [ -82.87646392399995, 8.427500040000041 ], [ -82.829926926999974, 8.474653945000057 ], [ -82.825563977999934, 8.570000106000066 ], [ -82.836745939999957, 8.636664232000044 ], [ -82.879581991999942, 8.689445076000027 ], [ -82.896663974999967, 8.710000017000027 ], [ -82.91569994799994, 8.739654017000021 ], [ -82.914463951999949, 8.762782203000029 ], [ -82.879454921999979, 8.825836075000041 ], [ -82.85848189099994, 8.842782104000037 ], [ -82.813335786999971, 8.862500029000046 ], [ -82.756326942999976, 8.881318072000056 ], [ -82.719863987999986, 8.910827065000035 ], [ -82.711881901999959, 8.925073115000032 ], [ -82.743617798999935, 8.981036066000058 ], [ -82.882235869999988, 9.067218124000021 ], [ -82.930464, 9.06312708400003 ], [ -82.93111795599998, 9.199444994000032 ], [ -82.934717815999988, 9.471664231000034 ], [ -82.864455002999989, 9.585554012000046 ], [ -82.837717905999966, 9.609718033000036 ], [ -82.81418202399999, 9.606664170000045 ], [ -82.748554906999971, 9.582982109000056 ], [ -82.718899901999976, 9.546664160000034 ], [ -82.682499977999953, 9.50874493300006 ], [ -82.636263890999942, 9.48805403700004 ], [ -82.610008920999974, 9.490418069000043 ], [ -82.56139991699996, 9.535553947000039 ], [ -82.563573008999981, 9.562873085000035 ], [ -82.556054944999971, 9.562282160000052 ], [ -82.534181865999983, 9.547918093000021 ], [ -82.363617846999944, 9.407218125000043 ], [ -82.37000888099999, 9.320836074000056 ], [ -82.381672968999965, 9.28582704400003 ], [ -82.324717936999946, 9.188327070000071 ], [ -82.275281974999984, 9.103336080000076 ], [ -82.242781983999976, 9.002364154000077 ], [ -82.105835766999974, 8.941391172000067 ], [ -82.06029085199998, 8.930827124000075 ], [ -81.983335927999974, 8.944718117000036 ], [ -81.816390879999972, 8.945273167000039 ], [ -81.788072954999961, 9.003335951000054 ], [ -81.859999909999942, 9.06250011800006 ], [ -81.913890853999987, 9.112500015000023 ], [ -81.908617798999956, 9.168818022000039 ], [ -81.88632679799997, 9.173609118000059 ], [ -81.865845952999962, 9.164164222000068 ], [ -81.751399948999961, 9.047218064000049 ], [ -81.708617876999938, 9.000553998000044 ], [ -81.668899893999935, 8.955826989000059 ], [ -81.643335926999953, 8.919445003000021 ], [ -81.613064012999985, 8.880418023000061 ], [ -81.559317908999958, 8.829164194000043 ], [ -81.507290932999979, 8.793127039000069 ], [ -81.27361788799999, 8.785273196000048 ], [ -81.220599835999963, 8.784564087000035 ], [ -81.204035853999983, 8.781109066000056 ], [ -81.153063991999943, 8.787500100000045 ], [ -81.089735863999977, 8.802500019000036 ], [ -80.966255006999972, 8.83597314900004 ], [ -80.944599856999957, 8.853891144000045 ], [ -80.879035771999952, 8.878891176000025 ], [ -80.869446035999943, 8.876664104000042 ], [ -80.864454947999945, 8.874717994000036 ], [ -80.837090883999963, 8.878400164000027 ], [ -80.803199831999962, 8.905691138000066 ], [ -80.779172938999977, 8.93694507500004 ], [ -80.751955054999939, 8.971664092000026 ], [ -80.63639995799997, 9.041664215000026 ], [ -80.601963914999942, 9.058609071000035 ], [ -80.535845953999967, 9.085836007000069 ], [ -80.405564020999975, 9.133473213000059 ], [ -80.315564005999988, 9.150273061000064 ], [ -80.253890967999951, 9.159864138000046 ], [ -80.154726849999975, 9.192782051000052 ], [ -80.117508852999947, 9.206944953000061 ], [ -80.092655001999958, 9.220136057000047 ], [ -80.051390891999972, 9.258891127000027 ], [ -80.004454915999986, 9.30666412000005 ], [ -79.988063936999936, 9.328609116000052 ], [ -79.967645955999956, 9.353053931000034 ], [ -79.947372981999933, 9.358473167000056 ], [ -79.806117796999956, 9.400273215000027 ], [ -79.744445931999962, 9.435273193000057 ], [ -79.687235921999957, 9.490418069000043 ], [ -79.671217937999984, 9.54961811000004 ], [ -79.625835798999958, 9.594164238000076 ], [ -79.599454931999958, 9.602500041000042 ], [ -79.5344549499999, 9.620136068000022 ], [ -79.463055047999944, 9.568053939000038 ], [ -79.247790842999962, 9.540000044000067 ], [ -79.162226865999969, 9.540553920000036 ], [ -79.075855041999944, 9.542218063000064 ], [ -79.044446038999979, 9.546391078000056 ], [ -78.995008902999984, 9.547782138000059 ], [ -78.95943577099996, 9.543353979000074 ], [ -78.962117811999974, 9.537600138000073 ], [ -78.998063938999962, 9.521945089000042 ], [ -79.034590931999958, 9.51986419800005 ], [ -79.065908907999983, 9.493327093000062 ], [ -79.067226877999985, 9.462217994000071 ], [ -79.05451790099994, 9.42902699900003 ], [ -79.006390856999985, 9.423336022000058 ], [ -78.703608852999935, 9.431945074000055 ], [ -78.552090864999968, 9.428335994000065 ], [ -78.499172892999979, 9.404164094000066 ], [ -78.451954949999958, 9.381391134000069 ], [ -78.41222690799998, 9.358326986000066 ], [ -78.366672940999933, 9.335282117000077 ], [ -78.235835789999953, 9.286664228000063 ], [ -78.152235860999951, 9.259718086000021 ], [ -78.034381943999961, 9.228818032000049 ], [ -77.944172883999954, 9.143054063000022 ], [ -77.882964035999976, 9.096300143000065 ], [ -77.848890928999936, 9.083609103000072 ], [ -77.805145943999946, 9.047635986000046 ], [ -77.747226824999984, 8.975973061000047 ], [ -77.745908854999982, 8.941945048000036 ], [ -77.702645996999934, 8.876664104000042 ], [ -77.633926795999969, 8.837326994000023 ], [ -77.542781979999972, 8.763608994000037 ], [ -77.532435861999943, 8.706600150000043 ], [ -77.510835864999933, 8.686109078000072 ], [ -77.489726879999978, 8.674027068000044 ], [ -77.434446048999973, 8.659026982000057 ], [ -77.373555042999953, 8.665764188000026 ], [ -77.366672996999966, 8.675000039000054 ], [ -77.371946051999942, 8.646109128000035 ], [ -77.438608836999947, 8.566664108000055 ], [ -77.452235799999983, 8.556944956000052 ], [ -77.475773022999988, 8.521109135000074 ], [ -77.468581852999989, 8.471700162000047 ], [ -77.429099902999951, 8.472500131000061 ], [ -77.405772898999942, 8.451318056000048 ], [ -77.375008967999975, 8.398609128000032 ], [ -77.368617933999985, 8.364164200000062 ], [ -77.368055004999974, 8.337218058000076 ], [ -77.362499982999964, 8.285000142000058 ], [ -77.348890956999981, 8.267773151000029 ], [ -77.296108938999964, 8.215826977000063 ], [ -77.273608893999949, 8.198609039000075 ], [ -77.243899907999946, 8.145273145000033 ], [ -77.215426917999935, 8.087918128000069 ], [ -77.198335881999981, 7.999444961000052 ], [ -77.21556404599994, 7.937218047000044 ], [ -77.295208889999969, 7.904864235000048 ], [ -77.311399877999975, 7.886945068000045 ], [ -77.369999941999936, 7.778473182000027 ], [ -77.330081965999966, 7.726173123000024 ], [ -77.330982014999961, 7.701809110000056 ], [ -77.577435784999977, 7.526182087000052 ], [ -77.600146048999989, 7.539236063000033 ], [ -77.61029100199994, 7.562500035000028 ], [ -77.624172941999973, 7.603335997000045 ], [ -77.663890925999965, 7.67944501900007 ], [ -77.744035834999977, 7.720000019000054 ], [ -77.758899965999944, 7.693054045000054 ], [ -77.759445963999951, 7.667218001000037 ], [ -77.759172880999984, 7.633336002000021 ], [ -77.754590997999969, 7.612218132000066 ], [ -77.72938192099997, 7.568891068000028 ], [ -77.720981912999946, 7.536453941000048 ], [ -77.732226905999937, 7.505900060000045 ], [ -77.748617885999977, 7.484309116000077 ], [ -77.775699982999981, 7.475418096000055 ], [ -77.807499917999962, 7.478682176000063 ], [ -77.889726890999953, 7.228891067000063 ], [ -77.908199934999971, 7.233127114000069 ], [ -78.008617816999958, 7.33110904800003 ], [ -78.16250889, 7.508054042000026 ], [ -78.167781944999945, 7.54221800800002 ], [ -78.16598201499994, 7.568336019000071 ], [ -78.234726864999971, 7.646109016000025 ], [ -78.281399983999961, 7.70721812000005 ], [ -78.27465506599998, 7.724309156000061 ], [ -78.351673021999943, 7.873336042000062 ], [ -78.369590848999962, 7.886391024000034 ], [ -78.387781925999946, 7.904864235000048 ], [ -78.411945946999936, 7.96416418900003 ], [ -78.432782016999965, 8.048891149000042 ], [ -78.425908856999968, 8.080273162000026 ], [ -78.403446026999973, 8.098127119000026 ], [ -78.400908823999941, 8.068473119000032 ], [ -78.374308854999981, 8.060826979000069 ], [ -78.320563923999941, 8.05874508200003 ], [ -78.294590919999962, 8.070282101000032 ], [ -78.257235794999986, 8.10194507600005 ], [ -78.236390839999956, 8.148473188000025 ], [ -78.241672947999973, 8.183745075000047 ], [ -78.278690952999966, 8.21507310800007 ], [ -78.301390990999948, 8.249718029000064 ], [ -78.262217830999987, 8.269445006000069 ], [ -78.182917817999964, 8.327364124000042 ], [ -78.14363586099995, 8.401673217000052 ], [ -78.134999985999968, 8.399273143000073 ], [ -78.045008855999981, 8.311109100000067 ], [ -78.028490974999954, 8.261373065000043 ], [ -77.995190846999947, 8.232453991000057 ], [ -77.964308897999956, 8.240127120000068 ], [ -77.882708890999936, 8.228818089000072 ], [ -77.840835919999961, 8.195554003000041 ], [ -77.806946040999946, 8.159164138000051 ], [ -77.785282006999978, 8.130282111000042 ], [ -77.779172939999967, 8.155000008000059 ], [ -77.868899872999975, 8.235000077000052 ], [ -77.889173014999983, 8.24610911700006 ], [ -77.912172956999939, 8.252218015000039 ], [ -77.993199976999961, 8.267082147000053 ], [ -78.013472950999983, 8.27291813100004 ], [ -78.045290990999945, 8.338609118000022 ], [ -78.107508851999967, 8.455827017000047 ], [ -78.120564001999981, 8.439164129000062 ], [ -78.234308942999974, 8.380482089000054 ], [ -78.253817822999963, 8.396944985000061 ], [ -78.359454948999939, 8.394444999000029 ], [ -78.384799979999968, 8.336600144000045 ], [ -78.397781871999939, 8.345873211000026 ], [ -78.41306392499996, 8.343609091000076 ], [ -78.492646072999946, 8.452917994000074 ], [ -78.487917840999955, 8.495691181000041 ], [ -78.507235780999963, 8.616944966000062 ], [ -78.538346052999941, 8.636945025000045 ], [ -78.564726919999941, 8.652218026000071 ], [ -78.606881857999952, 8.663327066000022 ], [ -78.657499835999943, 8.700282206000054 ], [ -78.709726803999956, 8.746664138000028 ], [ -78.74223584799995, 8.791664229000048 ], [ -78.907299829999943, 8.913264187000038 ], [ -79.023417854999934, 8.963745037000024 ], [ -79.053073028999961, 8.966664119000029 ], [ -79.068554906999964, 9.007682136000028 ], [ -79.06767296299995, 9.052891104000025 ], [ -79.023273015999962, 9.110209073000021 ], [ -78.979099882999947, 9.138536050000027 ], [ -79.006672991999949, 9.135827019000033 ], [ -79.039735911999969, 9.125827073000039 ], [ -79.108899856999983, 9.085000164000064 ], [ -79.119235916999969, 9.051982171000077 ], [ -79.118099833999963, 9.030773106000026 ], [ -79.133517841999947, 9.013527005000071 ], [ -79.22848195499995, 9.005827053000075 ], [ -79.258481959999983, 9.016109134000033 ], [ -79.281399927999985, 9.018054070000062 ], [ -79.365845925999963, 9.016109134000033 ], [ -79.39029090799994, 9.013609147000068 ], [ -79.433899938999957, 9.008053957000072 ], [ -79.477926890999981, 8.997364181000023 ], [ -79.522646020999957, 8.959718036000027 ], [ -79.526599932999943, 8.919718085000056 ], [ -79.57765494299997, 8.880000101000064 ], [ -79.639445997999985, 8.873891035000042 ], [ -79.697781864999968, 8.866664158000049 ], [ -79.737363894999987, 8.833191028000044 ], [ -79.759308890999989, 8.785973085000023 ], [ -79.748890854999956, 8.733473202000027 ], [ -79.738345917999936, 8.711036020000051 ], [ -79.781108879999977, 8.60583609400004 ], [ -79.952790876999984, 8.450836096000046 ], [ -80.016108946999964, 8.407500148000054 ], [ -80.026490939999974, 8.401536089000047 ] ] ], [ [ [ -81.738908901999935, 7.639164107000056 ], [ -81.723617795999985, 7.616945022000039 ], [ -81.710282019999966, 7.555553952000025 ], [ -81.704454920999979, 7.490282060000027 ], [ -81.710554934999948, 7.479164136000065 ], [ -81.7155639599999, 7.446809151000025 ], [ -81.713617849999935, 7.436664199000063 ], [ -81.678473032999989, 7.388609071000076 ], [ -81.649445998999965, 7.384164148000025 ], [ -81.62875493599995, 7.390000132000068 ], [ -81.608335780999937, 7.377500032000057 ], [ -81.598072978999937, 7.363609039000039 ], [ -81.590146045999973, 7.329864167000039 ], [ -81.629308811999977, 7.318336033000037 ], [ -81.650554924999938, 7.321944945000041 ], [ -81.747781984999961, 7.347782162000044 ], [ -81.762217800999963, 7.35889103300002 ], [ -81.846117801999981, 7.433191073000046 ], [ -81.853346019999947, 7.446664144000067 ], [ -81.874173037999981, 7.491109018000031 ], [ -81.87695499199998, 7.504164168000045 ], [ -81.873899955999946, 7.515000125000029 ], [ -81.758617940999954, 7.634164134000059 ], [ -81.738908901999935, 7.639164107000056 ] ] ], [ [ [ -78.871672885999942, 8.456944995000072 ], [ -78.853063886999962, 8.437364199000058 ], [ -78.831535806999966, 8.401109115000054 ], [ -78.829726823999977, 8.38833610000006 ], [ -78.830290926999965, 8.336109132000047 ], [ -78.834726796999973, 8.319717985000068 ], [ -78.848126777999937, 8.290553991000024 ], [ -78.922226825999985, 8.270553932000041 ], [ -78.960063909999974, 8.293954026000051 ], [ -78.962790878999954, 8.437636108000049 ], [ -78.954508887999964, 8.450136040000075 ], [ -78.883617935999951, 8.463891078000074 ], [ -78.871672885999942, 8.456944995000072 ] ] ], [ [ [ -82.325117921999947, 9.407864202000042 ], [ -82.28239100199994, 9.435318120000034 ], [ -82.256746066999938, 9.427800056000024 ], [ -82.228264023999941, 9.369018104000077 ], [ -82.235255033999977, 9.332500163000077 ], [ -82.249755055999969, 9.330691181000077 ], [ -82.25648186899997, 9.352182045000063 ], [ -82.325117921999947, 9.407864202000042 ] ] ] ] }
        }
    ]
}