{
    "type": "FeatureCollection",
    "features": [
        {
            "type": "Feature",
            "properties": {
                "WCID": "PAR",
                "COUNTRY": "Paraguay"
            },
            "geometry": { "type": "Polygon", "coordinates": [ [ [ -57.67267293499998, -25.29429999499996 ], [ -57.706390983999938, -25.271390912999948 ], [ -57.737290869999981, -25.233263981999983 ], [ -57.749726764999934, -25.200282030999972 ], [ -57.761108886999978, -25.17152690599994 ], [ -57.858063869999967, -25.097499948999939 ], [ -57.879172854999979, -25.084864061999951 ], [ -57.908054880999941, -25.078054938999969 ], [ -57.935563951999939, -25.077499889999956 ], [ -58.059717875999979, -25.034446075999938 ], [ -58.129173007999952, -25.008054982999965 ], [ -58.181808845999967, -24.975554991999957 ], [ -58.281672851999986, -24.978617906999943 ], [ -58.352226851999944, -24.967917904999979 ], [ -58.449308903999963, -24.859581972999933 ], [ -58.532645976999959, -24.833199932999946 ], [ -58.575835744999949, -24.826390977999949 ], [ -58.604446029999963, -24.828608996999947 ], [ -58.669726806999961, -24.822226847999957 ], [ -58.807917903999964, -24.781526840999959 ], [ -58.881390984999939, -24.729999928999973 ], [ -58.922499861999938, -24.697781904999943 ], [ -58.938608873999954, -24.685555054999952 ], [ -58.989726915999938, -24.654726917999938 ], [ -59.058617778999974, -24.618617846999939 ], [ -59.101954900999942, -24.608335933999967 ], [ -59.289726798999936, -24.515281887999947 ], [ -59.338890851999963, -24.48889096299996 ], [ -59.356945974999974, -24.471390890999942 ], [ -59.383199938999951, -24.435135805999948 ], [ -59.470835754999939, -24.354726867999943 ], [ -59.533617885999945, -24.315699887999983 ], [ -59.670281967999983, -24.233608869999955 ], [ -59.982781949999946, -24.042781934999937 ], [ -60.038063954999984, -24.009726893999982 ], [ -60.066672898999968, -24.0163910099999 ], [ -60.08778188399998, -24.024172936999946 ], [ -60.115835778999951, -24.032217886999945 ], [ -60.139454975999968, -24.03778196199994 ], [ -60.162781979999977, -24.041673008999965 ], [ -60.279726796999967, -24.038472965999972 ], [ -60.456390828999986, -23.988890991999938 ], [ -60.577426852999963, -23.946317963999945 ], [ -60.592017901999952, -23.918963957999949 ], [ -60.61389098099994, -23.894446052999967 ], [ -60.732226857999933, -23.872217915999954 ], [ -60.760835802999964, -23.872499883999978 ], [ -60.875281973999961, -23.849726922999935 ], [ -60.98639097399996, -23.821663975999968 ], [ -61.010699833999979, -23.810835897999937 ], [ -61.024726781999959, -23.786108948999981 ], [ -61.034726894999949, -23.754173058999982 ], [ -61.111326760999987, -23.608399859999963 ], [ -61.182499847999964, -23.554726845999937 ], [ -61.294726826999977, -23.489172986999961 ], [ -61.364172905999965, -23.456108892999964 ], [ -61.450835750999943, -23.418055052999932 ], [ -61.594173000999945, -23.297090945999969 ], [ -61.632635877999974, -23.283473035999975 ], [ -61.671735779999949, -23.286317853999947 ], [ -61.744163972999957, -23.234235891999958 ], [ -61.746254922999981, -23.188054958999942 ], [ -61.757635870999934, -23.171526850999953 ], [ -61.855281857999955, -23.089999933999934 ], [ -61.889026897999941, -23.074308843999972 ], [ -61.918890947999955, -23.068335899999965 ], [ -61.990490841999986, -23.005490903999942 ], [ -62.00695491099998, -22.975282021999931 ], [ -62.004654916999982, -22.950072944999931 ], [ -62.025699863999932, -22.89902682 ], [ -62.042226797999945, -22.876390986999979 ], [ -62.101954898999963, -22.816390976999969 ], [ -62.154726858999936, -22.756109 ], [ -62.237646009999935, -22.570417824999936 ], [ -62.240281950999986, -22.542782019999947 ], [ -62.250417850999952, -22.525281946999939 ], [ -62.285281873999963, -22.495835817999932 ], [ -62.315835754999966, -22.480835898999942 ], [ -62.341390836999949, -22.470281909999983 ], [ -62.363472960999957, -22.468472926999937 ], [ -62.392363872999965, -22.456808838999962 ], [ -62.52139086699998, -22.370835824999972 ], [ -62.617781915999956, -22.27555504299994 ], [ -62.643772856999988, -22.238899974999981 ], [ -62.634172894999949, -22.221946066999976 ], [ -62.601108801999942, -22.120555044999946 ], [ -62.524445902999958, -21.883608867999953 ], [ -62.486117806999971, -21.764999908999982 ], [ -62.474808942999971, -21.728064045999929 ], [ -62.470554959999959, -21.714173052999968 ], [ -62.377781875999972, -21.426390967999964 ], [ -62.258899833999976, -21.056946011999969 ], [ -62.261090862999936, -21.000517865999939 ], [ -62.264164003999952, -20.810835899999972 ], [ -62.265281982999966, -20.742226836999976 ], [ -62.267781968999941, -20.621946022999964 ], [ -62.269445944999973, -20.562226806999945 ], [ -62.198835785999961, -20.471390947999964 ], [ -62.101954898999963, -20.337499934999983 ], [ -61.913072900999964, -20.080008874999976 ], [ -61.847499931999948, -19.910835916999929 ], [ -61.774445945999958, -19.724726819999944 ], [ -61.742499829999986, -19.645000000999971 ], [ -61.668890961999978, -19.63333591199995 ], [ -61.357226822999962, -19.583055053999942 ], [ -60.79639083, -19.490281969999955 ], [ -60.613335763999942, -19.459163986999954 ], [ -60.516399891999981, -19.434717830999944 ], [ -60.424446054999976, -19.410835944999974 ], [ -60.057499911999969, -19.314726863999965 ], [ -60.01852691199997, -19.302073039999982 ], [ -59.981808810999951, -19.29680886899996 ], [ -59.573617836999972, -19.321664061999968 ], [ -59.428335817999937, -19.329999864999934 ], [ -59.156390835999957, -19.34555500099998 ], [ -59.095835775999944, -19.348890997999945 ], [ -58.792617912999958, -19.501508858999955 ], [ -58.520563965999941, -19.638617851999982 ], [ -58.268054941999935, -19.764164009999945 ], [ -58.232226831999981, -19.782499925999957 ], [ -58.15097299699994, -19.831108929999971 ], [ -58.131254904999935, -19.98611798 ], [ -58.133055002999981, -20.082226893999973 ], [ -58.13722684399994, -20.116391028999942 ], [ -58.158890877999966, -20.168055067999944 ], [ -58.155835841999931, -20.22861783899998 ], [ -58.136946049999949, -20.278890985999965 ], [ -58.09722689299997, -20.34139098199995 ], [ -58.058890917999975, -20.40110885799993 ], [ -58.008826815999953, -20.513472963999959 ], [ -57.995972998999946, -20.618054975999939 ], [ -57.967745934999982, -20.710135881999975 ], [ -57.935908951999977, -20.671463959999983 ], [ -57.908890891999931, -20.676391010999964 ], [ -57.859582, -20.734726876999957 ], [ -57.85667297699996, -20.838609000999952 ], [ -57.814590960999965, -20.978755092999961 ], [ -57.852645974999973, -21.341664008999942 ], [ -57.879172854999979, -21.380281950999972 ], [ -57.915555007999956, -21.429172921999964 ], [ -57.932499863999965, -21.461672912999973 ], [ -57.954308904999948, -21.513890996999976 ], [ -57.937781971999982, -21.636526957999934 ], [ -57.926399849999939, -21.656663976999937 ], [ -57.935672916999977, -21.771945991999928 ], [ -57.963335879999931, -21.972226874999933 ], [ -57.984026775999951, -22.025691011999982 ], [ -57.987226818999943, -22.060835828999927 ], [ -57.985108878999938, -22.091826909999952 ], [ -57.928890951999961, -22.117781976999936 ], [ -57.892226830999959, -22.129026969999927 ], [ -57.824863988999937, -22.144026888999974 ], [ -57.791672993999953, -22.129172982999933 ], [ -57.767781886999956, -22.113055085999974 ], [ -57.640008825999985, -22.121108921999962 ], [ -57.609446059999982, -22.174999864999961 ], [ -57.374590831999967, -22.217781936999927 ], [ -57.331946054999946, -22.218055019999952 ], [ -57.239581839999971, -22.212499996999952 ], [ -57.197781959999986, -22.207226941999977 ], [ -57.153335744999936, -22.203608976999931 ], [ -56.988890849999962, -22.23278202399996 ], [ -56.877499882999984, -22.274173034999933 ], [ -56.808335770999975, -22.264726965999955 ], [ -56.769526887999973, -22.248045971999943 ], [ -56.758054912999967, -22.241390908999961 ], [ -56.698126818999981, -22.216108909999946 ], [ -56.677781928999934, -22.233681904999969 ], [ -56.634172897999974, -22.251946071999953 ], [ -56.573890920999986, -22.189446075999967 ], [ -56.555972925999981, -22.166672946999938 ], [ -56.545972979999931, -22.144445983999958 ], [ -56.526117927999962, -22.115417944999933 ], [ -56.495281911999939, -22.088308857999948 ], [ -56.456945936999944, -22.07583591599996 ], [ -56.39652683199995, -22.068681960999982 ], [ -56.370835794999948, -22.126108894999959 ], [ -56.360835849999944, -22.157709004999958 ], [ -56.329445956999962, -22.186673006999968 ], [ -56.309172982999939, -22.203335894999952 ], [ -56.202917775999936, -22.274726910999959 ], [ -56.168199932999983, -22.283891013999948 ], [ -56.085563922999938, -22.292155066999953 ], [ -56.04667289799994, -22.278335823999953 ], [ -55.988890906999984, -22.273335850999956 ], [ -55.84972683899997, -22.288890986999945 ], [ -55.744308814999954, -22.3975 ], [ -55.741254952999952, -22.420146058999933 ], [ -55.740835857999969, -22.453608962999965 ], [ -55.739726763999954, -22.47778203699994 ], [ -55.7343088699999, -22.526255085999935 ], [ -55.727226831999985, -22.546254977999979 ], [ -55.709445964999986, -22.573890950999953 ], [ -55.68972686799998, -22.591117940999936 ], [ -55.664172958999984, -22.607226952999952 ], [ -55.62610889299998, -22.62090890099995 ], [ -55.609172921999971, -22.638473011999963 ], [ -55.610072970999965, -22.734099965999974 ], [ -55.632854983999948, -22.77742686199997 ], [ -55.648399893999965, -22.814926825999976 ], [ -55.645008910999934, -22.857917942999961 ], [ -55.60639096899996, -23.020281945999955 ], [ -55.583890922999956, -23.085281928999962 ], [ -55.54917291199996, -23.137500011999975 ], [ -55.549655038999958, -23.307017969999947 ], [ -55.543608836999965, -23.333055010999942 ], [ -55.502426869999965, -23.379717903999961 ], [ -55.535208828999941, -23.459172981999927 ], [ -55.520835876999968, -23.605281959999957 ], [ -55.505281913999966, -23.624172925999972 ], [ -55.485008939999943, -23.638055033999933 ], [ -55.462990853999941, -23.661390922999942 ], [ -55.442154950999964, -23.702708843999972 ], [ -55.433063938999965, -23.750555093999935 ], [ -55.427781830999947, -23.802781894999953 ], [ -55.420564006999939, -23.878335867999965 ], [ -55.420281871999975, -23.924726851999935 ], [ -55.412090908999971, -23.954308934999972 ], [ -55.396664015999932, -23.971108951999952 ], [ -55.371254946999954, -23.984446067999954 ], [ -55.347499962999962, -23.992635857999971 ], [ -55.19639084399995, -24.019308917999979 ], [ -55.17499989199996, -24.020554971999957 ], [ -55.150281994999943, -24.0163910099999 ], [ -55.031390899999963, -23.994446013999948 ], [ -54.924726823999947, -23.965282019999961 ], [ -54.902572949999978, -23.948963962999983 ], [ -54.88145491299997, -23.921108886999946 ], [ -54.625699911999959, -23.804926823999949 ], [ -54.539454989999967, -23.847500018999938 ], [ -54.407226778999984, -23.916673015999947 ], [ -54.288608934999957, -24.020281889999978 ], [ -54.243899862999967, -24.053608839999981 ], [ -54.269581846999984, -24.065691017999939 ], [ -54.294308796999985, -24.085417826999958 ], [ -54.325835816999984, -24.117499896999959 ], [ -54.336672946999954, -24.148054950999949 ], [ -54.316672887999971, -24.241672930999982 ], [ -54.302645939999934, -24.257226893999928 ], [ -54.280135835999943, -24.272635848999982 ], [ -54.26299082099996, -24.293264047999969 ], [ -54.249446000999967, -24.353546024999957 ], [ -54.275972879999983, -24.413335816999961 ], [ -54.293617791999964, -24.42889095299995 ], [ -54.312499872999979, -24.450554987999965 ], [ -54.323335829999962, -24.469726914999967 ], [ -54.331390838999937, -24.492782009999928 ], [ -54.334308914999951, -24.518473046999929 ], [ -54.321535899999958, -24.554790994999962 ], [ -54.311808868999947, -24.602781916999959 ], [ -54.315563961999942, -24.627781948999939 ], [ -54.325008857999933, -24.661946083999965 ], [ -54.330554995999933, -24.67944598899993 ], [ -54.396390821999944, -24.804445981999947 ], [ -54.408054910999965, -24.838890909999975 ], [ -54.45361793099994, -25.017226964999963 ], [ -54.458335768999973, -25.066526971999963 ], [ -54.455417860999944, -25.089726906999942 ], [ -54.423546008999949, -25.13312689299994 ], [ -54.427508804999945, -25.153055035999955 ], [ -54.505699891999939, -25.280417886999942 ], [ -54.524446018999981, -25.303199899999981 ], [ -54.549590889999934, -25.332226933999948 ], [ -54.57430878699995, -25.354446017999976 ], [ -54.616455007999946, -25.445690912999964 ], [ -54.59891788799996, -25.510455028999957 ], [ -54.59891788799996, -25.57322693499998 ], [ -54.623335879999956, -25.64860891099994 ], [ -54.611672964999968, -25.781946046999963 ], [ -54.604445919999932, -25.943608987999937 ], [ -54.66035489099994, -25.976254991999951 ], [ -54.660972972999957, -26.157917991999966 ], [ -54.639590904999977, -26.187782041999981 ], [ -54.640972912999985, -26.21430892199993 ], [ -54.667499960999976, -26.238881979999974 ], [ -54.658754952999971, -26.285555098999964 ], [ -54.693199881999931, -26.428054996999947 ], [ -54.842226767999932, -26.657499873999939 ], [ -54.876599946999931, -26.655282022999984 ], [ -54.907781967999938, -26.667781954999953 ], [ -54.92889095299995, -26.688263973999938 ], [ -54.940417913999966, -26.740835940999943 ], [ -54.949308933999987, -26.768335959999945 ], [ -54.963335880999978, -26.783199923999973 ], [ -54.99250892799995, -26.793890873999942 ], [ -55.034445935999941, -26.794999966999967 ], [ -55.055626837999966, -26.803264020999961 ], [ -55.12999980099994, -26.872708926999962 ], [ -55.251108913999985, -26.936108971999943 ], [ -55.271117857999968, -26.93749986499995 ], [ -55.379445909999959, -26.966390943999954 ], [ -55.400835856999947, -26.974026857999945 ], [ -55.417645930999981, -26.986391003999984 ], [ -55.547499883999933, -27.112226839999948 ], [ -55.573335759999964, -27.166673000999936 ], [ -55.581117853999956, -27.214999869999929 ], [ -55.570281896999973, -27.235417850999966 ], [ -55.568481966999968, -27.255835831999946 ], [ -55.584590978999984, -27.316808980999951 ], [ -55.599999934999971, -27.342081926999981 ], [ -55.731672928999956, -27.436673045999953 ], [ -55.757781886999965, -27.441946100999928 ], [ -55.844726865999974, -27.406254951999983 ], [ -55.859026894999943, -27.391526941999928 ], [ -55.867572915999972, -27.358408868999959 ], [ -55.892508910999936, -27.332635857999946 ], [ -55.923199919999945, -27.326526958999978 ], [ -55.965272882999955, -27.331955079999943 ], [ -56.035699812999951, -27.305135838999945 ], [ -56.064446052999983, -27.302782032999971 ], [ -56.098617898999976, -27.304726969999933 ], [ -56.14402685899995, -27.311464007999973 ], [ -56.268126802999973, -27.389382012999931 ], [ -56.27139088399997, -27.424999904999936 ], [ -56.268890897999938, -27.44860887599998 ], [ -56.27499996399996, -27.468335852999928 ], [ -56.345554968999977, -27.570281923999971 ], [ -56.365626777999978, -27.584726960999944 ], [ -56.398055019999958, -27.584446 ], [ -56.418617839999968, -27.574717962999955 ], [ -56.456390886999941, -27.547226828999953 ], [ -56.493890850999946, -27.502364032999935 ], [ -56.50417293199996, -27.475281935999931 ], [ -56.520281943999976, -27.461945992999972 ], [ -56.549999813999932, -27.452499922999948 ], [ -56.578199889999951, -27.448617928999965 ], [ -56.606945961999941, -27.448335961999931 ], [ -56.644445925999946, -27.453890983999941 ], [ -56.673055037999973, -27.461390942999969 ], [ -56.69667289399996, -27.474163957999963 ], [ -56.706272855999941, -27.483435851999957 ], [ -56.731390904999955, -27.505281940999964 ], [ -56.766535889999943, -27.501946110999938 ], [ -56.792646020999939, -27.489726972999961 ], [ -56.813335743999971, -27.470281962999934 ], [ -56.835835788999987, -27.449446060999946 ], [ -56.862499963999937, -27.428199947999929 ], [ -56.880699925999977, -27.419582009999942 ], [ -56.916181862999963, -27.419308927999964 ], [ -56.964726828999972, -27.434173059999978 ], [ -56.998608828999977, -27.450835947999963 ], [ -57.044235886999957, -27.476808950999953 ], [ -57.077781939999966, -27.492226958999936 ], [ -57.121672937999961, -27.490282022999963 ], [ -57.164455009999983, -27.484172955999952 ], [ -57.207226855999977, -27.471946105999962 ], [ -57.237363988999959, -27.459581960999969 ], [ -57.269172975999936, -27.44221784299998 ], [ -57.296954961999973, -27.431117855999958 ], [ -57.323617795999951, -27.425554953999949 ], [ -57.344926772999941, -27.426117882999961 ], [ -57.413063934999968, -27.417781912999942 ], [ -57.616954903999954, -27.37166401099995 ], [ -57.644863958999963, -27.360699977999957 ], [ -57.682499877999987, -27.334999889999949 ], [ -57.703899882999963, -27.319446094999932 ], [ -57.729590918999975, -27.3070819499999 ], [ -57.791390858999932, -27.292226869999979 ], [ -57.935835860999987, -27.275555096999938 ], [ -58.011117924999951, -27.270282041999963 ], [ -58.156390891999934, -27.26889098099997 ], [ -58.289726854999969, -27.273890953999967 ], [ -58.479726830999937, -27.286108918999957 ], [ -58.505563879999954, -27.288608904999933 ], [ -58.529163966999931, -27.293335795999951 ], [ -58.560981838999965, -27.301109004999944 ], [ -58.604617858999973, -27.316917944999943 ], [ -58.598963929999968, -27.249235920999979 ], [ -58.614863897999953, -27.227226886999972 ], [ -58.65351788299995, -27.193045988999984 ], [ -58.652090946999976, -27.158890906999943 ], [ -58.628063886999939, -27.131108920999964 ], [ -58.605835749999983, -27.125000021999938 ], [ -58.578608813999949, -27.122499867999977 ], [ -58.47116387899996, -26.987264062999941 ], [ -58.394445994999955, -26.908055076999972 ], [ -58.352763963999962, -26.88539091399997 ], [ -58.316672997999945, -26.872782016999963 ], [ -58.181672890999948, -26.656108980999932 ], [ -58.168608856999981, -26.600000017999946 ], [ -58.182917771999939, -26.571108938999942 ], [ -58.217226912999934, -26.541390900999943 ], [ -58.209935830999939, -26.420345992999955 ], [ -58.161945913999944, -26.300555017999955 ], [ -58.131390859999954, -26.257226948999971 ], [ -58.144726802999969, -26.206946090999963 ], [ -58.048335753999936, -26.119163926999931 ], [ -58.002917908999962, -26.104173060999983 ], [ -57.860073011999987, -25.997917852999933 ], [ -57.890908859999968, -25.973890959999949 ], [ -57.900772851999932, -25.955072916999939 ], [ -57.853890854999975, -25.904446053999948 ], [ -57.805554933999986, -25.833055036999951 ], [ -57.810981880999975, -25.773135828999955 ], [ -57.792917873999954, -25.766673045999937 ], [ -57.748890921999987, -25.735135799999966 ], [ -57.576663932999963, -25.54944596699994 ], [ -57.553890972999966, -25.468335797999941 ], [ -57.556326921999982, -25.439999935999936 ], [ -57.588199946999964, -25.415417825999953 ], [ -57.632081891999974, -25.386390959999972 ], [ -57.668617937999954, -25.306117975999939 ], [ -57.67267293499998, -25.29429999499996 ] ] ] }
        }
    ]
}