{
    "type": "FeatureCollection",
    "features": [
        {
            "type": "Feature",
            "properties": {
                "WCID": "PER",
                "COUNTRY": "Peru"
            },
            "geometry": { "type": "Polygon", "coordinates": [ [ [ -69.499726772999963, -17.505282001999944 ], [ -69.630008873999941, -17.617499927999972 ], [ -69.683899817999986, -17.663608944999964 ], [ -69.734172964999971, -17.659999864999975 ], [ -69.770281867999984, -17.656946001999927 ], [ -69.814726909999933, -17.652226822999978 ], [ -69.834872981999979, -17.68139098499995 ], [ -69.846117807999974, -17.708335953999949 ], [ -69.849726887999964, -17.749235952999982 ], [ -69.838063971999986, -17.76749995299997 ], [ -69.821672992999936, -17.78249987099997 ], [ -69.812499837999951, -17.80110887 ], [ -69.769590863999952, -17.952573045999941 ], [ -69.774445997999976, -17.985281913999927 ], [ -69.786390879999942, -18.01528191899996 ], [ -69.796672960999956, -18.039717848999942 ], [ -69.844590959999948, -18.132364030999952 ], [ -69.867782009999985, -18.157781984999929 ], [ -69.958481913999947, -18.249445975999947 ], [ -69.990845950999983, -18.270146090999958 ], [ -70.132508831999985, -18.321255080999947 ], [ -70.178073025999936, -18.328890994999938 ], [ -70.200835759999961, -18.330281887999945 ], [ -70.249173022999969, -18.32778190199997 ], [ -70.327790915999969, -18.319446098999947 ], [ -70.367090977999965, -18.322781928999973 ], [ -70.390017829999977, -18.335282028999927 ], [ -70.405490990999965, -18.348546054999929 ], [ -70.415426898999954, -18.338473018999935 ], [ -70.523054894999973, -18.248890925999945 ], [ -70.566117927999983, -18.221108939999965 ], [ -70.59153588199996, -18.210973039999942 ], [ -70.631255038999939, -18.203608866999957 ], [ -70.649590954999951, -18.193608921999953 ], [ -70.726672948999976, -18.127781979999952 ], [ -70.896117815999958, -17.980555023999955 ], [ -70.921955031999971, -17.943335852999951 ], [ -70.957363879999946, -17.915417912999942 ], [ -71.016108950999978, -17.881945955999981 ], [ -71.094999926999947, -17.85889102799996 ], [ -71.168345938999948, -17.808473042999935 ], [ -71.178346051999938, -17.796946081999977 ], [ -71.187017800999968, -17.779517925999983 ], [ -71.210555023999973, -17.762217844999952 ], [ -71.301681901999984, -17.711672956999962 ], [ -71.356672886999945, -17.621946023999953 ], [ -71.367235760999961, -17.546390877999954 ], [ -71.375154982999959, -17.494172962999983 ], [ -71.399317830999962, -17.399446056999977 ], [ -71.418345923999937, -17.389999986999953 ], [ -71.485835835999978, -17.330835820999937 ], [ -71.493055000999959, -17.321390924999946 ], [ -71.494235843999945, -17.302226875999963 ], [ -71.543899960999966, -17.273608879999927 ], [ -71.663345936999974, -17.225282010999933 ], [ -71.685564015999944, -17.218890976999944 ], [ -71.746946033999961, -17.208335813999952 ], [ -71.805145946999971, -17.198055074999957 ], [ -71.835290958999963, -17.185281891999978 ], [ -71.888899934999984, -17.14708203899994 ], [ -71.910146047999945, -17.109308991999967 ], [ -71.925981977999982, -17.091117915999973 ], [ -71.976117828999975, -17.05749994599995 ], [ -72.015290988999936, -17.039717905999964 ], [ -72.045981997999945, -17.027781907999952 ], [ -72.12639982099995, -16.979172903999938 ], [ -72.232790982999973, -16.90194607199993 ], [ -72.297990957999957, -16.839446074999955 ], [ -72.343608962999951, -16.779163929999982 ], [ -72.364726832999963, -16.758335906999946 ], [ -72.458199973999967, -16.706390905999967 ], [ -72.493199951999941, -16.690699982999945 ], [ -72.579726840999967, -16.666117871999973 ], [ -72.614873, -16.658054983999932 ], [ -72.65028201399997, -16.656946058999949 ], [ -72.670835781999983, -16.655835791999948 ], [ -72.703064031999986, -16.653335804999926 ], [ -72.730626914999959, -16.650135929999976 ], [ -72.792781912999942, -16.631390976999967 ], [ -72.817081887999962, -16.611808838999934 ], [ -72.849872898999934, -16.579581929999961 ], [ -72.882781927999986, -16.555835830999968 ], [ -72.905426812999963, -16.542499887999952 ], [ -72.93584591299998, -16.533335952999948 ], [ -73.023617849999937, -16.5 ], [ -73.234999893999941, -16.411663910999948 ], [ -73.314090861999944, -16.345382 ], [ -73.406954972999984, -16.300281995999967 ], [ -73.45389983299998, -16.283055005999927 ], [ -73.604172940999945, -16.233890951999967 ], [ -73.639172918999975, -16.225835942999936 ], [ -73.836190894999959, -16.157573052999965 ], [ -73.965008844999943, -16.056945957999972 ], [ -73.999454945999958, -16.028055046999953 ], [ -74.046390921999944, -15.965835843999969 ], [ -74.171808836999958, -15.900135804999934 ], [ -74.256955058999949, -15.875281952999956 ], [ -74.34430890699997, -15.853817909999975 ], [ -74.394454983999935, -15.830282028999932 ], [ -74.419172881999941, -15.816663950999953 ], [ -74.442226802999983, -15.79569092 ], [ -74.45167287299995, -15.765554960999964 ], [ -74.482426913999973, -15.723190977999934 ], [ -74.517499981999947, -15.704999900999951 ], [ -74.63612687899996, -15.658335834999946 ], [ -74.69889995799997, -15.630835815999944 ], [ -74.806946042999982, -15.573891009999954 ], [ -74.861954964999939, -15.543608869999957 ], [ -74.977235805999953, -15.492226964999929 ], [ -75.051390838999964, -15.465973 ], [ -75.077790983999989, -15.440835839999977 ], [ -75.104735784999946, -15.413335821999965 ], [ -75.156808861999934, -15.327635889999954 ], [ -75.230563909999944, -15.222781968999982 ], [ -75.243617885999981, -15.207226833999982 ], [ -75.260281947999943, -15.188890916999981 ], [ -75.295563892999951, -15.157290974999967 ], [ -75.395572905999984, -15.08833590699993 ], [ -75.503063941999983, -14.930281878999949 ], [ -75.521535811999968, -14.909445975999972 ], [ -75.54792690499994, -14.889446083999928 ], [ -75.571399921999955, -14.876390934999961 ], [ -75.609999926999933, -14.85833581299994 ], [ -75.714735830999985, -14.798891019999928 ], [ -75.839735823999945, -14.726945959999966 ], [ -75.933890915999939, -14.651872940999965 ], [ -75.936955004999959, -14.614446065999971 ], [ -75.942090931999985, -14.575417913999956 ], [ -75.985426879999977, -14.472081954999965 ], [ -76.070281915999942, -14.388890894999975 ], [ -76.086399979999953, -14.376664045999973 ], [ -76.118408959999954, -14.313190909999946 ], [ -76.140564005999977, -14.230281984999976 ], [ -76.203899845999956, -14.17389088699997 ], [ -76.230145931999971, -14.157782042999941 ], [ -76.277372926999988, -14.035135855999954 ], [ -76.299617827999953, -13.902664066999932 ], [ -76.33271779599994, -13.913890955999932 ], [ -76.370563932999971, -13.910554957999977 ], [ -76.394799870999975, -13.884164032999934 ], [ -76.371881902999974, -13.810690951999959 ], [ -76.329372913999975, -13.795281995999972 ], [ -76.302508913999986, -13.808573012999943 ], [ -76.273372915999971, -13.850154963999955 ], [ -76.23834594799996, -13.762782004999963 ], [ -76.229446042999939, -13.732499864999966 ], [ -76.201954908999937, -13.638054926999928 ], [ -76.194454949999965, -13.581663995999975 ], [ -76.181535922999956, -13.457917935999944 ], [ -76.196946051999987, -13.418335906999971 ], [ -76.245699893999983, -13.332081931999937 ], [ -76.253872920999981, -13.323863978999952 ], [ -76.283335812999951, -13.282781924999938 ], [ -76.380008828999962, -13.16333594799994 ], [ -76.405417897999939, -13.132781899999941 ], [ -76.432090957999947, -13.108199956999954 ], [ -76.464173027999948, -13.080835892999971 ], [ -76.478054967999981, -13.066391023999927 ], [ -76.492235806999986, -13.046108828999934 ], [ -76.505008821999979, -12.999999979999927 ], [ -76.512790915999972, -12.966663976999939 ], [ -76.520008907999966, -12.903608930999951 ], [ -76.602508963999981, -12.788190962999977 ], [ -76.637226806999934, -12.749445949999938 ], [ -76.750563884999963, -12.535281952999981 ], [ -76.789308896999955, -12.437781978999965 ], [ -76.799726931999942, -12.39028190099998 ], [ -76.821672933999935, -12.360281895999947 ], [ -76.858335880999959, -12.319446101999972 ], [ -76.916117871999973, -12.271108839999954 ], [ -77.049317880999979, -12.12694597199993 ], [ -77.066672946999972, -12.105972940999948 ], [ -77.089735920999942, -12.093608963999941 ], [ -77.123054991999936, -12.077508835999936 ], [ -77.175699881999947, -12.070899872999973 ], [ -77.14110894099997, -11.999999868999964 ], [ -77.144454996999968, -11.949446095999974 ], [ -77.152926921999949, -11.893472919999965 ], [ -77.185835782999959, -11.802217965999944 ], [ -77.174864038999942, -11.736108889999969 ], [ -77.200845926999989, -11.662917943999958 ], [ -77.30473576199995, -11.510972981999942 ], [ -77.374454923999963, -11.450972971999931 ], [ -77.484726906999981, -11.384726934999946 ], [ -77.548617795999974, -11.349445995999929 ], [ -77.567782011999952, -11.340554975999964 ], [ -77.600835879999977, -11.330555029999971 ], [ -77.647708823999949, -11.297845993999942 ], [ -77.665499915999987, -11.25249989699995 ], [ -77.649072894999961, -11.219545941999968 ], [ -77.616108880999946, -11.216108858999974 ], [ -77.610908915999971, -11.180281921999949 ], [ -77.679454946999954, -10.934163930999944 ], [ -77.719726806999972, -10.851664042999971 ], [ -77.783335895999983, -10.749999938999963 ], [ -77.827517913999941, -10.698054937999927 ], [ -77.894590908999987, -10.612526835999972 ], [ -77.89514595899999, -10.602782034999962 ], [ -77.91555505499997, -10.553890896999974 ], [ -77.94320896499994, -10.519164000999979 ], [ -78.008346075999953, -10.424164012999938 ], [ -78.069455011999935, -10.321946032999961 ], [ -78.176682016999962, -10.088335852999933 ], [ -78.238890993999973, -9.930555074999972 ], [ -78.255846075999955, -9.872500001999981 ], [ -78.244999892999942, -9.82444604799997 ], [ -78.246254998999973, -9.795972889999973 ], [ -78.338964044999955, -9.681317841999942 ], [ -78.377790864999952, -9.619164018999982 ], [ -78.401399835999939, -9.523754993999944 ], [ -78.405290882999964, -9.427782033999961 ], [ -78.439726926999981, -9.362781883999958 ], [ -78.485290952999947, -9.329999924999981 ], [ -78.513626814999952, -9.236946047999936 ], [ -78.520572897999955, -9.172499940999955 ], [ -78.57471781299995, -9.116664059999948 ], [ -78.639790885999957, -9.069445949999931 ], [ -78.68340896899997, -8.987290892999965 ], [ -78.663799841999946, -8.966664034999951 ], [ -78.661663965999935, -8.959999918999927 ], [ -78.662990988999979, -8.924582019999946 ], [ -78.726117950999935, -8.82805501699994 ], [ -78.755008862999944, -8.721945988999948 ], [ -78.751254943999982, -8.697364046999951 ], [ -78.752855048999947, -8.649163911999949 ], [ -78.763064039999961, -8.609999972999958 ], [ -78.771955059999982, -8.586391000999981 ], [ -78.843899951999958, -8.505554920999941 ], [ -78.925626860999955, -8.416945965999957 ], [ -78.91695494399994, -8.39208188899994 ], [ -78.918481958999962, -8.37166390799996 ], [ -78.994590980999988, -8.219655075999981 ], [ -79.158890868999947, -8.043055080999977 ], [ -79.17667290899999, -8.026108883999939 ], [ -79.199446036999973, -8.013890918999948 ], [ -79.219454980999956, -8.005835909999973 ], [ -79.296108826999955, -7.942499902999941 ], [ -79.318335789999935, -7.923472982999954 ], [ -79.338899950999973, -7.901808947999939 ], [ -79.372508867999954, -7.852782022999975 ], [ -79.428345921999949, -7.756390973999942 ], [ -79.444735895999941, -7.692781883999942 ], [ -79.456117849999941, -7.656946062999964 ], [ -79.500835805999941, -7.57778200499996 ], [ -79.533335797999939, -7.540554954999948 ], [ -79.55041794899995, -7.5225 ], [ -79.587364036999986, -7.462499989999969 ], [ -79.592508848999955, -7.428191015999971 ], [ -79.584163993999937, -7.399026854999931 ], [ -79.605008948999966, -7.335555059999933 ], [ -79.612790875999963, -7.31555500099995 ], [ -79.637790907999943, -7.257499927999959 ], [ -79.648899946999961, -7.240835865999941 ], [ -79.708863914999938, -7.181526859999963 ], [ -79.710555047999947, -7.152499993999925 ], [ -79.71500885599994, -7.116664004999961 ], [ -79.730835900999978, -7.091108923999968 ], [ -79.817781884999988, -6.986108989999934 ], [ -79.840490975999955, -6.970208854999953 ], [ -79.877226845999985, -6.947499931999971 ], [ -79.932372895999947, -6.890554957999939 ], [ -79.946535797999957, -6.870691020999971 ], [ -79.962781937999978, -6.811945949999938 ], [ -79.980008927999961, -6.768608827999969 ], [ -80.116399926999975, -6.645417816999952 ], [ -80.142790852999951, -6.629717841999934 ], [ -80.19250895, -6.60833594199994 ], [ -80.316955065999935, -6.549446030999945 ], [ -80.452517933999957, -6.47471784399994 ], [ -80.52799093699997, -6.427081978999979 ], [ -80.558335773999943, -6.393890983999938 ], [ -80.581954970999959, -6.375835860999928 ], [ -80.608335837999959, -6.359446054999978 ], [ -80.669726908999962, -6.32055503 ], [ -80.890017908999937, -6.230555014999936 ], [ -81.069735803999947, -6.155282003999957 ], [ -81.145846, -6.110281912999938 ], [ -81.174726852999981, -6.08666405699995 ], [ -81.196399939999935, -5.989999925999939 ], [ -81.197090943999967, -5.969164022999962 ], [ -81.179035821999946, -5.898190927999963 ], [ -81.151535802999945, -5.85569099099996 ], [ -81.112226856999939, -5.833335784999974 ], [ -81.065981884999985, -5.833054990999926 ], [ -81.035981879999952, -5.852081910999971 ], [ -81.010835834999966, -5.862499945999957 ], [ -80.983481996999956, -5.869863950999957 ], [ -80.959172968999951, -5.867499918999954 ], [ -80.939035781999962, -5.860135913999954 ], [ -80.92014599, -5.844581951999942 ], [ -80.898617908999938, -5.809999895999965 ], [ -80.888899930999969, -5.790555053999981 ], [ -80.881254964999982, -5.762499984999977 ], [ -80.873481922999986, -5.71333593199995 ], [ -80.872854955999969, -5.644582029999981 ], [ -80.912372947999984, -5.525972902999968 ], [ -80.923063897999953, -5.502499885999953 ], [ -80.956255060999979, -5.44013584399994 ], [ -80.981126849999953, -5.409999884999934 ], [ -81.05168185499997, -5.341663903999972 ], [ -81.091946003999965, -5.306108876999929 ], [ -81.113763929999948, -5.29916396699997 ], [ -81.136254922999967, -5.286664034999944 ], [ -81.203826809999953, -5.204445945999964 ], [ -81.178690990999939, -5.074235929999929 ], [ -81.153199946999962, -5.062217956999973 ], [ -81.115972896999949, -5.066526925999938 ], [ -81.095417955999949, -5.060135891999948 ], [ -81.085845989999939, -5.041664021999964 ], [ -81.085008972999958, -5.017781967999952 ], [ -81.109454960999983, -4.968335779999961 ], [ -81.121399843999939, -4.952217882999946 ], [ -81.213899844999958, -4.850281869999947 ], [ -81.330145945999959, -4.725281876999929 ], [ -81.345281986999964, -4.707226921999961 ], [ -81.355145978999985, -4.687499944999956 ], [ -81.344308847999969, -4.665554948999954 ], [ -81.329035846999943, -4.646390900999961 ], [ -81.30307290199994, -4.552217871999972 ], [ -81.27987296699996, -4.385417830999927 ], [ -81.280290888999957, -4.359717908999926 ], [ -81.288826851999943, -4.313681982999981 ], [ -81.276399841999989, -4.280835817999957 ], [ -81.257655056999965, -4.251390862999926 ], [ -81.117290866999952, -4.122217855999963 ], [ -81.060526942999957, -4.084754938999936 ], [ -81.020008822999955, -4.004581867999946 ], [ -80.988481969999953, -3.960282000999939 ], [ -80.94056397099996, -3.92610898099997 ], [ -80.882646024999985, -3.891317879999974 ], [ -80.863890845999947, -3.868608957999925 ], [ -80.856126856999936, -3.826390987999957 ], [ -80.846390940999981, -3.794446045999962 ], [ -80.832508832999963, -3.765835927999944 ], [ -80.817226779999942, -3.746808839999971 ], [ -80.721955049999963, -3.684717879999937 ], [ -80.650281898999935, -3.647217915999931 ], [ -80.602226938999934, -3.620135818999927 ], [ -80.557508814999949, -3.560281989999964 ], [ -80.547791003999976, -3.541663938999932 ], [ -80.532299905999935, -3.510208834999958 ], [ -80.503199949999953, -3.498190861999944 ], [ -80.444735839999964, -3.497217890999934 ], [ -80.420008889999963, -3.495835882999927 ], [ -80.398055008999961, -3.490282033999961 ], [ -80.378481923999971, -3.475690983999925 ], [ -80.364181893999955, -3.45555497099997 ], [ -80.347499894999942, -3.419926852999936 ], [ -80.340426909999962, -3.380517825999959 ], [ -80.259172907999982, -3.417426865999971 ], [ -80.23499983399995, -3.497217890999934 ], [ -80.212781923999955, -3.595835843999964 ], [ -80.206117807999988, -3.636663926999972 ], [ -80.207781950999959, -3.717217871999935 ], [ -80.211399914999959, -3.739164040999981 ], [ -80.176673019999953, -3.859164060999944 ], [ -80.153335789999971, -3.884226789999957 ], [ -80.17529084399996, -3.903055058999939 ], [ -80.292235827999946, -3.996108936999974 ], [ -80.318964040999958, -4.011663904999978 ], [ -80.345699964999937, -3.998263923999957 ], [ -80.389172873999939, -3.979026953999949 ], [ -80.420290856999941, -3.97805498799994 ], [ -80.46542690299998, -3.985282032999976 ], [ -80.501681986999984, -4.050282015999926 ], [ -80.501217796999981, -4.055346025999938 ], [ -80.483608926999977, -4.114445987999943 ], [ -80.480763941999953, -4.174164029999929 ], [ -80.46458200699999, -4.207499864999932 ], [ -80.445563971999945, -4.221181980999972 ], [ -80.410563993999972, -4.209864064999977 ], [ -80.382926846999965, -4.196663907999948 ], [ -80.340281902999948, -4.199517945999958 ], [ -80.382926846999965, -4.263473040999941 ], [ -80.399172986999986, -4.281808956999953 ], [ -80.431117928999981, -4.315555002999929 ], [ -80.479999846999988, -4.388473033999958 ], [ -80.481254953999951, -4.416455011999972 ], [ -80.463763932999939, -4.441808927999944 ], [ -80.409726808999949, -4.471663925999962 ], [ -80.390563933999942, -4.478608835999978 ], [ -80.35861781899996, -4.465555027999926 ], [ -80.334173003999979, -4.452499877999969 ], [ -80.262217885999974, -4.397499840999956 ], [ -80.226390948999949, -4.364445972999931 ], [ -80.186535837999941, -4.321255031999954 ], [ -80.174581902999989, -4.298545941999976 ], [ -80.134599888999958, -4.284490998999956 ], [ -80.077926823999974, -4.300135820999969 ], [ -80.058763948999967, -4.319582003999926 ], [ -80.025145979999934, -4.354999903999953 ], [ -79.997790967999947, -4.373055025999975 ], [ -79.815635782999948, -4.478817880999941 ], [ -79.783763930999953, -4.481946006999976 ], [ -79.705281991999982, -4.457081928999969 ], [ -79.668063994999955, -4.434308968999972 ], [ -79.643199917999937, -4.435417894999944 ], [ -79.621390875999964, -4.447499904999972 ], [ -79.53917295499997, -4.520835858999931 ], [ -79.519726939999941, -4.581181873999981 ], [ -79.515282016999947, -4.620417897999971 ], [ -79.451672926999947, -4.766390920999925 ], [ -79.445035799999971, -4.797399939999934 ], [ -79.365573010999981, -4.886108973999967 ], [ -79.28570889599996, -4.964582027999938 ], [ -79.231917864999957, -4.96385498199993 ], [ -79.203608824999947, -4.962499962999971 ], [ -79.183626870999944, -4.963890855999978 ], [ -79.10027303399994, -4.975055048999934 ], [ -79.063208928999984, -5.000308884999981 ], [ -79.03666394399994, -4.995555004999972 ], [ -79.011399881999978, -4.972217941999929 ], [ -78.928617858999985, -4.868335818999981 ], [ -78.918481958999962, -4.782635887999959 ], [ -78.918399983999961, -4.741046057999938 ], [ -78.90610892899997, -4.716663938999943 ], [ -78.876108923999936, -4.677217864999932 ], [ -78.859308907999946, -4.661526941999966 ], [ -78.823763938999946, -4.63597303399996 ], [ -78.790846024999951, -4.614163991999931 ], [ -78.767226827999934, -4.603890963999959 ], [ -78.723482009999941, -4.588890877999972 ], [ -78.709026914999981, -4.584790952999981 ], [ -78.683617845999947, -4.574446008999928 ], [ -78.666808944999957, -4.554864038999938 ], [ -78.650282011999934, -4.473608862999924 ], [ -78.652846035999971, -4.417635854999958 ], [ -78.670145948999959, -4.365135803999976 ], [ -78.672499921999986, -4.340281951999941 ], [ -78.672072947999936, -4.307090956999957 ], [ -78.659472935999986, -4.300672933999977 ], [ -78.641535830999942, -4.278472959999931 ], [ -78.563608941999973, -4.095555021999928 ], [ -78.558063976999961, -4.07305497599998 ], [ -78.555554937999943, -4.046946017999971 ], [ -78.55542686299998, -4.010135883999965 ], [ -78.55361788099998, -3.978608863999966 ], [ -78.540846038999973, -3.931945970999948 ], [ -78.531681936999973, -3.912781922999955 ], [ -78.466672901999971, -3.832499885999937 ], [ -78.420990858999971, -3.785854929999971 ], [ -78.414173018999975, -3.77652687799997 ], [ -78.399455066999963, -3.74610895099994 ], [ -78.388626821999935, -3.711390939999944 ], [ -78.372508924999977, -3.633890857999972 ], [ -78.367090862999987, -3.572845959999938 ], [ -78.370699941999987, -3.539717827999937 ], [ -78.367917820999935, -3.518335928999932 ], [ -78.352235782999969, -3.456664063999938 ], [ -78.346117831999948, -3.434999861999927 ], [ -78.329454943999963, -3.417217821999941 ], [ -78.301399874999959, -3.407781977999946 ], [ -78.279445994999946, -3.409999996999943 ], [ -78.261399924999978, -3.424717948999955 ], [ -78.252926825999964, -3.45180893 ], [ -78.255846075999955, -3.516946040999926 ], [ -78.246946002999948, -3.519863948999955 ], [ -78.181399854999938, -3.472217858999954 ], [ -78.170563898999944, -3.451946057999976 ], [ -78.181190977999961, -3.413126949999935 ], [ -78.20347292699995, -3.392426833999934 ], [ -78.215708828999936, -3.360554982999929 ], [ -78.200426775999972, -3.334308896999971 ], [ -78.175846005999972, -3.31416399799997 ], [ -78.141399904999957, -3.29416393899993 ], [ -78.116390987999978, -3.275973029999932 ], [ -78.067226933999962, -3.215282015999946 ], [ -78.034455033999961, -3.156181886999946 ], [ -77.925381997999978, -3.039963948999969 ], [ -77.859590930999957, -2.985835797999925 ], [ -77.810245996999981, -2.968155010999965 ], [ -77.794445940999935, -2.963335919999963 ], [ -77.439726815999961, -2.841390962999981 ], [ -77.224164046999988, -2.767217824999932 ], [ -77.043335883999987, -2.704717827999957 ], [ -76.904446071999985, -2.656664041999932 ], [ -76.660626901999933, -2.572135900999967 ], [ -76.40389993499997, -2.380282015999967 ], [ -76.074172962999967, -2.131108820999941 ], [ -75.977508831999955, -2.016390908999938 ], [ -75.781399956999962, -1.781946058999949 ], [ -75.719726918999982, -1.708055055999978 ], [ -75.627281902999982, -1.596372900999938 ], [ -75.58818200099995, -1.555708935999974 ], [ -75.563946062999946, -1.539954980999937 ], [ -75.553617881999969, -1.513890949999961 ], [ -75.48360887399997, -1.241945967999925 ], [ -75.461672929999963, -1.153608922999979 ], [ -75.444173024999941, -1.085555076999924 ], [ -75.431946007999954, -1.038055 ], [ -75.402235848999965, -0.922781869999937 ], [ -75.376955022999937, -0.950835931999961 ], [ -75.359590904999948, -0.967781960999957 ], [ -75.330426910999961, -0.97971795899997 ], [ -75.216845919999969, -0.969363961999932 ], [ -75.263335809999944, -0.81471784799993 ], [ -75.292781938999951, -0.730554989999973 ], [ -75.28342689699997, -0.65621790199998 ], [ -75.277235855999947, -0.650282005999941 ], [ -75.266964000999963, -0.646035901999937 ], [ -75.249026895999975, -0.6295818899999 ], [ -75.244381979999957, -0.560972994999929 ], [ -75.262508851999939, -0.523054940999941 ], [ -75.339799889999938, -0.464655036999943 ], [ -75.36389098899997, -0.466664010999978 ], [ -75.389454954999962, -0.446946086999958 ], [ -75.41334606099997, -0.419582022999975 ], [ -75.434445993999987, -0.384163955999952 ], [ -75.448617947999935, -0.346317818999978 ], [ -75.459163890999946, -0.294999951999955 ], [ -75.46473584499995, -0.273608831999979 ], [ -75.481117939999933, -0.232364000999951 ], [ -75.571190876999935, -0.180135858999961 ], [ -75.624499948999983, -0.172026869999968 ], [ -75.615817805999939, -0.106517937999968 ], [ -75.51902677299995, -0.116872941999929 ], [ -75.479872891999946, -0.143755045999967 ], [ -75.425008808999962, -0.164308981999966 ], [ -75.349726912999984, -0.151255005999928 ], [ -75.305281871999966, -0.134717845999944 ], [ -75.285845913999935, -0.119717926999954 ], [ -75.25914603199999, -0.122481943999958 ], [ -75.225908935999939, -0.095973000999948 ], [ -75.216672916999983, -0.06833585499993 ], [ -75.205008827999961, -0.036873039999932 ], [ -75.137017846999981, -0.045345970999961 ], [ -75.021391000999984, -0.123054929999967 ], [ -74.960554979999984, -0.170555007999951 ], [ -74.938063986999964, -0.198890869999957 ], [ -74.860281936999968, -0.23249995499998 ], [ -74.841126772999985, -0.225281962999929 ], [ -74.81264607199995, -0.205690940999943 ], [ -74.79194595599995, -0.20028193099995 ], [ -74.772372870999959, -0.20791784499994 ], [ -74.749172936999969, -0.235554990999958 ], [ -74.73360891599998, -0.260972944999935 ], [ -74.721117868999954, -0.289717843999938 ], [ -74.716946027999938, -0.311664012999927 ], [ -74.715835760999937, -0.333608841999933 ], [ -74.708763948999945, -0.361663909999947 ], [ -74.632917950999968, -0.406526872999962 ], [ -74.607508881999934, -0.383608905999949 ], [ -74.556946056999948, -0.417781924999929 ], [ -74.393890881999937, -0.543335793999972 ], [ -74.376108841999951, -0.568055032999951 ], [ -74.37028191099995, -0.577554913999961 ], [ -74.358063945999959, -0.633055015999958 ], [ -74.338899897999966, -0.706390968999926 ], [ -74.316117884999983, -0.781663979999962 ], [ -74.290282008999952, -0.809717874999933 ], [ -74.24779095699995, -0.853608872999928 ], [ -74.264172883999947, -0.898890930999926 ], [ -74.28279093499998, -0.930281996999952 ], [ -74.255281863999983, -0.986664041999973 ], [ -74.240699866999989, -1.012917838999954 ], [ -74.21542692, -1.034864008999932 ], [ -74.07779087199998, -1.072781894999935 ], [ -73.868055034999941, -1.208608959999935 ], [ -73.840981990999978, -1.265135844999975 ], [ -73.752235907999989, -1.289717954999958 ], [ -73.713055036999947, -1.279163964999952 ], [ -73.653617787999963, -1.28444607299997 ], [ -73.55569989199995, -1.37528193199995 ], [ -73.547499875999961, -1.436663949999968 ], [ -73.542781869999942, -1.468055015999937 ], [ -73.520008909999945, -1.493608923999943 ], [ -73.476963980999983, -1.552499839999939 ], [ -73.447154915999988, -1.610346036999942 ], [ -73.476963980999983, -1.636664038999925 ], [ -73.486955041999977, -1.654446078999968 ], [ -73.507508809999933, -1.7483358 ], [ -73.490573006999966, -1.766945971999974 ], [ -73.416399868999974, -1.816663901999959 ], [ -73.296946013999957, -1.873546010999974 ], [ -73.238890940999966, -1.845554980999964 ], [ -73.197017801999948, -1.806455078999932 ], [ -73.132781912999974, -1.849164060999954 ], [ -73.090426815999933, -1.923608939999951 ], [ -73.058208958999955, -2.145555030999958 ], [ -73.077790928999946, -2.200281985999936 ], [ -73.101255060999961, -2.231945965999955 ], [ -73.131746077999935, -2.246255047999966 ], [ -73.115290892999951, -2.328754935999939 ], [ -73.104735897999944, -2.346946012999979 ], [ -73.073899881999978, -2.371390995999946 ], [ -73.003063914999984, -2.410554935999926 ], [ -72.97500884699997, -2.401663915999961 ], [ -72.93458192199995, -2.3999999399999 ], [ -72.902508903999944, -2.45360891699994 ], [ -72.881954968999935, -2.506390934999956 ], [ -72.814735792999954, -2.489999954999973 ], [ -72.683335881999938, -2.439999890999957 ], [ -72.590146049999987, -2.40721793199998 ], [ -72.450835800999982, -2.441390951999949 ], [ -72.32778191899996, -2.483055045999947 ], [ -72.299454940999965, -2.491391015999966 ], [ -72.227508874999955, -2.498890974999938 ], [ -72.070008890999986, -2.407781866999926 ], [ -71.98222689499994, -2.369446058999927 ], [ -71.931399871999986, -2.379008971999951 ], [ -71.889799815999936, -2.377782028999945 ], [ -71.871399861999976, -2.320282005999957 ], [ -71.808481943999936, -2.230835866999939 ], [ -71.721955053999977, -2.159164056999941 ], [ -71.693199929999935, -2.147917889999974 ], [ -71.683208868999941, -2.166526887999964 ], [ -71.684172954999951, -2.196108970999944 ], [ -71.674317848999976, -2.224999882999953 ], [ -71.576672866999957, -2.236663971999974 ], [ -71.520145982999964, -2.234581906999949 ], [ -71.412226799999985, -2.28125502599994 ], [ -71.361681911999938, -2.346946012999979 ], [ -71.188064030999954, -2.360555038999962 ], [ -71.101117877999968, -2.311946034999949 ], [ -70.976390967999976, -2.278335776999938 ], [ -70.858964023999988, -2.225346055999978 ], [ -70.657645963999983, -2.358191006999959 ], [ -70.64972691, -2.40125504599996 ], [ -70.582372952999947, -2.483890888999952 ], [ -70.564454958999988, -2.493335784999942 ], [ -70.377746052999953, -2.511673041999927 ], [ -70.35580893599996, -2.498172980999925 ], [ -70.335645932999967, -2.492399861999957 ], [ -70.295390836999957, -2.501281996999978 ], [ -70.218826844999967, -2.57034602899995 ], [ -70.208863946999941, -2.609426820999943 ], [ -70.194590906999963, -2.644017928999972 ], [ -70.120681966999939, -2.701663965999956 ], [ -70.09848199399994, -2.698335846999953 ], [ -70.067508849999967, -2.75555507699994 ], [ -70.412226855999961, -3.294717814999956 ], [ -70.447235886999977, -3.349445942999978 ], [ -70.565846018999935, -3.533608929999957 ], [ -70.627499946999933, -3.629163966999954 ], [ -70.672226787999989, -3.69778191499995 ], [ -70.724163909999959, -3.779717867999977 ], [ -70.607726868999976, -3.829481897999926 ], [ -70.527990829999965, -3.859235810999962 ], [ -70.500835810999945, -3.859308900999963 ], [ -70.479446031999942, -3.849999958999945 ], [ -70.423899829999982, -3.816108906999943 ], [ -70.406535878999989, -3.80249988099996 ], [ -70.362226791999944, -3.787781929999937 ], [ -70.341673023999988, -3.789999948999935 ], [ -70.32306402599994, -3.799164050999934 ], [ -70.234454903999961, -3.871254956999962 ], [ -70.181881929999975, -3.937426896999966 ], [ -70.162655017999953, -3.974863997999933 ], [ -70.152508891999958, -4.005835799999943 ], [ -70.144308875999968, -4.031808971999965 ], [ -70.136126796999974, -4.050835891999952 ], [ -70.123072988999979, -4.072363971999948 ], [ -70.040846014999943, -4.140554944999963 ], [ -70.021117864999951, -4.153890888999968 ], [ -69.988617873999942, -4.175973012999975 ], [ -69.956681983999943, -4.209445974999937 ], [ -69.956926903999943, -4.236872903999938 ], [ -69.950290950999943, -4.262499901999945 ], [ -69.960563978999971, -4.28319096599995 ], [ -69.979590898999959, -4.312499966999951 ], [ -70.016963961999977, -4.337946083999952 ], [ -70.197826824999936, -4.33265492299995 ], [ -70.255846022999947, -4.291390981999939 ], [ -70.301390938999987, -4.249999969999976 ], [ -70.308763995999982, -4.230281877999971 ], [ -70.298335901999963, -4.199026934999949 ], [ -70.29972679499997, -4.174164029999929 ], [ -70.320145949999983, -4.139717928999971 ], [ -70.429381929999977, -4.132017808999933 ], [ -70.465290840999955, -4.154726899999957 ], [ -70.499999966999951, -4.179717878999952 ], [ -70.584163997999951, -4.195554982999965 ], [ -70.625699848999943, -4.160555004999935 ], [ -70.762435847999939, -4.147708899999941 ], [ -70.810290982999959, -4.170554949999939 ], [ -70.832226925999976, -4.187017846999936 ], [ -70.868899931999977, -4.251108895999948 ], [ -70.872554944999933, -4.280117824999934 ], [ -70.956264005999969, -4.38221795499993 ], [ -71.036655007999968, -4.381935819999967 ], [ -71.065145934999975, -4.362917951999975 ], [ -71.169445978999988, -4.357782024999949 ], [ -71.285935825999957, -4.381035938999958 ], [ -71.382235846999947, -4.430835843999944 ], [ -71.65056403799997, -4.508890975999975 ], [ -71.726681944999939, -4.493282027999953 ], [ -71.747190952999972, -4.490355067999928 ], [ -71.881972962999953, -4.510863907999976 ], [ -71.902481970999986, -4.518190864999951 ], [ -72.02806400299994, -4.61249984899996 ], [ -72.129181941999946, -4.693608843999925 ], [ -72.234999949999974, -4.753335938999953 ], [ -72.253617832999964, -4.761664030999953 ], [ -72.279172914999947, -4.763608967999971 ], [ -72.300981956999976, -4.756990951999967 ], [ -72.325290984999981, -4.760835898999972 ], [ -72.375290880999955, -4.784446043999935 ], [ -72.389590910999971, -4.805690982999977 ], [ -72.390563881999981, -4.838608895999926 ], [ -72.403335890999983, -4.87451780799995 ], [ -72.476964037999949, -4.941108843999928 ], [ -72.617508940999983, -5.020281953999927 ], [ -72.75667300899994, -5.076945966999972 ], [ -72.786663960999988, -5.08889101699998 ], [ -72.851964015999954, -5.124717953999948 ], [ -72.898617856999977, -5.172781965999945 ], [ -72.918335781999986, -5.321664012999975 ], [ -72.961399820999986, -5.452499988999932 ], [ -72.964172889999986, -5.477226938999934 ], [ -72.95256395399997, -5.510281979999945 ], [ -72.942790989999935, -5.537499863999926 ], [ -72.961955037999985, -5.648608863999925 ], [ -72.988890954999988, -5.71166391 ], [ -73.048064005999947, -5.791945946999931 ], [ -73.082226799999944, -5.827217833999953 ], [ -73.130281926999942, -5.876390938999975 ], [ -73.205563990999963, -6.017499943999951 ], [ -73.218063922999988, -6.045281929999931 ], [ -73.229735890999962, -6.093608965999977 ], [ -73.225572934999946, -6.121390951999956 ], [ -73.218608913999958, -6.146255029999963 ], [ -73.16639988299994, -6.240281878999951 ], [ -73.118617837999977, -6.381526837999957 ], [ -73.12000889899997, -6.418055004999928 ], [ -73.123899945999938, -6.447217824999939 ], [ -73.14500893099995, -6.489164053999957 ], [ -73.160846033999974, -6.515554978999944 ], [ -73.186117807999949, -6.547363966999967 ], [ -73.216673029999981, -6.566663968999933 ], [ -73.276399956999967, -6.574999939999941 ], [ -73.298763880999957, -6.574446062999925 ], [ -73.335008906999974, -6.574446062999925 ], [ -73.361190954999984, -6.581990949999977 ], [ -73.587508878999984, -6.734999910999932 ], [ -73.676390915999946, -6.804445989999977 ], [ -73.744173019999948, -6.876946099999941 ], [ -73.754454932999977, -6.894164037999928 ], [ -73.799726933999978, -7.08083589499995 ], [ -73.795135829999936, -7.122626890999925 ], [ -73.775563917999989, -7.13721794099996 ], [ -73.719999946999963, -7.223055 ], [ -73.705835870999977, -7.309235883999975 ], [ -73.738199907999956, -7.333954954999967 ], [ -73.931117791999952, -7.359164031999967 ], [ -73.930526867999959, -7.442990942999927 ], [ -73.962435767999978, -7.527364018999947 ], [ -73.987155005999966, -7.528835880999964 ], [ -74.002154924999957, -7.530454928999973 ], [ -74.004590873999973, -7.554373024999961 ], [ -73.974163893999958, -7.574446006999949 ], [ -73.932508852999945, -7.609164017999944 ], [ -73.865563932999976, -7.675281978999976 ], [ -73.851954907999982, -7.699581954999928 ], [ -73.84222687099998, -7.717363994999971 ], [ -73.821535806999975, -7.73166402399994 ], [ -73.751954946999945, -7.756946023999944 ], [ -73.724163908999969, -7.764445982999973 ], [ -73.706664002999958, -7.776390865999929 ], [ -73.693755033999935, -7.803335834999928 ], [ -73.698199957999975, -7.846181943999966 ], [ -73.725390851999975, -7.879581984999959 ], [ -73.777017842999953, -7.872881993999954 ], [ -73.771955005999985, -7.948054924999951 ], [ -73.756326779999938, -7.967082012999981 ], [ -73.70987293099995, -7.983890913999971 ], [ -73.651673018999986, -8.016663987999948 ], [ -73.595699842999977, -8.121391006999943 ], [ -73.556673030999946, -8.24917295399996 ], [ -73.541399861999935, -8.302781929999981 ], [ -73.533199845999945, -8.352363904999947 ], [ -73.478617897999982, -8.398608876999958 ], [ -73.404726894999953, -8.450555050999981 ], [ -73.345699856999943, -8.602364058999967 ], [ -73.273335868999936, -8.674235860999943 ], [ -73.240981889999944, -8.679582006999965 ], [ -73.215563935999967, -8.686108826999941 ], [ -73.183899955999948, -8.700135941999974 ], [ -73.166672965999965, -8.714164062999942 ], [ -73.152508889999979, -8.734999964999929 ], [ -73.141954900999963, -8.762226901999952 ], [ -73.132781912999974, -8.790555051999945 ], [ -73.12194595699998, -8.807499907999954 ], [ -73.058817819999945, -8.902426804999948 ], [ -73.005763893999983, -8.930346086999975 ], [ -72.96236390699994, -8.988472908999938 ], [ -72.951126792999958, -9.045835804999967 ], [ -72.948064044999967, -9.066526867999926 ], [ -72.949172970999939, -9.090135839999959 ], [ -72.955290921999961, -9.11916404699997 ], [ -72.966399961999969, -9.143054984999935 ], [ -73.023617849999937, -9.22110894399998 ], [ -73.119445969999958, -9.313335862999963 ], [ -73.158063912999978, -9.344445967999945 ], [ -73.182926816999952, -9.364999902999955 ], [ -73.200699971999938, -9.400763974999961 ], [ -72.980835777999971, -9.410835837999969 ], [ -72.861954909999952, -9.412226898999961 ], [ -72.840835865999964, -9.4116639699999 ], [ -72.730008833999989, -9.413055030999942 ], [ -72.606946065999978, -9.446108897999977 ], [ -72.402235849999954, -9.483608862999972 ], [ -72.371672916999955, -9.492635836999966 ], [ -72.301526779999961, -9.533191004999935 ], [ -72.252508906999935, -9.656945949999965 ], [ -72.257646007999938, -9.692572893999966 ], [ -72.269308923999972, -9.730554985999959 ], [ -72.260355038999933, -9.759163929999943 ], [ -72.226526851999949, -9.777781980999976 ], [ -72.180281879999939, -9.80339992699993 ], [ -72.164735795999945, -9.834717902999955 ], [ -72.15077288699996, -9.88701796099997 ], [ -72.168335823999939, -9.954446013999927 ], [ -72.185835896999947, -10.002499967999938 ], [ -72.143890840999973, -10.00471781899995 ], [ -72.052226850999944, -10.00471781899995 ], [ -72.010281962999954, -10.004446077999944 ], [ -71.979172864999953, -10.004446077999944 ], [ -71.930281893999961, -10.004446077999944 ], [ -71.641954984999984, -10.004446077999944 ], [ -71.459163948999958, -10.00416394299998 ], [ -71.368055007999942, -10.003890860999945 ], [ -71.296390908999967, -9.995417929999974 ], [ -71.180417890999934, -9.932226929999956 ], [ -71.158899868999981, -9.889999906999947 ], [ -71.138545925999949, -9.863817858999937 ], [ -71.013964021999982, -9.820835794999937 ], [ -70.985354909999955, -9.796735810999962 ], [ -70.969317814999954, -9.763890987999957 ], [ -70.881954913999948, -9.669999925999946 ], [ -70.843608879999977, -9.645554943999969 ], [ -70.779173, -9.605554992999942 ], [ -70.643335875999981, -9.490835906999962 ], [ -70.588617805999945, -9.440835842999945 ], [ -70.568064038999978, -9.433473010999933 ], [ -70.514663938999945, -9.42799996399998 ], [ -70.545290910999938, -9.500835852999955 ], [ -70.577226799999949, -9.538608899999929 ], [ -70.607590914999946, -9.575663952999946 ], [ -70.590835825999989, -9.631599912999945 ], [ -70.595290974999955, -9.78139089299998 ], [ -70.612646040999948, -9.798755011999958 ], [ -70.625563894999971, -9.825972895999939 ], [ -70.6288908399999, -9.895835890999933 ], [ -70.628617924999958, -9.948491006999973 ], [ -70.629454941999938, -10.068891010999948 ], [ -70.629181858999971, -10.186390876999951 ], [ -70.629454941999938, -10.338608921999935 ], [ -70.630281899999943, -10.608608966999952 ], [ -70.630846001999942, -10.781663919999971 ], [ -70.631954927999971, -10.913054945999932 ], [ -70.631954927999971, -10.975282027999981 ], [ -70.631390993999958, -11.00916402699994 ], [ -70.581681948999972, -10.971108845999936 ], [ -70.52639994499998, -10.935690945999966 ], [ -70.499308962999976, -10.953472985999952 ], [ -70.471117939999942, -10.981108958999926 ], [ -70.456945985999937, -11.001664067999968 ], [ -70.436673011999972, -11.026946066999926 ], [ -70.402508877999935, -11.045555065999963 ], [ -70.352781895999954, -11.066108833999976 ], [ -70.328899841999942, -11.06917292199995 ], [ -70.226526796999963, -11.052781942999957 ], [ -70.174999884999977, -11.037499888999946 ], [ -70.154172866999943, -11.029999929999974 ], [ -70.051681971999983, -10.979172906999963 ], [ -69.999999827999943, -10.946945997999933 ], [ -69.969454998999936, -10.928608908999934 ], [ -69.950008815999979, -10.919999855999947 ], [ -69.925981922999938, -10.91402691199994 ], [ -69.780208890999972, -10.924717860999976 ], [ -69.737917830999947, -10.96159991199994 ], [ -69.688608938999948, -10.958608913999967 ], [ -69.666117945999986, -10.953335857999946 ], [ -69.586117875999946, -10.950281995999944 ], [ -69.567508877999956, -10.950555077999979 ], [ -69.568435915999942, -10.951091016999953 ], [ -69.500563957999987, -11.062499921999972 ], [ -69.432508938999945, -11.173608921999971 ], [ -69.248899828999981, -11.472499877999951 ], [ -69.214735861999941, -11.528054964999967 ], [ -69.180554963999953, -11.58360887799995 ], [ -69.069455015999949, -11.764163957999926 ], [ -69.039463895999972, -11.812782013999936 ], [ -69.000835894999966, -11.875282010999967 ], [ -68.987226868999983, -11.896108860999959 ], [ -68.957226863999949, -11.944726916999969 ], [ -68.925281922999943, -11.998335892999933 ], [ -68.880281998999976, -12.08694602099996 ], [ -68.835554989999935, -12.176946035999947 ], [ -68.749454906999972, -12.350281949999953 ], [ -68.736390871999959, -12.378055050999933 ], [ -68.69862687799997, -12.454172957999958 ], [ -68.677508840999963, -12.495835878999969 ], [ -68.673908812999969, -12.501155033999964 ], [ -68.743617916999938, -12.584726799999942 ], [ -68.768346039999983, -12.644164048999926 ], [ -68.815563982999947, -12.733054970999945 ], [ -68.879445987999986, -12.757499952999979 ], [ -68.922226885999976, -12.802782011999966 ], [ -68.973345934999941, -12.865490884999929 ], [ -68.973345934999941, -13.001946089999933 ], [ -68.963345988999947, -13.026673039999935 ], [ -68.968481915999973, -13.096663942999953 ], [ -68.968335903999957, -13.166108849999944 ], [ -68.960554982999952, -13.272500011999966 ], [ -68.959454941999979, -13.452782008999975 ], [ -68.96125503899998, -13.506808906999936 ], [ -68.979172865999942, -13.566108860999975 ], [ -69.023090853999975, -13.642046053999934 ], [ -69.062790899999982, -13.707781967999949 ], [ -69.014173011999958, -13.791108981999969 ], [ -69.001681963999943, -13.839446076999934 ], [ -68.975146031999941, -13.966255051999951 ], [ -68.960972904999949, -13.987081901999943 ], [ -68.937372985999957, -14.005417817999955 ], [ -68.898608862999936, -14.031808910999928 ], [ -68.857890917999953, -14.200135799999941 ], [ -68.912781989999985, -14.216946041999961 ], [ -68.958899891999977, -14.223890951999977 ], [ -68.986399910999978, -14.231663992999927 ], [ -69.002372967999975, -14.248755028999938 ], [ -68.999799891999942, -14.33604601299993 ], [ -68.984235870999953, -14.378126854999948 ], [ -69.115572917999941, -14.484163965999926 ], [ -69.23541787299996, -14.588955021999936 ], [ -69.244735866999974, -14.616391002999933 ], [ -69.248608808999961, -14.654164049999963 ], [ -69.248899828999981, -14.687499884999966 ], [ -69.310563981999962, -14.766946077999933 ], [ -69.343481894999968, -14.779863931999955 ], [ -69.364799924999943, -14.800626911999927 ], [ -69.381390895999971, -14.964791011999978 ], [ -69.295008845999973, -15.079446059999952 ], [ -69.197781953999936, -15.158608944999969 ], [ -69.17083581199995, -15.187781991999941 ], [ -69.13709094, -15.227635929999963 ], [ -69.143135800999971, -15.254445949999933 ], [ -69.169872898999984, -15.263335795999978 ], [ -69.195981856999936, -15.261663941999927 ], [ -69.268335785999966, -15.326946059999955 ], [ -69.332508809999979, -15.438890902999958 ], [ -69.420981977999986, -15.621526873999926 ], [ -69.213817875999951, -16.157217827999943 ], [ -69.159726772999988, -16.21187303399995 ], [ -69.140008847999979, -16.222226863999936 ], [ -69.070699895999951, -16.227573008999968 ], [ -69.044726892999961, -16.207781993999959 ], [ -68.968199948999938, -16.20909996499995 ], [ -68.932563951999953, -16.250555013999929 ], [ -68.892899947999979, -16.283617933999949 ], [ -68.838481950999949, -16.298399922999977 ], [ -68.824245957999949, -16.326317863999975 ], [ -68.833346022999933, -16.35402692699995 ], [ -68.990846007999949, -16.419726965999928 ], [ -69.034181955999941, -16.473054980999962 ], [ -69.041399947999935, -16.54764604099995 ], [ -69.032017915999973, -16.608608963999927 ], [ -69.014326903999972, -16.629364064999947 ], [ -69.012390851999953, -16.65698193299994 ], [ -69.050708889999953, -16.683755072999929 ], [ -69.107645984999976, -16.711599922999937 ], [ -69.191955022999934, -16.778055004999942 ], [ -69.320699881999985, -16.926254931999949 ], [ -69.38694591899997, -17.05291789499995 ], [ -69.40639981299995, -17.072226949999958 ], [ -69.465381924999974, -17.097046099999943 ], [ -69.531535760999986, -17.129863933999957 ], [ -69.59279087699997, -17.184717957999965 ], [ -69.618899834999979, -17.214726847999941 ], [ -69.656190921999951, -17.287246067999945 ], [ -69.590835881999965, -17.295281966999937 ], [ -69.533617825999954, -17.347782016999929 ], [ -69.501108948999956, -17.378890947999935 ], [ -69.500563957999987, -17.426946075999979 ], [ -69.499726772999963, -17.505282001999944 ] ] ] }
        }
    ]
}