{
    "type": "FeatureCollection",
    "features": [
        {
            "type": "Feature",
            "properties": {
                "WCID": "POL",
                "COUNTRY": "Poland"
            },
            "geometry": { "type": "Polygon", "coordinates": [ [ [ 22.686063321000063, 49.577091065000047 ], [ 22.678463281000063, 49.569436040000028 ], [ 22.656873175000044, 49.529854011000054 ], [ 22.694436171000063, 49.450827081000057 ], [ 22.732791258000077, 49.397209052000051 ], [ 22.758818241000029, 49.285900060000074 ], [ 22.726663248000023, 49.217764239000076 ], [ 22.70380915100003, 49.16989116700006 ], [ 22.77805403800005, 49.150545063000038 ], [ 22.85277317300006, 49.105827107000039 ], [ 22.876518099000066, 49.087418101000026 ], [ 22.863500165000062, 49.049827109000034 ], [ 22.886073301000067, 49.002918123000029 ], [ 22.86305408000004, 49.003045025000063 ], [ 22.737773293000032, 49.047218158000078 ], [ 22.594145191000052, 49.091536130000065 ], [ 22.568473265000023, 49.08790911300008 ], [ 22.558054057000049, 49.079436014000066 ], [ 22.537773204000075, 49.087918165000076 ], [ 22.348891206000076, 49.138473111000053 ], [ 22.323891174000039, 49.138609066000072 ], [ 22.225000139000031, 49.15471807800003 ], [ 22.029891226000075, 49.220236062000026 ], [ 22.025273300000038, 49.247218079000049 ], [ 22.020136199000035, 49.273882087000061 ], [ 21.95860917400006, 49.340273130000071 ], [ 21.838054104000037, 49.384436037000057 ], [ 21.612636061000046, 49.436527051000041 ], [ 21.533609131000048, 49.429718096000045 ], [ 21.500827172000072, 49.422218136000026 ], [ 21.459300206000023, 49.411945108000054 ], [ 21.436391124000068, 49.41389121900005 ], [ 21.400845149000077, 49.429054081000061 ], [ 21.281945169000039, 49.456391156000052 ], [ 21.071527213000024, 49.422082182000054 ], [ 21.050554014000056, 49.410544995000066 ], [ 21.035554096000055, 49.359718140000041 ], [ 20.982354156000042, 49.309436109000046 ], [ 20.95582710900004, 49.301664240000036 ], [ 20.913609139000073, 49.296109050000041 ], [ 20.812500252000063, 49.330827061000036 ], [ 20.740836153000032, 49.388882134000028 ], [ 20.602773300000024, 49.395553961000076 ], [ 20.360554067000066, 49.393053975000043 ], [ 20.327773282000067, 49.383327111000028 ], [ 20.206663330000026, 49.340273130000071 ], [ 20.143609122000043, 49.314991131000056 ], [ 20.103336089000038, 49.248600087000057 ], [ 20.092636086000027, 49.204854096000076 ], [ 20.073363241000038, 49.17787325300003 ], [ 20.039163232000078, 49.188891097000067 ], [ 20.020554066000045, 49.19943603400003 ], [ 19.998900257000059, 49.21762711100007 ], [ 19.979582149000066, 49.226391061000072 ], [ 19.936391208000032, 49.231109067000034 ], [ 19.911245163000046, 49.226173132000042 ], [ 19.867909215000054, 49.197127155000032 ], [ 19.84291823500007, 49.191800120000039 ], [ 19.783473275000063, 49.200200129000052 ], [ 19.765973202000055, 49.214436121000062 ], [ 19.773609116000046, 49.233054004000053 ], [ 19.798054098000023, 49.252773102000049 ], [ 19.825654029000077, 49.277564257000051 ], [ 19.805000182000072, 49.364718113000038 ], [ 19.778018165000049, 49.407491133000065 ], [ 19.710554070000057, 49.397500072000071 ], [ 19.658609236000075, 49.40666417400007 ], [ 19.57708215200006, 49.459018044000061 ], [ 19.535273219000032, 49.535554041000069 ], [ 19.520982242000059, 49.574164272000075 ], [ 19.475554170000066, 49.60000014700006 ], [ 19.447773190000078, 49.600827106000054 ], [ 19.269027093000034, 49.526664194000034 ], [ 19.242363253000065, 49.50680008900008 ], [ 19.199300219000065, 49.437773105000076 ], [ 19.191663300000073, 49.414027005000037 ], [ 19.159582236000062, 49.400273140000081 ], [ 19.031663329000025, 49.391935997000076 ], [ 18.974927064000042, 49.401936110000065 ], [ 18.968327154000065, 49.456382103000067 ], [ 18.968609121000043, 49.481664270000067 ], [ 18.851245042000073, 49.517354079000029 ], [ 18.852218181000069, 49.527773120000063 ], [ 18.847773258000075, 49.554164213000035 ], [ 18.839445166000075, 49.594991122000067 ], [ 18.810827169000049, 49.673327048000033 ], [ 18.786945116000027, 49.681936101000076 ], [ 18.634163304000026, 49.737782207000066 ], [ 18.579345155000055, 49.814991103000068 ], [ 18.578745178000077, 49.912218163000034 ], [ 18.552709143000072, 49.922427153000058 ], [ 18.350273272000038, 49.938891223000041 ], [ 18.270273203000045, 49.957773136000071 ], [ 18.094163214000048, 50.038053999000056 ], [ 18.05316330200003, 50.055927066000038 ], [ 18.009445139000036, 50.011109198000042 ], [ 17.920691178000027, 49.977364158000057 ], [ 17.876245130000029, 49.97895403800004 ], [ 17.840136059000031, 49.989582123000048 ], [ 17.657773170000041, 50.108053955000059 ], [ 17.606318175000069, 50.162700108000081 ], [ 17.64277325200004, 50.171945012000037 ], [ 17.695273302000032, 50.179027049000069 ], [ 17.763682205000066, 50.209373227000071 ], [ 17.762918111000033, 50.233327030000055 ], [ 17.753054120000058, 50.297773137000036 ], [ 17.724445175000028, 50.319018076000077 ], [ 17.697009195000078, 50.320273182000051 ], [ 17.693473205000032, 50.300000208000029 ], [ 17.661109168000053, 50.272354010000072 ], [ 17.626800194000054, 50.265545054000029 ], [ 17.433054010000035, 50.270273118000034 ], [ 17.378327056000046, 50.279445100000032 ], [ 17.283609203000026, 50.320273182000051 ], [ 17.226945022000052, 50.345273215000077 ], [ 17.205273276000071, 50.360973190000038 ], [ 17.11805404200004, 50.396664172000044 ], [ 17.057782290000034, 50.410553991000029 ], [ 16.941391182000075, 50.435000147000039 ], [ 16.910827075000043, 50.44012702200007 ], [ 16.890973196000061, 50.438673097000049 ], [ 16.868745060000037, 50.411182131000032 ], [ 16.93750013500005, 50.340554035000082 ], [ 16.972773196000048, 50.310000154000079 ], [ 17.002218151000022, 50.216945103000057 ], [ 16.968609234000041, 50.222773208000035 ], [ 16.911391177000041, 50.222354113000051 ], [ 16.84694507100005, 50.201800178000042 ], [ 16.811245036000059, 50.179436086000067 ], [ 16.802936056000021, 50.169654070000036 ], [ 16.786663261000058, 50.140545061000068 ], [ 16.715345167000066, 50.098327091000044 ], [ 16.640000239000074, 50.108891139000036 ], [ 16.614436105000038, 50.119718044000081 ], [ 16.58777327100006, 50.140000070000042 ], [ 16.565973282000073, 50.170345074000068 ], [ 16.562218189000077, 50.208191211000042 ], [ 16.548054114000024, 50.227082177000057 ], [ 16.45860914800005, 50.303600068000037 ], [ 16.441391211000052, 50.316664270000047 ], [ 16.371945131000075, 50.361109144000068 ], [ 16.303054101000043, 50.378054 ], [ 16.266109186000051, 50.389718089000041 ], [ 16.219027198000049, 50.410273198000027 ], [ 16.207736104000048, 50.439018096000041 ], [ 16.315000157000043, 50.504718136000065 ], [ 16.358918145000075, 50.497909181000068 ], [ 16.406663309000066, 50.523045 ], [ 16.447363317000054, 50.578818183000067 ], [ 16.430273287000034, 50.601527106000049 ], [ 16.370000194000056, 50.644164171000057 ], [ 16.332009218000053, 50.66402710300008 ], [ 16.237500242000067, 50.670554091000042 ], [ 16.137500113000044, 50.656109054000069 ], [ 16.118054098000073, 50.657800187000078 ], [ 16.071391205000054, 50.635554113000069 ], [ 16.02443611800004, 50.63000009600006 ], [ 15.946945088000064, 50.689436004000072 ], [ 15.787500167000076, 50.744164132000037 ], [ 15.60666328700006, 50.772773244000064 ], [ 15.488336127000025, 50.786664237000082 ], [ 15.379718229000048, 50.779445071000055 ], [ 15.362845123000056, 50.840618045000042 ], [ 15.311663210000063, 50.860345022000047 ], [ 15.282773304000045, 50.892082092000066 ], [ 15.272500108000031, 50.92450916100006 ], [ 15.290418103000036, 50.948953976000041 ], [ 15.275273177000031, 50.975000070000078 ], [ 15.239445067000077, 50.991945093000027 ], [ 15.176945071000034, 51.014718053000081 ], [ 15.016391224000074, 50.974091136000027 ], [ 15.019163287000026, 50.950554082000053 ], [ 15.003891124000063, 50.867500150000069 ], [ 14.966663236000045, 50.859164179000061 ], [ 14.828336185000069, 50.865827122000042 ], [ 14.82618220300003, 50.883054112000082 ], [ 14.896945080000023, 50.959445102000075 ], [ 14.93110921400006, 51.00249120400008 ], [ 14.965554143000077, 51.052218018000076 ], [ 14.978891259000022, 51.078327143000081 ], [ 14.994445054000039, 51.118609061000029 ], [ 15.032218101000069, 51.239164131000052 ], [ 15.033818206000035, 51.286664209000037 ], [ 15.002636185000028, 51.316800168000043 ], [ 14.983336183000063, 51.333609069000033 ], [ 14.971663209000042, 51.357218041000067 ], [ 14.981836157000032, 51.368045113000051 ], [ 14.97555408900007, 51.440827022000065 ], [ 14.953054043000066, 51.469991184000037 ], [ 14.92110910100007, 51.481945119000045 ], [ 14.837500120000072, 51.498600128000078 ], [ 14.739445095000065, 51.526527121000072 ], [ 14.715000113000031, 51.554718144000049 ], [ 14.759236110000074, 51.60749110900008 ], [ 14.756109157000026, 51.666736077000053 ], [ 14.722082151000052, 51.690964136000048 ], [ 14.698054084000034, 51.702218182000081 ], [ 14.667982162000044, 51.723882217000039 ], [ 14.600973205000059, 51.820064221000052 ], [ 14.610136134000072, 51.848191206000081 ], [ 14.645418079000024, 51.86527318900005 ], [ 14.689863288000026, 51.896945049000067 ], [ 14.717554079000024, 51.943109051000079 ], [ 14.760763293000025, 52.069864215000052 ], [ 14.707918075000066, 52.245618140000033 ], [ 14.692500235000068, 52.254436070000054 ], [ 14.655836114000067, 52.260273227000027 ], [ 14.598891140000035, 52.272773160000042 ], [ 14.579863214000056, 52.288327122000055 ], [ 14.534445033000054, 52.396245132000047 ], [ 14.543954135000035, 52.421873136000045 ], [ 14.563191273000029, 52.433191220000026 ], [ 14.585136102000035, 52.439853995000078 ], [ 14.633536061000029, 52.490554115000066 ], [ 14.639582263000023, 52.572982087000071 ], [ 14.595782292000024, 52.606827038000063 ], [ 14.554582220000043, 52.627218030000051 ], [ 14.514445142000056, 52.639164253000047 ], [ 14.478745107000066, 52.652500197000052 ], [ 14.448327181000025, 52.675282210000034 ], [ 14.383336082000028, 52.730827070000032 ], [ 14.355000220000022, 52.74832714300004 ], [ 14.205418117000022, 52.818609066000079 ], [ 14.149163309000073, 52.862782199000037 ], [ 14.147636126000066, 52.959236112000042 ], [ 14.168891124000027, 52.973327097000038 ], [ 14.200282190000053, 52.984718103000034 ], [ 14.225418176000062, 52.988882233000027 ], [ 14.293736052000042, 53.018773106000026 ], [ 14.34736330100003, 53.048882243000037 ], [ 14.380273167000041, 53.110136018000048 ], [ 14.391691164000065, 53.144164198000055 ], [ 14.412773159000039, 53.304445130000033 ], [ 14.413263333000032, 53.338954096000066 ], [ 14.309718162000024, 53.555544990000044 ], [ 14.275627118000045, 53.699064127000042 ], [ 14.366109092000045, 53.699436116000072 ], [ 14.410691262000057, 53.680544983000061 ], [ 14.525000137000063, 53.660553976000074 ], [ 14.554718175000062, 53.678600213000038 ], [ 14.620282260000067, 53.76791810900005 ], [ 14.614163303000055, 53.816382106000049 ], [ 14.580836185000067, 53.84750008900005 ], [ 14.55347329500006, 53.857773117000079 ], [ 14.476663210000027, 53.864582240000061 ], [ 14.412573167000062, 53.85992709900006 ], [ 14.339445085000023, 53.804853971000057 ], [ 14.290000238000061, 53.822773139000049 ], [ 14.266109131000064, 53.836664132000067 ], [ 14.218891188000043, 53.869018111000059 ], [ 14.21582710000007, 53.899991087000046 ], [ 14.225554131000024, 53.928600199000073 ], [ 14.249863326000025, 53.922354005000045 ], [ 14.327773284000045, 53.912500072000057 ], [ 14.350273162000065, 53.910553962000051 ], [ 14.376391173000059, 53.912218105000079 ], [ 14.425418098000023, 53.922500185000047 ], [ 14.483327158000066, 53.947218083000053 ], [ 14.504300189000048, 53.959164139000052 ], [ 14.559445065000034, 53.97666421200006 ], [ 14.745282253000028, 54.028609045000053 ], [ 14.814445024000065, 54.039164208000045 ], [ 14.979718218000073, 54.071391117000076 ], [ 15.228054061000023, 54.12943613200008 ], [ 15.302782248000028, 54.147773222000069 ], [ 15.353891238000074, 54.156391159000066 ], [ 15.395854063000058, 54.16062703800003 ], [ 15.429445043000044, 54.162218091000057 ], [ 15.493473228000028, 54.166518175000078 ], [ 15.654163197000059, 54.193882239000061 ], [ 15.752363228000036, 54.214164265000079 ], [ 15.794163277000052, 54.226109148000035 ], [ 15.83930016100004, 54.241391201000056 ], [ 15.876391256000034, 54.246382122000057 ], [ 16.047773181000025, 54.261664175000078 ], [ 16.081391150000059, 54.254300170000079 ], [ 16.144027101000063, 54.252918162000071 ], [ 16.174718110000072, 54.259164189000046 ], [ 16.217782150000062, 54.273609058000034 ], [ 16.32944502600003, 54.356800118000081 ], [ 16.304927121000048, 54.372291216000065 ], [ 16.318336154000065, 54.391109092000079 ], [ 16.408218152000074, 54.461527137000076 ], [ 16.460554085000069, 54.499718105000056 ], [ 16.489527140000064, 54.518673109000076 ], [ 16.515554122000026, 54.53416420700006 ], [ 16.54360919100003, 54.54471802900008 ], [ 16.571663253000054, 54.55110906200008 ], [ 16.638609179000071, 54.563609162000034 ], [ 16.665273186000036, 54.56693610700006 ], [ 16.701945186000046, 54.56874509000005 ], [ 16.79332720900004, 54.575827127000082 ], [ 16.884163235000074, 54.589718120000043 ], [ 16.91527317200007, 54.597773129000075 ], [ 16.939445072000069, 54.605409043000066 ], [ 17.01916334200007, 54.647500111000056 ], [ 17.036527125000077, 54.660554087000037 ], [ 17.065836126000022, 54.673473114000046 ], [ 17.251109211000028, 54.730273249000049 ], [ 17.362218211000027, 54.747773154000072 ], [ 17.434163271000045, 54.752773127000069 ], [ 17.530554152000036, 54.762218023000059 ], [ 17.592918194000049, 54.770000118000041 ], [ 17.68660909700003, 54.789091076000034 ], [ 17.774436187000049, 54.806391156000075 ], [ 17.896945079000034, 54.823882176000041 ], [ 17.918891248000023, 54.82666413000004 ], [ 18.043327139000041, 54.834027129000049 ], [ 18.336109197000042, 54.836036104000073 ], [ 18.372773150000057, 54.816109135000033 ], [ 18.449336136000056, 54.788273169000036 ], [ 18.526836051000032, 54.76077315100008 ], [ 18.578163306000022, 54.744109089000062 ], [ 18.605836160000024, 54.735609169000043 ], [ 18.703891184000042, 54.700273244000073 ], [ 18.740000255000041, 54.68527315800003 ], [ 18.774718098000051, 54.666382192000071 ], [ 18.832673259000046, 54.621036096000068 ], [ 18.820973296000034, 54.59374512200003 ], [ 18.786109105000037, 54.618609199000048 ], [ 18.772082157000057, 54.633609118000038 ], [ 18.755554050000057, 54.656109164000043 ], [ 18.730827100000056, 54.678327075000027 ], [ 18.706245157000069, 54.693609128000048 ], [ 18.571945108000023, 54.729664220000075 ], [ 18.503945074000058, 54.753500173000077 ], [ 18.483400191000044, 54.759118060000048 ], [ 18.466945174000045, 54.736827059000063 ], [ 18.406109153000045, 54.738191130000075 ], [ 18.468327182000053, 54.665836027000068 ], [ 18.511391221000054, 54.631100079000078 ], [ 18.547773207000034, 54.58770009300008 ], [ 18.566663335000044, 54.550691141000073 ], [ 18.569791126000041, 54.476664183000082 ], [ 18.574300255000026, 54.446527050000043 ], [ 18.59520924800006, 54.42777321300008 ], [ 18.708336107000036, 54.382773121000071 ], [ 18.757773243000031, 54.370827065000071 ], [ 18.843745083000044, 54.351800145000027 ], [ 18.893191271000035, 54.345554118000052 ], [ 18.927354064000042, 54.346382083000037 ], [ 18.953891170000077, 54.351664190000065 ], [ 18.970554058000062, 54.345136029000059 ], [ 19.022782200000051, 54.34221812100003 ], [ 19.046391171000039, 54.34221812100003 ], [ 19.138882288000048, 54.346664217000068 ], [ 19.212500208000051, 54.353882210000052 ], [ 19.374445116000061, 54.373600134000071 ], [ 19.417500103000066, 54.380554096000026 ], [ 19.439718181000046, 54.385827151000058 ], [ 19.516800175000071, 54.407082149000075 ], [ 19.562773237000044, 54.428891191000048 ], [ 19.613327178000077, 54.454718181000032 ], [ 19.627254045000029, 54.463273255000047 ], [ 19.65110910900006, 54.455827107000061 ], [ 19.63034512400003, 54.44307320300004 ], [ 19.524436089000062, 54.396664114000032 ], [ 19.428336060000049, 54.365273216000048 ], [ 19.408054033000042, 54.358891067000059 ], [ 19.376109091000046, 54.352500201000055 ], [ 19.277636146000077, 54.346109168000055 ], [ 19.230763202000048, 54.333673106000049 ], [ 19.253327118000072, 54.278191109000034 ], [ 19.371109118000049, 54.268600200000037 ], [ 19.478745161000063, 54.314164226000059 ], [ 19.571036118000052, 54.34693612600006 ], [ 19.62874518600006, 54.350545039000053 ], [ 19.713609106000035, 54.383327165000082 ], [ 19.797009210000056, 54.437545003000082 ], [ 19.857700225000031, 54.429909089000034 ], [ 20.004163254000048, 54.419154101000061 ], [ 20.090554022000049, 54.418600058000038 ], [ 20.15860920800003, 54.411936109000067 ], [ 20.301391241000033, 54.397773208000046 ], [ 20.329082200000073, 54.393836060000069 ], [ 20.331182202000036, 54.393527103000054 ], [ 20.37166327400007, 54.387773262000053 ], [ 20.432773215000054, 54.381664195000042 ], [ 20.738882164000074, 54.358044998000082 ], [ 20.898054171000069, 54.356100061000063 ], [ 21.126382243000023, 54.341664245000061 ], [ 21.181936156000063, 54.336382137000044 ], [ 21.231936053000027, 54.332773225000039 ], [ 21.283609145000071, 54.329991103000054 ], [ 21.367218126000068, 54.327218034000055 ], [ 21.411945135000053, 54.325827141000048 ], [ 21.442491137000047, 54.325554059000069 ], [ 21.524163229000067, 54.326945120000062 ], [ 21.57043619600006, 54.328209111000035 ], [ 21.577518234000024, 54.32840021800007 ], [ 21.625554083000054, 54.329718021000076 ], [ 21.731382148000023, 54.330835999000044 ], [ 21.855554177000045, 54.331664131000082 ], [ 21.981936178000069, 54.332773225000039 ], [ 22.165000129000077, 54.334991076000051 ], [ 22.26555413400007, 54.338045106000038 ], [ 22.296154115000036, 54.339909074000047 ], [ 22.429727119000063, 54.345545066000057 ], [ 22.455554110000037, 54.345545066000057 ], [ 22.630000123000059, 54.34887318400007 ], [ 22.664163252000037, 54.351109141000052 ], [ 22.76666319900005, 54.359718026000053 ], [ 22.785882232000063, 54.363836055000036 ], [ 22.81221817200003, 54.395964225000057 ], [ 22.835136140000031, 54.40512715400007 ], [ 22.863191208000046, 54.408318145000067 ], [ 22.99506335600006, 54.385754061000057 ], [ 23.115827135000075, 54.304436022000061 ], [ 23.204445142000054, 54.287218084000074 ], [ 23.333054047000076, 54.247218133000047 ], [ 23.356109142000037, 54.235409037000068 ], [ 23.457773246000045, 54.174164147000056 ], [ 23.484436080000023, 54.138327152000045 ], [ 23.494163279000077, 54.117209115000037 ], [ 23.517500174000077, 54.038745113000061 ], [ 23.508054104000053, 53.960544973000026 ], [ 23.504036155000051, 53.947045080000066 ], [ 23.502782222000064, 53.942491192000034 ], [ 23.503891148000037, 53.921382207000079 ], [ 23.510009099000058, 53.899318020000067 ], [ 23.539718084000071, 53.840827088000026 ], [ 23.580554046000032, 53.731100096000034 ], [ 23.590445195000029, 53.69442709100008 ], [ 23.592773185000055, 53.685273214000063 ], [ 23.608609114000046, 53.637500054000043 ], [ 23.617218167000033, 53.614018152000028 ], [ 23.64027326300004, 53.559154069000044 ], [ 23.673536175000038, 53.49374505000003 ], [ 23.700554066000052, 53.453045042000042 ], [ 23.785918218000063, 53.314336111000046 ], [ 23.858609100000024, 53.195827064000071 ], [ 23.93319127500007, 53.012082167000074 ], [ 23.927491246000045, 52.948373165000078 ], [ 23.93138229300007, 52.858609185000034 ], [ 23.938663317000078, 52.774709183000027 ], [ 23.939718095000046, 52.770273145000033 ], [ 23.941100271000039, 52.749718036000047 ], [ 23.935273172000052, 52.717491127000073 ], [ 23.911800155000037, 52.693182099000069 ], [ 23.883882215000028, 52.678045052000073 ], [ 23.74680021100005, 52.614645007000036 ], [ 23.715827067000077, 52.615954093000028 ], [ 23.688327216000062, 52.617209199000058 ], [ 23.655273181000041, 52.610273174000042 ], [ 23.633609147000072, 52.605553995000037 ], [ 23.59721810800005, 52.596382181000081 ], [ 23.523054023000043, 52.573609053000041 ], [ 23.503609181000058, 52.567500154000072 ], [ 23.417218078000076, 52.525273132000052 ], [ 23.397218186000032, 52.514445054000078 ], [ 23.377491209000027, 52.498327157000062 ], [ 23.248382240000069, 52.374482191000027 ], [ 23.165400225000042, 52.282273209000039 ], [ 23.192773174000024, 52.233191131000069 ], [ 23.214718170000026, 52.223464267000054 ], [ 23.297773275000054, 52.21166422400006 ], [ 23.34832721500004, 52.20679115300004 ], [ 23.595000256000048, 52.111936004000029 ], [ 23.638609119000023, 52.079436013000077 ], [ 23.66082719800005, 52.006100060000051 ], [ 23.626800191000029, 51.952073161000044 ], [ 23.612482224000075, 51.915954032000059 ], [ 23.558054168000069, 51.75249116100008 ], [ 23.547773261000032, 51.686382085000048 ], [ 23.555482265000023, 51.665200177000031 ], [ 23.534991194000042, 51.653591074000076 ], [ 23.539163202000054, 51.592764273000057 ], [ 23.56717317600004, 51.539600208000081 ], [ 23.604636092000078, 51.527691200000049 ], [ 23.614091214000041, 51.498627118000059 ], [ 23.643636082000057, 51.485009040000079 ], [ 23.692773313000032, 51.402354087000049 ], [ 23.68124517900003, 51.369300051000039 ], [ 23.683882293000067, 51.288609146000056 ], [ 23.731936080000025, 51.214718143000027 ], [ 23.756663197000023, 51.199436089000073 ], [ 23.811109190000025, 51.16888220800007 ], [ 23.905000252000036, 51.068054115000052 ], [ 23.931663254000057, 50.994073258000071 ], [ 23.965136049000023, 50.950409075000039 ], [ 23.98832709900006, 50.931109072000027 ], [ 24.034300162000022, 50.89825402300005 ], [ 24.061500108000075, 50.887527031000047 ], [ 24.090273170000046, 50.881936134000057 ], [ 24.143473277000055, 50.859582101000058 ], [ 24.131036209000058, 50.838182096000025 ], [ 24.076945106000039, 50.829436083000076 ], [ 24.052500123000073, 50.831382194000071 ], [ 24.02189125700005, 50.831754015000058 ], [ 23.980963262000046, 50.829582096000081 ], [ 23.958400184000027, 50.815200091000065 ], [ 23.954382235000026, 50.79170008400007 ], [ 24.014718192000032, 50.739991118000034 ], [ 24.072218215000078, 50.695827038000061 ], [ 24.107218193000051, 50.63360917600005 ], [ 24.108409094000024, 50.625900172000058 ], [ 24.111382155000058, 50.56693599700003 ], [ 24.002218092000078, 50.414435986000058 ], [ 23.983191172000033, 50.405964229000062 ], [ 23.929436182000074, 50.40360019700006 ], [ 23.88150024600003, 50.40540917900006 ], [ 23.846945179000045, 50.406654059000061 ], [ 23.814445188000036, 50.405818048000071 ], [ 23.791945142000031, 50.402491103000045 ], [ 23.755836071000033, 50.394436094000071 ], [ 23.717591123000034, 50.383836004000045 ], [ 23.697109104000049, 50.370118181000066 ], [ 23.684173313000031, 50.333700153000052 ], [ 23.591109209000024, 50.269153967000079 ], [ 23.568882246000044, 50.25582707600006 ], [ 23.54027330200006, 50.242782152000075 ], [ 23.49610922100004, 50.220827098000029 ], [ 23.378327221000063, 50.149718049000057 ], [ 23.34282717800005, 50.127491085000031 ], [ 23.324436109000033, 50.11527312000004 ], [ 23.303609091000055, 50.100827078000066 ], [ 23.228191241000047, 50.046664225000029 ], [ 23.146109107000029, 49.983045077000043 ], [ 23.110827162000078, 49.954991182000072 ], [ 22.780000148000056, 49.67500007600006 ], [ 22.717218184000046, 49.604436018000058 ], [ 22.686063321000063, 49.577091065000047 ] ] ] }
        }
    ]
}