{
    "type": "FeatureCollection",
    "features": [
        {
            "type": "Feature",
            "properties": {
                "WCID": "POR",
                "COUNTRY": "Portugal"
            },
            "geometry": { "type": "MultiPolygon", "coordinates": [ [ [ [ -8.64554599, 41.018582171000048 ], [ -8.657217789999947, 41.041935998000042 ], [ -8.729445990999977, 41.236664205000068 ], [ -8.789717741999937, 41.42139112600006 ], [ -8.778845910999962, 41.467573233000053 ], [ -8.781108856999936, 41.484444998000072 ], [ -8.799717854999926, 41.566664260000039 ], [ -8.815090935999933, 41.617236138000067 ], [ -8.873054981999928, 41.724300199000027 ], [ -8.880836740999939, 41.751664263000066 ], [ -8.879726809999966, 41.841382144000079 ], [ -8.862363864999963, 41.864027028000066 ], [ -8.813608847999944, 41.902500132000057 ], [ -8.78621779499997, 41.919091103000028 ], [ -8.752417769999965, 41.931736043000058 ], [ -8.745008837999933, 41.952500196000074 ], [ -8.74118182899997, 41.967836061000071 ], [ -8.63999985199996, 42.045273112000075 ], [ -8.613890893999951, 42.056382152000026 ], [ -8.518054894999977, 42.083044986000061 ], [ -8.47360884699998, 42.084718013000042 ], [ -8.446108828999968, 42.084718013000042 ], [ -8.310554845999945, 42.103609147000043 ], [ -8.251945896999928, 42.138609125000073 ], [ -8.197836687999938, 42.15067319800005 ], [ -8.083754962999933, 42.060482076000028 ], [ -8.084654843999942, 42.022982111000033 ], [ -8.102226832999975, 42.010964138000077 ], [ -8.134726824999973, 41.998882128000048 ], [ -8.165281878999963, 41.974445024000033 ], [ -8.20875495599995, 41.928745044000038 ], [ -8.218336811999961, 41.907491220000054 ], [ -8.193681946999959, 41.873400176000075 ], [ -8.165490923999926, 41.858609134000062 ], [ -8.161663914999963, 41.827500203000056 ], [ -8.163808843999959, 41.817182080000066 ], [ -8.13610883299998, 41.809164119000059 ], [ -8.087781796999934, 41.80943602800005 ], [ -8.067499769999927, 41.81527318600007 ], [ -8.055063875999963, 41.81951811700003 ], [ -8.035281912999949, 41.827218068000036 ], [ -7.926663846999929, 41.877773182000055 ], [ -7.876663950999955, 41.85263602200007 ], [ -7.858054951999975, 41.860000195000055 ], [ -7.759445883999945, 41.89750015900006 ], [ -7.692781925999952, 41.903882140000064 ], [ -7.598054852999951, 41.86527325000003 ], [ -7.60916389199997, 41.83569116700005 ], [ -7.418608866999932, 41.822773145000042 ], [ -7.331108837999977, 41.844991056000026 ], [ -7.268336764999958, 41.863609107000059 ], [ -7.207346013999938, 41.883835980000072 ], [ -7.200554995999937, 41.883609166000042 ], [ -7.186945969999954, 41.898327117000065 ], [ -7.178608825999959, 41.931591203000039 ], [ -7.184999859999948, 41.977354048000052 ], [ -7.131181838999964, 41.99380906500005 ], [ -7.098890891999929, 41.983609127000079 ], [ -7.075836802999959, 41.959164144000056 ], [ -7.056108819999963, 41.951109135000081 ], [ -7.008754922999969, 41.954582093000056 ], [ -6.982845956999938, 41.973864159000073 ], [ -6.940417768999964, 41.951109135000081 ], [ -6.906108794999966, 41.944718102000024 ], [ -6.697217852999927, 41.936664266000037 ], [ -6.602290787999948, 41.949164199000052 ], [ -6.548608888999979, 41.921944974000041 ], [ -6.52805495299998, 41.839436033000027 ], [ -6.547499794999965, 41.765000039000029 ], [ -6.54562677499996, 41.687009112000055 ], [ -6.501808867999955, 41.659436003000053 ], [ -6.460972905999938, 41.670691055000077 ], [ -6.429445885999939, 41.680000164000035 ], [ -6.347217738999973, 41.672218070000042 ], [ -6.303608875999942, 41.663327050000078 ], [ -6.256108797999957, 41.640409083000065 ], [ -6.190454858999942, 41.57963609400008 ], [ -6.212290889999963, 41.536527127000056 ], [ -6.29583667199995, 41.436100192000026 ], [ -6.357781786999965, 41.380553990000067 ], [ -6.438054937999937, 41.318882126000062 ], [ -6.510281797999937, 41.265000067000074 ], [ -6.558336757999939, 41.242218054000034 ], [ -6.589163888999963, 41.241936087000056 ], [ -6.618054967999967, 41.246382184000026 ], [ -6.643890843999941, 41.244718041000056 ], [ -6.688472845999968, 41.210273112000039 ], [ -6.75333670699996, 41.136664244000031 ], [ -6.754308839999965, 41.107491198000048 ], [ -6.774445858999968, 41.070691122000028 ], [ -6.805554957999959, 41.045553962000042 ], [ -6.841663861999962, 41.030136122000044 ], [ -6.92440883699993, 41.030964254000025 ], [ -6.930554950999976, 41.015553957000066 ], [ -6.891390842999954, 40.974718163000034 ], [ -6.862917853999932, 40.952636039000026 ], [ -6.80173683299995, 40.857009085000072 ], [ -6.819445950999977, 40.733327062000058 ], [ -6.796108887999935, 40.524436121000065 ], [ -6.815554903999953, 40.38777321200007 ], [ -6.831108865999965, 40.317218039000068 ], [ -6.862299771999972, 40.271518059000073 ], [ -6.878336699999977, 40.261800080000057 ], [ -6.910281808999969, 40.256382186000053 ], [ -6.946526834999929, 40.258982085000071 ], [ -7.00833683299993, 40.226800103000073 ], [ -7.027217740999959, 40.187773123000056 ], [ -7.008890876999942, 40.132773086000043 ], [ -6.982636744999979, 40.119164228000045 ], [ -6.94694593, 40.113191116000053 ], [ -6.928890807999949, 40.101664155000037 ], [ -6.882499822999932, 40.044164132000049 ], [ -6.870690894999939, 40.015973109000072 ], [ -6.989717775999964, 39.724718066000037 ], [ -7.017217794999965, 39.67500013700004 ], [ -7.052872901999933, 39.663753969000027 ], [ -7.157708885999966, 39.660345049000057 ], [ -7.205554968999934, 39.667218042000059 ], [ -7.263608868999938, 39.672082228000079 ], [ -7.30721773199997, 39.656664220000039 ], [ -7.332845903999953, 39.645273214000042 ], [ -7.411108906999971, 39.648744998000041 ], [ -7.532508872999927, 39.66941812400006 ], [ -7.524999860999969, 39.636664161000056 ], [ -7.502781949999928, 39.602773109000054 ], [ -7.375690839999947, 39.493745 ], [ -7.322781919999954, 39.388327145000062 ], [ -7.313608764999969, 39.344718114000045 ], [ -7.242781850999961, 39.21305400500006 ], [ -7.145836757999973, 39.113882176000061 ], [ -7.124863895999965, 39.106382217000032 ], [ -7.102781938999954, 39.104718074000061 ], [ -7.053263833999949, 39.119918153000071 ], [ -7.013190792999978, 39.111800112000026 ], [ -6.982781918999933, 39.091382131000046 ], [ -6.961108831999979, 39.05666412000005 ], [ -6.955872824999972, 39.023191157000042 ], [ -7.059999866999931, 38.860545020000075 ], [ -7.084163887999978, 38.835544988000038 ], [ -7.164163956999971, 38.78194506300008 ], [ -7.207354898999938, 38.749264191000066 ], [ -7.257154970999977, 38.723400152000067 ], [ -7.267217780999943, 38.703327002000037 ], [ -7.31708189099993, 38.444718131000059 ], [ -7.296526781999944, 38.431382188000043 ], [ -7.277636821999977, 38.419445017000044 ], [ -7.192217851999942, 38.320273188000044 ], [ -7.169717805999937, 38.284436026000037 ], [ -7.144999908999978, 38.246109103000038 ], [ -7.129999822999935, 38.22582707600003 ], [ -7.102217836999955, 38.189164129000062 ], [ -7.087781852999967, 38.177009028000043 ], [ -7.016808757999968, 38.193809044000034 ], [ -6.993336746999944, 38.209444982000036 ], [ -6.94757289699993, 38.217427068000063 ], [ -6.933745940999927, 38.209073161000049 ], [ -6.941526861999932, 38.170409117000077 ], [ -6.951663935999932, 38.140000076000035 ], [ -7.004026858999964, 38.031109095000033 ], [ -7.123608788999945, 38.009991057000036 ], [ -7.21083674099998, 37.996936075000065 ], [ -7.253545890999931, 37.98367322200005 ], [ -7.251945952999961, 37.959444996000059 ], [ -7.252781796999955, 37.930973179000034 ], [ -7.281663822999974, 37.865554101000043 ], [ -7.319999798999959, 37.815273243000036 ], [ -7.386945891999972, 37.76971810200007 ], [ -7.42305496299997, 37.743891112000028 ], [ -7.446945901999925, 37.699436012000035 ], [ -7.524445984999943, 37.552500075000069 ], [ -7.512536808999926, 37.528545099000041 ], [ -7.503054864999967, 37.522500070000035 ], [ -7.484726827999964, 37.498882214000048 ], [ -7.471390884999948, 37.48138214100004 ], [ -7.461390938999955, 37.45721812000005 ], [ -7.447217810999973, 37.41860906200003 ], [ -7.434717878999948, 37.366945023000028 ], [ -7.431854955999938, 37.253191197000035 ], [ -7.41902678799994, 37.180545074000065 ], [ -7.444581869999979, 37.178744977000065 ], [ -7.471945933999962, 37.177773179000042 ], [ -7.559581916999946, 37.153191068000069 ], [ -7.58041782, 37.144436003000067 ], [ -7.618681877999961, 37.11548222700003 ], [ -7.758336790999977, 37.035000198000034 ], [ -7.897781820999967, 37.008891073000029 ], [ -7.973054998999942, 37.008327138000027 ], [ -8.012917821999963, 37.022082177000073 ], [ -8.044581802999971, 37.043044981000037 ], [ -8.067781904999947, 37.054718123000043 ], [ -8.110836723999967, 37.074300092000044 ], [ -8.175281824999956, 37.092218087000049 ], [ -8.373754898999948, 37.10208207800008 ], [ -8.407781905999968, 37.090691072000027 ], [ -8.439581840999949, 37.086109021000027 ], [ -8.511108811999975, 37.103054044000032 ], [ -8.658890817999975, 37.108891201000063 ], [ -8.814726826999959, 37.066936088000034 ], [ -8.926672843999938, 37.01610906500008 ], [ -8.989236709999943, 37.026309170000047 ], [ -8.984163981999927, 37.052218136000079 ], [ -8.949099798999953, 37.101318152000033 ], [ -8.924445938999952, 37.130135973000051 ], [ -8.90652677199995, 37.160618105000026 ], [ -8.858054895999942, 37.272773167000025 ], [ -8.828890901999955, 37.380554048000079 ], [ -8.795863855999926, 37.442509053000038 ], [ -8.787226807999957, 37.524164213000063 ], [ -8.787499889999935, 37.722218025000075 ], [ -8.805836811999939, 37.766391157000044 ], [ -8.791863844999966, 37.819091200000059 ], [ -8.790972847999967, 37.829164236000054 ], [ -8.799308818999975, 37.914018098000042 ], [ -8.810554985999943, 37.931936092000058 ], [ -8.839445896999962, 38.014718115000051 ], [ -8.806808777999947, 38.089027040000076 ], [ -8.796108775999926, 38.118327156000078 ], [ -8.789446000999931, 38.139445026000033 ], [ -8.779163919999974, 38.180545018000032 ], [ -8.775817863999976, 38.211764254000059 ], [ -8.777217809999968, 38.256382131000066 ], [ -8.779726848999928, 38.301109140000051 ], [ -8.786390796999967, 38.32889112600003 ], [ -8.792217727999969, 38.349164100000053 ], [ -8.802499808999926, 38.374445093000077 ], [ -8.72333675699997, 38.416664237000077 ], [ -8.673336691999964, 38.413891168000077 ], [ -8.768890891999945, 38.517218074000027 ], [ -8.898608889999934, 38.51777312300004 ], [ -8.918890916999942, 38.509991197000033 ], [ -8.99278192, 38.463609097000074 ], [ -9.062781875999974, 38.43721817200003 ], [ -9.083608892999962, 38.433054043000027 ], [ -9.183890821999967, 38.419718099000079 ], [ -9.20028180099996, 38.451664215000051 ], [ -9.183754866999948, 38.478053966000061 ], [ -9.17889084899997, 38.509164238000039 ], [ -9.183890821999967, 38.536945050000043 ], [ -9.205417727999929, 38.595409161000077 ], [ -9.220136685999933, 38.619445106000057 ], [ -9.239863829999933, 38.640973186000053 ], [ -9.274236673999951, 38.668745114000046 ], [ -9.215281886999946, 38.678327138000043 ], [ -9.1597268, 38.67790904900005 ], [ -9.074445964999938, 38.631100143000026 ], [ -9.028054979999979, 38.700000057000068 ], [ -9.015554879999968, 38.729436128000032 ], [ -8.948199917999943, 38.762845053000035 ], [ -8.919745870999975, 38.76589120400007 ], [ -8.919726759999946, 38.770273096000039 ], [ -8.929445911999949, 38.800409055000046 ], [ -8.955845889999978, 38.840854085000046 ], [ -8.979545888999951, 38.850127152000027 ], [ -8.989445921999959, 38.900691151000046 ], [ -8.99430876699995, 38.940618011000026 ], [ -9.065281861999949, 38.855000055000062 ], [ -9.079026841999962, 38.830554067000037 ], [ -9.089163915999961, 38.805000159000031 ], [ -9.092781880999951, 38.771445053000036 ], [ -9.095281866999926, 38.747353955000051 ], [ -9.118472916999963, 38.717218163000041 ], [ -9.212499765999951, 38.690827070000068 ], [ -9.322226757999942, 38.676664168000059 ], [ -9.429726845999937, 38.691935996000041 ], [ -9.47604591299995, 38.705273113000032 ], [ -9.490836786999978, 38.793882235000069 ], [ -9.462499918999981, 38.839582215000064 ], [ -9.444517886999961, 38.863054059000035 ], [ -9.421945924999932, 38.918054096000049 ], [ -9.412636815999974, 38.949436109000033 ], [ -9.417363873999932, 38.991727001000072 ], [ -9.426254893999953, 39.011527068000078 ], [ -9.419172855999932, 39.078609116000052 ], [ -9.396663925999974, 39.117773224000075 ], [ -9.36472686299993, 39.163054109000029 ], [ -9.339717777999965, 39.224854049000044 ], [ -9.337363971999935, 39.263327152000045 ], [ -9.33834599599993, 39.292973105000044 ], [ -9.359581882999976, 39.356664170000045 ], [ -9.293336683999939, 39.39139106600004 ], [ -9.227217884999959, 39.435273179000035 ], [ -9.144163952999975, 39.526382120000051 ], [ -9.085554835999972, 39.61500012700003 ], [ -9.079445936999946, 39.640273241000045 ], [ -9.047499821999963, 39.732218025000066 ], [ -9.026945886999954, 39.775553974000047 ], [ -8.984726742999953, 39.850554070000044 ], [ -8.93194589899997, 39.964164230000051 ], [ -8.896363881999946, 40.04540012700005 ], [ -8.890972808999948, 40.055000088000043 ], [ -8.874726836999969, 40.096109133000027 ], [ -8.862363864999963, 40.139436028000034 ], [ -8.881390784999951, 40.24277316000007 ], [ -8.85055493699997, 40.306936126000039 ], [ -8.840281907999952, 40.336391140000046 ], [ -8.799999822999951, 40.468327158000079 ], [ -8.790281843999935, 40.504164153000033 ], [ -8.785863910999979, 40.520709024000041 ], [ -8.782499917999928, 40.537773237000067 ], [ -8.777499776999946, 40.56013598800007 ], [ -8.729681856999946, 40.635718123000061 ], [ -8.691663890999962, 40.661109087000057 ], [ -8.660136703999967, 40.691109092000033 ], [ -8.678336832999946, 40.775836052000045 ], [ -8.703054897999948, 40.718609111000035 ], [ -8.730990774999952, 40.686191094000037 ], [ -8.726663868999935, 40.727773213000035 ], [ -8.717781901999956, 40.752773245000071 ], [ -8.696599826999943, 40.805900095000027 ], [ -8.677781950999929, 40.869164186000035 ], [ -8.668054919999975, 40.90388219600004 ], [ -8.64555487399997, 41.002636103000043 ], [ -8.64554599, 41.018582171000048 ] ] ], [ [ [ -25.456108822999965, 37.705553963000057 ], [ -25.563608909999971, 37.728882141000042 ], [ -25.689726881999945, 37.737909115000036 ], [ -25.711390915999971, 37.744718070000033 ], [ -25.726945884999964, 37.753327123000076 ], [ -25.811390876999951, 37.803600102000075 ], [ -25.857499893999943, 37.835827011000049 ], [ -25.86430884899994, 37.853609051000035 ], [ -25.854163896999978, 37.883891191000032 ], [ -25.842499807999957, 37.902218055000048 ], [ -25.795281864999936, 37.90833600600007 ], [ -25.777081902999953, 37.90930009200008 ], [ -25.747781954999937, 37.901109129000076 ], [ -25.728890820999936, 37.895273145000033 ], [ -25.699026770999978, 37.874164160000078 ], [ -25.698199811999928, 37.855753980000031 ], [ -25.677499863999969, 37.840964112000052 ], [ -25.599726866999958, 37.827773176000051 ], [ -25.58499986299995, 37.826664250000078 ], [ -25.549446008999951, 37.825273189000029 ], [ -25.435554886999967, 37.830553956000074 ], [ -25.401390919999983, 37.837491154000077 ], [ -25.373963991999972, 37.848054029000025 ], [ -25.327081827999962, 37.863609165000071 ], [ -25.193608903999973, 37.864436123000075 ], [ -25.177226809999979, 37.86332703000005 ], [ -25.165281926999967, 37.858891159000052 ], [ -25.154999846999942, 37.853336136000053 ], [ -25.140554977999955, 37.840691197000069 ], [ -25.133608893999963, 37.822491068000033 ], [ -25.130972952999969, 37.808464120000053 ], [ -25.140836776999947, 37.765273179000076 ], [ -25.146390793999956, 37.755554027000073 ], [ -25.155281813999977, 37.748882200000025 ], [ -25.166663934999974, 37.744436103000055 ], [ -25.213336718999983, 37.737636033000058 ], [ -25.342781970999965, 37.723609085000078 ], [ -25.456108822999965, 37.705553963000057 ] ] ], [ [ [ -16.943608865999977, 32.637500064000051 ], [ -16.988336712999967, 32.655273219000037 ], [ -17.067781900999933, 32.676936080000075 ], [ -17.102499910999938, 32.683327114000065 ], [ -17.158054997999955, 32.709164163000025 ], [ -17.195972883999957, 32.728882087000045 ], [ -17.206390918999944, 32.737500192000027 ], [ -17.232781844999977, 32.770000184000025 ], [ -17.239172877999977, 32.778327102000048 ], [ -17.254517795999959, 32.812845120000077 ], [ -17.190699828999982, 32.86860908400007 ], [ -17.169726797999942, 32.870282112000041 ], [ -17.158890841999948, 32.865273086000059 ], [ -17.151945931999933, 32.857500045000052 ], [ -17.133336765999957, 32.838882161000072 ], [ -17.125281923999978, 32.831936078000069 ], [ -17.102499910999938, 32.823327025000026 ], [ -17.053054896999981, 32.809436032000065 ], [ -17.029999801999963, 32.810554011000079 ], [ -17.013199784999927, 32.813464207000038 ], [ -16.95999984599996, 32.830826985000044 ], [ -16.913336784999956, 32.83916412800005 ], [ -16.902226739999946, 32.837909022000076 ], [ -16.715554881999935, 32.758891144000074 ], [ -16.720836821999967, 32.745282119000024 ], [ -16.819581844999959, 32.646109117000037 ], [ -16.821890890999953, 32.644345061000024 ], [ -16.839172866999945, 32.638609157000076 ], [ -16.943608865999977, 32.637500064000051 ] ] ], [ [ [ -28.246672887999978, 38.371936054000059 ], [ -28.26819979499993, 38.399582086000066 ], [ -28.283336840999937, 38.404718013000036 ], [ -28.389446035999981, 38.411945058000072 ], [ -28.427917798999943, 38.41319111100006 ], [ -28.459717900999976, 38.405273230000034 ], [ -28.521181893999938, 38.441036129000054 ], [ -28.540281904999972, 38.468891205000034 ], [ -28.549172924999937, 38.498327108000069 ], [ -28.551945993999936, 38.51221810100003 ], [ -28.549446006999972, 38.527218019000031 ], [ -28.539717802999974, 38.535553990000039 ], [ -28.525836699999957, 38.545000059000074 ], [ -28.497917753999957, 38.554027034000057 ], [ -28.466390901999944, 38.557782127000053 ], [ -28.437499822999939, 38.558327118000079 ], [ -28.421672944999955, 38.557218024000065 ], [ -28.379717831999983, 38.549164189000066 ], [ -28.354163923999977, 38.541664230000038 ], [ -28.330281869999965, 38.532773210000073 ], [ -28.319172829999957, 38.528054030000078 ], [ -28.26639081299993, 38.498054025000044 ], [ -28.189445946999967, 38.460136139000042 ], [ -28.141108851999945, 38.449882222000042 ], [ -28.125445924999951, 38.447882132000075 ], [ -28.101672835999977, 38.446109024000066 ], [ -28.085836738999944, 38.447491200000059 ], [ -28.070136762999937, 38.444164255000032 ], [ -28.048336773999949, 38.430273095000075 ], [ -28.036872844999948, 38.414164250000056 ], [ -28.05611786299994, 38.394164191000073 ], [ -28.09722673899995, 38.392627118000064 ], [ -28.14869095399996, 38.402409134000038 ], [ -28.192499809999958, 38.405000148000056 ], [ -28.203890815999955, 38.399991122000074 ], [ -28.246672887999978, 38.371936054000059 ] ] ], [ [ [ -27.138617806999946, 38.629436 ], [ -27.181663908999951, 38.642773116000058 ], [ -27.237499789999958, 38.647218040000041 ], [ -27.274445877999938, 38.650273243000072 ], [ -27.294726730999969, 38.653882155000076 ], [ -27.306945868999946, 38.658053996000035 ], [ -27.351390910999953, 38.681664141000056 ], [ -27.367226840999933, 38.693327057000033 ], [ -27.379999854999937, 38.710544995000078 ], [ -27.388608907999981, 38.73819119400008 ], [ -27.384999827999934, 38.763327012000047 ], [ -27.374308877999965, 38.779018103000055 ], [ -27.363890842999979, 38.787773168000058 ], [ -27.330281925999941, 38.796664188000079 ], [ -27.31333673499995, 38.800691190000066 ], [ -27.281672921999927, 38.803054049000025 ], [ -27.245836765999968, 38.801664161000076 ], [ -27.214999911999939, 38.799436084000035 ], [ -27.181663908999951, 38.795000045000052 ], [ -27.142917890999968, 38.788609179000048 ], [ -27.113336813999979, 38.780827085000055 ], [ -27.065836735999937, 38.764164197000071 ], [ -27.04944592399994, 38.749445072000071 ], [ -27.035763975999942, 38.734509023000044 ], [ -27.020145975999981, 38.693191102000071 ], [ -27.054308768999931, 38.643326992000027 ], [ -27.083336808999945, 38.631945038000026 ], [ -27.138617806999946, 38.629436 ] ] ], [ [ [ -27.81083672099993, 38.539991202000067 ], [ -27.848608761999969, 38.540553963000036 ], [ -28.156672872999934, 38.634854062000045 ], [ -28.19417283699994, 38.650273243000072 ], [ -28.301390957999956, 38.721382125000048 ], [ -28.314999815999954, 38.734582114000034 ], [ -28.315554865999957, 38.748600176000025 ], [ -28.297781877999967, 38.748600176000025 ], [ -28.28555486099998, 38.744718014000057 ], [ -27.996672901999943, 38.64139110800005 ], [ -27.769445876999953, 38.558327118000079 ], [ -27.761463957999979, 38.547982173000037 ], [ -27.780281833999936, 38.541936139000029 ], [ -27.81083672099993, 38.539991202000067 ] ] ], [ [ [ -28.63610885099996, 38.510273164000068 ], [ -28.726945882999928, 38.513882076000073 ], [ -28.75889082499998, 38.51777312300004 ], [ -28.846108885999968, 38.584444961000031 ], [ -28.84583681, 38.595136078000053 ], [ -28.833890920999977, 38.603053959000079 ], [ -28.719999799999982, 38.64041813700004 ], [ -28.631526799999961, 38.608327014000054 ], [ -28.608336755999972, 38.592353957000057 ], [ -28.594999806999965, 38.554927083000052 ], [ -28.63610885099996, 38.510273164000068 ] ] ], [ [ [ -31.215554902999941, 39.353336052000031 ], [ -31.239446009999938, 39.353336052000031 ], [ -31.258817761999978, 39.355618109000034 ], [ -31.279999836999934, 39.38944512300003 ], [ -31.289026810999928, 39.410973203000026 ], [ -31.283336839999947, 39.446109136000075 ], [ -31.258472929999982, 39.499373113000047 ], [ -31.230836788999966, 39.520827097000051 ], [ -31.213890927999955, 39.521945075000076 ], [ -31.203608846999941, 39.520409175000054 ], [ -31.153336706999937, 39.494718139000042 ], [ -31.146663872999966, 39.485836004000078 ], [ -31.126045899999951, 39.455200148000074 ], [ -31.13139087199994, 39.414991152000027 ], [ -31.148054933999958, 39.374164243000052 ], [ -31.154164, 39.365273223000031 ], [ -31.180145888999959, 39.354300138000042 ], [ -31.215554902999941, 39.353336052000031 ] ] ], [ [ [ -25.018890813999974, 36.929164253000067 ], [ -25.046945882999978, 36.934718102000033 ], [ -25.100563911999927, 36.945000183000047 ], [ -25.156390906999945, 36.942773111000065 ], [ -25.167781913999931, 36.943191201000047 ], [ -25.177781859999982, 36.94874505000007 ], [ -25.200554987999965, 36.983054024000069 ], [ -25.198055000999943, 36.994309076000036 ], [ -25.181526725999959, 37.009300109000037 ], [ -25.114999895999972, 37.020827070000053 ], [ -25.094172877999938, 37.023045090000039 ], [ -25.082645916999979, 37.023191102000055 ], [ -25.054790840999942, 37.015754007000055 ], [ -25.033336688999952, 36.99693613200003 ], [ -25.017645933999972, 36.972082112000066 ], [ -25.012845953999943, 36.939436108000052 ], [ -25.018890813999974, 36.929164253000067 ] ] ] ] }
        }
    ]
}