{
    "type": "FeatureCollection",
    "features": [
        {
            "type": "Feature",
            "properties": {
                "WCID": "PRK",
                "COUNTRY": "North Korea"
            },
            "geometry": { "type": "Polygon", "coordinates": [ [ [ 127.438754212000049, 39.404945106000071 ], [ 127.411100302000023, 39.392218024000044 ], [ 127.374691326000061, 39.372218133000047 ], [ 127.376427218000117, 39.235127077000072 ], [ 127.399709295000093, 39.195273139000051 ], [ 127.447754197000108, 39.164509039000052 ], [ 127.540818300000069, 39.140273102000037 ], [ 127.645536267000011, 39.124991216000069 ], [ 127.782763445000114, 39.088327095000068 ], [ 127.809709252000061, 39.049164161000078 ], [ 127.85581826900011, 38.987353995000035 ], [ 127.880254199000092, 38.962773226000024 ], [ 128.010818267000104, 38.858464128000037 ], [ 128.038027266000086, 38.85249118400003 ], [ 128.06497240300007, 38.846382118000065 ], [ 128.093845209000051, 38.834436062000066 ], [ 128.122191297000086, 38.819164234000027 ], [ 128.136654271000111, 38.802773087000048 ], [ 128.201354182000046, 38.735264233000066 ], [ 128.22662729700005, 38.733327007000071 ], [ 128.263600207000081, 38.73790905900006 ], [ 128.293309192000038, 38.727482139000074 ], [ 128.337191305000033, 38.702218077000055 ], [ 128.362727276000101, 38.676864161000026 ], [ 128.363554235000038, 38.625245048000068 ], [ 128.308500218000063, 38.587564202000067 ], [ 128.3066362510001, 38.560409183000047 ], [ 128.313382342000068, 38.524645110000051 ], [ 128.307736292000072, 38.488600077000058 ], [ 128.297336194000081, 38.459436083000071 ], [ 128.279691282000044, 38.430273095000075 ], [ 128.260527234000051, 38.41166426400008 ], [ 128.243563435000056, 38.395273117000045 ], [ 128.224972374000117, 38.381664259000047 ], [ 128.200809191000076, 38.365545021000059 ], [ 128.176091293000013, 38.350000111000043 ], [ 128.158445208000103, 38.339573191000056 ], [ 128.137072361000037, 38.329300163000028 ], [ 128.079954217000022, 38.311936044000049 ], [ 128.054691328000104, 38.306654104000074 ], [ 128.010527248000017, 38.305545011000049 ], [ 127.979700284000046, 38.307209154000077 ], [ 127.885272277000013, 38.313609072000077 ], [ 127.669009284000026, 38.319718138000042 ], [ 127.537491355000043, 38.307491121000055 ], [ 127.450818285000082, 38.312491094000052 ], [ 127.366382345000034, 38.323327051000035 ], [ 127.251391351000052, 38.318882127000052 ], [ 127.197482302000026, 38.311936044000049 ], [ 127.130818176000048, 38.298191064000036 ], [ 127.100963346000071, 38.284164117000046 ], [ 127.068045265000023, 38.259991211000056 ], [ 127.05011821800008, 38.249991097000077 ], [ 127.005800246000035, 38.229235996000057 ], [ 126.986645250000038, 38.213745066000058 ], [ 126.969836181000119, 38.18860019400006 ], [ 126.955109345000096, 38.154445112000076 ], [ 126.935254125000029, 38.128600184000049 ], [ 126.82443614500005, 38.016109176000043 ], [ 126.807209322000062, 38.000544988000058 ], [ 126.773463445000061, 37.973600186000056 ], [ 126.736645264000117, 37.955127142000038 ], [ 126.688491230000068, 37.833909064000068 ], [ 126.624691368000072, 37.788609068000028 ], [ 126.582354208000083, 37.772009044000072 ], [ 126.47915420400011, 37.820273216000032 ], [ 126.421509341000046, 37.856873132000032 ], [ 126.399800212000059, 37.885991193000052 ], [ 126.388600313000097, 37.887218136000058 ], [ 126.353318200000103, 37.880544968000038 ], [ 126.208182361000013, 37.845409035000046 ], [ 126.143527209000013, 37.818327106000027 ], [ 126.158863410000095, 37.779718048000063 ], [ 126.161091320000082, 37.757636092000041 ], [ 126.149427231000118, 37.734364240000048 ], [ 126.104836176000049, 37.741245112000058 ], [ 126.066382352000119, 37.79471813400005 ], [ 126.042763322000042, 37.863609165000071 ], [ 125.969982250000044, 37.90568212800008 ], [ 125.943309190000036, 37.890064127000073 ], [ 125.972209322000026, 37.86909109700008 ], [ 125.985118291000049, 37.829227101000072 ], [ 125.920118308000042, 37.83590010100005 ], [ 125.824436201000026, 37.941100195000047 ], [ 125.803727201000015, 37.985336024000048 ], [ 125.748454249000019, 38.002636105000079 ], [ 125.67249123900001, 38.016936135000037 ], [ 125.605263346000015, 38.026100069000051 ], [ 125.5771452460001, 38.017145012000071 ], [ 125.592491338000059, 37.991800148000038 ], [ 125.613036221000016, 37.978744999000071 ], [ 125.646236269000042, 37.96651814900008 ], [ 125.72442718800005, 37.91081805500005 ], [ 125.643054163000102, 37.818882156000029 ], [ 125.565400356000055, 37.782282072000044 ], [ 125.521100321000063, 37.784436054000025 ], [ 125.380672430000118, 37.708745121000049 ], [ 125.342754208000088, 37.671382117000064 ], [ 125.337200359, 37.680273137000029 ], [ 125.333454151000069, 37.716100073000064 ], [ 125.383872305000068, 37.792382098000076 ], [ 125.443872315000021, 37.819164123000064 ], [ 125.487491236000096, 37.837491154000077 ], [ 125.509709315, 37.885545108000031 ], [ 125.456100338000056, 37.912491083000077 ], [ 125.426372410000113, 37.906654093000043 ], [ 125.387500328000101, 37.896100104000027 ], [ 125.352763374000119, 37.861664228000052 ], [ 125.308591247000095, 37.886382125000068 ], [ 125.239982352000084, 37.927144997000028 ], [ 125.219009321000044, 37.888809021000043 ], [ 125.176018205000105, 37.864153988000055 ], [ 125.132472374000031, 37.86804503500008 ], [ 125.086654208000027, 37.877209138000069 ], [ 125.021518271000105, 37.895482190000052 ], [ 124.982900328000028, 37.933291111000074 ], [ 125.117482345000099, 38.04250010100003 ], [ 125.185254224000118, 38.046391148000055 ], [ 125.206091300000026, 38.043045093000046 ], [ 125.219018206000101, 38.026173160000042 ], [ 125.24158229000011, 38.013954021000075 ], [ 125.273800314000027, 38.063745041000061 ], [ 125.256854117000103, 38.07728215000003 ], [ 125.133045193000044, 38.091100052000058 ], [ 125.106645215000071, 38.086936090000052 ], [ 125.08305418100008, 38.07943613100008 ], [ 125.060682378000024, 38.070136074000061 ], [ 125.021791353000026, 38.062909030000071 ], [ 124.864982373000089, 38.102909148000037 ], [ 124.788882236000063, 38.095273234000047 ], [ 124.766936234000013, 38.096654069000067 ], [ 124.67005417300004, 38.119509172000051 ], [ 124.676300200000014, 38.139645018000067 ], [ 124.72164512300003, 38.139164232000041 ], [ 124.744145169000035, 38.143882070000075 ], [ 124.821382395000114, 38.188882162000027 ], [ 124.862491271000067, 38.229154021000056 ], [ 124.867900281000061, 38.26082705400006 ], [ 124.865536249000115, 38.332500038000035 ], [ 124.958327270000041, 38.463327130000039 ], [ 124.993309311000075, 38.586373134000041 ], [ 125.0552633100001, 38.580691209000065 ], [ 125.156645279000031, 38.644718053000076 ], [ 125.309009336000031, 38.651654078000035 ], [ 125.346100264000029, 38.670273135000059 ], [ 125.377063350000071, 38.691800042000068 ], [ 125.447200266000095, 38.700545049000027 ], [ 125.554009349000012, 38.674227046000055 ], [ 125.576391378000039, 38.648882183000069 ], [ 125.592482285000074, 38.636800172000051 ], [ 125.625536153000098, 38.624154059000034 ], [ 125.649154177000014, 38.622073168000043 ], [ 125.65259126, 38.624509117000059 ], [ 125.652072420000081, 38.629436 ], [ 125.633045165000112, 38.654853953000043 ], [ 125.629791310000087, 38.656936018000067 ], [ 125.517209274000038, 38.717764160000058 ], [ 125.479154260000087, 38.721654034000039 ], [ 125.432209232000105, 38.722209083000052 ], [ 125.367754240000068, 38.707218050000051 ], [ 125.283245210000018, 38.697073097000043 ], [ 125.244709242000113, 38.716382152000051 ], [ 125.140536267000016, 38.798118113000044 ], [ 125.149436172000037, 38.869582220000041 ], [ 125.199709319000021, 38.921936090000031 ], [ 125.235809338000081, 38.999164264000058 ], [ 125.259163332000071, 39.05221802300008 ], [ 125.28414525900007, 39.115544978000059 ], [ 125.290263378000077, 39.155264135000039 ], [ 125.339709230000039, 39.203327142000035 ], [ 125.359418270000106, 39.21582707400006 ], [ 125.388318234000053, 39.237500161000071 ], [ 125.411654123000062, 39.279718131000038 ], [ 125.421918266000034, 39.308045108000044 ], [ 125.401654177000069, 39.358891074000041 ], [ 125.359982372000104, 39.393464246000065 ], [ 125.338109293000116, 39.434509085000059 ], [ 125.346791268000061, 39.459300072000076 ], [ 125.403318320000039, 39.525409148000051 ], [ 125.450436183000079, 39.572354009000037 ], [ 125.441991248000022, 39.576727015000074 ], [ 125.372754213, 39.552218163000077 ], [ 125.311372363000032, 39.525827070000048 ], [ 125.29040033800004, 39.519300082000029 ], [ 125.120254241000112, 39.558744983000054 ], [ 125.03749132900009, 39.605554057000063 ], [ 124.945536151000056, 39.66249115200003 ], [ 124.846100292000074, 39.721373184000072 ], [ 124.745291310000084, 39.773218105000069 ], [ 124.74637240800007, 39.714154018000045 ], [ 124.75568235500009, 39.677845122000065 ], [ 124.740818224, 39.629300156000056 ], [ 124.635882328000093, 39.598009171000058 ], [ 124.631091232000017, 39.649854092000055 ], [ 124.650054114000113, 39.676936021000074 ], [ 124.561654204000092, 39.800000130000058 ], [ 124.536372373000063, 39.809718108000027 ], [ 124.498872408000011, 39.82110911500007 ], [ 124.43956340200009, 39.829026996000039 ], [ 124.406372407000049, 39.831664110000077 ], [ 124.363600225000027, 39.865000112000075 ], [ 124.323954159000095, 39.915891173000034 ], [ 124.38860025800011, 40.022491212000034 ], [ 124.373600339000063, 40.093618031000062 ], [ 124.381363322000084, 40.102218031000064 ], [ 124.410809284000038, 40.130273099000078 ], [ 124.554700242000081, 40.242218111000057 ], [ 124.62692727000001, 40.28360912200003 ], [ 124.688718325000082, 40.296800058000031 ], [ 124.710991221000086, 40.307009049000044 ], [ 124.81247243200005, 40.396664232000035 ], [ 124.885127272000091, 40.470373180000024 ], [ 124.962200213000074, 40.459164229000066 ], [ 125.03998226300007, 40.460682192000036 ], [ 125.024709262000101, 40.49416420700004 ], [ 125.042763378000018, 40.537500155000032 ], [ 125.140545152000072, 40.585264263000056 ], [ 125.286100254000075, 40.647491177000063 ], [ 125.31499133300008, 40.649991163000038 ], [ 125.369136249, 40.639991218000034 ], [ 125.4126913, 40.653800068000066 ], [ 125.457491231000063, 40.703327057000081 ], [ 125.553036211000062, 40.741382071000032 ], [ 125.603863401000012, 40.755827108000062 ], [ 125.649845181000046, 40.802600140000038 ], [ 125.688582314000087, 40.852145066000048 ], [ 125.703109326000117, 40.859973094000054 ], [ 125.93254515000001, 40.87762705800003 ], [ 126.011791351000056, 40.896936113000038 ], [ 126.124691229000064, 41.034718173000044 ], [ 126.279163334000032, 41.15277308900005 ], [ 126.286227267000072, 41.172627135000027 ], [ 126.309982251000065, 41.214436068000055 ], [ 126.36692722500004, 41.275691185000028 ], [ 126.411100358000112, 41.319164261000026 ], [ 126.437763360000076, 41.34249109700005 ], [ 126.456100282000079, 41.357218101000058 ], [ 126.484000285000093, 41.366727035000054 ], [ 126.510272355000097, 41.389991175000034 ], [ 126.58318234, 41.570827049000059 ], [ 126.568045125000026, 41.589718015000074 ], [ 126.566082251000012, 41.611764264000044 ], [ 126.645536156000048, 41.660545097000067 ], [ 126.712772430000086, 41.691100151000057 ], [ 126.795536181000102, 41.708045007000067 ], [ 126.847900277, 41.735826993000046 ], [ 126.868863417000057, 41.761382074000039 ], [ 126.904709296000078, 41.792218090000063 ], [ 126.927618211000095, 41.79610913700003 ], [ 127.048027268000055, 41.70832714200003 ], [ 127.060809335000044, 41.691100151000057 ], [ 127.057036305000111, 41.643500161000077 ], [ 127.100809286000072, 41.621373110000036 ], [ 127.134991358000093, 41.593609062000041 ], [ 127.159418236000079, 41.529991087000042 ], [ 127.270827308000094, 41.472491063000064 ], [ 127.620818202, 41.418053955000062 ], [ 127.694154155000092, 41.413127072000066 ], [ 127.835272381000095, 41.409991067000078 ], [ 127.871091270000079, 41.42416419500006 ], [ 127.928027192000059, 41.447345018000078 ], [ 128.011654111000098, 41.415827051000065 ], [ 128.044127280000112, 41.389436126000078 ], [ 128.114336281000078, 41.371791214000041 ], [ 128.152909296000075, 41.381236110000032 ], [ 128.19267237400004, 41.407491080000057 ], [ 128.222472387000039, 41.44110016500008 ], [ 128.282200321000118, 41.530273222000062 ], [ 128.300245217000111, 41.582836137000072 ], [ 128.269436191000068, 41.636936125000034 ], [ 128.25427232200002, 41.650409029000059 ], [ 128.22662729700005, 41.66388210000008 ], [ 128.203854168000021, 41.676382200000035 ], [ 128.155672307000032, 41.714573168000072 ], [ 128.098436145000051, 41.80304499500005 ], [ 128.068845177000071, 41.884991174000049 ], [ 128.060791342000016, 41.910545082000056 ], [ 128.050109277000047, 41.981645079000032 ], [ 128.056636265000066, 42.001244986000074 ], [ 128.275527320000037, 42.038327029000072 ], [ 128.336091264000061, 42.039718090000065 ], [ 128.361354153000093, 42.037500071000068 ], [ 128.422482367000043, 42.028600166000047 ], [ 128.446700368000052, 42.012773121000066 ], [ 128.472882248000019, 41.997627022000074 ], [ 128.497054148000075, 41.995545125000035 ], [ 128.570254147000014, 42.00027318900004 ], [ 128.683091328000046, 42.021027116000027 ], [ 128.844972365000103, 42.029718144000071 ], [ 128.895536197000069, 42.02276418200006 ], [ 128.926927262000049, 42.027354112000069 ], [ 128.949263358000053, 42.052073183000061 ], [ 128.958082293000075, 42.078400070000043 ], [ 129.014100229000064, 42.094191073000047 ], [ 129.016691243000082, 42.094991209000057 ], [ 129.114409314000113, 42.139436083000078 ], [ 129.152463323, 42.168054080000047 ], [ 129.211209232000101, 42.221309173000066 ], [ 129.20940930200004, 42.265827137000031 ], [ 129.246063365000055, 42.375827044000062 ], [ 129.349272421000023, 42.446236036000073 ], [ 129.445118311000101, 42.432773191000081 ], [ 129.514709230000108, 42.38693608300008 ], [ 129.695527166000034, 42.435818169000072 ], [ 129.716627266000046, 42.452491115000043 ], [ 129.72829135500001, 42.475400198000045 ], [ 129.73288229100001, 42.522218156000065 ], [ 129.725509234000015, 42.547491103000027 ], [ 129.753309325000032, 42.713882108000064 ], [ 129.807463292000079, 42.853609105000032 ], [ 129.847045154000057, 42.942482089000066 ], [ 129.877672293000046, 42.991791149000051 ], [ 129.904591278000112, 43.00457321600004 ], [ 129.929218315000071, 43.006100064000066 ], [ 129.947554231000026, 42.995400061000055 ], [ 130.034145159000104, 42.958045104000064 ], [ 130.193163441000024, 42.906653979000055 ], [ 130.251418339000111, 42.887945068000079 ], [ 130.250272365000114, 42.83166410900003 ], [ 130.243291246000013, 42.811664217000043 ], [ 130.236218260000101, 42.786245090000079 ], [ 130.246782308000093, 42.714154017000055 ], [ 130.328445180000017, 42.641800087000036 ], [ 130.376618324000106, 42.617491059000031 ], [ 130.514163344000053, 42.568054091000079 ], [ 130.522491268000067, 42.537218075000055 ], [ 130.567472416000101, 42.443045046000066 ], [ 130.586491290000026, 42.427145078000081 ], [ 130.60437240400006, 42.42186414400004 ], [ 130.632754198000043, 42.411373186000048 ], [ 130.659009337000043, 42.375273167000046 ], [ 130.652772363000054, 42.339991222000037 ], [ 130.655045199000028, 42.318118143000049 ], [ 130.6974182350001, 42.292209177000075 ], [ 130.682345226000052, 42.279918122000026 ], [ 130.59968239400007, 42.25458214300005 ], [ 130.596263415000067, 42.278882119000059 ], [ 130.579700272000082, 42.305064167000069 ], [ 130.500272351000035, 42.323882210000079 ], [ 130.472882303000119, 42.324582099000054 ], [ 130.420809227000063, 42.311935986000037 ], [ 130.208309205000091, 42.16777311900006 ], [ 130.087736198000016, 42.069718095000042 ], [ 129.984127325000031, 41.97994506200007 ], [ 129.949709219000056, 41.883873196000025 ], [ 129.847245146000091, 41.756735985000034 ], [ 129.808854185000087, 41.760964153000032 ], [ 129.782200236000108, 41.755964180000035 ], [ 129.760527317000083, 41.730545052000025 ], [ 129.697872423000035, 41.645691191000026 ], [ 129.688718211000037, 41.625691131000053 ], [ 129.664154205000045, 41.549718064000047 ], [ 129.660518303000117, 41.528191157000037 ], [ 129.666645139000025, 41.479573101000028 ], [ 129.676636200000075, 41.458327156000053 ], [ 129.696227223000051, 41.435827110000048 ], [ 129.721891269000025, 41.421664208000038 ], [ 129.753327262000084, 41.407209113000079 ], [ 129.803591356000084, 41.377418153000065 ], [ 129.788036220000095, 41.325827036000078 ], [ 129.769718241000078, 41.300273127000025 ], [ 129.719682302000024, 41.180545016000053 ], [ 129.715518340000017, 41.142773143000056 ], [ 129.713863418000074, 41.112209036000024 ], [ 129.718563318000065, 41.003882157000078 ], [ 129.723018300000035, 40.980136058000028 ], [ 129.739136197000107, 40.958882233000054 ], [ 129.752200231000074, 40.941864120000048 ], [ 129.727327269000057, 40.85985407000004 ], [ 129.702045269000109, 40.830691082000044 ], [ 129.664154205000045, 40.833600106000063 ], [ 129.601500317000045, 40.827218125000059 ], [ 129.564563449000048, 40.821245013000066 ], [ 129.215163311000083, 40.67930016400004 ], [ 129.170536215000084, 40.585545057000047 ], [ 129.17108237900004, 40.565618088000065 ], [ 129.170245195, 40.56012710300007 ], [ 129.155945165000048, 40.535409038000068 ], [ 129.107882326000095, 40.477900129000034 ], [ 129.077882321000061, 40.462218091000068 ], [ 129.055545220000113, 40.461653989000069 ], [ 128.977754117000018, 40.450409163000074 ], [ 128.941927181000096, 40.424709075000067 ], [ 128.914336303000027, 40.397627145000058 ], [ 128.893600312000103, 40.376518160000046 ], [ 128.873291296000048, 40.364300195000055 ], [ 128.812191245, 40.341664195000078 ], [ 128.791072369000062, 40.33470906000008 ], [ 128.636654243000066, 40.272764113000051 ], [ 128.598018196000112, 40.174164265000059 ], [ 128.332454189000032, 40.05360014300004 ], [ 128.184145129000058, 40.023609023000063 ], [ 128.141082263000044, 40.022764127000073 ], [ 128.111909217000061, 40.027209050000067 ], [ 128.05523615200002, 40.033882219000077 ], [ 128.001372365000066, 40.037218048000057 ], [ 127.933591267000111, 39.971653963000051 ], [ 127.885745184000029, 39.910754072000032 ], [ 127.86904524800002, 39.885944980000033 ], [ 127.727200312000036, 39.846100094000064 ], [ 127.612336219000099, 39.811245123000049 ], [ 127.560527172000093, 39.78220903700003 ], [ 127.517627251000022, 39.739573145000065 ], [ 127.503118176000044, 39.712836048000042 ], [ 127.504436147000092, 39.644718164000039 ], [ 127.530682400000046, 39.456654073000038 ], [ 127.53580927500002, 39.42721817000006 ], [ 127.556636293000111, 39.327218041000037 ], [ 127.560191226000029, 39.31113601900006 ], [ 127.528318201000047, 39.30298210400008 ], [ 127.524291367000046, 39.342209075000028 ], [ 127.536236249000012, 39.359018144000061 ], [ 127.531654198000069, 39.388745067000059 ], [ 127.497836236000012, 39.427773220000063 ], [ 127.457482401000107, 39.420064216000071 ], [ 127.438754212000049, 39.404945106000071 ] ] ] }
        }
    ]
}