{
    "type": "FeatureCollection",
    "features": [
        {
            "type": "Feature",
            "properties": {
                "WCID": "QAT",
                "COUNTRY": "Qatar"
            },
            "geometry": { "type": "Polygon", "coordinates": [ [ [ 51.47463622500004, 24.761509096000054 ], [ 51.435554093000064, 24.661109151000062 ], [ 51.366245141000036, 24.589582180000036 ], [ 51.334927166000057, 24.572709073000055 ], [ 51.335063288000072, 24.598953986000026 ], [ 51.348054064000053, 24.634027054000057 ], [ 51.328327087000048, 24.652218131000041 ], [ 51.27110919900008, 24.65694502100007 ], [ 51.214373269000077, 24.634444975000065 ], [ 51.215163348000033, 24.620891103000076 ], [ 51.204445073000045, 24.608191178000027 ], [ 51.178891164000049, 24.58639118900004 ], [ 51.111363367000081, 24.556045012000027 ], [ 50.973054085000058, 24.576944952000076 ], [ 50.865909223000074, 24.690000062000024 ], [ 50.830954172000077, 24.749964198000043 ], [ 50.843600284000047, 24.759200049000071 ], [ 50.863054179000073, 24.790482150000059 ], [ 50.85721819500003, 24.870553969000071 ], [ 50.849445153000033, 24.913609123000072 ], [ 50.805136233000042, 25.064300152000044 ], [ 50.767663259000074, 25.129454027000065 ], [ 50.766391221000049, 25.138882159000048 ], [ 50.760273270000027, 25.186109155000054 ], [ 50.755273297000031, 25.259853977000034 ], [ 50.751936126000032, 25.431391135000069 ], [ 50.75638222300006, 25.499582108000027 ], [ 50.782982193000066, 25.522773158000064 ], [ 50.807782233000069, 25.490273167000055 ], [ 50.818809129000044, 25.465064090000055 ], [ 50.838327229000072, 25.459718112000076 ], [ 50.842500243000075, 25.48832705600006 ], [ 50.833327088000033, 25.565273095000066 ], [ 50.827500157000031, 25.593054075000055 ], [ 50.907218259000047, 25.588891119000039 ], [ 50.951800261000074, 25.599164147000067 ], [ 50.973054085000058, 25.641945046000046 ], [ 50.950827122000078, 25.633891043000062 ], [ 50.919163309000055, 25.625273105000076 ], [ 50.890900202000068, 25.659718034000036 ], [ 50.889927231000058, 25.717709069000023 ], [ 50.898163289000081, 25.730736055000023 ], [ 50.900691271000028, 25.774654043000055 ], [ 50.931900282000072, 25.802809024000055 ], [ 50.955963385000075, 25.776664191000066 ], [ 50.974645138000028, 25.808609133000061 ], [ 50.969718255000032, 25.82417315400005 ], [ 50.962236233000056, 25.823991099000068 ], [ 50.952909187000046, 25.828954024000041 ], [ 50.949163314000032, 25.859027119000075 ], [ 50.998327200000062, 25.965273106000041 ], [ 51.036945142000036, 26.042427017000023 ], [ 51.171945081000047, 26.123609102000046 ], [ 51.24485406000008, 26.15250018100005 ], [ 51.309436122000079, 26.126809145000038 ], [ 51.340763317000039, 26.105136058000028 ], [ 51.345136156000081, 26.079164228000025 ], [ 51.344436099000063, 26.042773189000059 ], [ 51.396873286000073, 25.961245099000053 ], [ 51.413300140000047, 25.949591068000075 ], [ 51.478609247000065, 25.953053968000063 ], [ 51.50076328800003, 25.949091172000067 ], [ 51.567218202000049, 25.907709045000047 ], [ 51.593045192000034, 25.780826980000029 ], [ 51.593463282000073, 25.759864175000075 ], [ 51.587491176000071, 25.693882168000073 ], [ 51.541945087000045, 25.621109144000059 ], [ 51.516945055000065, 25.613609017000044 ], [ 51.496663364000028, 25.608609044000048 ], [ 51.485136235000027, 25.589027074000057 ], [ 51.491173217000039, 25.550091122000026 ], [ 51.475382215000081, 25.521773197000073 ], [ 51.488609193000059, 25.480000138000037 ], [ 51.504027201000042, 25.464854039000045 ], [ 51.519927169000027, 25.432291184000064 ], [ 51.517591300000049, 25.383418150000068 ], [ 51.510554189000061, 25.330827072000034 ], [ 51.510273228000074, 25.30221812800005 ], [ 51.532082269000057, 25.287218041000074 ], [ 51.575618210000073, 25.287082087000044 ], [ 51.603191151000033, 25.271873123000034 ], [ 51.604436199000077, 25.233064241000022 ], [ 51.61443614500007, 25.211664236000047 ], [ 51.615827205000073, 25.178609028000039 ], [ 51.611945211000034, 25.013745038000025 ], [ 51.569582234000052, 24.921945093000033 ], [ 51.531391265000082, 24.87694500200007 ], [ 51.503818156000079, 24.853891080000039 ], [ 51.474309163000044, 24.784445001000051 ], [ 51.47463622500004, 24.761509096000054 ] ] ] }
        }
    ]
}