{
    "type": "FeatureCollection",
    "features": [
        {
            "type": "Feature",
            "properties": {
                "WCID": "ROM",
                "COUNTRY": "Romania"
            },
            "geometry": { "type": "Polygon", "coordinates": [ [ [ 24.319709162000038, 43.696636118000072 ], [ 24.307782217000067, 43.697491072000048 ], [ 24.286391265000077, 43.697491072000048 ], [ 24.257218218000048, 43.694445088000066 ], [ 24.224163345000022, 43.689436063000073 ], [ 24.189236122000068, 43.684927102000074 ], [ 24.155618152000045, 43.689909138000075 ], [ 24.116082224000024, 43.69990908300008 ], [ 24.067982169000061, 43.720627137000065 ], [ 23.987500140000066, 43.744164191000038 ], [ 23.774163270000031, 43.788327098000025 ], [ 23.629718099000058, 43.795000099000049 ], [ 23.607082267000067, 43.797354073000065 ], [ 23.570273307000036, 43.806936097000062 ], [ 23.533700213000031, 43.82242702700006 ], [ 23.511518177000028, 43.836554055000079 ], [ 23.446663201000035, 43.851109062000035 ], [ 23.422682241000075, 43.85570016500003 ], [ 23.283609200000058, 43.850827095000056 ], [ 23.262073241000053, 43.847782117000065 ], [ 23.224500186000057, 43.838664115000029 ], [ 23.198609158000068, 43.83138208500003 ], [ 23.162109154000063, 43.818227023000077 ], [ 23.143191199000057, 43.809718050000072 ], [ 23.067527088000077, 43.802182216000062 ], [ 22.966945088000045, 43.816936042000066 ], [ 22.894445146000066, 43.836109143000044 ], [ 22.869300107000072, 43.845418085000063 ], [ 22.852545185000054, 43.860736013000064 ], [ 22.841963200000066, 43.896673255000053 ], [ 22.882218128000034, 43.984864120000054 ], [ 22.91340014900004, 44.000864168000078 ], [ 22.959427191000032, 44.01227311100007 ], [ 22.992236140000045, 44.013754026000072 ], [ 23.037636048000024, 44.050691062000055 ], [ 23.042982193000057, 44.072564141000043 ], [ 23.012773311000046, 44.096109075000072 ], [ 22.997445157000072, 44.100627088000067 ], [ 22.948327205000055, 44.104018071000041 ], [ 22.91458216500007, 44.111109161000059 ], [ 22.691663270000049, 44.215554045000033 ], [ 22.681436175000044, 44.224700043000041 ], [ 22.687773229000072, 44.274018155000078 ], [ 22.665273183000068, 44.288464198000042 ], [ 22.641109162000078, 44.294164227000067 ], [ 22.616673232000039, 44.298035996000067 ], [ 22.575618167000073, 44.305545008000081 ], [ 22.543327221000027, 44.329718081000067 ], [ 22.530000162000078, 44.345273217000056 ], [ 22.459927116000074, 44.46106418100004 ], [ 22.46152722100004, 44.483327019000058 ], [ 22.586245080000026, 44.547635998000032 ], [ 22.615418126000066, 44.551664173000063 ], [ 22.639027097000053, 44.545827015000043 ], [ 22.672500228000047, 44.52888216000008 ], [ 22.701182262000032, 44.523564177000026 ], [ 22.738891271000057, 44.533054001000039 ], [ 22.762509128000033, 44.552600096000049 ], [ 22.712773261000052, 44.605136021000078 ], [ 22.665836112000022, 44.619445103000032 ], [ 22.644445160000032, 44.618609092000042 ], [ 22.607291200000077, 44.622427049000066 ], [ 22.574445036000043, 44.638609152000072 ], [ 22.543054138000059, 44.65860904300007 ], [ 22.513891150000063, 44.679718028000025 ], [ 22.493473169000026, 44.699164211000038 ], [ 22.466109105000044, 44.713745035000045 ], [ 22.428818185000068, 44.712082233000046 ], [ 22.311591234000048, 44.659027132000062 ], [ 22.297773164000034, 44.63582703000003 ], [ 22.273327175000077, 44.604164223000055 ], [ 22.258609224000054, 44.585273090000044 ], [ 22.175482202000069, 44.48326415400004 ], [ 22.137500111000065, 44.480273156000067 ], [ 22.091663338000046, 44.498673110000027 ], [ 22.03541808500006, 44.559509131000027 ], [ 22.031263343000035, 44.58942716100006 ], [ 22.029163341000071, 44.593891195000026 ], [ 21.99700918700006, 44.633045077000077 ], [ 21.909163321000051, 44.64943605600007 ], [ 21.783609117000026, 44.661945041000081 ], [ 21.734163264000074, 44.65582708900007 ], [ 21.644236171000045, 44.660136058000035 ], [ 21.617709124000044, 44.682844981000073 ], [ 21.615600237000024, 44.71079108400005 ], [ 21.596945138000024, 44.75582705000005 ], [ 21.565554073000044, 44.771664154000064 ], [ 21.533745085000078, 44.777353957000059 ], [ 21.474718214000063, 44.777773220000029 ], [ 21.453609229000051, 44.776664126000071 ], [ 21.398663339000052, 44.783100087000037 ], [ 21.36257321100004, 44.828100178000057 ], [ 21.369582158000071, 44.866527014000042 ], [ 21.407773294000037, 44.876244992000068 ], [ 21.453609229000051, 44.875418034000063 ], [ 21.47888217600007, 44.875273194000044 ], [ 21.502218233000065, 44.879718117000039 ], [ 21.553954021000038, 44.892427094000027 ], [ 21.556800181000028, 44.913954001000036 ], [ 21.535827150000046, 44.940200087000051 ], [ 21.473191199000041, 44.96235396000003 ], [ 21.450136104000023, 44.96235396000003 ], [ 21.429718123000043, 44.961664129000042 ], [ 21.407218077000039, 44.972218119000047 ], [ 21.373436157000071, 45.013609130000077 ], [ 21.443054066000059, 45.053600196000048 ], [ 21.514100251000059, 45.14277325300003 ], [ 21.482773223000038, 45.183609047000061 ], [ 21.473373254000023, 45.187445109000066 ], [ 21.410827157000028, 45.215418034000038 ], [ 21.351391249000073, 45.21777318200003 ], [ 21.27194505600005, 45.231245079000075 ], [ 21.048882160000062, 45.316382082000075 ], [ 20.986663293000049, 45.345836090000034 ], [ 20.808327070000075, 45.478882207000026 ], [ 20.79416333000006, 45.507773118000046 ], [ 20.767563193000058, 45.613536141000054 ], [ 20.776527135000038, 45.633327155000075 ], [ 20.797500166000077, 45.653045079000037 ], [ 20.801600258000065, 45.758673153000075 ], [ 20.773018135000029, 45.768154091000042 ], [ 20.752773157000036, 45.746936142000038 ], [ 20.717636051000056, 45.743744983000056 ], [ 20.662363267000046, 45.798745021000059 ], [ 20.655973239000048, 45.827909182000042 ], [ 20.585273227000073, 45.89874498100005 ], [ 20.553745033000041, 45.911245081000061 ], [ 20.513745082000071, 45.91423608000008 ], [ 20.373191127000041, 45.981518120000032 ], [ 20.354027079000048, 46.017391156000031 ], [ 20.314027128000077, 46.069853991000059 ], [ 20.261027181000031, 46.114854083000068 ], [ 20.274300260000075, 46.140409165000051 ], [ 20.340273214000035, 46.159436085000038 ], [ 20.48694512000003, 46.181109172000049 ], [ 20.535273163000056, 46.173045111000079 ], [ 20.563327057000038, 46.164991107000048 ], [ 20.582773240000051, 46.155000046000055 ], [ 20.622082187000046, 46.130827140000065 ], [ 20.687663203000056, 46.146309186000053 ], [ 20.719654078000076, 46.166100201000063 ], [ 20.72695404500007, 46.175564208000026 ], [ 20.720273166000027, 46.189582103000077 ], [ 20.757354035000048, 46.242909112000063 ], [ 20.783054123000056, 46.259436046000076 ], [ 20.79590022800005, 46.265726999000037 ], [ 20.825000184000032, 46.275973205000071 ], [ 20.846382252000069, 46.279164196000067 ], [ 20.868609215000049, 46.276109160000033 ], [ 20.989718161000042, 46.254718040000057 ], [ 21.04937317200006, 46.240827047000039 ], [ 21.080827102000057, 46.246936113000061 ], [ 21.177363325000044, 46.29736415800005 ], [ 21.178609211000037, 46.326945068000043 ], [ 21.188327190000052, 46.371936106000078 ], [ 21.202773232000027, 46.396809069000028 ], [ 21.219163206000076, 46.408336030000044 ], [ 21.288891253000031, 46.460545061000062 ], [ 21.293609091000064, 46.532491127000071 ], [ 21.308054127000048, 46.589854023000044 ], [ 21.327563342000076, 46.620618122000053 ], [ 21.45353613900005, 46.684644966000064 ], [ 21.489409176000038, 46.684536001000026 ], [ 21.493891147000056, 46.686945128000048 ], [ 21.52572712400007, 46.726182158000029 ], [ 21.493400135000059, 46.754754054000045 ], [ 21.530209096000078, 46.827009077000071 ], [ 21.613327065000078, 46.884164269000053 ], [ 21.670827089000056, 46.96139110200005 ], [ 21.692218209000032, 47.006282229000078 ], [ 21.655500108000069, 47.020864226000072 ], [ 21.65250022500004, 47.02756421600003 ], [ 21.710000249000075, 47.079718094000043 ], [ 21.743191244000059, 47.098191138000061 ], [ 21.783473162000064, 47.114927117000036 ], [ 21.847218207000026, 47.198118176000037 ], [ 21.842291156000044, 47.229235992000042 ], [ 21.871663357000045, 47.296527084000047 ], [ 21.929445180000073, 47.358953991000078 ], [ 21.962500221000028, 47.368045003000077 ], [ 21.998536202000025, 47.373609078000072 ], [ 22.013473257000044, 47.390136012000028 ], [ 22.020554121000032, 47.42528217000006 ], [ 22.020273159000055, 47.45082702600007 ], [ 22.008327103000056, 47.478609179000046 ], [ 22.013882293000052, 47.510618159000046 ], [ 22.037773232000063, 47.533609049000063 ], [ 22.118009168000071, 47.578109076000032 ], [ 22.16790915200005, 47.588327119000041 ], [ 22.186391249000053, 47.59860903200007 ], [ 22.18983604400006, 47.603954004000059 ], [ 22.19139122200005, 47.628744991000076 ], [ 22.225273222000055, 47.679300105000038 ], [ 22.273745097000074, 47.726245133000077 ], [ 22.320973266000067, 47.746664120000048 ], [ 22.449854080000023, 47.794854028000032 ], [ 22.48110919100003, 47.795554085000049 ], [ 22.501800255000035, 47.790282203000061 ], [ 22.552218241000048, 47.767082101000028 ], [ 22.603609198000072, 47.76777310500006 ], [ 22.63416324700006, 47.771664152000028 ], [ 22.653609094000046, 47.776382158000047 ], [ 22.780000148000056, 47.842982078000034 ], [ 22.894800203000045, 47.954535990000068 ], [ 22.896109121000052, 47.953891086000056 ], [ 22.930000173000053, 47.960544976000051 ], [ 23.043327192000049, 47.993044968000049 ], [ 23.087773240000047, 48.013473175000058 ], [ 23.102218109000034, 48.034300192000046 ], [ 23.112500190000048, 48.062773182000058 ], [ 23.125618203000045, 48.089364267000065 ], [ 23.15235412800007, 48.105691209000042 ], [ 23.174163337000039, 48.108327150000036 ], [ 23.260691232000056, 48.090127020000068 ], [ 23.279163271000073, 48.075273115000073 ], [ 23.299100130000056, 48.044854014000066 ], [ 23.356109142000037, 48.021100204000049 ], [ 23.41027316800006, 48.000545095000064 ], [ 23.502982214000042, 47.982464156000049 ], [ 23.514263250000056, 47.98933614300006 ], [ 23.566100125000048, 47.999991219000037 ], [ 23.823891257000071, 47.966945062000036 ], [ 23.969718100000023, 47.96139121300007 ], [ 24.032363271000065, 47.95596426600008 ], [ 24.096182244000033, 47.932353954000064 ], [ 24.127500220000059, 47.912009063000028 ], [ 24.246945190000076, 47.903882137000039 ], [ 24.326945092000074, 47.928891222000061 ], [ 24.42152715800006, 47.95777324900007 ], [ 24.45389119500004, 47.958609092000074 ], [ 24.556391142000052, 47.953045017000079 ], [ 24.572291277000033, 47.949482205000038 ], [ 24.588336084000048, 47.945827025000028 ], [ 24.615409129000057, 47.933745014000067 ], [ 24.670100209000054, 47.895482129000072 ], [ 24.670900178000068, 47.866800095000031 ], [ 24.693882183000028, 47.849164235000046 ], [ 24.716945157000055, 47.838609072000054 ], [ 24.770273172000032, 47.820545065000033 ], [ 24.80277316300004, 47.817773169000077 ], [ 24.821109247000038, 47.808400190000043 ], [ 24.863327217000062, 47.759991178000064 ], [ 24.898709242000052, 47.717845125000053 ], [ 24.928918124000063, 47.713145057000077 ], [ 24.961245113000075, 47.720836123000026 ], [ 24.999509172000046, 47.724464146000059 ], [ 25.000000184000044, 47.72449113600004 ], [ 25.029718222000042, 47.728864143000067 ], [ 25.049436146000062, 47.733327003000056 ], [ 25.085545050000064, 47.744427158000065 ], [ 25.116936115000044, 47.759436129000051 ], [ 25.153818166000065, 47.790127138000059 ], [ 25.175136196000039, 47.823327018000043 ], [ 25.224436203000039, 47.87610015100006 ], [ 25.246382205000032, 47.888736038000047 ], [ 25.333882234000043, 47.916664204000028 ], [ 25.501663293000036, 47.933327093000059 ], [ 25.525000188000035, 47.934709101000067 ], [ 25.568327084000032, 47.935818027000039 ], [ 25.58860911000005, 47.934436018000042 ], [ 25.646109134000028, 47.933591123000042 ], [ 25.780482274000065, 47.936854030000063 ], [ 25.817218144000037, 47.955273094000063 ], [ 25.838327129000049, 47.963464226000042 ], [ 25.922218078000071, 47.974709052000037 ], [ 26.037218125000038, 47.983600072000058 ], [ 26.102709120000043, 47.981718167000054 ], [ 26.115000175000034, 47.981364115000076 ], [ 26.158609205000062, 47.985253989000057 ], [ 26.193463338000072, 48.001518066000074 ], [ 26.272218192000025, 48.076100073000077 ], [ 26.317700243000047, 48.176136076000034 ], [ 26.468882284000074, 48.217491213000073 ], [ 26.507500226000047, 48.21346421100003 ], [ 26.530836115000056, 48.208191156000055 ], [ 26.567773319000025, 48.22249118600007 ], [ 26.634991153000044, 48.257164270000033 ], [ 26.704163312000048, 48.263882197000044 ], [ 26.817218087000072, 48.246800046000033 ], [ 26.954718180000043, 48.185545098000034 ], [ 27.000554115000057, 48.155545093000057 ], [ 27.158600264000029, 47.985818091000056 ], [ 27.200827119000053, 47.902200057000073 ], [ 27.211100147000025, 47.845818179000048 ], [ 27.238327083000058, 47.785254067000039 ], [ 27.280273312000077, 47.693045085000051 ], [ 27.299436187000026, 47.65860015700008 ], [ 27.327773222000076, 47.636653987000045 ], [ 27.361191200000064, 47.616982164000035 ], [ 27.433327200000065, 47.565264144000025 ], [ 27.472918114000038, 47.48598223700003 ], [ 27.576100180000026, 47.366100066000058 ], [ 27.636309235000056, 47.305954043000042 ], [ 27.679436139000074, 47.293873206000058 ], [ 27.71928219800003, 47.285645027000044 ], [ 27.742218102000038, 47.262773160000052 ], [ 27.785409211000058, 47.203318142000057 ], [ 27.798054151000031, 47.152491119000047 ], [ 27.861382279000054, 47.10248217000003 ], [ 27.945382193000057, 47.043309118000082 ], [ 27.998718087000043, 47.027773093000064 ], [ 28.03388218200007, 47.01554507000003 ], [ 28.079373285000031, 46.982273105000047 ], [ 28.106382292000035, 46.920273173000055 ], [ 28.115827188000026, 46.887773181000057 ], [ 28.11971823500005, 46.85440918300003 ], [ 28.115754098000025, 46.840473096000039 ], [ 28.174436138000033, 46.739718093000079 ], [ 28.20388226700004, 46.698600164000027 ], [ 28.228745171000071, 46.672009079000077 ], [ 28.24680012500005, 46.607800180000027 ], [ 28.248427220000053, 46.427036056000077 ], [ 28.193600186000026, 46.330273186000056 ], [ 28.138882284000033, 46.190536131000044 ], [ 28.108327229000054, 46.102291119000029 ], [ 28.091382206000048, 46.075827103000051 ], [ 28.093445160000044, 45.991754100000037 ], [ 28.107218135000039, 45.96610011100006 ], [ 28.120273285000053, 45.92192714600003 ], [ 28.164509114000055, 45.720818131000044 ], [ 28.166800224000042, 45.668191179000075 ], [ 28.159300264000024, 45.627000159000033 ], [ 28.137273293000078, 45.620400081000071 ], [ 28.069163289000073, 45.583318038000073 ], [ 28.174436138000033, 45.47207325200003 ], [ 28.211309136000068, 45.450109145000056 ], [ 28.214836073000072, 45.448644994000063 ], [ 28.226982289000034, 45.449382098000058 ], [ 28.279227194000043, 45.428945007000038 ], [ 28.285382194000078, 45.395191083000043 ], [ 28.299163216000068, 45.362636106000025 ], [ 28.317845137000063, 45.337145062000047 ], [ 28.343327129000045, 45.315536013000042 ], [ 28.375827120000054, 45.300544979000051 ], [ 28.574718116000042, 45.242764161000025 ], [ 28.700809097000047, 45.22009111300008 ], [ 28.797600130000035, 45.23794507000008 ], [ 28.848609208000028, 45.301654072000076 ], [ 28.968054179000035, 45.321109140000033 ], [ 29.221663244000069, 45.425827106000042 ], [ 29.321527083000035, 45.439018043000033 ], [ 29.41138225900005, 45.435818167000036 ], [ 29.510827170000027, 45.410682181000027 ], [ 29.580691171000069, 45.389018146000069 ], [ 29.603336056000046, 45.37693613600004 ], [ 29.640973316000043, 45.346382087000052 ], [ 29.655000264000023, 45.327764203000072 ], [ 29.669027211000071, 45.294573208000031 ], [ 29.672218202000067, 45.272209117000045 ], [ 29.664327143000037, 45.211800070000038 ], [ 29.627363285000058, 45.214364262000061 ], [ 29.641109103000076, 45.173882184000036 ], [ 29.660273319000055, 45.112764195000068 ], [ 29.641382186000044, 44.981936098000062 ], [ 29.608327144000043, 44.84540914400003 ], [ 29.549436060000062, 44.820264105000035 ], [ 29.450827160000074, 44.808882151000034 ], [ 29.39000019100007, 44.802218035000067 ], [ 29.344182194000041, 44.799718048000045 ], [ 29.25082707100006, 44.795827001000077 ], [ 29.214163285000041, 44.793054100000063 ], [ 29.067491211000061, 44.822764259000053 ], [ 29.04971822300007, 44.847345028000063 ], [ 29.042909100000031, 44.924154107000049 ], [ 29.067500263000056, 44.94748211700005 ], [ 29.103400122000039, 44.963291224000045 ], [ 29.044436115000053, 45.003191095000034 ], [ 28.983809139000073, 45.005754114000069 ], [ 28.900000165000051, 44.966664270000081 ], [ 28.869191139000066, 44.940509044000066 ], [ 28.864645130000042, 44.878809184000033 ], [ 28.893745086000024, 44.863191184000073 ], [ 28.947354063000034, 44.826653965000048 ], [ 28.926936082000054, 44.778327096000055 ], [ 28.901663303000078, 44.755409129000043 ], [ 28.86596326800003, 44.749018095000054 ], [ 28.795827190000068, 44.716382149000026 ], [ 28.782082210000056, 44.695682201000068 ], [ 28.780827104000025, 44.660964190000072 ], [ 28.789927169000066, 44.642391066000073 ], [ 28.799718237000036, 44.640200204000053 ], [ 28.84930021200006, 44.648318078000045 ], [ 28.906591191000075, 44.686309054000048 ], [ 28.910400263000042, 44.69233614500007 ], [ 28.901873185000056, 44.706509105000066 ], [ 28.930027160000066, 44.701226998000038 ], [ 28.956663340000034, 44.698464155000067 ], [ 28.990863349000051, 44.685645040000054 ], [ 28.970963202000064, 44.644018161000076 ], [ 28.948500204000027, 44.630854047000071 ], [ 28.975445173000026, 44.672173142000076 ], [ 28.957354176000024, 44.689845044000037 ], [ 28.819673202000047, 44.616954002000057 ], [ 28.796518194000043, 44.630844995000075 ], [ 28.763054116000035, 44.625582165000026 ], [ 28.757500267000069, 44.519718057000034 ], [ 28.808136183000045, 44.531436126000074 ], [ 28.927773266000031, 44.617491114000075 ], [ 28.913054141000032, 44.588054038000053 ], [ 28.876800231000061, 44.535691115000077 ], [ 28.845273211000062, 44.497209127000076 ], [ 28.828327182000066, 44.479582152000035 ], [ 28.801163277000057, 44.461454107000066 ], [ 28.751800238000044, 44.426109130000043 ], [ 28.644300150000049, 44.327700054000047 ], [ 28.629582199000026, 44.296518033000041 ], [ 28.628882142000066, 44.271936091000043 ], [ 28.632773189000034, 44.157491093000033 ], [ 28.660273208000035, 43.975545120000049 ], [ 28.647218226000064, 43.954427083000041 ], [ 28.61360914100004, 43.881654058000038 ], [ 28.594991257000061, 43.831653994000078 ], [ 28.585282164000034, 43.80081814600004 ], [ 28.579436122000061, 43.761373244000026 ], [ 28.583245194000028, 43.747764219000032 ], [ 28.485000236000076, 43.744164191000038 ], [ 28.403891241000053, 43.750273090000064 ], [ 28.257773210000039, 43.764435992000074 ], [ 28.235554126000068, 43.770000067000069 ], [ 28.181945149000057, 43.78527323600008 ], [ 28.133054179000055, 43.801653989000044 ], [ 28.038463228000069, 43.835409087000073 ], [ 27.998054072000059, 43.859509070000058 ], [ 27.960273314000062, 43.94499107200005 ], [ 27.952218138000035, 43.974436027000081 ], [ 27.922218133000058, 44.003882156000032 ], [ 27.860409140000058, 43.980818176000071 ], [ 27.833327211000039, 43.969164145000036 ], [ 27.813191197000037, 43.965000183000029 ], [ 27.741800181000031, 43.959436108000034 ], [ 27.716800149000051, 43.969227009000065 ], [ 27.698354094000024, 43.99360912800006 ], [ 27.678745135000042, 44.029718031000073 ], [ 27.652427132000071, 44.041664255000057 ], [ 27.62479115900004, 44.028182131000051 ], [ 27.475827137000067, 44.019436118000044 ], [ 27.407500209000034, 44.021800150000047 ], [ 27.295273231000067, 44.084300147000079 ], [ 27.279300173000024, 44.103882117000069 ], [ 27.272709147000057, 44.13214505600007 ], [ 27.250545049000038, 44.124982217000081 ], [ 27.23027324800006, 44.120827140000074 ], [ 27.193600242000059, 44.123318074000053 ], [ 27.165836194000065, 44.129991075000078 ], [ 27.111109239000029, 44.140827031000072 ], [ 27.036427152000044, 44.147336082000038 ], [ 26.91340025900007, 44.13612713100008 ], [ 26.890209209000034, 44.131991164000056 ], [ 26.840827227000034, 44.115554084000053 ], [ 26.794718209000052, 44.095273231000078 ], [ 26.671100225000032, 44.07193600100004 ], [ 26.478609147000043, 44.049427071000025 ], [ 26.438418089000038, 44.041309030000036 ], [ 26.413036177000038, 44.043127065000078 ], [ 26.386663357000032, 44.043873222000059 ], [ 26.301936062000038, 44.030818072000045 ], [ 26.136382242000025, 43.982773171000076 ], [ 26.111663339000074, 43.96831807600006 ], [ 26.085282305000078, 43.949718130000065 ], [ 25.942773186000068, 43.84847312100004 ], [ 25.88456321600006, 43.793018114000063 ], [ 25.786945056000036, 43.713054087000046 ], [ 25.766527075000056, 43.703327056000035 ], [ 25.735309180000058, 43.694600154000057 ], [ 25.681336094000073, 43.690427139000064 ], [ 25.609163213000045, 43.66220912700004 ], [ 25.531936045000066, 43.64360012800006 ], [ 25.463854036000043, 43.639209185000027 ], [ 25.432063322000033, 43.627927143000079 ], [ 25.378791130000025, 43.623309049000056 ], [ 25.344163309000066, 43.633464228000037 ], [ 25.314445103000025, 43.652218066000046 ], [ 25.268609168000069, 43.675273161000064 ], [ 25.224718171000063, 43.687482074000059 ], [ 25.022754034000059, 43.710191164000037 ], [ 24.881382172000031, 43.712218076000056 ], [ 24.793609229000026, 43.712773126000059 ], [ 24.714163203000055, 43.714718062000031 ], [ 24.686927215000026, 43.71838212800003 ], [ 24.60582710400007, 43.751518138000051 ], [ 24.562500209000063, 43.759164110000029 ], [ 24.528609156000073, 43.761109047000048 ], [ 24.501800142000036, 43.761245001000077 ], [ 24.457773190000069, 43.744718067000065 ], [ 24.438609141000029, 43.736382097000046 ], [ 24.405282191000026, 43.719718035000028 ], [ 24.355273242000067, 43.696873158000074 ], [ 24.319709162000038, 43.696636118000072 ] ] ] }
        }
    ]
}