{
    "type": "FeatureCollection",
    "features": [
        {
            "type": "Feature",
            "properties": {
                "WCID": "SAF",
                "COUNTRY": "South Africa"
            },
            "geometry": { "type": "MultiPolygon", "coordinates": [ [ [ [ 17.171654133000061, -28.102264053999932 ], [ 17.189018084000054, -28.114108855999973 ], [ 17.188327080000022, -28.171654979999971 ], [ 17.184373168000036, -28.200499958999956 ], [ 17.198609160000046, -28.22360886599995 ], [ 17.218809212000053, -28.242073024999968 ], [ 17.278818107000063, -28.238263952999944 ], [ 17.309573154000077, -28.22103595699997 ], [ 17.343118201000038, -28.23305510299997 ], [ 17.398054032000061, -28.342226877999963 ], [ 17.39958222100006, -28.363191023999946 ], [ 17.396109096000032, -28.402226887999973 ], [ 17.385418146000063, -28.42423592199998 ], [ 17.361382200000037, -28.53499992299993 ], [ 17.400900192000051, -28.708399874999941 ], [ 17.422009177000064, -28.715281919999939 ], [ 17.461109246000035, -28.70278198799997 ], [ 17.49777320000004, -28.694726978999938 ], [ 17.589754026000037, -28.68954595699995 ], [ 17.602218084000071, -28.720690929999932 ], [ 17.605273287000045, -28.753126883999983 ], [ 17.643400218000068, -28.773963959999946 ], [ 17.679300245000036, -28.769864034999955 ], [ 17.710827097000049, -28.756672931999958 ], [ 17.749718122000047, -28.74639101799994 ], [ 17.912500214000033, -28.779163924999978 ], [ 17.969927148000068, -28.804099918999952 ], [ 18.001391136000052, -28.8269459699999 ], [ 18.026109201000054, -28.849863936999952 ], [ 18.044445117000066, -28.868126930999949 ], [ 18.181318076000025, -28.908473053999955 ], [ 18.338336101000039, -28.884445992999929 ], [ 18.719163347000062, -28.83652682 ], [ 18.951527138000074, -28.86639103899995 ], [ 18.970418103000043, -28.877635864999945 ], [ 18.985691272000054, -28.904999928999928 ], [ 19.002500173000044, -28.92791789599994 ], [ 19.108327065000026, -28.961872985999946 ], [ 19.145827197000074, -28.954999992999944 ], [ 19.183891264000067, -28.937226837999958 ], [ 19.253891220000071, -28.899446079999962 ], [ 19.26000011800005, -28.855417953999961 ], [ 19.248054062000051, -28.831673027999955 ], [ 19.239791182000033, -28.802426890999982 ], [ 19.261245166000037, -28.744864002999975 ], [ 19.277218224000023, -28.731254977999981 ], [ 19.30138224500007, -28.725417987999947 ], [ 19.322500115000025, -28.727499884999929 ], [ 19.349027162000027, -28.735835854999948 ], [ 19.41832706100007, -28.718891 ], [ 19.447773190000078, -28.710835822999968 ], [ 19.466391241000053, -28.69971789899995 ], [ 19.490691217000062, -28.669026889999941 ], [ 19.493891260000055, -28.633054946999948 ], [ 19.513336102000039, -28.59499993299994 ], [ 19.567454027000053, -28.528326921999962 ], [ 19.743609111000069, -28.485555075999969 ], [ 19.789718128000061, -28.495555021999962 ], [ 19.812218174000066, -28.492499984999938 ], [ 19.996945094000068, -28.415590993999956 ], [ 19.998054020000041, -28.354726977999974 ], [ 19.998336155000061, -28.064999955999951 ], [ 19.997773226000049, -27.871946116999936 ], [ 19.998054020000041, -27.58222697399998 ], [ 19.998336155000061, -27.485835925999936 ], [ 19.998763297000039, -27.369499970999982 ], [ 19.999163281000051, -27.320281937999937 ], [ 19.999445081000033, -27.030282001999979 ], [ 20.000000130000046, -26.409172915999932 ], [ 20.000000130000046, -25.870835795999938 ], [ 20.000436157000024, -25.616490965999958 ], [ 20.000273213000071, -25.414999903999956 ], [ 20.000554174000058, -25.221672982999962 ], [ 20.001391191000039, -25.083617840999977 ], [ 20.001663268000073, -24.862782015999983 ], [ 20.001663268000073, -24.793608851999977 ], [ 20.000945106000074, -24.765408943999944 ], [ 20.044445172000053, -24.812226902999953 ], [ 20.059163291000061, -24.826390977999949 ], [ 20.132218115000057, -24.884446050999941 ], [ 20.166109168000048, -24.88639098799996 ], [ 20.237082262000058, -24.916108857999973 ], [ 20.261945167000022, -24.931663993999962 ], [ 20.390000196000074, -25.036946062999959 ], [ 20.44971823800006, -25.153617963999977 ], [ 20.536391141000024, -25.298055087999956 ], [ 20.60971820900005, -25.397364043999971 ], [ 20.631945173000076, -25.436946073999934 ], [ 20.650000127000055, -25.479446010999936 ], [ 20.689091145000077, -25.591181976999962 ], [ 20.679163283000037, -25.636672912999927 ], [ 20.68215411400007, -25.685690952999948 ], [ 20.739436208000029, -25.763055081999937 ], [ 20.783882255000037, -25.824717893999946 ], [ 20.810273181000071, -25.880835908999927 ], [ 20.860282297000026, -26.141808979999951 ], [ 20.796391240000048, -26.249446027999966 ], [ 20.75721808000003, -26.304446064999979 ], [ 20.744445066000026, -26.320835870999929 ], [ 20.691800176000072, -26.388055045999977 ], [ 20.652218147000042, -26.425835804999963 ], [ 20.623245092000047, -26.43886396399995 ], [ 20.60971820900005, -26.454446089999976 ], [ 20.60333606100005, -26.516391036999948 ], [ 20.601945168000043, -26.536390927999946 ], [ 20.61889119600005, -26.767499948999955 ], [ 20.641109107000034, -26.825972942999954 ], [ 20.703891239000029, -26.875555085999963 ], [ 20.763882196000054, -26.861117927999942 ], [ 20.801800250000042, -26.841526905999956 ], [ 20.823473169000067, -26.817635799999948 ], [ 20.85582714800006, -26.804999912999961 ], [ 20.892082232000064, -26.79534597199995 ], [ 20.924163296000074, -26.798617931999956 ], [ 20.966245144000027, -26.817155013999979 ], [ 20.988327100000049, -26.837635858999931 ], [ 21.012500174000024, -26.847500017999948 ], [ 21.101109128000076, -26.863054985999952 ], [ 21.128891282000041, -26.866390983999963 ], [ 21.144163277000075, -26.866672950999941 ], [ 21.177773200000047, -26.862226853999971 ], [ 21.276945029000046, -26.845555080999929 ], [ 21.338891149000062, -26.82902697399993 ], [ 21.377636161000055, -26.821390891999954 ], [ 21.41055407500005, -26.821663974999979 ], [ 21.435691235000036, -26.823755091999942 ], [ 21.460273177000033, -26.829726862999962 ], [ 21.481391215000031, -26.842226962999973 ], [ 21.516663269000048, -26.852499990999945 ], [ 21.613054150000039, -26.860835960999964 ], [ 21.668327102000035, -26.863681951999979 ], [ 21.693054052000036, -26.853055039999958 ], [ 21.750418121000052, -26.818472983999982 ], [ 21.772636200000022, -26.789864039999941 ], [ 21.778745098000059, -26.767499948999955 ], [ 21.774027093000029, -26.734172998999952 ], [ 21.769754166000041, -26.683964056999969 ], [ 21.808327182000028, -26.66639089399996 ], [ 21.862636047000024, -26.662081924999939 ], [ 21.891663248000043, -26.668890880999982 ], [ 21.962218086000064, -26.66180884299996 ], [ 22.015827063000074, -26.644446065999944 ], [ 22.056736115000035, -26.62444600699996 ], [ 22.133891198000072, -26.539864053999963 ], [ 22.158327128000053, -26.492573020999941 ], [ 22.175554119000026, -26.431117911999934 ], [ 22.197082199000079, -26.394172997999931 ], [ 22.249445122000054, -26.341117896999947 ], [ 22.366391279000027, -26.286390942999958 ], [ 22.479163249000067, -26.202781960999971 ], [ 22.624809210000024, -26.111564054999974 ], [ 22.626391211000055, -26.093054968999979 ], [ 22.663609208000025, -26.015208880999978 ], [ 22.707145148000052, -26.003608997999947 ], [ 22.722909161000075, -25.973890959999949 ], [ 22.745000170000026, -25.848335917999975 ], [ 22.743327142000055, -25.798055059999967 ], [ 22.756391177000069, -25.736254951999967 ], [ 22.777218194000056, -25.711873000999958 ], [ 22.812845139000046, -25.678264083999977 ], [ 22.830000212000073, -25.614446116999943 ], [ 22.81221817200003, -25.568408848999979 ], [ 22.830000212000073, -25.530835794999973 ], [ 22.91000011400007, -25.396945954999978 ], [ 22.972500110000055, -25.337226905999955 ], [ 23.014827213000046, -25.29972694199995 ], [ 23.194445028000075, -25.264164035999954 ], [ 23.275273229000049, -25.265835889999948 ], [ 23.454373211000075, -25.277017851999972 ], [ 23.53082706400005, -25.337226905999955 ], [ 23.596109182000077, -25.389445995999949 ], [ 23.650273208000044, -25.423335873999974 ], [ 23.670273268000074, -25.435835806999933 ], [ 23.713745170000038, -25.454445978999956 ], [ 23.736245048000058, -25.463755087999971 ], [ 23.871663244000047, -25.583617979999929 ], [ 23.889300109000033, -25.605135833999952 ], [ 23.901945049000062, -25.624863984999934 ], [ 24.006800143000078, -25.657917851999969 ], [ 24.046391225000036, -25.651526818999969 ], [ 24.115273202000026, -25.634164041999952 ], [ 24.189236122000068, -25.623190956999963 ], [ 24.228327139000044, -25.649654971999951 ], [ 24.243054143000052, -25.676108928999952 ], [ 24.281391124000038, -25.720281893999982 ], [ 24.351663324000071, -25.75555495499998 ], [ 24.398745145000078, -25.760699933999945 ], [ 24.438818186000049, -25.739864031999957 ], [ 24.472218226000052, -25.746672986999954 ], [ 24.501345172000072, -25.761390938999966 ], [ 24.533054080000056, -25.771946101999959 ], [ 24.621945169000071, -25.812363973999936 ], [ 24.648891144000061, -25.822635828999978 ], [ 24.684573241000066, -25.828217840999969 ], [ 24.801663232000067, -25.83222690499997 ], [ 24.900691227000038, -25.808126921999929 ], [ 24.953609200000074, -25.771117969999978 ], [ 25.012354103000064, -25.734173054999928 ], [ 25.033054052000068, -25.728617864999933 ], [ 25.086663196000075, -25.735146025999939 ], [ 25.128336174000026, -25.752782052999976 ], [ 25.152218228000038, -25.762217896999971 ], [ 25.175000241000077, -25.761945987999979 ], [ 25.360836088000042, -25.75458198299998 ], [ 25.414163264000024, -25.733335869999962 ], [ 25.509718134000025, -25.677781956999979 ], [ 25.581700243000057, -25.625026928999944 ], [ 25.589973181000062, -25.614691035999954 ], [ 25.622218195000073, -25.550835853999956 ], [ 25.671391133000043, -25.470281907999947 ], [ 25.684718192000048, -25.435555012999941 ], [ 25.76944515100007, -25.20833586599997 ], [ 25.827773307000029, -25.041946034999967 ], [ 25.872218181000051, -24.905281953999975 ], [ 25.875273217000029, -24.813682000999961 ], [ 25.871391222000057, -24.744445971999937 ], [ 25.918327198000043, -24.738335899999981 ], [ 26.018891261000078, -24.71083588099998 ], [ 26.167827120000027, -24.663963942999942 ], [ 26.265273282000067, -24.637499927999954 ], [ 26.360000188000072, -24.618890928999974 ], [ 26.389963312000077, -24.62742689199996 ], [ 26.401145107000048, -24.631890925999983 ], [ 26.411045140000056, -24.628272960999936 ], [ 26.440282224000043, -24.606390996999949 ], [ 26.461391209000055, -24.584446000999947 ], [ 26.477918143000068, -24.554726956999957 ], [ 26.485000181000032, -24.530555056999958 ], [ 26.493609234000076, -24.511108873999945 ], [ 26.514100137000071, -24.480346115999964 ], [ 26.555000137000036, -24.436945961999982 ], [ 26.726318191000075, -24.310835869999948 ], [ 26.759163350000051, -24.304172927999957 ], [ 26.787773300000026, -24.295281907999936 ], [ 26.830409191000058, -24.275135835999947 ], [ 26.852363240000045, -24.253754941999944 ], [ 26.880554095000036, -24.087782026999946 ], [ 26.91971820200007, -23.927499920999935 ], [ 26.963318181000034, -23.759773008999957 ], [ 26.959191267000051, -23.752073056999961 ], [ 26.978336204000072, -23.691673062999939 ], [ 27.005209256000057, -23.643755062999958 ], [ 27.030554120000033, -23.65381787299998 ], [ 27.069718227000067, -23.636108922999938 ], [ 27.098609139000075, -23.589172947999941 ], [ 27.148054154000079, -23.524726840999961 ], [ 27.339718105000031, -23.399726847999943 ], [ 27.407218242000056, -23.387217862999933 ], [ 27.452773215000036, -23.385281978999956 ], [ 27.502082275000078, -23.383890917999963 ], [ 27.529091282000024, -23.379381956999964 ], [ 27.557218099000067, -23.348335890999977 ], [ 27.565200186000027, -23.310835925999982 ], [ 27.572773235000057, -23.266673019999928 ], [ 27.604027173000077, -23.219164056999944 ], [ 27.70458218400006, -23.200835851999955 ], [ 27.783882196000036, -23.170281970999952 ], [ 27.943882167000027, -23.031390984999973 ], [ 27.972218197000075, -22.952781976999972 ], [ 28.049445197000068, -22.863055043999964 ], [ 28.109718122000061, -22.80611794899994 ], [ 28.156600118000028, -22.77146397599995 ], [ 28.161945090000074, -22.744173001999968 ], [ 28.159718186000077, -22.72360884099993 ], [ 28.167773195000052, -22.703608948999943 ], [ 28.179636103000064, -22.686435937999931 ], [ 28.196663269000055, -22.675281971999937 ], [ 28.298336090000078, -22.60944597799994 ], [ 28.356527117000041, -22.576390936999928 ], [ 28.456109156000025, -22.573890950999953 ], [ 28.638327206000042, -22.561808939999935 ], [ 28.828891284000065, -22.490835844999935 ], [ 28.917845070000055, -22.454955096999981 ], [ 28.93430913900005, -22.439026965999972 ], [ 28.950554106000027, -22.413064020999968 ], [ 28.964718181000023, -22.388754992999964 ], [ 28.968054179000035, -22.36833583899994 ], [ 28.961109101000034, -22.326045951999959 ], [ 29.024800166000034, -22.227108983999983 ], [ 29.045000218000041, -22.224163918999977 ], [ 29.071663219000072, -22.220555005999927 ], [ 29.274163295000051, -22.19417296599994 ], [ 29.373618097000076, -22.192408910999973 ], [ 29.444582307000076, -22.16458199799996 ], [ 29.670000182000024, -22.136390974999927 ], [ 29.726109145000066, -22.139164043999983 ], [ 29.810554138000043, -22.164717951999933 ], [ 29.831527168000036, -22.175973003999957 ], [ 29.90270914000007, -22.194582002999937 ], [ 29.939027088000046, -22.191255057999967 ], [ 30.031109168000057, -22.237781996999956 ], [ 30.300973259000045, -22.344446072999972 ], [ 30.367500257000074, -22.343608888999938 ], [ 30.416663304000053, -22.335699892999969 ], [ 30.460282226000061, -22.323064005999981 ], [ 30.486245171000064, -22.311808953999957 ], [ 30.512082220000025, -22.312499957999933 ], [ 30.55944517000006, -22.321946027999957 ], [ 30.636800246000064, -22.329726948999962 ], [ 30.703609211000071, -22.309999971999957 ], [ 30.781109126000047, -22.293335909999939 ], [ 30.838891284000056, -22.287781892999931 ], [ 30.904300137000064, -22.289308907999953 ], [ 30.928891132000047, -22.293890959999942 ], [ 30.972636117000036, -22.310835814999962 ], [ 31.064718197000047, -22.333617827999944 ], [ 31.089445147000049, -22.337499989999969 ], [ 31.096945106000078, -22.334726920999969 ], [ 31.122354175000055, -22.325282024999979 ], [ 31.157500166000034, -22.323473042999979 ], [ 31.265627220000056, -22.370417902999975 ], [ 31.290273200000058, -22.40333581699997 ], [ 31.297500245000037, -22.414764038999976 ], [ 31.302918139000042, -22.424826848999942 ], [ 31.516109165000046, -23.050835826999958 ], [ 31.561663300000077, -23.186672949999945 ], [ 31.555691194000076, -23.228226905999975 ], [ 31.545827203000044, -23.306391002999931 ], [ 31.537500117000036, -23.417226920999951 ], [ 31.550827176000041, -23.476673054999935 ], [ 31.621527188000073, -23.540835852999976 ], [ 31.651109104000057, -23.573890893999931 ], [ 31.683609263000051, -23.61360887799998 ], [ 31.686109249000026, -23.639163959999962 ], [ 31.688609236000048, -23.680281888999957 ], [ 31.720000134000031, -23.748608983999929 ], [ 31.76971823100007, -23.856390871999963 ], [ 31.84471816000007, -23.907217893999928 ], [ 31.877400206000061, -23.950646043999939 ], [ 31.877218151000079, -23.964172926999936 ], [ 31.884163228000034, -24.143617906999964 ], [ 31.885827204000066, -24.171117925999965 ], [ 31.941800212000032, -24.267654986999958 ], [ 31.96389122100004, -24.306945995999968 ], [ 32.007500252000057, -24.432226950999961 ], [ 32.016109137000058, -24.459446007999929 ], [ 31.995554028000072, -24.704446020999967 ], [ 32.002491226000075, -24.800835895999967 ], [ 32.011382246000039, -24.924999877999937 ], [ 32.018609123000033, -25.034999951999964 ], [ 32.016663348000066, -25.110555097999963 ], [ 32.009991186000036, -25.346108873999981 ], [ 31.991109105000078, -25.421108969999977 ], [ 31.988191197000049, -25.511117869999964 ], [ 32.005000265000035, -25.536946033999982 ], [ 32.006100139000068, -25.615835836999963 ], [ 31.982363259000067, -25.671390923999979 ], [ 31.919445174000032, -25.814164071999983 ], [ 31.968509147000077, -25.957835926999962 ], [ 31.878054162000069, -25.995554994999964 ], [ 31.813609229000065, -25.958890873999962 ], [ 31.769954098000028, -25.933035887999949 ], [ 31.733891294000045, -25.911390963999963 ], [ 31.590827127000068, -25.827500014999941 ], [ 31.421663221000074, -25.728335896999965 ], [ 31.325691268000071, -25.753335929999935 ], [ 31.126800272000025, -25.921117826999932 ], [ 31.109291146000032, -25.987882032999948 ], [ 31.095554045000029, -26.020835820999935 ], [ 31.076945047000038, -26.063054963999946 ], [ 31.063891238000053, -26.091390993999937 ], [ 31.051109171000064, -26.112781945999927 ], [ 31.005554030000042, -26.184172961999934 ], [ 30.969445126000039, -26.238335814999971 ], [ 30.902045069000053, -26.305255085999931 ], [ 30.829445047000036, -26.390835826999933 ], [ 30.808609145000048, -26.447226923999949 ], [ 30.802218111000059, -26.46839089499997 ], [ 30.79833611600003, -26.542781961999935 ], [ 30.800282227000025, -26.611946073999945 ], [ 30.802500246000079, -26.681117897999968 ], [ 30.803609172000051, -26.702499965999948 ], [ 30.808845179000059, -26.743590904999962 ], [ 30.820763240000076, -26.810208929999931 ], [ 30.880273243000033, -26.793264074999968 ], [ 30.899445171000025, -26.771946044999936 ], [ 30.910554042000058, -26.804446036999934 ], [ 30.968327148000071, -26.960835921999944 ], [ 31.056945155000051, -27.076946067999984 ], [ 31.161663289000046, -27.203054986999973 ], [ 31.218891236000047, -27.220835853999972 ], [ 31.278291270000068, -27.239217869999948 ], [ 31.413609218000033, -27.281108945999961 ], [ 31.517500226000038, -27.313055060999943 ], [ 31.680554059000031, -27.314999997999962 ], [ 31.762218104000056, -27.315555047999965 ], [ 31.925282163000077, -27.316390890999969 ], [ 31.985554082000078, -27.316390890999969 ], [ 31.984954106000032, -27.289454974999956 ], [ 31.968327092000038, -27.264163922999956 ], [ 31.964718180000034, -27.209446020999962 ], [ 31.960545165000042, -27.142926901999942 ], [ 31.95860911300008, -27.112781889999951 ], [ 31.967782268000065, -27.053054961999976 ], [ 32.015591135000079, -26.807081977999928 ], [ 32.089854127000024, -26.810690889999933 ], [ 32.133400126000026, -26.83962689599997 ], [ 32.154163274000041, -26.846945973999937 ], [ 32.175000182000076, -26.851673031999951 ], [ 32.348327211000026, -26.860281916999952 ], [ 32.395000163000077, -26.859726867999939 ], [ 32.688891147000049, -26.85361796899997 ], [ 32.767773238000075, -26.851673031999951 ], [ 32.890427136000028, -26.847145965999971 ], [ 32.876109169000074, -26.922781913999984 ], [ 32.871936155000071, -26.971390916999951 ], [ 32.868327075000025, -27.007499988999939 ], [ 32.863609237000048, -27.033055069999932 ], [ 32.841663235000055, -27.109999935999952 ], [ 32.834718157000054, -27.130555044999937 ], [ 32.747500264000053, -27.353335805999961 ], [ 32.729718224000067, -27.397782020999955 ], [ 32.709445082000059, -27.440555040999982 ], [ 32.681663264000065, -27.496673055999963 ], [ 32.673882176000063, -27.51583593099997 ], [ 32.650136076000024, -27.604863979999948 ], [ 32.631382238000072, -27.68471786899994 ], [ 32.626663227000051, -27.706946005999953 ], [ 32.588118207000036, -27.891181914999947 ], [ 32.59534508400003, -27.929655017999949 ], [ 32.564718112000037, -28.114726937999933 ], [ 32.55694507100003, -28.154173011999944 ], [ 32.545273270000052, -28.184173016999978 ], [ 32.530418191000024, -28.204999867999959 ], [ 32.508891284000072, -28.233608979999929 ], [ 32.494718157000079, -28.255281898999954 ], [ 32.476663202000054, -28.28666408 ], [ 32.459163297000032, -28.317217960999983 ], [ 32.432218160000048, -28.378054987999974 ], [ 32.425418090000051, -28.425417937999953 ], [ 32.408327221000036, -28.499999944999956 ], [ 32.394436061000079, -28.531391009999936 ], [ 32.375545095000064, -28.552499995999938 ], [ 32.276663280000037, -28.646117974999981 ], [ 32.189991216000067, -28.721946035999963 ], [ 32.018609123000033, -28.862499990999936 ], [ 31.99416330300005, -28.879446019999932 ], [ 31.923336053000071, -28.912499887999957 ], [ 31.896663328000045, -28.924163976999978 ], [ 31.862782167000034, -28.936946043999967 ], [ 31.827636176000055, -28.940699962999929 ], [ 31.774163322000049, -28.945555096999954 ], [ 31.723327079000057, -28.998335940999937 ], [ 31.668609177000064, -29.054172994999931 ], [ 31.557218209000041, -29.166945970999961 ], [ 31.451945193000029, -29.268891035999957 ], [ 31.428054087000078, -29.291390913999976 ], [ 31.399436090000052, -29.31472697099997 ], [ 31.360554117000049, -29.352500016999954 ], [ 31.325836107000043, -29.390835824999954 ], [ 31.209718249000048, -29.535282000999928 ], [ 31.142500247000044, -29.639726884999959 ], [ 31.117773297000042, -29.679446041999938 ], [ 31.009718160000034, -29.872499880999953 ], [ 31.000136136000037, -29.899308894999933 ], [ 31.05179129000004, -29.892546040999946 ], [ 31.035136114000068, -29.924999931999935 ], [ 30.972500163000063, -29.980835811999953 ], [ 30.946663281000042, -29.999726945999953 ], [ 30.918327084000055, -30.020417840999983 ], [ 30.870000215000061, -30.076946066999938 ], [ 30.852500143000043, -30.102499974999944 ], [ 30.840418132000025, -30.12902685499995 ], [ 30.832582226000056, -30.154135851999968 ], [ 30.819718184000067, -30.181664032999947 ], [ 30.752500182000063, -30.29944603399997 ], [ 30.739436147000049, -30.321946079999975 ], [ 30.726945100000023, -30.341945971999962 ], [ 30.710000244000071, -30.364726978999954 ], [ 30.633327120000047, -30.475281934999941 ], [ 30.476391238000076, -30.713608946999955 ], [ 30.415836178000063, -30.817781921999938 ], [ 30.405000221000023, -30.835281994999946 ], [ 30.390000135000037, -30.856672946999936 ], [ 30.21666321500004, -31.057364040999971 ], [ 30.192618217000074, -31.072917835999931 ], [ 30.185691245000044, -31.085691017999977 ], [ 30.162218228000029, -31.119999991999975 ], [ 30.023891176000063, -31.281108887999949 ], [ 30.000827196000046, -31.302781974999959 ], [ 29.894718169000043, -31.390691040999968 ], [ 29.850827171000049, -31.422364073999972 ], [ 29.831663290000051, -31.430146 ], [ 29.799163299000043, -31.431808969999963 ], [ 29.77332708800003, -31.440417854999964 ], [ 29.745827070000075, -31.461673019999978 ], [ 29.711391194000043, -31.493891044999941 ], [ 29.689863281000044, -31.523199877999957 ], [ 29.62944518200004, -31.581390905999967 ], [ 29.545827148000058, -31.634164038999984 ], [ 29.526945067000042, -31.645835838999972 ], [ 29.411945187000072, -31.704173046999983 ], [ 29.320554112000025, -31.802499979999936 ], [ 29.296945140000048, -31.829999998999938 ], [ 29.267773267000052, -31.865281943999946 ], [ 29.243609246000062, -31.899726871999974 ], [ 29.200836059000039, -31.951945960999979 ], [ 29.091663278000055, -32.06444602199997 ], [ 28.93416329400003, -32.21945507199996 ], [ 28.826382245000048, -32.313054946999955 ], [ 28.779163296000036, -32.34194602599996 ], [ 28.653609259000064, -32.448335846999953 ], [ 28.565282272000047, -32.530282026999942 ], [ 28.555136146000052, -32.54875507099996 ], [ 28.542363299000044, -32.567917945999966 ], [ 28.355000270000062, -32.703200018999951 ], [ 28.262773183000036, -32.755000013999961 ], [ 28.228054167000039, -32.76749994599993 ], [ 28.105554160000054, -32.86430891599997 ], [ 28.091663335000078, -32.886673006999956 ], [ 28.078054142000042, -32.902226969999958 ], [ 27.900000222000074, -33.040555026999982 ], [ 27.838891286000035, -33.071946092999951 ], [ 27.797218140000041, -33.090835884999933 ], [ 27.730273220000072, -33.117499892999945 ], [ 27.606109238000045, -33.211946003999969 ], [ 27.451382155000033, -33.310281989999964 ], [ 27.351109111000028, -33.369726949999972 ], [ 27.206391194000048, -33.458890953999969 ], [ 27.100973171000078, -33.525699918999976 ], [ 27.030554120000033, -33.55639998099997 ], [ 26.988473278000072, -33.57291786199994 ], [ 26.889163315000076, -33.603891005999969 ], [ 26.73166333100005, -33.654446119999932 ], [ 26.644163302000038, -33.700835930999972 ], [ 26.62860917200004, -33.717090955999936 ], [ 26.530554148000078, -33.753335813999968 ], [ 26.460136103000025, -33.772290984999984 ], [ 26.27791822100005, -33.765146082999934 ], [ 26.25640020000003, -33.755417878999936 ], [ 26.223327221000034, -33.742781991999948 ], [ 26.105554105000067, -33.71972689699993 ], [ 26.079163348000066, -33.714726923999933 ], [ 26.058054027000026, -33.712226937999958 ], [ 26.003054158000054, -33.710835876999965 ], [ 25.96360925700003, -33.711254971999949 ], [ 25.890000221000037, -33.71889088599994 ], [ 25.868609101000061, -33.72194609 ], [ 25.830273293000062, -33.731390985999951 ], [ 25.763191246000076, -33.751108909999971 ], [ 25.725000110000053, -33.767226974999971 ], [ 25.675282180000067, -33.794446031999939 ], [ 25.628609229000062, -33.851391005999972 ], [ 25.613054093000073, -33.914455103999956 ], [ 25.615618117000054, -33.937017846999936 ], [ 25.650000181000053, -33.973200007999935 ], [ 25.672709104000035, -33.983408998999948 ], [ 25.701663215000053, -34.022508900999981 ], [ 25.701945182000031, -34.031954969999958 ], [ 25.62721816800007, -34.048335890999965 ], [ 25.584445148000043, -34.048890940999968 ], [ 25.436800270000049, -34.034863993999977 ], [ 25.392500236000046, -34.027499988999978 ], [ 25.352636072000053, -34.016526903999932 ], [ 25.312082245000056, -33.995699885999954 ], [ 25.28694508500007, -33.986117861999958 ], [ 25.243327169000054, -33.974726855999961 ], [ 25.191391220000071, -33.963617983999939 ], [ 25.164163278000046, -33.958890925999981 ], [ 25.067636108000045, -33.96196406699994 ], [ 25.022636184000078, -33.968055027999981 ], [ 24.986663235000037, -33.976672965999967 ], [ 24.942218193000031, -33.99028199199995 ], [ 24.918327087000023, -34.00792690399993 ], [ 24.918891189000078, -34.034863993999977 ], [ 24.919300226000075, -34.066882025999973 ], [ 24.824718160000032, -34.201664034999965 ], [ 24.782773272000043, -34.191672973999971 ], [ 24.655000210000026, -34.169726971999978 ], [ 24.626182221000079, -34.17201791399998 ], [ 24.590418149000072, -34.179864045999977 ], [ 24.515827089000027, -34.170282021999981 ], [ 24.475000180000052, -34.159863986999937 ], [ 24.445827134000069, -34.139726966999945 ], [ 24.385554041000034, -34.107226975999936 ], [ 24.043891238000072, -34.046955056999934 ], [ 23.694445168000072, -33.98944598099996 ], [ 23.649300237000034, -33.983890957999961 ], [ 23.64006321200003, -33.984981946999937 ], [ 23.615554024000062, -33.984455059999959 ], [ 23.585282278000022, -33.986390944999982 ], [ 23.545827151000026, -33.990563958999928 ], [ 23.451945141000067, -34.008054978999951 ], [ 23.389300138000067, -34.029099925999958 ], [ 23.369027164000045, -34.05028200199996 ], [ 23.366182178000031, -34.090899865999972 ], [ 23.240836180000031, -34.093608896999967 ], [ 23.067218131000061, -34.083890918999941 ], [ 22.959445129000073, -34.091391045999956 ], [ 22.812463259000026, -34.046599998999966 ], [ 22.783336146000067, -34.011117893999938 ], [ 22.539163259000077, -34.011181931999943 ], [ 22.515000243000031, -34.03250901399997 ], [ 22.479445048000059, -34.053617998999982 ], [ 22.438891221000063, -34.064172994999979 ], [ 22.402636137000059, -34.067917860999955 ], [ 22.364163202000043, -34.061954974999935 ], [ 22.297218114000032, -34.054445963999967 ], [ 22.201109200000076, -34.077226970999959 ], [ 22.162500143000045, -34.089454993999937 ], [ 22.133473277000064, -34.107226975999936 ], [ 22.116945169000076, -34.135564010999929 ], [ 21.943882170000052, -34.230282031999934 ], [ 21.916663280000023, -34.258890975999975 ], [ 21.913745037000069, -34.27999996099993 ], [ 21.916945080000062, -34.307499979999932 ], [ 21.899582303000045, -34.337781951999943 ], [ 21.831663238000033, -34.373335805999943 ], [ 21.802500250000037, -34.383054957999946 ], [ 21.725554043000045, -34.396946118999949 ], [ 21.648609178000072, -34.389445991999935 ], [ 21.608327092000025, -34.377917856999943 ], [ 21.580273198000043, -34.36361799499997 ], [ 21.556945187000053, -34.355417978999981 ], [ 21.532082283000022, -34.352226820999931 ], [ 21.496945177000043, -34.360281997999948 ], [ 21.42551811900006, -34.386355080999977 ], [ 21.371945184000026, -34.416946009999947 ], [ 21.301382300000057, -34.432781939999984 ], [ 21.280691237000042, -34.431808968999974 ], [ 21.210282244000041, -34.414999899999941 ], [ 21.187218096000038, -34.40639101499994 ], [ 21.166109111000026, -34.396390900999961 ], [ 21.136663318000046, -34.386390955999957 ], [ 21.082500130000028, -34.368335832999946 ], [ 21.062773153000023, -34.363890909999952 ], [ 20.965554140000052, -34.360835873999974 ], [ 20.942500218000077, -34.360281997999948 ], [ 20.886945131000061, -34.371673003999945 ], [ 20.849445167000056, -34.40110890699998 ], [ 20.798609092000049, -34.458617982999954 ], [ 20.722218102000056, -34.445282039999938 ], [ 20.686109199000043, -34.440564033999976 ], [ 20.662463347000028, -34.44081783799993 ], [ 20.595836101000032, -34.446108997999943 ], [ 20.544027222000068, -34.453608957999961 ], [ 20.504445025000052, -34.464726881999979 ], [ 20.481109136000043, -34.47249992299993 ], [ 20.462773220000031, -34.480835893999938 ], [ 20.433745181000063, -34.50471794799995 ], [ 20.413191245000064, -34.532781900999964 ], [ 20.393891243000041, -34.554446102999975 ], [ 20.230273307000061, -34.660835923999969 ], [ 20.185836144000064, -34.676673026999936 ], [ 20.119445101000053, -34.710008861999938 ], [ 20.089718178000055, -34.726390955999932 ], [ 20.047500208000031, -34.774173000999951 ], [ 20.000000130000046, -34.821999973999937 ], [ 19.991663322000022, -34.820835894999959 ], [ 19.959582258000069, -34.812499923999951 ], [ 19.930000175000032, -34.795835862999979 ], [ 19.913609195000049, -34.782081997999967 ], [ 19.880000110000026, -34.761945983999965 ], [ 19.857773315000031, -34.752499913999941 ], [ 19.713609106000035, -34.754446024999936 ], [ 19.678054078000059, -34.761626968999963 ], [ 19.646454136000045, -34.773126939999941 ], [ 19.602218139000058, -34.748064043999932 ], [ 19.541945046000023, -34.708617968999931 ], [ 19.516391138000074, -34.675563933999968 ], [ 19.423609169000031, -34.621946071999957 ], [ 19.320409165000058, -34.59528189699995 ], [ 19.364027081000074, -34.530700003999982 ], [ 19.353609213000027, -34.493335825999964 ], [ 19.336663352000073, -34.46361795599995 ], [ 19.324163252000062, -34.44694601499998 ], [ 19.307636151000054, -34.428055048999965 ], [ 19.278191195000034, -34.40917296799995 ], [ 19.247636141000044, -34.411672954999972 ], [ 19.213682224000024, -34.426463996999985 ], [ 19.120345038000039, -34.408472911999979 ], [ 19.100273230000028, -34.374172989999977 ], [ 19.083336086000031, -34.34639100499993 ], [ 18.999445137000066, -34.341117948999965 ], [ 18.913609252000072, -34.356946 ], [ 18.851391222000075, -34.378064037999934 ], [ 18.819718189000071, -34.378890995999939 ], [ 18.804582149000055, -34.358335886999953 ], [ 18.808609150000052, -34.308617957999957 ], [ 18.828054160000022, -34.279446084999961 ], [ 18.84291812400005, -34.256808910999951 ], [ 18.854582213000072, -34.153335824999942 ], [ 18.823473282000066, -34.107155058999979 ], [ 18.799027126000055, -34.088890891999938 ], [ 18.752636142000028, -34.077917974999934 ], [ 18.705827068000076, -34.07444602299995 ], [ 18.601945113000056, -34.073617890999969 ], [ 18.546663276000061, -34.079172912999979 ], [ 18.51277323000005, -34.087554983999951 ], [ 18.485973268000066, -34.09944605499993 ], [ 18.442218224000044, -34.141254987999957 ], [ 18.441800135000051, -34.175072949999958 ], [ 18.47888217700006, -34.234455045999937 ], [ 18.485027118000062, -34.348308951999968 ], [ 18.457636064000042, -34.344726861999959 ], [ 18.420273228000042, -34.323064 ], [ 18.404718092000053, -34.30278197399997 ], [ 18.380273277000072, -34.2558359399999 ], [ 18.310554115000059, -34.035554997999952 ], [ 18.38479112300007, -33.91070001199995 ], [ 18.415136127000039, -33.902781962999939 ], [ 18.44555405400007, -33.911663930999964 ], [ 18.466663207000067, -33.817217985999946 ], [ 18.439027066000051, -33.701955082999973 ], [ 18.308891146000065, -33.484999911999978 ], [ 18.294718185000022, -33.466117998999948 ], [ 18.263882169000055, -33.430555091999963 ], [ 18.248891136000054, -33.415835966999964 ], [ 18.160554090000062, -33.341117837999946 ], [ 18.107773246000022, -33.250555061999933 ], [ 18.11721814200007, -33.203890994999938 ], [ 18.127636177000056, -33.180282023999951 ], [ 18.028000158000054, -33.026000019999969 ], [ 17.995200262000026, -33.002846017999957 ], [ 17.952709210000023, -33.010590896999929 ], [ 17.913191219000055, -33.043646104999937 ], [ 17.876109176000057, -33.000835869999946 ], [ 17.847500232000073, -32.830835952999962 ], [ 17.86750012300007, -32.81195504599998 ], [ 17.902773183000022, -32.774172946999954 ], [ 17.986391217000062, -32.732781934999934 ], [ 18.037773290000075, -32.768054994999943 ], [ 18.059300197000027, -32.778617869999948 ], [ 18.113563297000042, -32.78087293699997 ], [ 18.261245055000074, -32.670700027999942 ], [ 18.289718213000072, -32.629308848999983 ], [ 18.30860917800004, -32.585699985999952 ], [ 18.323891232000051, -32.539173046999963 ], [ 18.333745165000039, -32.487781921999954 ], [ 18.349863230000039, -32.288408966999953 ], [ 18.343327189000036, -32.247217946999967 ], [ 18.336527119000039, -32.219308891999958 ], [ 18.319445135000024, -32.179999944999963 ], [ 18.311945176000052, -32.14722687099993 ], [ 18.271663258000046, -31.950555067999971 ], [ 18.274436159000061, -31.927499972999954 ], [ 18.279091133000065, -31.902990952999971 ], [ 18.217918159000078, -31.734581920999972 ], [ 18.17805416300007, -31.67055507699996 ], [ 18.11443618800007, -31.594446054999935 ], [ 18.077218191000043, -31.551673035999954 ], [ 18.044854154000063, -31.51722693399995 ], [ 17.933054150000032, -31.387782017999939 ], [ 17.909445178000055, -31.359726948999935 ], [ 17.887773265000078, -31.3308358699999 ], [ 17.804300238000053, -31.218608891999963 ], [ 17.787500222000062, -31.192781900999933 ], [ 17.766709246000062, -31.155700025999977 ], [ 17.725827184000025, -31.090555035999955 ], [ 17.615273233000039, -30.933608927999956 ], [ 17.482218231000047, -30.695835959999954 ], [ 17.448327179000046, -30.617226950999964 ], [ 17.439163244000042, -30.595281954999962 ], [ 17.42000020200004, -30.558055072999935 ], [ 17.353191237000033, -30.455554957999937 ], [ 17.33298213300003, -30.43339991199997 ], [ 17.277918226000054, -30.342290970999954 ], [ 17.22944517600007, -30.202499935999981 ], [ 17.181109088000028, -30.070555032999948 ], [ 17.118473304000076, -29.922781911999948 ], [ 17.106945170000074, -29.898609005999958 ], [ 17.086109100000044, -29.840282023999976 ], [ 17.058891216000063, -29.71778201799998 ], [ 17.054300112000078, -29.682363950999957 ], [ 17.001391192000028, -29.519726864999939 ], [ 16.93471818200004, -29.362917884999945 ], [ 16.910827075000043, -29.333335801999965 ], [ 16.834445138000035, -29.156672941999943 ], [ 16.818327074000024, -29.094372937999935 ], [ 16.667218123000055, -28.902226859999928 ], [ 16.64500021200007, -28.883890943999972 ], [ 16.614718072000073, -28.876464074999944 ], [ 16.533054028000038, -28.698063981999951 ], [ 16.491663351000057, -28.645835839999961 ], [ 16.483327213000052, -28.608335875999956 ], [ 16.489591177000023, -28.578181978999964 ], [ 16.62500015300003, -28.496108897999932 ], [ 16.677118156000063, -28.464308962999951 ], [ 16.700618163000058, -28.490346003999946 ], [ 16.719509129000073, -28.499026972999957 ], [ 16.776663315000064, -28.441672962999974 ], [ 16.801600148000034, -28.362781986999948 ], [ 16.822500256000069, -28.237781993999931 ], [ 16.886945021000031, -28.092364019999934 ], [ 16.911873304000039, -28.067499941999984 ], [ 17.075763317000053, -28.030345982999961 ], [ 17.107909089000032, -28.045835907999958 ], [ 17.120418074000042, -28.065417877999948 ], [ 17.134300182000061, -28.087081911999974 ], [ 17.154136123000058, -28.09749994699996 ], [ 17.171654133000061, -28.102264053999932 ] ], [ [ 29.295273286000054, -29.581946067999979 ], [ 29.293900162000057, -29.505217957999946 ], [ 29.310136077000038, -29.475555073999942 ], [ 29.347218119000047, -29.45555501399997 ], [ 29.374063344000035, -29.444117906999963 ], [ 29.399718170000028, -29.438335902999938 ], [ 29.421873216000051, -29.427990957999953 ], [ 29.455554050000046, -29.349099981999927 ], [ 29.430827101000034, -29.278617898999983 ], [ 29.326945145000025, -29.087499944999934 ], [ 29.28582721600003, -29.071945982999978 ], [ 29.200554092000061, -29.033609001999935 ], [ 28.998336151000046, -28.909446024999966 ], [ 28.950973201000068, -28.876872943999956 ], [ 28.933327115000054, -28.841946055999983 ], [ 28.903054028000042, -28.795281988999932 ], [ 28.871109254000032, -28.764445972999965 ], [ 28.865727066000034, -28.761617918999946 ], [ 28.806936062000034, -28.757499889999963 ], [ 28.792500245000042, -28.706946116999973 ], [ 28.68639121800004, -28.596108858999969 ], [ 28.647773275000077, -28.570690904999935 ], [ 28.611109154000076, -28.587226890999943 ], [ 28.57798219700004, -28.606808860999934 ], [ 28.513882262000038, -28.611390911999933 ], [ 28.488200111000026, -28.610035893999964 ], [ 28.459718236000072, -28.613608930999931 ], [ 28.399718226000061, -28.627781890999984 ], [ 28.368327161000025, -28.664381974999969 ], [ 28.356182286000035, -28.692782041999976 ], [ 28.28736334000007, -28.710281946999942 ], [ 28.200827230000073, -28.711946089999969 ], [ 28.182845198000052, -28.698263973999929 ], [ 28.118609142000025, -28.740281951999975 ], [ 28.066945102000034, -28.809999940999944 ], [ 28.016663238000035, -28.862226908999958 ], [ 27.892218127000035, -28.902499941999963 ], [ 27.797500274000072, -28.918055077999952 ], [ 27.636800247000053, -29.040417956999931 ], [ 27.633473302000027, -29.075972983999975 ], [ 27.643054153000037, -29.091108856999938 ], [ 27.629163327000072, -29.106673045999969 ], [ 27.540836173000059, -29.206391039999971 ], [ 27.492009239000026, -29.27675510499995 ], [ 27.451382155000033, -29.299999966999962 ], [ 27.359163282000054, -29.449446115999933 ], [ 27.31250022100005, -29.499446011999964 ], [ 27.300554165000051, -29.52583593199995 ], [ 27.292773244000045, -29.532782014999952 ], [ 27.251945162000027, -29.546108905999972 ], [ 27.215000247000035, -29.554446048999978 ], [ 27.157227141000078, -29.56680885399993 ], [ 27.013973207000049, -29.627135925999937 ], [ 27.035409254000058, -29.676046006999968 ], [ 27.065973193000048, -29.692217883999945 ], [ 27.100273282000046, -29.735555004999981 ], [ 27.160000210000078, -29.85610890199996 ], [ 27.191436202000034, -29.923708950999981 ], [ 27.204445084000042, -29.951663938999957 ], [ 27.225136147000057, -29.99444601099998 ], [ 27.296945085000061, -30.046672979999983 ], [ 27.362500118000071, -30.226108907999958 ], [ 27.378918087000045, -30.317326980999951 ], [ 27.416945105000025, -30.318335826999942 ], [ 27.464718098000048, -30.321391029999972 ], [ 27.564618146000043, -30.404908983999974 ], [ 27.573473292000074, -30.428054938999935 ], [ 27.612363311000024, -30.48458199199996 ], [ 27.73735408400006, -30.596599924999964 ], [ 27.933327172000077, -30.637635878999959 ], [ 27.972773246000031, -30.644172925999953 ], [ 28.021663211000032, -30.649173065999946 ], [ 28.079936214000043, -30.650526910999929 ], [ 28.148054097000056, -30.55194600699997 ], [ 28.160000153000055, -30.498335856999972 ], [ 28.257500128000061, -30.326664085999937 ], [ 28.310273261000077, -30.246945983999979 ], [ 28.350136084000042, -30.207917830999975 ], [ 28.377782283000045, -30.160281965999957 ], [ 28.404645109000057, -30.143817895999973 ], [ 28.521382222000057, -30.128890899999931 ], [ 28.618891249000058, -30.129864038999983 ], [ 28.67444516200004, -30.135281933999977 ], [ 28.790554135000036, -30.101390881999976 ], [ 28.885273161000043, -30.065000010999938 ], [ 28.906391199000041, -30.05528203199998 ], [ 29.022500172000036, -29.989846022999984 ], [ 29.043891292000069, -29.979999968999948 ], [ 29.101391148000062, -29.953335960999937 ], [ 29.166527085000041, -29.915417906999949 ], [ 29.15416327500003, -29.849373036999964 ], [ 29.129445042000043, -29.834935878999943 ], [ 29.124163270000054, -29.809164040999974 ], [ 29.136663202000079, -29.779446002999975 ], [ 29.132909115000075, -29.755135801999984 ], [ 29.145554055000048, -29.716946006999933 ], [ 29.17291811900003, -29.663890905999949 ], [ 29.216945071000055, -29.639726884999959 ], [ 29.240827125000067, -29.632364053999936 ], [ 29.271109097000078, -29.630555071999936 ], [ 29.293263305000039, -29.618264015999955 ], [ 29.295273286000054, -29.581946067999979 ] ] ], [ [ [ 37.820000260000029, -46.969726987999934 ], [ 37.790273169000045, -46.958481994999943 ], [ 37.768054085000074, -46.958064072999946 ], [ 37.714436224000053, -46.959726874999944 ], [ 37.69805412900007, -46.96167298499995 ], [ 37.642773298000066, -46.960009009999965 ], [ 37.62499125800008, -46.957499970999947 ], [ 37.609163208000041, -46.953891058999943 ], [ 37.596663275000026, -46.948335868999948 ], [ 37.585827151000046, -46.938890971999967 ], [ 37.576936131000025, -46.924999979999939 ], [ 37.575973218000058, -46.912917968999977 ], [ 37.579718252000077, -46.902363978999972 ], [ 37.651527190000024, -46.832781944999965 ], [ 37.670554111000058, -46.825555067999971 ], [ 37.700273322000044, -46.823618010999951 ], [ 37.710273268000037, -46.824173059999964 ], [ 37.777500155000041, -46.831526838999935 ], [ 37.811100187000079, -46.840564038999958 ], [ 37.830273288000058, -46.849164039999948 ], [ 37.849445047000074, -46.860144835999961 ], [ 37.89221823500003, -46.899999946999969 ], [ 37.84860920400007, -46.95889103199994 ], [ 37.832354179000049, -46.968335927999931 ], [ 37.820000260000029, -46.969726987999934 ] ] ] ] }
        }
    ]
}