{
    "type": "FeatureCollection",
    "features": [
        {
            "type": "Feature",
            "properties": {
                "WCID": "SAU",
                "COUNTRY": "Saudi Arabia"
            },
            "geometry": { "type": "MultiPolygon", "coordinates": [ [ [ [ 55.000000170000078, 20.000000172000057 ], [ 51.99929123000004, 18.999345099000038 ], [ 51.221991246000073, 18.865000122000026 ], [ 50.783336077000058, 18.788891100000058 ], [ 49.11666335700005, 18.616664112000024 ], [ 48.183336089000079, 18.166664204000028 ], [ 47.836082221000026, 17.740044945000022 ], [ 47.600000218000048, 17.450000081000042 ], [ 47.466663249000078, 17.116664196000045 ], [ 47.429645076000043, 17.094891197000038 ], [ 47.183336145000055, 16.95000010900003 ], [ 47.000000285000056, 16.95000010900003 ], [ 46.750000132000025, 17.283335994000026 ], [ 46.366663344000074, 17.233336098000052 ], [ 46.100000135000073, 17.25000016000007 ], [ 45.400000241000043, 17.333336059000032 ], [ 45.216663376000042, 17.43333602000007 ], [ 44.650000284000043, 17.43333602000007 ], [ 44.566663379000033, 17.405554034000033 ], [ 44.466663250000067, 17.43333602000007 ], [ 44.366109246000065, 17.43333602000007 ], [ 44.185273205000044, 17.409164119000025 ], [ 44.089718167000058, 17.346664123000039 ], [ 43.939163260000043, 17.306453954000062 ], [ 43.76096332700007, 17.351945057000023 ], [ 43.738609127000075, 17.365554083000063 ], [ 43.671527079000043, 17.41971810900003 ], [ 43.653882167000063, 17.443609048000042 ], [ 43.638700193000034, 17.469591104000074 ], [ 43.620827126000052, 17.481244967000066 ], [ 43.513609173000077, 17.521944974000064 ], [ 43.445136065000042, 17.526453935000063 ], [ 43.40721817900004, 17.513882086000024 ], [ 43.37360926100007, 17.495135959000038 ], [ 43.345836160000033, 17.476664089000053 ], [ 43.313882166000042, 17.459718060000057 ], [ 43.25880920600008, 17.414645046000032 ], [ 43.191936203000068, 17.342218026000069 ], [ 43.151663338000048, 17.122218045000068 ], [ 43.123536185000034, 16.925136032000069 ], [ 43.160973285000068, 16.835553938000032 ], [ 43.197773193000046, 16.715827001000036 ], [ 43.206109164000054, 16.672218138000062 ], [ 43.134718147000058, 16.680000064000069 ], [ 43.102427200000079, 16.677773160000072 ], [ 43.079436143000066, 16.601109088000044 ], [ 43.070136086000048, 16.560409081000046 ], [ 43.059854173000076, 16.542364185000054 ], [ 42.918609213000025, 16.423053995000032 ], [ 42.82353613500004, 16.381182198000033 ], [ 42.789682299000049, 16.377500028000043 ], [ 42.78933612600008, 16.460827042000062 ], [ 42.734509259000049, 16.525000066000075 ], [ 42.720691189000036, 16.567500171000063 ], [ 42.725963238000077, 16.599864208000042 ], [ 42.731945067000026, 16.622500041000023 ], [ 42.737709134000056, 16.663264086000027 ], [ 42.672218140000041, 16.781944962000068 ], [ 42.643745150000029, 16.811800128000073 ], [ 42.625273279000055, 16.825273199000037 ], [ 42.583045083000059, 16.835064100000068 ], [ 42.540345154000079, 16.874509001000035 ], [ 42.547773196000037, 16.938609103000033 ], [ 42.547909151000056, 16.998264114000051 ], [ 42.518054153000037, 17.029444961000024 ], [ 42.408336213000041, 17.121391087000063 ], [ 42.365273180000031, 17.110553956000047 ], [ 42.370554114000072, 17.040000124000073 ], [ 42.353336176000028, 17.080827034000038 ], [ 42.336391153000079, 17.184164166000073 ], [ 42.32582710500003, 17.253327105000039 ], [ 42.324718179000058, 17.322218135000071 ], [ 42.321109267000054, 17.398054074000072 ], [ 42.307082320000063, 17.447636049000039 ], [ 42.194445131000066, 17.542218116000072 ], [ 42.093891294000059, 17.649718036000024 ], [ 41.876518202000057, 17.812500128000067 ], [ 41.846109160000026, 17.807918077000068 ], [ 41.791109123000069, 17.831944970000052 ], [ 41.743891180000048, 17.880273180000074 ], [ 41.72666335100007, 17.898327129000052 ], [ 41.678891197000041, 17.949445003000051 ], [ 41.59666321800006, 18.089509121000049 ], [ 41.597145177000073, 18.121353982000073 ], [ 41.536663375000046, 18.191664236000065 ], [ 41.513054068000031, 18.22916420100006 ], [ 41.477218247000053, 18.290553930000044 ], [ 41.458054031000074, 18.325973171000044 ], [ 41.443882245000054, 18.369717988000048 ], [ 41.444163374000027, 18.397500142000069 ], [ 41.43847323500006, 18.462217990000056 ], [ 41.409718110000028, 18.503609169000072 ], [ 41.356245088000037, 18.565417994000029 ], [ 41.323463297000046, 18.58166413400005 ], [ 41.262218239000049, 18.613054026000043 ], [ 41.205827141000043, 18.700273093000078 ], [ 41.213336153000057, 18.756382056000064 ], [ 41.244782204000046, 18.826453929000024 ], [ 41.205554059000065, 18.864717987000063 ], [ 41.174854165000056, 18.866391183000076 ], [ 41.134582305000038, 18.945209069000043 ], [ 41.148609253000075, 18.987782096000046 ], [ 41.175345177000054, 19.065000044000044 ], [ 41.15569129000005, 19.088053966000075 ], [ 41.119436206000046, 19.098054079000065 ], [ 41.087354136000044, 19.108191153000064 ], [ 41.063327076000064, 19.137218019000045 ], [ 41.043609151000055, 19.180827050000062 ], [ 40.956109123000033, 19.452217988000029 ], [ 40.843682320000028, 19.533817995000049 ], [ 40.766663358000073, 19.602218013000027 ], [ 40.785554156000046, 19.61540911700007 ], [ 40.802773268000067, 19.659164160000046 ], [ 40.800554075000036, 19.680273145000058 ], [ 40.787082177000059, 19.717364240000052 ], [ 40.756936160000066, 19.764164094000023 ], [ 40.732218095000064, 19.789026998000054 ], [ 40.681109272000072, 19.795273192000025 ], [ 40.658400182000037, 19.793264218000047 ], [ 40.51138227000007, 19.97416412900003 ], [ 40.443327084000032, 20.008609057000058 ], [ 40.335545196000055, 20.073609040000065 ], [ 40.280136122000044, 20.108053969000025 ], [ 40.16027323000003, 20.200273176000053 ], [ 40.128191160000029, 20.235553948000074 ], [ 40.096945102000063, 20.27194498700004 ], [ 40.055136169000036, 20.282636104000062 ], [ 39.957500240000059, 20.282218015000069 ], [ 39.906945126000039, 20.284718001000044 ], [ 39.88000015700004, 20.287773205000065 ], [ 39.803054118000034, 20.333882054000071 ], [ 39.660691180000072, 20.437909017000038 ], [ 39.633045149000054, 20.47083598200004 ], [ 39.600273248000065, 20.518745097000078 ], [ 39.568327133000025, 20.568053990000067 ], [ 39.54444507900007, 20.614436089000037 ], [ 39.486382295000055, 20.716391045000023 ], [ 39.437491156000078, 20.747500144000071 ], [ 39.427082174000077, 20.765554093000048 ], [ 39.41916328700006, 20.798054084000057 ], [ 39.448054031000026, 20.793327026000043 ], [ 39.457082179000054, 20.795827012000075 ], [ 39.447354142000052, 20.824445009000044 ], [ 39.414927240000054, 20.847009093000054 ], [ 39.38076327400006, 20.849400114000048 ], [ 39.350136135000071, 20.867364209000073 ], [ 39.271109204000027, 20.949445002000061 ], [ 39.174854110000069, 21.104027078000058 ], [ 39.15639129200008, 21.148054031000072 ], [ 39.105827126000065, 21.280000107000035 ], [ 39.15867318100004, 21.374654090000035 ], [ 39.170827109000072, 21.410273155000027 ], [ 39.172218169000075, 21.437218124000026 ], [ 39.169445100000075, 21.461391198000058 ], [ 39.163327149000054, 21.50082704600004 ], [ 39.146036121000066, 21.533327038000039 ], [ 39.093609161000074, 21.619445058000053 ], [ 39.086663245000068, 21.653327058000059 ], [ 39.066663353000024, 21.720273151000072 ], [ 39.033609151000064, 21.792218044000037 ], [ 39.018054182000071, 21.811382092000031 ], [ 38.993045098000039, 21.836936 ], [ 39.017218171000025, 22.122218099000065 ], [ 39.030827197000065, 22.214718100000027 ], [ 39.105273249000049, 22.377218058000039 ], [ 39.062773312000047, 22.583327046000022 ], [ 38.968609168000057, 22.748054075000027 ], [ 38.952773238000077, 22.767773173000023 ], [ 38.896382308000057, 22.846109099000046 ], [ 38.851036211000064, 22.92506411200003 ], [ 38.886109112000042, 22.914445079000075 ], [ 38.901109198000029, 22.876944947000027 ], [ 38.913054081000041, 22.84971801100005 ], [ 38.94666333300006, 22.845618087000048 ], [ 38.960554159000026, 22.86555394100003 ], [ 38.941109149000056, 22.903891090000059 ], [ 38.894854119000058, 22.960827011000049 ], [ 38.868045105000078, 22.978609051000035 ], [ 38.75860913300005, 23.173336085000074 ], [ 38.708118224000032, 23.242845029000023 ], [ 38.69221808900005, 23.291382116000023 ], [ 38.689163220000069, 23.333609138000043 ], [ 38.683609204000049, 23.391109162000078 ], [ 38.678327096000032, 23.413327073000062 ], [ 38.674554066000042, 23.422653952000076 ], [ 38.644436212000073, 23.459718057000032 ], [ 38.583118231000071, 23.515136016000042 ], [ 38.55367327600004, 23.525135962000036 ], [ 38.484445126000026, 23.690000119000047 ], [ 38.446873244000074, 23.789091146000032 ], [ 38.245827094000049, 23.954436089000069 ], [ 38.13666336600005, 24.040553942000031 ], [ 38.080827150000061, 24.068053960000043 ], [ 38.013609148000057, 24.089717995000058 ], [ 37.878609209000047, 24.170826990000023 ], [ 37.754863316000069, 24.258891120000044 ], [ 37.674854027000038, 24.298191182000039 ], [ 37.625900192000074, 24.270344991000059 ], [ 37.619718203000048, 24.250973072000079 ], [ 37.598882300000071, 24.250000100000022 ], [ 37.527354156000058, 24.277353939000022 ], [ 37.488609144000065, 24.317500070000051 ], [ 37.442363334000049, 24.375136048000059 ], [ 37.46027328200006, 24.414164201000062 ], [ 37.450000254000031, 24.454164152000033 ], [ 37.383418103000054, 24.539000076000036 ], [ 37.378609237000035, 24.560273179000035 ], [ 37.368891259000065, 24.579436054000041 ], [ 37.327500247000046, 24.637500179000028 ], [ 37.311100215000067, 24.65694502100007 ], [ 37.26500025100006, 24.70000017600006 ], [ 37.241245099000025, 24.716244975000052 ], [ 37.154509164000046, 24.84013604200004 ], [ 37.176245116000075, 24.842082152000046 ], [ 37.197218146000068, 24.838473072000056 ], [ 37.219718192000073, 24.840973226000074 ], [ 37.244163342000036, 24.852635974000066 ], [ 37.257218156000079, 24.870273175000023 ], [ 37.278609109000058, 24.975826985000026 ], [ 37.258045115000073, 25.132773093000026 ], [ 37.250827123000079, 25.151664226000037 ], [ 37.235545069000068, 25.182500075000064 ], [ 37.210618127000032, 25.207500107000044 ], [ 37.184163332000026, 25.228609092000056 ], [ 37.128745206000076, 25.288473147000047 ], [ 37.095827125000028, 25.336527101000058 ], [ 37.086109146000069, 25.361109044000045 ], [ 37.07860918700004, 25.391664099000025 ], [ 37.077500261000068, 25.433818031000044 ], [ 36.932500209000068, 25.645000082000024 ], [ 36.828045099000065, 25.744027072000051 ], [ 36.798954028000026, 25.756600094000078 ], [ 36.795900165000035, 25.719027040000071 ], [ 36.724163311000041, 25.749854003000053 ], [ 36.696936207000078, 25.786391055000024 ], [ 36.673882285000047, 25.825836123000045 ], [ 36.655136159000051, 25.865973202000077 ], [ 36.678954175000058, 25.898953980000044 ], [ 36.705273183000031, 25.954300189000037 ], [ 36.709300185000075, 25.982218130000035 ], [ 36.700136083000075, 26.015836099000069 ], [ 36.68582716800006, 26.034582058000069 ], [ 36.665554026000052, 26.048891140000023 ], [ 36.630000172000052, 26.056664182000077 ], [ 36.608600168000066, 26.058326984000075 ], [ 36.586663218000069, 26.061109105000071 ], [ 36.545345129000054, 26.078400133000059 ], [ 36.512500139000053, 26.10763604400006 ], [ 36.493609173000038, 26.135618022000074 ], [ 36.481663285000025, 26.18444495500006 ], [ 36.308054120000065, 26.495691173000068 ], [ 36.211800200000027, 26.646245074000035 ], [ 36.144300230000056, 26.71736418100005 ], [ 36.120000255000036, 26.729445018000035 ], [ 36.097082287000035, 26.749582206000071 ], [ 36.051936183000066, 26.840827101000059 ], [ 36.043327131000069, 26.870827106000036 ], [ 36.031800170000054, 26.896527027000047 ], [ 35.991945058000056, 26.92666416000003 ], [ 35.935554128000035, 26.97305397100007 ], [ 35.906109173000061, 26.999445064000042 ], [ 35.819163355000057, 27.100136028000065 ], [ 35.800273228000037, 27.15805397400004 ], [ 35.811391152000056, 27.186109042000055 ], [ 35.799718178000035, 27.210000148000063 ], [ 35.725000217000058, 27.306391197000039 ], [ 35.63708226600005, 27.359644948000039 ], [ 35.611382178000042, 27.388336035000066 ], [ 35.565827204000072, 27.443053938000048 ], [ 35.532491202000074, 27.496109038000043 ], [ 35.52250014100008, 27.514444954000055 ], [ 35.508045046000063, 27.542773105000038 ], [ 35.505273318000036, 27.565553944000044 ], [ 35.507500222000033, 27.602500032000023 ], [ 35.495554166000034, 27.633054081000068 ], [ 35.393054051000036, 27.775836114000072 ], [ 35.332909202000053, 27.858745039000041 ], [ 35.316663229000028, 27.87889111100003 ], [ 35.29500020100005, 27.901391157000035 ], [ 35.232500204000075, 27.964164236000045 ], [ 35.217218151000054, 27.97666416800007 ], [ 35.187773195000034, 27.996945021000045 ], [ 35.160554138000066, 28.056664237000064 ], [ 35.056109254000035, 28.112782085000049 ], [ 34.997082215000034, 28.110835974000054 ], [ 34.97277318700003, 28.099444968000057 ], [ 34.933882162000032, 28.083327071000042 ], [ 34.911109202000034, 28.077918061000048 ], [ 34.846527141000024, 28.071391073000029 ], [ 34.706245094000053, 28.138273129000027 ], [ 34.678745075000052, 28.129444973000034 ], [ 34.648891251000066, 28.093609152000056 ], [ 34.64699124100008, 28.06437307300007 ], [ 34.644163355000046, 28.038191193000046 ], [ 34.624791268000024, 28.025764183000035 ], [ 34.572145204000037, 28.095900094000058 ], [ 34.588609106000035, 28.129444973000034 ], [ 34.632145046000062, 28.174718147000078 ], [ 34.692500282000026, 28.287218040000027 ], [ 34.736382227000036, 28.388882144000036 ], [ 34.745000165000079, 28.41777322300004 ], [ 34.772773266000058, 28.478191155000047 ], [ 34.787218135000046, 28.493400118000068 ], [ 34.806800272000032, 28.539091046000067 ], [ 34.798336059000064, 28.627218041000049 ], [ 34.791382264000049, 28.657500181000046 ], [ 34.836391240000069, 28.857773185000042 ], [ 34.842536181000071, 28.884518162000063 ], [ 34.87943616900003, 29.11500004800007 ], [ 34.883327216000055, 29.135827065000058 ], [ 34.898045167000078, 29.191945081000028 ], [ 34.909436174000064, 29.228882117000069 ], [ 34.950827185000037, 29.348473100000035 ], [ 34.961391233000029, 29.360836072000041 ], [ 35.187218146000077, 29.326945020000039 ], [ 35.541109139000071, 29.272500032000039 ], [ 36.070000191000076, 29.188891051000041 ], [ 36.272727081000028, 29.336527044000036 ], [ 36.500545198000054, 29.502773209000054 ], [ 36.743609159000073, 29.864718038000035 ], [ 37.034436222000068, 29.918054100000063 ], [ 37.410100215000057, 29.985582065000074 ], [ 37.502782271000058, 30.002218131000063 ], [ 37.667500248000067, 30.336391200000037 ], [ 38.001391183000067, 30.504164213000024 ], [ 37.561091149000049, 30.951091147000056 ], [ 37.490000204000069, 31.023053977000075 ], [ 37.294991203000052, 31.21722713500003 ], [ 37.005273234000072, 31.505554044000064 ], [ 37.20220018200007, 31.556164143000046 ], [ 37.471936197000048, 31.625000188000058 ], [ 37.709500121000076, 31.684664251000072 ], [ 37.963882166000076, 31.748336038000048 ], [ 37.986663341000053, 31.754054004000068 ], [ 38.488327120000065, 31.879164136000043 ], [ 39.005000206000034, 32.005554016000076 ], [ 39.072218208000038, 32.057782158000066 ], [ 39.196745127000042, 32.154945012000042 ], [ 39.487582248000081, 32.105553977000056 ], [ 40.074609174000045, 32.005864146000079 ], [ 40.413327079000055, 31.948327075000066 ], [ 41.440000250000026, 31.373327006000068 ], [ 42.085000274000038, 31.111664105000045 ], [ 42.924700175000055, 30.51615402300007 ], [ 43.065000158000032, 30.416664184000069 ], [ 43.810382190000041, 29.868500121000068 ], [ 44.721663377000027, 29.198327062000033 ], [ 46.122154176000038, 29.086073094000028 ], [ 46.426673245000075, 29.061664154000027 ], [ 46.54694517400003, 29.104200133000063 ], [ 46.548609150000061, 29.103053992000071 ], [ 46.587773257000038, 29.098054019000074 ], [ 46.800282163000077, 29.075273179000078 ], [ 46.996663282000043, 29.05305409500005 ], [ 47.459991254000045, 28.999436066000044 ], [ 47.463391289000072, 28.984464143000025 ], [ 47.506945167000026, 28.923053961000051 ], [ 47.540545199000064, 28.850554019000072 ], [ 47.564709221000044, 28.796664249000059 ], [ 47.574845121000067, 28.770136028000024 ], [ 47.576654103000067, 28.733053986000073 ], [ 47.574991301000068, 28.703053981000039 ], [ 47.602763229000061, 28.634991083000045 ], [ 47.617773206000038, 28.614164232000064 ], [ 47.688882255000067, 28.538882169000033 ], [ 48.302500266000038, 28.544164109000064 ], [ 48.416591212000071, 28.545273202000033 ], [ 48.425273187000073, 28.542636088000052 ], [ 48.501654118000033, 28.495136010000067 ], [ 48.518600147000029, 28.416664130000072 ], [ 48.518745154000044, 28.334718118000069 ], [ 48.603327107000041, 28.121109170000068 ], [ 48.650409263000029, 28.038191193000046 ], [ 48.853100278000056, 27.855609034000054 ], [ 48.877500166000061, 27.833609052000043 ], [ 48.874300291000054, 27.761109110000064 ], [ 48.846791220000057, 27.732464124000046 ], [ 48.855691292000074, 27.802218154000059 ], [ 48.820209187000046, 27.824909140000045 ], [ 48.79860013800004, 27.807364140000061 ], [ 48.788600192000047, 27.744445048000046 ], [ 48.838873339000031, 27.619718138000053 ], [ 48.911318128000062, 27.599854033000042 ], [ 48.958736231000046, 27.624164235000023 ], [ 48.980127183000036, 27.616382140000042 ], [ 49.016663229000073, 27.58332709900003 ], [ 49.05138224500007, 27.545554052000057 ], [ 49.076654186000042, 27.53971806900006 ], [ 49.177145159000077, 27.551109075000056 ], [ 49.23651820300006, 27.544300120000059 ], [ 49.301245103000042, 27.489027 ], [ 49.308736178000061, 27.444854035000048 ], [ 49.229091166000046, 27.450826979000055 ], [ 49.166936169000053, 27.458609074000037 ], [ 49.127973227000041, 27.442291184000055 ], [ 49.247491287000059, 27.340545105000047 ], [ 49.400554060000047, 27.157773180000049 ], [ 49.408873266000057, 27.12721812500007 ], [ 49.444482273000062, 27.132164119000038 ], [ 49.47165405700008, 27.143891072000031 ], [ 49.49273622000004, 27.162182061000067 ], [ 49.511036094000076, 27.186109042000055 ], [ 49.542209230000026, 27.171109123000065 ], [ 49.622491266000054, 27.056664126000044 ], [ 49.666927088000079, 26.97763602200007 ], [ 49.703327179000041, 26.951109142000064 ], [ 49.786109202000034, 26.900000152000075 ], [ 49.810818214000051, 26.887218085000029 ], [ 49.866518140000039, 26.85943609900005 ], [ 49.902709187000028, 26.856482149000044 ], [ 49.951991257000032, 26.850009141000044 ], [ 50.13277331900008, 26.687500131000036 ], [ 50.15500028200006, 26.663053975000025 ], [ 50.158745149000026, 26.642635994000045 ], [ 50.08193607000004, 26.688609057000065 ], [ 49.996382319000077, 26.742500168000049 ], [ 49.983045203000074, 26.699445013000059 ], [ 49.982491159000062, 26.679436069000076 ], [ 50.00235409000004, 26.561526999000023 ], [ 50.050409218000027, 26.465136118000032 ], [ 50.081800283000064, 26.44777317300003 ], [ 50.109718223000073, 26.44416409300004 ], [ 50.173118101000057, 26.421591125000077 ], [ 50.211800249000078, 26.374927058000026 ], [ 50.219445215000064, 26.30028218700005 ], [ 50.215273207000052, 26.20763600500004 ], [ 50.20860925900007, 26.181391093000059 ], [ 50.155827241000054, 26.101109056000041 ], [ 50.116945100000066, 26.090554061000034 ], [ 50.063118194000026, 26.178054089000057 ], [ 50.027009123000028, 26.194791074000022 ], [ 49.978954163000026, 26.133053998000037 ], [ 49.993891218000044, 26.020000061000076 ], [ 50.107636159000037, 25.91513608200006 ], [ 50.114091230000042, 25.868682066000076 ], [ 50.134436121000078, 25.820000139000058 ], [ 50.179491197000061, 25.765891099000044 ], [ 50.210545143000047, 25.737782219000053 ], [ 50.255963324000049, 25.665064179000069 ], [ 50.255409280000038, 25.630691168000055 ], [ 50.234300295000025, 25.652500042000042 ], [ 50.233400246000031, 25.676591140000028 ], [ 50.163109270000064, 25.720009063000077 ], [ 50.138054085000078, 25.726109077000046 ], [ 50.148609248000071, 25.698745013000064 ], [ 50.305545131000031, 25.516936001000033 ], [ 50.346800188000032, 25.475418087000037 ], [ 50.369645065000043, 25.458400142000073 ], [ 50.457700143000068, 25.444091059000073 ], [ 50.482773266000038, 25.413891062000062 ], [ 50.522773216000076, 25.288264103000074 ], [ 50.534163217000071, 25.204164109000033 ], [ 50.560000266000031, 25.049509111000077 ], [ 50.57082717000003, 25.038609116000032 ], [ 50.57391824900003, 25.056909158000053 ], [ 50.606454115000076, 25.042636118000075 ], [ 50.643882330000054, 24.994164242000068 ], [ 50.726391270000079, 24.877082130000076 ], [ 50.740063328000076, 24.794927073000053 ], [ 50.74045409200005, 24.767118098000026 ], [ 50.775409143000047, 24.720827026000052 ], [ 50.830954172000077, 24.749964198000043 ], [ 50.865909223000074, 24.690000062000024 ], [ 50.973054085000058, 24.576944952000076 ], [ 51.111363367000081, 24.556045012000027 ], [ 51.178891164000049, 24.58639118900004 ], [ 51.204445073000045, 24.608191178000027 ], [ 51.215163348000033, 24.620891103000076 ], [ 51.257773255000075, 24.615835977000074 ], [ 51.306100292000053, 24.593336099000055 ], [ 51.292773233000048, 24.567354043000023 ], [ 51.298927227000036, 24.519673084000033 ], [ 51.345827160000056, 24.541245085000071 ], [ 51.392218144000026, 24.595553950000067 ], [ 51.40250022500004, 24.61374502700005 ], [ 51.438745083000072, 24.620136061000039 ], [ 51.487218132000066, 24.583327101000066 ], [ 51.408054074000063, 24.498336111000071 ], [ 51.331936167000038, 24.438609016000044 ], [ 51.31750018300005, 24.423609097000053 ], [ 51.307082316000049, 24.404864144000044 ], [ 51.279027247000045, 24.337353949000033 ], [ 51.282354192000071, 24.300000165000029 ], [ 51.307918159000053, 24.291245099000037 ], [ 51.352618178000057, 24.292144980000046 ], [ 51.384582231000081, 24.314164240000025 ], [ 51.407218231000058, 24.319718089000048 ], [ 51.441663327000072, 24.315553960000045 ], [ 51.473327140000038, 24.309853930000031 ], [ 51.506036176000066, 24.293326996000076 ], [ 51.529582283000082, 24.260554090000028 ], [ 51.550136218000034, 24.251391161000072 ], [ 51.577218147000053, 24.255273156000044 ], [ 51.584227095000074, 24.260464236000075 ], [ 51.583327214000064, 24.116664137000043 ], [ 52.583327157000042, 22.938891067000043 ], [ 55.14165416600008, 22.633327110000039 ], [ 55.199163242000054, 22.699718154000038 ], [ 55.666109179000046, 21.999718092000023 ], [ 55.422200154000052, 21.267509059000076 ], [ 55.000000170000078, 20.000000172000057 ] ] ], [ [ [ 42.170554192000054, 16.562773113000048 ], [ 42.133745064000038, 16.571391051000035 ], [ 42.12110917800004, 16.576945067000054 ], [ 42.112782260000074, 16.582773172000032 ], [ 42.083400169000072, 16.613264189000063 ], [ 42.102982306000058, 16.619854042000043 ], [ 42.108891213000049, 16.641382122000039 ], [ 42.094163371000036, 16.658054062000076 ], [ 42.085827233000032, 16.663891052000054 ], [ 42.07027327000003, 16.670000119000065 ], [ 42.05832721400003, 16.673609031000069 ], [ 42.036245090000079, 16.67355404500006 ], [ 42.016663288000075, 16.670000119000065 ], [ 42.006382213000052, 16.666382154000075 ], [ 41.998054122000042, 16.660827131000076 ], [ 41.983054035000066, 16.647782208000024 ], [ 41.971382235000078, 16.642218133000029 ], [ 41.95916326400004, 16.643473071000074 ], [ 41.931936160000078, 16.655826991000026 ], [ 41.893054188000065, 16.681109158000027 ], [ 41.838609200000064, 16.718891089000067 ], [ 41.770618219000028, 16.778682055000047 ], [ 41.755000219000067, 16.859445045000029 ], [ 41.753609158000074, 16.876109107000048 ], [ 41.764445115000058, 16.873609120000026 ], [ 41.774991226000054, 16.869718073000058 ], [ 41.809018232000028, 16.850136103000068 ], [ 41.841945198000076, 16.823609056000066 ], [ 41.861382161000051, 16.797364143000038 ], [ 41.865963374000046, 16.780973164000045 ], [ 41.873600126000042, 16.756245041000057 ], [ 41.894573324000078, 16.73527318400005 ], [ 41.920554039000081, 16.721664158000067 ], [ 41.945000195000034, 16.71082702800004 ], [ 41.957773209000038, 16.708882091000078 ], [ 42.069436086000053, 16.710691073000078 ], [ 42.054027130000065, 16.733327074000044 ], [ 42.042354156000044, 16.724373189000062 ], [ 42.027773333000027, 16.728609068000026 ], [ 42.015963231000057, 16.739654069000039 ], [ 42.016109244000063, 16.75389106700004 ], [ 42.041936067000051, 16.805553933000056 ], [ 42.056663239000045, 16.80944498100007 ], [ 42.07569116500008, 16.810273113000051 ], [ 42.142491245000031, 16.715827001000036 ], [ 42.159163354000043, 16.653327004000062 ], [ 42.177500276000046, 16.584445027000072 ], [ 42.178400157000056, 16.566591070000072 ], [ 42.170554192000054, 16.562773113000048 ] ] ], [ [ [ 41.886109111000053, 16.999444956000048 ], [ 41.921391223000057, 16.989435958000058 ], [ 41.93950921000004, 16.975764236000032 ], [ 41.987909169000034, 16.755344992000062 ], [ 41.975827158000072, 16.751664163000044 ], [ 41.929163259000063, 16.764445057000046 ], [ 41.883609124000031, 16.797773180000036 ], [ 41.860273235000079, 16.829718122000031 ], [ 41.837218140000061, 16.868609147000029 ], [ 41.83471815300004, 16.882500140000047 ], [ 41.842636202000051, 16.89541799400007 ], [ 41.87055414200006, 16.898609152000063 ], [ 41.893327103000047, 16.907082083000034 ], [ 41.928327081000077, 16.931800148000036 ], [ 41.931245156000045, 16.951527125000041 ], [ 41.927082200000029, 16.964444979000064 ], [ 41.915691194000033, 16.97735394800003 ], [ 41.903882266000039, 16.983609027000057 ], [ 41.853336204000072, 16.992218079000054 ], [ 41.842563279000046, 17.003191164000043 ], [ 41.851391267000054, 17.010827078000034 ], [ 41.866309211000043, 17.005064184000048 ], [ 41.886109111000053, 16.999444956000048 ] ] ] ] }
        }
    ]
}