{
    "type": "FeatureCollection",
    "features": [
        {
            "type": "Feature",
            "properties": {
                "WCID": "SLV",
                "COUNTRY": "El Salvador"
            },
            "geometry": { "type": "Polygon", "coordinates": [ [ [ -87.694672901999979, 13.81900906900006 ], [ -87.725008853999952, 13.733327075000034 ], [ -87.776945975999979, 13.572427055000048 ], [ -87.78339098899994, 13.52416422400006 ], [ -87.754864018999967, 13.514636012000039 ], [ -87.715317864999975, 13.504754083000023 ], [ -87.711090870999953, 13.481654061000029 ], [ -87.713345937999975, 13.471109124000066 ], [ -87.750290852999967, 13.443054056000051 ], [ -87.81558202299999, 13.40538209500005 ], [ -87.836955037999985, 13.436318023000069 ], [ -87.870146033999958, 13.382709047000048 ], [ -87.865573034999954, 13.360282091000045 ], [ -87.846117799999945, 13.341109158000052 ], [ -87.823899888999961, 13.332082184000058 ], [ -87.785763905999943, 13.294927051000059 ], [ -87.797990922999986, 13.262082060000068 ], [ -87.83139096299999, 13.236109057000021 ], [ -87.937791009999955, 13.156391122000059 ], [ -87.984999900999981, 13.163326980000022 ], [ -88.04139988299994, 13.165554051000072 ], [ -88.091873021999959, 13.166727015000049 ], [ -88.10876389799995, 13.16680010500005 ], [ -88.126108905999956, 13.163891082000077 ], [ -88.19639988099999, 13.15944498500005 ], [ -88.219999967999968, 13.158053924000058 ], [ -88.411090931999979, 13.187609018000046 ], [ -88.475335872999949, 13.238527068000053 ], [ -88.550426829999935, 13.273954020000076 ], [ -88.612090982999973, 13.28402705600007 ], [ -88.708164021999949, 13.260936086000072 ], [ -88.641881942999987, 13.249373083000023 ], [ -88.62167300699997, 13.259718028000066 ], [ -88.585281967999947, 13.263335993000055 ], [ -88.50587299099999, 13.195682132000059 ], [ -88.535063973999968, 13.199109157000066 ], [ -88.615281972999981, 13.211109025000042 ], [ -88.665554951999979, 13.221109138000031 ], [ -88.70668193399996, 13.22860909700006 ], [ -88.758899849999978, 13.235554007000076 ], [ -88.813799973999949, 13.251554055000042 ], [ -88.832263965999971, 13.258364183000026 ], [ -88.861681931999954, 13.282500041000048 ], [ -88.881672937999952, 13.293891048000035 ], [ -88.983899970999971, 13.34139112500003 ], [ -89.114181903999963, 13.401109001000066 ], [ -89.137217888999942, 13.410064226000031 ], [ -89.152235911999981, 13.418891041000052 ], [ -89.185290952999935, 13.437773122000067 ], [ -89.219999911999935, 13.455273194000029 ], [ -89.297154994999971, 13.482709008000029 ], [ -89.380845951999959, 13.492500076000056 ], [ -89.466672951999954, 13.49971806800005 ], [ -89.608672953999985, 13.515064160000065 ], [ -89.650845996999976, 13.528053930000056 ], [ -89.684308900999952, 13.530973180000046 ], [ -89.758899960999941, 13.530836052000041 ], [ -89.818546086999959, 13.535800150000057 ], [ -89.828899916999944, 13.576109058000043 ], [ -89.846326898999962, 13.605827096000041 ], [ -89.87556398299995, 13.628191187000027 ], [ -89.91667302799999, 13.650553937000041 ], [ -89.954454958999975, 13.663982081000029 ], [ -89.999999873999968, 13.697982098000068 ], [ -90.096390922999944, 13.745836060000045 ], [ -90.108063896999965, 13.789027001000022 ], [ -90.103899934999959, 13.823327090000078 ], [ -90.08653581599998, 13.868473194000046 ], [ -90.020564035999939, 13.938609104000022 ], [ -89.889026828999988, 14.044164088000059 ], [ -89.854445945999942, 14.059444968000037 ], [ -89.81819991399999, 14.066454083000053 ], [ -89.739726859999962, 14.041391187000045 ], [ -89.746672942999965, 14.069582209000032 ], [ -89.726817890999939, 14.117918130000078 ], [ -89.710145949999969, 14.145000060000029 ], [ -89.686399850999976, 14.170000092000066 ], [ -89.652090876999978, 14.195554 ], [ -89.626955057999965, 14.209309038000072 ], [ -89.605146016999981, 14.208191060000047 ], [ -89.57945498, 14.207500056000072 ], [ -89.518163989999948, 14.233853933000034 ], [ -89.543335850999938, 14.304164187000026 ], [ -89.565490896999961, 14.316454069000031 ], [ -89.589172958999939, 14.321244997000065 ], [ -89.583346026999948, 14.385827058000075 ], [ -89.570972996999956, 14.414718138000069 ], [ -89.548482003999936, 14.420836089000034 ], [ -89.495008981999945, 14.421391138000047 ], [ -89.435564021999937, 14.414864150000028 ], [ -89.348308911999936, 14.431982176000076 ], [ -89.332164025999987, 14.410482091000063 ], [ -89.315564001999974, 14.404091058000063 ], [ -89.297791013999984, 14.401109112000029 ], [ -89.21334602099995, 14.375827113000071 ], [ -89.174454995999952, 14.354718128000059 ], [ -89.119726867999987, 14.324373123000044 ], [ -89.037226812999961, 14.334718068000029 ], [ -89.024735932999988, 14.327636031000054 ], [ -88.9777820199999, 14.253891040000042 ], [ -88.960555028999977, 14.221945093000045 ], [ -88.959472925999989, 14.216982168000072 ], [ -88.956046067999978, 14.193891030000032 ], [ -88.920208905999971, 14.205973209000035 ], [ -88.897781950999956, 14.203609009000047 ], [ -88.87514595, 14.187635951000061 ], [ -88.860290870999961, 14.171109018000038 ], [ -88.839446083999974, 14.138473072000068 ], [ -88.831117824999978, 14.114164211000059 ], [ -88.82757295, 14.100136090000035 ], [ -88.806326836999972, 14.096182179000039 ], [ -88.772435784999971, 14.133473099000071 ], [ -88.752235900999949, 14.134445064000033 ], [ -88.734172899999976, 14.115553931000022 ], [ -88.719308935999948, 14.092364222000072 ], [ -88.705699909999964, 14.044164088000059 ], [ -88.661482017999958, 14.014082108000025 ], [ -88.629981986999951, 14.014827091000029 ], [ -88.506672959999946, 13.982364148000045 ], [ -88.495008870999982, 13.970273085000031 ], [ -88.499454966999963, 13.915835976000039 ], [ -88.48889092, 13.865836080000065 ], [ -88.467926940999973, 13.854717988000061 ], [ -88.431673030999946, 13.870135996000045 ], [ -88.40334605399994, 13.884026989000063 ], [ -88.375972936999972, 13.882500141000037 ], [ -88.352235889999974, 13.867773138000075 ], [ -88.345226942999943, 13.874864228000035 ], [ -88.319308924999973, 13.888744995000025 ], [ -88.259608818999936, 13.905282154000076 ], [ -88.234999886999958, 13.940273080000054 ], [ -88.196882007999989, 13.987618092000048 ], [ -88.161663932999943, 13.976945080000064 ], [ -88.1219459499999, 13.990553938000062 ], [ -88.060008881999977, 13.963891104000027 ], [ -88.040435796999986, 13.931173183000055 ], [ -88.005863965999936, 13.875044941000056 ], [ -87.953335919999972, 13.896109 ], [ -87.94056391099997, 13.895000074000052 ], [ -87.908335828999952, 13.895827032000057 ], [ -87.897508923999965, 13.899091113000054 ], [ -87.800845966999987, 13.896945011000071 ], [ -87.750290852999967, 13.864164225000025 ], [ -87.72570891, 13.834582142000045 ], [ -87.707646076999936, 13.822500131000027 ], [ -87.694672901999979, 13.81900906900006 ] ] ] }
        }
    ]
}