{
    "type": "FeatureCollection",
    "features": [
        {
            "type": "Feature",
            "properties": {
                "WCID": "SRB",
                "COUNTRY": "Serbia"
            },
            "geometry": { "type": "Polygon", "coordinates": [ [ [ 20.071418137000023, 42.560909189000029 ], [ 20.099927169000068, 42.657700055000078 ], [ 20.070000254000036, 42.673882157000037 ], [ 20.04860913400006, 42.677773204000061 ], [ 20.014027078000026, 42.682145037000055 ], [ 19.977500252000027, 42.707009115000062 ], [ 19.985554088000072, 42.727636140000072 ], [ 20.015000217000022, 42.752491166000027 ], [ 20.03944503200006, 42.766109076000077 ], [ 20.07166322300003, 42.773464196000077 ], [ 20.10465405900004, 42.769718156000067 ], [ 20.231945162000045, 42.761109103000081 ], [ 20.379027111000028, 42.841800176000049 ], [ 20.346109198000022, 42.888745037000035 ], [ 20.292218086000048, 42.929435992000037 ], [ 20.259718095000039, 42.941664183000057 ], [ 20.171245095000074, 42.969300156000031 ], [ 20.150273238000068, 42.971944982000025 ], [ 20.059718173000078, 43.005554067000048 ], [ 20.035827067000071, 43.037218047000067 ], [ 19.969718158000035, 43.090554109000038 ], [ 19.920273311000074, 43.106382159000077 ], [ 19.783609229000035, 43.148045080000031 ], [ 19.692500121000023, 43.170827093000071 ], [ 19.663745164000034, 43.176244987000075 ], [ 19.644863250000071, 43.183882075000042 ], [ 19.585827159000075, 43.236109043000056 ], [ 19.557636137000031, 43.268744989000027 ], [ 19.514863285000047, 43.319573185000081 ], [ 19.444163272000026, 43.373600083000042 ], [ 19.279445128000077, 43.449718158000053 ], [ 19.254718178000076, 43.460000071000024 ], [ 19.228809213000034, 43.513218115000029 ], [ 19.287500137000052, 43.544164270000067 ], [ 19.40860925000004, 43.584445014000039 ], [ 19.480554143000063, 43.571391206000044 ], [ 19.493891260000055, 43.588054094000029 ], [ 19.51055414800004, 43.685827151000069 ], [ 19.507636072000025, 43.709582135000062 ], [ 19.499582237000027, 43.737082154000063 ], [ 19.49013616700006, 43.758473106000054 ], [ 19.475273209000022, 43.772773136000069 ], [ 19.437500162000049, 43.800282207000066 ], [ 19.366945157000032, 43.859445032000053 ], [ 19.251218231000053, 43.962382180000077 ], [ 19.23945406200005, 44.010609136000028 ], [ 19.308927131000075, 43.997736041000053 ], [ 19.366127083000038, 43.97087321500004 ], [ 19.428527167000027, 43.960653999000044 ], [ 19.485273155000073, 43.958882232000065 ], [ 19.525791275000074, 43.960445122000067 ], [ 19.619782249000025, 44.01975396000006 ], [ 19.61856335300007, 44.052618061000032 ], [ 19.596945083000037, 44.060273254000037 ], [ 19.485836083000038, 44.120282148000058 ], [ 19.357954057000029, 44.209409104000031 ], [ 19.237436203000073, 44.265182121000066 ], [ 19.160909091000065, 44.286782118000076 ], [ 19.12899113900005, 44.315227112000059 ], [ 19.104445071000043, 44.355827039000076 ], [ 19.105554164000068, 44.37666411500004 ], [ 19.130827111000031, 44.521427127000038 ], [ 19.193982237000057, 44.560154035000039 ], [ 19.313609095000061, 44.704718060000062 ], [ 19.336109141000065, 44.747218165000049 ], [ 19.34521809000006, 44.767736058000025 ], [ 19.382200220000072, 44.864818111000034 ], [ 19.37139125300007, 44.889164187000063 ], [ 19.30486324900005, 44.909435988000041 ], [ 19.175345075000052, 44.92242709900006 ], [ 19.121109133000061, 44.901382152000053 ], [ 19.039718170000071, 44.861382201000026 ], [ 19.028609131000053, 44.880273167000041 ], [ 19.009818078000023, 44.905482076000055 ], [ 19.040763226000024, 44.930764243000056 ], [ 19.115554110000062, 45.031945047000079 ], [ 19.104163271000061, 45.096664236000038 ], [ 19.167354104000026, 45.21430005600007 ], [ 19.187500176000071, 45.216945050000049 ], [ 19.212827103000052, 45.210000140000034 ], [ 19.248682202000055, 45.186664251000025 ], [ 19.352500120000059, 45.173336019000033 ], [ 19.418536106000033, 45.179991082000072 ], [ 19.425000230000023, 45.21791802100006 ], [ 19.409209227000076, 45.235273254000049 ], [ 19.388963243000035, 45.235744988000079 ], [ 19.350563230000034, 45.234582083000078 ], [ 19.320336075000057, 45.238364165000064 ], [ 19.285000151000077, 45.243409065000037 ], [ 19.260518120000029, 45.247427014000039 ], [ 19.19020015500007, 45.27033609700004 ], [ 19.138609205000023, 45.287500055000066 ], [ 19.112500247000071, 45.29804499200003 ], [ 18.981263280000064, 45.382218076000072 ], [ 19.001082290000056, 45.489691174000029 ], [ 19.025573206000047, 45.497073116000081 ], [ 19.056400169000028, 45.487018017000025 ], [ 19.096018073000039, 45.498009039000067 ], [ 19.097927135000077, 45.518864220000069 ], [ 19.007091277000029, 45.561136002000069 ], [ 18.969663229000048, 45.539991143000066 ], [ 18.948727079000037, 45.537936068000079 ], [ 18.929182157000071, 45.544845103000057 ], [ 18.902236182000024, 45.57313603800003 ], [ 18.910418093000033, 45.620173099000056 ], [ 18.936391264000065, 45.628054100000043 ], [ 18.966891166000039, 45.664073150000036 ], [ 18.956663233000029, 45.782500054000081 ], [ 18.916663282000059, 45.815691217000051 ], [ 18.889854100000036, 45.825764253000045 ], [ 18.832354076000058, 45.875509172000079 ], [ 18.817018211000061, 45.912964210000041 ], [ 18.835827202000075, 45.911109127000032 ], [ 18.858891182000036, 45.911109127000032 ], [ 19.002636128000063, 45.959445048000077 ], [ 19.093054064000057, 46.022218127000031 ], [ 19.127500166000061, 46.020900156000039 ], [ 19.154091251000068, 45.988609042000064 ], [ 19.284027179000077, 45.988882124000042 ], [ 19.463891255000078, 46.076382153000054 ], [ 19.516318215000069, 46.118118164000066 ], [ 19.506318102000023, 46.139227149000078 ], [ 19.565273224000066, 46.17277320200003 ], [ 19.666527117000044, 46.181109172000049 ], [ 19.703718125000023, 46.17639116600003 ], [ 19.744718204000037, 46.162218039000038 ], [ 19.849582184000042, 46.152145003000044 ], [ 19.961109105000048, 46.170827091000035 ], [ 20.115273260000038, 46.167218179000031 ], [ 20.202773289000049, 46.150553950000074 ], [ 20.257773158000077, 46.118045073000076 ], [ 20.261027181000031, 46.114854083000068 ], [ 20.314027128000077, 46.069853991000059 ], [ 20.354027079000048, 46.017391156000031 ], [ 20.373191127000041, 45.981518120000032 ], [ 20.513745082000071, 45.91423608000008 ], [ 20.553745033000041, 45.911245081000061 ], [ 20.585273227000073, 45.89874498100005 ], [ 20.655973239000048, 45.827909182000042 ], [ 20.662363267000046, 45.798745021000059 ], [ 20.717636051000056, 45.743744983000056 ], [ 20.752773157000036, 45.746936142000038 ], [ 20.773018135000029, 45.768154091000042 ], [ 20.801600258000065, 45.758673153000075 ], [ 20.797500166000077, 45.653045079000037 ], [ 20.776527135000038, 45.633327155000075 ], [ 20.767563193000058, 45.613536141000054 ], [ 20.79416333000006, 45.507773118000046 ], [ 20.808327070000075, 45.478882207000026 ], [ 20.986663293000049, 45.345836090000034 ], [ 21.048882160000062, 45.316382082000075 ], [ 21.27194505600005, 45.231245079000075 ], [ 21.351391249000073, 45.21777318200003 ], [ 21.410827157000028, 45.215418034000038 ], [ 21.473373254000023, 45.187445109000066 ], [ 21.482773223000038, 45.183609047000061 ], [ 21.514100251000059, 45.14277325300003 ], [ 21.443054066000059, 45.053600196000048 ], [ 21.373436157000071, 45.013609130000077 ], [ 21.407218077000039, 44.972218119000047 ], [ 21.429718123000043, 44.961664129000042 ], [ 21.450136104000023, 44.96235396000003 ], [ 21.473191199000041, 44.96235396000003 ], [ 21.535827150000046, 44.940200087000051 ], [ 21.556800181000028, 44.913954001000036 ], [ 21.553954021000038, 44.892427094000027 ], [ 21.502218233000065, 44.879718117000039 ], [ 21.47888217600007, 44.875273194000044 ], [ 21.453609229000051, 44.875418034000063 ], [ 21.407773294000037, 44.876244992000068 ], [ 21.369582158000071, 44.866527014000042 ], [ 21.36257321100004, 44.828100178000057 ], [ 21.398663339000052, 44.783100087000037 ], [ 21.453609229000051, 44.776664126000071 ], [ 21.474718214000063, 44.777773220000029 ], [ 21.533745085000078, 44.777353957000059 ], [ 21.565554073000044, 44.771664154000064 ], [ 21.596945138000024, 44.75582705000005 ], [ 21.615600237000024, 44.71079108400005 ], [ 21.617709124000044, 44.682844981000073 ], [ 21.644236171000045, 44.660136058000035 ], [ 21.734163264000074, 44.65582708900007 ], [ 21.783609117000026, 44.661945041000081 ], [ 21.909163321000051, 44.64943605600007 ], [ 21.99700918700006, 44.633045077000077 ], [ 22.029163341000071, 44.593891195000026 ], [ 22.031263343000035, 44.58942716100006 ], [ 22.03541808500006, 44.559509131000027 ], [ 22.091663338000046, 44.498673110000027 ], [ 22.137500111000065, 44.480273156000067 ], [ 22.175482202000069, 44.48326415400004 ], [ 22.258609224000054, 44.585273090000044 ], [ 22.273327175000077, 44.604164223000055 ], [ 22.297773164000034, 44.63582703000003 ], [ 22.311591234000048, 44.659027132000062 ], [ 22.428818185000068, 44.712082233000046 ], [ 22.466109105000044, 44.713745035000045 ], [ 22.493473169000026, 44.699164211000038 ], [ 22.513891150000063, 44.679718028000025 ], [ 22.543054138000059, 44.65860904300007 ], [ 22.574445036000043, 44.638609152000072 ], [ 22.607291200000077, 44.622427049000066 ], [ 22.644445160000032, 44.618609092000042 ], [ 22.665836112000022, 44.619445103000032 ], [ 22.712773261000052, 44.605136021000078 ], [ 22.762509128000033, 44.552600096000049 ], [ 22.738891271000057, 44.533054001000039 ], [ 22.701182262000032, 44.523564177000026 ], [ 22.672500228000047, 44.52888216000008 ], [ 22.639027097000053, 44.545827015000043 ], [ 22.615418126000066, 44.551664173000063 ], [ 22.586245080000026, 44.547635998000032 ], [ 22.46152722100004, 44.483327019000058 ], [ 22.459927116000074, 44.46106418100004 ], [ 22.530000162000078, 44.345273217000056 ], [ 22.543327221000027, 44.329718081000067 ], [ 22.575618167000073, 44.305545008000081 ], [ 22.616673232000039, 44.298035996000067 ], [ 22.641109162000078, 44.294164227000067 ], [ 22.665273183000068, 44.288464198000042 ], [ 22.687773229000072, 44.274018155000078 ], [ 22.681436175000044, 44.224700043000041 ], [ 22.676391275000071, 44.224718148000079 ], [ 22.651800112000046, 44.213191187000064 ], [ 22.61916332800007, 44.170000078000044 ], [ 22.614854024000067, 44.11958209200003 ], [ 22.544854068000063, 44.060836015000064 ], [ 22.418609195000045, 44.008191125000053 ], [ 22.367218238000078, 43.826945041000045 ], [ 22.410418231000051, 43.717500184000073 ], [ 22.541663245000052, 43.475618071000042 ], [ 22.628054013000053, 43.430827024000052 ], [ 22.669163225000034, 43.415835991000051 ], [ 22.721382146000053, 43.400691065000046 ], [ 22.764309225000034, 43.386664118000056 ], [ 22.829509200000075, 43.331873125000072 ], [ 22.846945068000025, 43.286727021000047 ], [ 22.905973280000069, 43.229718009000067 ], [ 22.940554163000058, 43.210545076000074 ], [ 23.005000270000039, 43.192773095000064 ], [ 22.992082248000031, 43.137353962000077 ], [ 22.966391212000076, 43.101664154000048 ], [ 22.741591250000056, 42.892145072000062 ], [ 22.658609235000029, 42.882909053000049 ], [ 22.615000204000069, 42.894718149000028 ], [ 22.594854132000023, 42.89444506600006 ], [ 22.521245097000076, 42.87687324500007 ], [ 22.442909170000064, 42.820409057000063 ], [ 22.447218139000029, 42.599444989000062 ], [ 22.468191170000068, 42.566936113000054 ], [ 22.52250020300005, 42.531109176000029 ], [ 22.546945185000027, 42.512909047000051 ], [ 22.558473152000033, 42.483327131000067 ], [ 22.537218154000072, 42.425418071000081 ], [ 22.520836060000079, 42.400691121000079 ], [ 22.459445157000061, 42.363054029000068 ], [ 22.410827101000052, 42.335273217000065 ], [ 22.365273301000059, 42.323882210000079 ], [ 22.32534509900006, 42.358954105000066 ], [ 22.216873213000042, 42.33613605000005 ], [ 22.196182150000027, 42.31639113600005 ], [ 22.075209159000053, 42.300973128000066 ], [ 22.023609157000067, 42.316936127000076 ], [ 21.850691164000068, 42.33034499300004 ], [ 21.803191254000069, 42.298745050000036 ], [ 21.788954089000072, 42.268264259000034 ], [ 21.729854127000067, 42.235136128000079 ], [ 21.707773177000036, 42.232491134000043 ], [ 21.681391137000048, 42.239718011000036 ], [ 21.619718099000067, 42.254164222000043 ], [ 21.472636149000039, 42.265973150000036 ], [ 21.346245096000075, 42.194300166000062 ], [ 21.305554141000073, 42.149582210000062 ], [ 21.218191240000067, 42.147636099000067 ], [ 21.136454105000041, 42.20000019500003 ], [ 21.11083615900003, 42.200691200000051 ], [ 20.915000200000065, 42.11999107400004 ], [ 20.795409216000053, 42.083118076000062 ], [ 20.770836158000066, 42.04680012700004 ], [ 20.759854021000024, 41.985618101000057 ], [ 20.777563306000047, 41.937391145000049 ], [ 20.736945106000064, 41.868118068000058 ], [ 20.707782286000054, 41.856391115000065 ], [ 20.618954061000068, 41.861518157000035 ], [ 20.589645060000066, 41.882191116000058 ], [ 20.583400207000068, 41.91881802100005 ], [ 20.60332717600005, 41.934718156000031 ], [ 20.621736182000063, 41.956527030000075 ], [ 20.595273173000066, 42.043609137000033 ], [ 20.525136089000057, 42.213054004000071 ], [ 20.508891122000023, 42.230273115000045 ], [ 20.457536207000032, 42.273909136000043 ], [ 20.386945160000039, 42.304164118000074 ], [ 20.355673284000034, 42.311845127000026 ], [ 20.249509104000026, 42.327073201000076 ], [ 20.239582249000023, 42.360554043000036 ], [ 20.222500265000065, 42.428327094000053 ], [ 20.161663238000074, 42.511318162000066 ], [ 20.102082156000051, 42.533473208000032 ], [ 20.071418137000023, 42.560909189000029 ] ] ] }
        }
    ]
}