{"type": "FeatureCollection", "features": [{"type": "Feature", "properties": {"WCID": "SUD", "COUNTRY": "Sudan"}, "geometry": {"type": "MultiPolygon", "coordinates": [[[[22.863234, 10.891817], [22.952015, 11.191049], [22.953668, 11.250942], [22.914808, 11.396101], [22.900442, 11.408245], [22.771871, 11.403181], [22.76877, 11.442326], [22.743035, 11.466097], [22.628107, 11.509841], [22.592347, 11.543663], [22.541704, 11.632986], [22.537053, 11.68089], [22.612397, 12.072804], [22.458091, 12.03043], [22.484033, 12.164737], [22.407965, 12.399761], [22.372825, 12.463116], [22.445689, 12.611066], [22.33014, 12.661451], [22.204877, 12.743358], [22.144105, 12.671269], [22.105865, 12.650392], [22.019668, 12.631426], [21.935953, 12.63954], [21.880142, 12.676282], [21.809449, 12.793665], [21.85296, 12.905725], [21.964065, 13.098349], [22.016051, 13.140233], [22.139971, 13.193511], [22.267612, 13.334562], [22.275984, 13.376316], [22.215625, 13.464993], [22.195885, 13.580464], [22.132116, 13.638652], [22.112893, 13.729835], [22.074962, 13.780323], [22.214695, 13.956617], [22.546355, 14.139707], [22.531885, 14.220632], [22.457678, 14.241147], [22.429049, 14.264608], [22.418094, 14.30595], [22.45096, 14.345792], [22.424915, 14.470436], [22.363523, 14.543532], [22.382334, 14.579111], [22.465429, 14.629289], [22.676579, 14.688975], [22.650844, 14.816151], [22.658906, 14.857415], [22.715337, 14.899428], [22.738901, 14.97981], [22.848765, 15.087504], [22.905506, 15.112567], [22.958009, 15.201631], [22.976406, 15.373636], [22.906849, 15.481408], [22.906746, 15.541404], [23.004518, 15.611425], [23.094642, 15.704262], [23.166782, 15.712944], [23.320571, 15.681318], [23.395812, 15.688346], [23.592699, 15.749014], [23.829067, 15.731031], [23.945546, 15.692222], [23.972624, 15.691085], [23.984406, 15.72116], [23.981306, 19.995421], [24.980521, 20.002062], [24.981245, 21.995351], [31.248407, 21.994369], [31.359512, 22.188104], [31.42328, 22.226965], [31.460901, 22.215493], [31.491803, 22.173221], [31.435476, 21.995351], [33.181136, 21.995409], [33.560882, 21.709118], [33.999118, 21.767353], [34.084179, 21.995454], [36.883637, 21.995714], [36.87794, 21.97602], [36.840099, 21.966132], [36.873546, 21.936103], [36.874197, 21.815253], [36.896821, 21.677883], [36.887869, 21.650133], [36.98406, 21.465806], [37.113617, 21.278062], [37.198985, 21.202135], [37.312999, 21.057685], [37.303966, 21.020901], [37.251964, 21.006049], [37.189301, 21.097235], [37.209321, 21.098619], [37.250011, 21.054999], [37.272146, 21.054267], [37.229747, 21.127834], [37.175141, 21.156724], [37.15919, 21.148017], [37.148611, 21.218736], [37.12143, 21.22427], [37.104991, 21.207506], [37.117849, 21.086127], [37.086436, 21.040595], [37.147309, 20.940863], [37.169119, 20.746405], [37.228038, 20.565009], [37.222423, 20.468248], [37.182302, 20.462836], [37.178884, 20.449937], [37.175141, 20.349189], [37.224892, 20.119532], [37.188813, 20.01317], [37.26531, 19.786851], [37.263357, 19.703762], [37.238292, 19.65526], [37.243826, 19.576158], [37.285818, 19.475287], [37.333507, 19.159654], [37.36085, 19.128323], [37.355235, 19.10163], [37.379562, 19.069301], [37.434337, 18.861721], [37.539806, 18.715888], [37.674725, 18.740953], [37.701671, 18.711168], [37.740733, 18.709174], [37.765573, 18.667295], [37.758067, 18.628648], [37.785159, 18.64016], [37.812755, 18.615627], [37.925505, 18.585044], [38.038198, 18.461086], [38.121858, 18.413301], [38.082957, 18.382879], [38.076119, 18.348119], [38.103624, 18.291663], [38.151674, 18.249331], [38.245434, 18.243906], [38.251161, 18.280825], [38.306163, 18.306545], [38.312348, 18.295966], [38.27947, 18.273017], [38.276215, 18.242011], [38.217296, 18.217719], [38.265147, 18.223944], [38.376231, 18.190619], [38.391449, 18.224189], [38.443207, 18.155707], [38.433849, 18.142279], [38.475597, 18.130561], [38.49171, 18.141425], [38.512218, 18.073717], [38.531993, 18.070705], [38.541677, 18.085883], [38.52589, 18.128363], [38.542817, 18.118394], [38.584483, 18.077135], [38.603852, 18.013861], [38.459285, 17.890744], [38.371332, 17.698817], [38.343737, 17.655926], [38.25661, 17.602544], [38.250202, 17.541824], [38.233356, 17.525701], [38.209688, 17.522291], [38.160595, 17.557327], [38.119461, 17.545597], [38.107989, 17.493817], [38.076466, 17.479864], [38.071195, 17.538104], [38.038846, 17.548181], [37.946862, 17.495729], [37.895909, 17.442554], [37.849193, 17.444001], [37.79886, 17.477126], [37.763927, 17.45909], [37.720415, 17.38385], [37.496036, 17.312174], [37.505648, 17.236778], [37.494693, 17.174612], [37.45976, 17.09472], [37.403432, 17.029918], [37.309795, 17.055343], [37.233417, 17.024647], [37.133991, 17.01643], [37.000459, 17.072602], [36.973484, 17.062526], [36.997049, 16.999532], [36.96811, 16.946615], [36.990641, 16.913646], [36.999736, 16.842126], [36.960359, 16.705648], [36.892352, 16.636867], [36.876539, 16.513567], [36.933693, 16.418069], [36.928216, 16.361121], [36.954261, 16.278284], [36.885944, 16.184853], [36.759544, 15.837484], [36.670971, 15.723124], [36.61671, 15.531534], [36.627872, 15.445622], [36.575576, 15.393428], [36.524933, 15.247908], [36.425094, 15.133444], [36.52638, 14.263523], [36.432122, 13.969924], [36.458167, 13.820139], [36.398429, 13.67604], [36.391298, 13.599352], [36.233581, 13.36164], [36.136946, 13.032436], [36.149865, 12.980242], [36.114415, 12.933889], [36.143044, 12.856942], [36.123614, 12.721447], [36.099429, 12.69566], [36.029976, 12.717158], [35.687671, 12.659228], [35.672375, 12.604296], [35.616875, 12.575151], [35.428772, 12.266953], [35.412546, 12.198636], [35.353738, 12.14603], [35.317358, 12.023712], [35.251419, 11.971725], [35.245734, 11.929867], [35.215555, 11.896588], [35.126672, 11.862946], [35.072722, 11.818866], [35.040579, 11.727399], [35.073135, 11.54896], [34.944254, 11.253242], [34.984148, 11.186398], [34.913558, 10.952976], [34.95831, 10.903418], [34.933816, 10.845308], [34.861572, 10.787586], [34.838524, 10.72914], [34.798527, 10.729656], [34.772895, 10.688263], [34.754395, 10.684129], [34.750674, 10.743945], [34.574768, 10.884143], [34.420048, 10.780816], [34.279489, 10.565506], [34.276181, 10.488715], [34.325894, 10.223563], [34.301813, 10.160285], [34.303466, 10.113544], [34.221921, 10.02603], [34.098208, 9.67972], [34.066892, 9.531176], [34.070698, 9.454592], [33.900855, 9.45529], [33.881425, 9.499215], [33.883905, 9.619853], [33.904886, 9.7107], [33.973254, 9.854852], [33.956097, 9.933994], [33.966794, 10.047269], [33.916978, 10.174522], [33.468995, 10.543905], [33.3813, 10.645785], [33.140023, 10.739036], [33.182088, 10.843241], [33.083231, 11.599164], [33.132427, 11.686213], [33.144984, 11.934673], [33.203017, 12.128098], [33.209218, 12.210367], [32.731779, 12.216155], [32.725733, 12.132336], [32.746662, 12.002731], [32.082207, 11.999811], [32.34834, 11.703163], [32.359812, 11.573481], [32.348754, 11.30758], [32.364153, 11.240013], [32.435363, 11.107023], [32.430713, 11.082193], [32.414073, 11.050851], [31.942887, 10.655552], [31.864184, 10.472127], [31.664816, 10.214236], [31.234817, 9.792323], [31.164382, 9.764005], [30.83696, 9.749354], [30.765284, 9.724291], [30.484578, 9.972028], [30.012979, 10.270485], [29.615432, 10.058147], [29.613882, 9.914461], [29.567321, 9.841364], [29.483089, 9.761679], [29.252354, 9.711165], [29.132258, 9.667731], [29.009474, 9.603239], [28.913833, 9.529031], [28.828745, 9.427474], [28.843841, 9.324545], [28.04511, 9.331407], [27.997076, 9.38493], [27.895072, 9.59541], [27.769602, 9.583318], [27.33924, 9.612799], [27.080393, 9.606831], [26.694318, 9.476942], [26.625744, 9.480663], [26.556859, 9.520454], [26.179466, 9.95898], [26.102623, 9.987841], [26.010794, 10.122691], [25.905426, 10.181266], [25.893644, 10.351333], [25.82848, 10.419546], [25.327425, 10.316581], [25.232754, 10.322317], [25.07695, 10.286867], [25.017057, 10.168011], [25.028994, 10.092047], [24.976284, 9.967351], [24.913859, 9.890715], [24.796398, 9.818859], [24.792522, 9.520402], [24.680178, 9.373357], [24.659869, 9.176986], [24.559307, 8.999865], [24.558377, 8.886746], [24.493833, 8.858349], [24.380093, 8.844216], [24.240566, 8.761534], [24.182999, 8.717919], [24.170328, 8.689327], [24.114011, 8.681642], [23.803436, 8.72213], [23.72127, 8.702002], [23.59642, 8.734145], [23.525726, 8.701485], [23.49007, 8.732595], [23.482318, 8.783393], [23.553632, 8.883154], [23.567481, 8.974828], [23.560143, 8.996455], [23.542573, 8.997281], [23.505469, 8.961082], [23.478081, 8.958912], [23.451416, 8.974182], [23.435706, 9.018934], [23.474257, 9.170682], [23.549498, 9.185254], [23.63218, 9.277574], [23.621845, 9.34062], [23.646339, 9.425033], [23.619984, 9.447719], [23.606135, 9.537171], [23.669077, 9.652022], [23.674038, 9.69034], [23.644789, 9.863068], [23.291219, 10.439726], [23.109421, 10.614495], [23.005551, 10.686817], [22.863234, 10.891817]]], [[[37.26531, 20.855048], [37.283539, 20.83275], [37.271821, 20.766099], [37.254405, 20.749823], [37.243419, 20.804023], [37.26531, 20.855048]]]]}}]}