{
    "type": "FeatureCollection",
    "features": [
        {
            "type": "Feature",
            "properties": {
                "WCID": "SUR",
                "COUNTRY": "Suriname"
            },
            "geometry": { "type": "Polygon", "coordinates": [ [ [ -55.127964003999978, 5.822173185000054 ], [ -55.104446059999987, 5.839444935000074 ], [ -55.016108846999941, 5.850418020000063 ], [ -54.946672992999936, 5.846109051000042 ], [ -54.864446019999946, 5.855136025000036 ], [ -54.887290896999957, 5.879544966000026 ], [ -54.968890903999977, 5.873335987000075 ], [ -54.995346033999965, 5.865764111000033 ], [ -55.106255041999987, 5.90458204600003 ], [ -55.144726803999959, 5.934164129000067 ], [ -55.159445928999958, 5.963400040000067 ], [ -55.047363957999949, 6.001809105000063 ], [ -54.97028196499997, 5.988054067000064 ], [ -54.876945951999971, 5.985282171000051 ], [ -54.779445977999956, 5.982500050000056 ], [ -54.709945918999949, 5.962435953000067 ], [ -54.639163930999985, 5.954718064000076 ], [ -54.344455040999947, 5.906945072000042 ], [ -54.298617932999946, 5.89805405200002 ], [ -54.204726870999934, 5.879718136000065 ], [ -54.1786088599999, 5.871391050000057 ], [ -54.025564024999937, 5.81860903200004 ], [ -53.990208821999943, 5.746944933000066 ], [ -54.006526878999978, 5.721245012000054 ], [ -54.046463965999976, 5.653535998000052 ], [ -54.051535854999941, 5.590209043000073 ], [ -54.051808937999965, 5.527082080000071 ], [ -54.067781994999962, 5.491527053000027 ], [ -54.095835889999933, 5.458053922000033 ], [ -54.120490922999977, 5.431600133000074 ], [ -54.142226873999959, 5.395273132000057 ], [ -54.16668191499997, 5.347400060000041 ], [ -54.170699863999971, 5.342218032000062 ], [ -54.193335863999948, 5.315273063000063 ], [ -54.24499990399994, 5.285000143000048 ], [ -54.283481891999941, 5.254864184000041 ], [ -54.317326843999979, 5.208627091000039 ], [ -54.347781985999973, 5.148336061000066 ], [ -54.378890916999978, 5.112218105000068 ], [ -54.408617839999977, 5.080553957000063 ], [ -54.448063913999931, 5.02416420000003 ], [ -54.455281905999982, 5.004027013000041 ], [ -54.476108923999959, 4.867773142000033 ], [ -54.477781951999987, 4.754164155000069 ], [ -54.473335854999959, 4.734582185000022 ], [ -54.439726769999936, 4.669164113000022 ], [ -54.422090910999941, 4.601527016000034 ], [ -54.423263873999986, 4.564309019000063 ], [ -54.442917928999975, 4.53069104900004 ], [ -54.45180894899994, 4.512364185000024 ], [ -54.440235886999972, 4.410644928000067 ], [ -54.431399852999959, 4.36916423100007 ], [ -54.393890835999969, 4.237217987000065 ], [ -54.36500880899996, 4.163609119000057 ], [ -54.360763877999943, 4.042427083000064 ], [ -54.290281962999984, 3.933891159000041 ], [ -54.188681895999935, 3.808744986000022 ], [ -54.146390835999966, 3.797782127000062 ], [ -54.127646050999942, 3.788609140000062 ], [ -53.997781871999962, 3.626945026000044 ], [ -53.986117782999941, 3.601527072000067 ], [ -54.001108816999931, 3.448336056000073 ], [ -54.071108939999931, 3.31278207400004 ], [ -54.094454887999973, 3.295000034000054 ], [ -54.118755030999978, 3.277782096000067 ], [ -54.187226797999983, 3.194864119000044 ], [ -54.206117930999937, 3.145282144000021 ], [ -54.208472910999944, 3.124309113000038 ], [ -54.19574599699996, 3.096200066000051 ], [ -54.176117925999961, 3.043891122000048 ], [ -54.16083587299994, 2.953609140000026 ], [ -54.195281974999943, 2.796244942000044 ], [ -54.204590915999972, 2.775000003000059 ], [ -54.222917779999932, 2.755553987000042 ], [ -54.256955012999981, 2.718891040000074 ], [ -54.315135813999973, 2.629164107000065 ], [ -54.32180881499994, 2.598473098000056 ], [ -54.351955000999965, 2.523891091000053 ], [ -54.365908857999955, 2.496600117000071 ], [ -54.420563895999976, 2.43471803500006 ], [ -54.499172903999977, 2.365000046000034 ], [ -54.603781905999938, 2.329191047000052 ], [ -54.634726886999943, 2.320073213000057 ], [ -54.687499851999974, 2.325553971000033 ], [ -54.709099848999983, 2.387918013000046 ], [ -54.690208882999968, 2.399509012000067 ], [ -54.689863883999976, 2.451600026000051 ], [ -54.75312680199994, 2.470627114000024 ], [ -54.775381927999945, 2.456845086000044 ], [ -54.80375500599996, 2.438054032000025 ], [ -54.847499822999964, 2.436109095000063 ], [ -54.869164024999975, 2.44194507900005 ], [ -54.96944595399998, 2.550553925000031 ], [ -55.091945959999975, 2.53471799600004 ], [ -55.111946018999959, 2.527218036000022 ], [ -55.50333580399996, 2.438891049000063 ], [ -55.71368184399995, 2.400135978000037 ], [ -55.86409995799994, 2.471454072000029 ], [ -55.886390958999982, 2.497082077000073 ], [ -55.917508942999973, 2.52069104800006 ], [ -55.941808917999936, 2.530554034000033 ], [ -55.962781948999975, 2.533054020000066 ], [ -55.982499872999938, 2.522082109000053 ], [ -56.000417867999943, 2.450836099000071 ], [ -56.084445943999981, 2.357500087000062 ], [ -56.115835836999963, 2.249164156000063 ], [ -56.036390816999983, 2.208891122000068 ], [ -55.903963954999938, 2.047782058000053 ], [ -55.901735876999965, 1.90104494000002 ], [ -55.942645934999973, 1.856109054000058 ], [ -55.965835810999977, 1.84528215000006 ], [ -55.995972943999959, 1.83763601000004 ], [ -56.027499964999947, 1.836244950000037 ], [ -56.068064016999983, 1.845554059000051 ], [ -56.113335849999942, 1.863609014000076 ], [ -56.201664010999934, 1.891664082000034 ], [ -56.326955022999982, 1.925282052000057 ], [ -56.426390881999964, 1.934164187000022 ], [ -56.470635763999951, 1.944500079000022 ], [ -56.47736391799998, 1.962082127000031 ], [ -56.555972925999981, 2.020553948000043 ], [ -56.579726904999973, 2.027364077000072 ], [ -56.646117780999987, 2.028054075000057 ], [ -56.682090896999966, 2.026764101000026 ], [ -56.774999935999972, 2.140836103000026 ], [ -56.810564015999944, 2.193335986000022 ], [ -56.85389091199994, 2.283336001000066 ], [ -56.917781968999975, 2.428053919000035 ], [ -56.944726769999932, 2.483053956000049 ], [ -57.116881841999941, 2.757191141000021 ], [ -57.200835821999931, 2.822845080000036 ], [ -57.213335754999946, 2.87889117800006 ], [ -57.207217802999935, 3.004236003000074 ], [ -57.210281891999955, 3.03583594600002 ], [ -57.220281837999948, 3.06500010700006 ], [ -57.25500890099994, 3.103608997000038 ], [ -57.283617844999981, 3.140973175000056 ], [ -57.289999825999985, 3.181391047000034 ], [ -57.292499812999949, 3.267364229000066 ], [ -57.283545928999956, 3.318682096000032 ], [ -57.304172953999966, 3.380417998000041 ], [ -57.429454913999962, 3.347218117000068 ], [ -57.530554915999971, 3.346391159000063 ], [ -57.610417856999959, 3.360000017000061 ], [ -57.642226844999982, 3.356391105000057 ], [ -57.657781980999971, 3.413891128000046 ], [ -57.638408887999958, 3.457009147000065 ], [ -57.65444598299996, 3.518609095000045 ], [ -57.668617937999954, 3.53833607200005 ], [ -57.74083574499997, 3.613745037000058 ], [ -57.760563894999962, 3.624164078000035 ], [ -57.816672857999947, 3.65028208800004 ], [ -57.838481899999977, 3.669309009000074 ], [ -57.845972973999949, 3.692636013000026 ], [ -57.849308803999975, 3.738891043000024 ], [ -57.85945493, 3.771664117000057 ], [ -57.867499880999958, 3.790836044000059 ], [ -57.876672867999957, 3.809164081000063 ], [ -57.931945987999939, 3.890691165000021 ], [ -57.95041785799998, 3.91319104300004 ], [ -57.968890901999941, 3.929164101000026 ], [ -58.016399864999983, 3.963609029000054 ], [ -58.043755043999965, 4.001527083000042 ], [ -58.071399901999939, 4.155691070000046 ], [ -58.061808825999947, 4.180136053000069 ], [ -58.039172992999966, 4.211391164000077 ], [ -58.002781954999932, 4.23971797300004 ], [ -57.954517782999972, 4.28833602900005 ], [ -57.949172977999979, 4.317218056000058 ], [ -57.948617927999976, 4.349164171000041 ], [ -57.902781993999952, 4.503609120000021 ], [ -57.846945945999948, 4.628891080000074 ], [ -57.840354919999982, 4.669026985000073 ], [ -57.887781906999976, 4.768336110000064 ], [ -57.90902684699995, 4.777782179000042 ], [ -57.924863949999974, 4.796391178000022 ], [ -57.923335761999965, 4.821945086000028 ], [ -57.901390932999959, 4.855554003000066 ], [ -57.841117840999971, 4.927782037000043 ], [ -57.676255024999932, 5.011526973000059 ], [ -57.634173008999937, 5.000282147000064 ], [ -57.610981959999947, 4.992218085000047 ], [ -57.473617820999948, 4.989164222000056 ], [ -57.417090936999955, 4.989445016000047 ], [ -57.327226875999941, 5.026109137000049 ], [ -57.321945941999957, 5.07597307900005 ], [ -57.292364025999973, 5.166245003000029 ], [ -57.272090883999965, 5.177082134000045 ], [ -57.25055492499996, 5.172636037000075 ], [ -57.23152683099994, 5.146453989000065 ], [ -57.191045926999948, 5.172009070000058 ], [ -57.207508822999955, 5.223609072000045 ], [ -57.235208833999934, 5.259944958000062 ], [ -57.262226892999934, 5.221664136000072 ], [ -57.282781833999934, 5.226391026000044 ], [ -57.324445927999932, 5.303609142000028 ], [ -57.299445895999952, 5.35971810500007 ], [ -57.271599871999967, 5.384864149000066 ], [ -57.248508902999959, 5.486108991000037 ], [ -57.184308888999965, 5.518891117000067 ], [ -57.167426896999984, 5.541391163000071 ], [ -57.138890874999959, 5.671664211000063 ], [ -57.135972966999987, 5.692500113000051 ], [ -57.132499841999959, 5.767500042000052 ], [ -57.067917780999949, 5.941736005000053 ], [ -56.992499929999951, 5.989444960000071 ], [ -56.96444603599997, 5.997082047000049 ], [ -56.700563941999974, 5.965554021000059 ], [ -56.603617842999938, 5.940500010000051 ], [ -56.554454963999945, 5.948336083000072 ], [ -56.48000891099997, 5.945418007000058 ], [ -56.260563979999972, 5.889164205000043 ], [ -56.017781985999932, 5.818335950000062 ], [ -55.910554980999962, 5.778364162000059 ], [ -55.894445967999957, 5.730273160000024 ], [ -55.898608923999973, 5.67444499100003 ], [ -55.899554905999935, 5.671909130000074 ], [ -55.885972869999932, 5.683054044000073 ], [ -55.877781906999985, 5.71763610000005 ], [ -55.891108797999948, 5.77583601300006 ], [ -55.922717792999947, 5.876073181000038 ], [ -55.855835904999935, 5.948891133000075 ], [ -55.827781841999979, 5.958336029000066 ], [ -55.768063966999932, 5.967217997000034 ], [ -55.620281960999932, 5.974445041000024 ], [ -55.548617862999947, 5.977782044000037 ], [ -55.412781912999947, 5.964164134000043 ], [ -55.37722688499997, 5.960000172000036 ], [ -55.339026863999948, 5.950136013000076 ], [ -55.266672934999974, 5.92360913400006 ], [ -55.253890867999985, 5.915836092000063 ], [ -55.230563862999986, 5.89805405200002 ], [ -55.17499989199996, 5.907217987000024 ], [ -55.115554930999963, 5.876982115000033 ], [ -55.114026910999939, 5.840000152000073 ], [ -55.127964003999978, 5.822173185000054 ] ] ] }
        }
    ]
}