{
    "type": "FeatureCollection",
    "features": [
        {
            "type": "Feature",
            "properties": {
                "WCID": "SVK",
                "COUNTRY": "Slovakia"
            },
            "geometry": { "type": "Polygon", "coordinates": [ [ [ 19.001273230000038, 48.06895399800004 ], [ 18.989800249000041, 48.067100088000075 ], [ 18.965673276000075, 48.05980012100008 ], [ 18.90728225600003, 48.057973202000028 ], [ 18.845336135000025, 48.04912710900004 ], [ 18.827363323000043, 48.036127112000031 ], [ 18.771663230000058, 47.965554002000033 ], [ 18.759654142000045, 47.914718094000079 ], [ 18.783500153000034, 47.872082202000058 ], [ 18.820000157000038, 47.855554095000059 ], [ 18.854718167000044, 47.831664162000038 ], [ 18.849718194000047, 47.817773169000077 ], [ 18.788054041000066, 47.817218120000064 ], [ 18.757782295000027, 47.814354023000078 ], [ 18.729654137000068, 47.795482168000035 ], [ 18.68291815300006, 47.766382212000053 ], [ 18.663054048000049, 47.759718096000029 ], [ 18.63694509000004, 47.759164220000059 ], [ 18.597218222000038, 47.76305409400004 ], [ 18.540836177000074, 47.767491138000025 ], [ 18.449300262000065, 47.767354010000076 ], [ 18.413327145000039, 47.753882112000042 ], [ 18.378609134000044, 47.74721816400006 ], [ 18.337500258000034, 47.740827130000071 ], [ 18.304718131000072, 47.737500185000044 ], [ 18.195827150000071, 47.747773213000073 ], [ 18.125409105000074, 47.756109184000081 ], [ 18.086109211000064, 47.759436129000051 ], [ 17.976109137000037, 47.763609143000053 ], [ 17.908882250000033, 47.750691122000035 ], [ 17.896945079000034, 47.747554110000067 ], [ 17.787282292000043, 47.746427080000046 ], [ 17.712218158000042, 47.770554053000069 ], [ 17.48586335300007, 47.877964119000069 ], [ 17.462082218000035, 47.892082094000045 ], [ 17.445209111000054, 47.913053951000052 ], [ 17.411882161000051, 47.944745089000037 ], [ 17.341945070000065, 47.995753999000044 ], [ 17.311945065000032, 47.998053993000042 ], [ 17.263191222000046, 48.007500063000066 ], [ 17.251654035000058, 48.024991083000032 ], [ 17.239191151000057, 48.025691140000049 ], [ 17.181109088000028, 48.020764257000053 ], [ 17.166382251000073, 48.012500203000059 ], [ 17.116663316000029, 48.038609161000068 ], [ 17.081109127000047, 48.088336143000049 ], [ 17.069145133000063, 48.135264240000026 ], [ 17.033545179000043, 48.145264186000077 ], [ 16.998018147000039, 48.169700116000058 ], [ 16.975273182000024, 48.188327051000044 ], [ 16.952363261000073, 48.25027317200005 ], [ 16.949718100000041, 48.278045099000053 ], [ 16.923891277000052, 48.282082159000026 ], [ 16.844718167000053, 48.361973096000042 ], [ 16.855827206000072, 48.44943607700003 ], [ 16.865691197000046, 48.468745132000038 ], [ 16.907500130000074, 48.506944985000075 ], [ 16.933327121000048, 48.532773149000036 ], [ 16.943336119000037, 48.573327144000075 ], [ 16.946182278000038, 48.619064172000037 ], [ 16.988327158000061, 48.681664248000061 ], [ 17.02250017700004, 48.743609195000033 ], [ 17.041527098000074, 48.76832709200005 ], [ 17.112218225000049, 48.831800060000035 ], [ 17.187909158000025, 48.869445032000044 ], [ 17.238327144000039, 48.872427145000074 ], [ 17.330827146000047, 48.850273104000053 ], [ 17.382218103000071, 48.825273240000058 ], [ 17.411245136000048, 48.824718023000059 ], [ 17.502782225000033, 48.838882098000056 ], [ 17.650273211000069, 48.851945126000032 ], [ 17.677500147000046, 48.851945126000032 ], [ 17.712218158000042, 48.856109088000039 ], [ 17.760273285000039, 48.878191212000047 ], [ 17.841945041000031, 48.92832706300004 ], [ 17.91110915400003, 48.984991076000028 ], [ 18.075282139000024, 49.041945102000057 ], [ 18.121945032000042, 49.082773185000065 ], [ 18.149445051000043, 49.121391128000027 ], [ 18.145282262000023, 49.145000099000072 ], [ 18.158118141000045, 49.164718024000081 ], [ 18.174163283000041, 49.210273165000046 ], [ 18.17624518100007, 49.244300171000077 ], [ 18.211318081000059, 49.286382187000072 ], [ 18.275691265000034, 49.300973236000061 ], [ 18.312500225000065, 49.305691074000038 ], [ 18.383191185000044, 49.333053965000033 ], [ 18.544373172000064, 49.461800166000046 ], [ 18.565900247000059, 49.493673191000028 ], [ 18.655554089000077, 49.504164148000029 ], [ 18.792773220000072, 49.513882127000045 ], [ 18.851245042000073, 49.517354079000029 ], [ 18.968609121000043, 49.481664270000067 ], [ 18.968327154000065, 49.456382103000067 ], [ 18.974927064000042, 49.401936110000065 ], [ 19.031663329000025, 49.391935997000076 ], [ 19.159582236000062, 49.400273140000081 ], [ 19.191663300000073, 49.414027005000037 ], [ 19.199300219000065, 49.437773105000076 ], [ 19.242363253000065, 49.50680008900008 ], [ 19.269027093000034, 49.526664194000034 ], [ 19.447773190000078, 49.600827106000054 ], [ 19.475554170000066, 49.60000014700006 ], [ 19.520982242000059, 49.574164272000075 ], [ 19.535273219000032, 49.535554041000069 ], [ 19.57708215200006, 49.459018044000061 ], [ 19.658609236000075, 49.40666417400007 ], [ 19.710554070000057, 49.397500072000071 ], [ 19.778018165000049, 49.407491133000065 ], [ 19.805000182000072, 49.364718113000038 ], [ 19.825654029000077, 49.277564257000051 ], [ 19.798054098000023, 49.252773102000049 ], [ 19.773609116000046, 49.233054004000053 ], [ 19.765973202000055, 49.214436121000062 ], [ 19.783473275000063, 49.200200129000052 ], [ 19.84291823500007, 49.191800120000039 ], [ 19.867909215000054, 49.197127155000032 ], [ 19.911245163000046, 49.226173132000042 ], [ 19.936391208000032, 49.231109067000034 ], [ 19.979582149000066, 49.226391061000072 ], [ 19.998900257000059, 49.21762711100007 ], [ 20.020554066000045, 49.19943603400003 ], [ 20.039163232000078, 49.188891097000067 ], [ 20.073363241000038, 49.17787325300003 ], [ 20.092636086000027, 49.204854096000076 ], [ 20.103336089000038, 49.248600087000057 ], [ 20.143609122000043, 49.314991131000056 ], [ 20.206663330000026, 49.340273130000071 ], [ 20.327773282000067, 49.383327111000028 ], [ 20.360554067000066, 49.393053975000043 ], [ 20.602773300000024, 49.395553961000076 ], [ 20.740836153000032, 49.388882134000028 ], [ 20.812500252000063, 49.330827061000036 ], [ 20.913609139000073, 49.296109050000041 ], [ 20.95582710900004, 49.301664240000036 ], [ 20.982354156000042, 49.309436109000046 ], [ 21.035554096000055, 49.359718140000041 ], [ 21.050554014000056, 49.410544995000066 ], [ 21.071527213000024, 49.422082182000054 ], [ 21.281945169000039, 49.456391156000052 ], [ 21.400845149000077, 49.429054081000061 ], [ 21.436391124000068, 49.41389121900005 ], [ 21.459300206000023, 49.411945108000054 ], [ 21.500827172000072, 49.422218136000026 ], [ 21.533609131000048, 49.429718096000045 ], [ 21.612636061000046, 49.436527051000041 ], [ 21.838054104000037, 49.384436037000057 ], [ 21.95860917400006, 49.340273130000071 ], [ 22.020136199000035, 49.273882087000061 ], [ 22.025273300000038, 49.247218079000049 ], [ 22.029891226000075, 49.220236062000026 ], [ 22.225000139000031, 49.15471807800003 ], [ 22.323891174000039, 49.138609066000072 ], [ 22.348891206000076, 49.138473111000053 ], [ 22.537773204000075, 49.087918165000076 ], [ 22.558054057000049, 49.079436014000066 ], [ 22.551663191000046, 49.039436063000039 ], [ 22.53485412200007, 48.994854061000069 ], [ 22.461382215000071, 48.949436048000052 ], [ 22.425000228000044, 48.889436038000042 ], [ 22.38874514400004, 48.800200118000078 ], [ 22.328673218000063, 48.687000168000054 ], [ 22.235273167000059, 48.624709048000057 ], [ 22.173609182000064, 48.592764274000046 ], [ 22.159791279000046, 48.578254026000081 ], [ 22.151445083000056, 48.411918175000039 ], [ 22.150554087000046, 48.408609167000066 ], [ 22.098609253000063, 48.377982196000062 ], [ 22.064863208000077, 48.385136150000051 ], [ 22.029445141000053, 48.387500182000053 ], [ 21.96500020700006, 48.381944992000058 ], [ 21.935836046000077, 48.379164212000035 ], [ 21.852500147000057, 48.362145093000038 ], [ 21.828127081000048, 48.343464177000044 ], [ 21.780973176000032, 48.340691108000044 ], [ 21.722354168000038, 48.355336137000052 ], [ 21.625409243000036, 48.458882146000064 ], [ 21.617291202000047, 48.492500116000031 ], [ 21.507218206000061, 48.548882161000051 ], [ 21.438191221000068, 48.575345003000052 ], [ 21.308709089000047, 48.548044977000075 ], [ 21.253891275000058, 48.522218154000029 ], [ 21.153327212000022, 48.511109114000078 ], [ 21.084445067000047, 48.513609101000043 ], [ 20.946391265000045, 48.524718140000061 ], [ 20.870000108000056, 48.55082709800007 ], [ 20.84347322900004, 48.567635999000061 ], [ 20.81805410100003, 48.576173135000033 ], [ 20.713336135000077, 48.569164188000059 ], [ 20.65291820300007, 48.561664228000041 ], [ 20.53971808600005, 48.536944990000052 ], [ 20.500827061000052, 48.504436114000043 ], [ 20.499445053000045, 48.483054046000063 ], [ 20.451109131000067, 48.448745072000065 ], [ 20.435836130000041, 48.433609032000049 ], [ 20.414163211000073, 48.399718147000044 ], [ 20.402500128000042, 48.361245044000043 ], [ 20.363054053000042, 48.304582205000031 ], [ 20.340827090000062, 48.28610916100007 ], [ 20.317218118000028, 48.26971818100003 ], [ 20.283018109000068, 48.255718056000035 ], [ 20.235554074000049, 48.274991069000066 ], [ 20.140554086000066, 48.22610915100006 ], [ 20.093327090000059, 48.19832716500008 ], [ 20.059327074000066, 48.176309079000077 ], [ 20.010136198000055, 48.173882182000057 ], [ 19.969027154000059, 48.153473254000062 ], [ 19.939863328000058, 48.136245090000045 ], [ 19.910627082000076, 48.13048219600006 ], [ 19.786836094000023, 48.19690911400005 ], [ 19.755000117000066, 48.209445089000042 ], [ 19.653327129000047, 48.232918106000056 ], [ 19.63055416800006, 48.233891077000067 ], [ 19.53021809300003, 48.208927087000063 ], [ 19.508609211000078, 48.17304499800008 ], [ 19.49729112700004, 48.135900091000053 ], [ 19.472427217000075, 48.089436016000036 ], [ 19.208336079000048, 48.059445064000045 ], [ 19.139454101000069, 48.061673141000028 ], [ 19.041709208000043, 48.070636078000064 ], [ 19.001273230000038, 48.06895399800004 ] ] ] }
        }
    ]
}