{
    "type": "FeatureCollection",
    "features": [
        {
            "type": "Feature",
            "properties": {
                "WCID": "SVN",
                "COUNTRY": "Slovenia"
            },
            "geometry": { "type": "Polygon", "coordinates": [ [ [ 15.30709121700005, 45.629864256000076 ], [ 15.294000193000045, 45.594536042000072 ], [ 15.303973149000058, 45.538627072000054 ], [ 15.27721811400005, 45.462773195000068 ], [ 15.174454137000055, 45.425818054000047 ], [ 15.156673270000056, 45.429291179000074 ], [ 15.092027171000041, 45.471518034000042 ], [ 14.979063256000074, 45.500473151000051 ], [ 14.912836163000065, 45.482491119000031 ], [ 14.863718210000059, 45.468654106000031 ], [ 14.826091176000034, 45.465445010000053 ], [ 14.723609166000074, 45.531391142000075 ], [ 14.620836136000037, 45.612082216000033 ], [ 14.609582258000046, 45.633045020000054 ], [ 14.609791135000023, 45.668436098000029 ], [ 14.570345060000022, 45.666382196000029 ], [ 14.535000251000042, 45.612218170000062 ], [ 14.496109226000044, 45.543682197000066 ], [ 14.413473215000067, 45.49166410600003 ], [ 14.392500185000074, 45.486109084000077 ], [ 14.137218091000022, 45.475273127000037 ], [ 13.988263289000031, 45.463400161000038 ], [ 13.952500223000072, 45.456664128000057 ], [ 13.90694508200005, 45.453327125000044 ], [ 13.703609163000067, 45.444164196000031 ], [ 13.673473203000071, 45.445691211000053 ], [ 13.640482200000065, 45.453745047000041 ], [ 13.601391183000032, 45.473191062000069 ], [ 13.591736069000035, 45.481700203000059 ], [ 13.589445127000033, 45.516936047000058 ], [ 13.665836116000037, 45.543054058000052 ], [ 13.749927057000036, 45.54901811700006 ], [ 13.716945106000026, 45.596109158000047 ], [ 13.80221823100004, 45.586391179000032 ], [ 13.827773145000037, 45.584445069000026 ], [ 13.857218100000068, 45.587218138000026 ], [ 13.918336089000036, 45.636391076000052 ], [ 13.835282157000051, 45.717773153000053 ], [ 13.791527113000029, 45.752773131000026 ], [ 13.697500097000045, 45.784164197000052 ], [ 13.603745157000048, 45.808882094000069 ], [ 13.578327203000072, 45.850273106000031 ], [ 13.590691180000022, 45.888118069000029 ], [ 13.614100160000078, 45.905136015000039 ], [ 13.634718133000035, 45.947909035000066 ], [ 13.635100180000052, 45.982009131000041 ], [ 13.593336174000058, 45.993045080000059 ], [ 13.568954056000052, 45.979373190000047 ], [ 13.54028224700005, 45.968327016000046 ], [ 13.509863314000029, 45.986245010000061 ], [ 13.479718135000041, 46.012218013000052 ], [ 13.521945157000061, 46.06332700300004 ], [ 13.538891186000058, 46.079436016000045 ], [ 13.557363225000074, 46.087282148000043 ], [ 13.59360908900004, 46.105273232000059 ], [ 13.648191204000057, 46.145545092000077 ], [ 13.666036108000071, 46.175309063000043 ], [ 13.550554102000035, 46.218045034000056 ], [ 13.488473200000044, 46.23194508000006 ], [ 13.458954149000022, 46.223191188000044 ], [ 13.418891166000037, 46.213054114000045 ], [ 13.383473267000056, 46.295136080000077 ], [ 13.440836162000039, 46.346382198000072 ], [ 13.511391168000046, 46.384718174000056 ], [ 13.657773228000053, 46.449718156000074 ], [ 13.692009112000051, 46.451664267000069 ], [ 13.711109122000039, 46.492773143000079 ], [ 13.719163293000065, 46.51846418000008 ], [ 13.718654009000034, 46.526609043000065 ], [ 13.776109105000046, 46.518327052000075 ], [ 13.845554011000047, 46.520000079000056 ], [ 13.936945087000026, 46.515827065000053 ], [ 14.082218222000051, 46.489164231000075 ], [ 14.115836191000028, 46.478882150000061 ], [ 14.128891173000056, 46.463054100000079 ], [ 14.153682161000063, 46.442636119000042 ], [ 14.478054103000034, 46.419445069000062 ], [ 14.545000196000046, 46.407491134000054 ], [ 14.813191259000064, 46.511382142000059 ], [ 14.825000187000057, 46.541382147000036 ], [ 14.833745027000077, 46.570691148000037 ], [ 14.867500125000049, 46.613327040000058 ], [ 15.055136068000024, 46.652082110000038 ], [ 15.074409249000041, 46.648573110000029 ], [ 15.102918113000044, 46.656664161000037 ], [ 15.139445106000039, 46.657218037000064 ], [ 15.406109154000035, 46.652500199000031 ], [ 15.602500164000048, 46.686664166000071 ], [ 15.806663209000021, 46.718609108000066 ], [ 15.832782225000074, 46.722218020000071 ], [ 15.859027138000044, 46.723191159000066 ], [ 15.987918178000029, 46.755136101000062 ], [ 15.988327214000037, 46.831591128000071 ], [ 16.009309130000076, 46.835491060000038 ], [ 16.111800192000032, 46.869718059000036 ], [ 16.139791223000032, 46.859164237000073 ], [ 16.18103605400006, 46.864582132000066 ], [ 16.22944506500005, 46.876245047000054 ], [ 16.269718098000055, 46.87444511700005 ], [ 16.298191256000052, 46.869300137000039 ], [ 16.349027164000063, 46.842353995000053 ], [ 16.337218235000023, 46.809164173000056 ], [ 16.315482284000041, 46.794300209000028 ], [ 16.325273185000071, 46.755827105000037 ], [ 16.359300192000035, 46.720200161000037 ], [ 16.375327061000064, 46.722773238000059 ], [ 16.385554157000058, 46.701664253000047 ], [ 16.408609084000034, 46.658882181000081 ], [ 16.530973304000042, 46.509027162000052 ], [ 16.607873242000039, 46.476235984000027 ], [ 16.591991212000039, 46.47400908000003 ], [ 16.56445414600006, 46.477091105000056 ], [ 16.517791252000052, 46.491645107000068 ], [ 16.495482146000029, 46.50569116500003 ], [ 16.463891256000068, 46.520964166000056 ], [ 16.384163264000051, 46.535827124000036 ], [ 16.335554092000052, 46.533882188000064 ], [ 16.292509164000023, 46.530818099000044 ], [ 16.267500247000044, 46.514445057000046 ], [ 16.252409133000072, 46.495564149000074 ], [ 16.266109186000051, 46.419445069000062 ], [ 16.137918203000027, 46.405964119000032 ], [ 16.07531812600007, 46.378418167000063 ], [ 16.075836128000049, 46.358191126000065 ], [ 16.080409127000053, 46.336036080000042 ], [ 16.017218126000046, 46.298045103000049 ], [ 15.797782247000043, 46.233327088000067 ], [ 15.685973191000073, 46.225964256000054 ], [ 15.659163338000042, 46.220900078000057 ], [ 15.611945060000039, 46.166936044000067 ], [ 15.600418099000024, 46.144300044000033 ], [ 15.606391211000073, 46.115827054000079 ], [ 15.632918090000032, 46.084582169000043 ], [ 15.663609099000041, 46.06798214500003 ], [ 15.711491224000042, 46.053191103000074 ], [ 15.724445120000041, 45.938609145000044 ], [ 15.696109091000039, 45.843054108000047 ], [ 15.652636182000037, 45.823391169000047 ], [ 15.629718215000025, 45.833191122000073 ], [ 15.611800220000077, 45.846736110000052 ], [ 15.499445167000033, 45.835827063000067 ], [ 15.333891179000034, 45.766391209000062 ], [ 15.31583605700007, 45.756664178000051 ], [ 15.294027183000026, 45.734300087000065 ], [ 15.288645163000069, 45.700544990000026 ], [ 15.356627092000053, 45.71200908600008 ], [ 15.352591205000067, 45.651754099000073 ], [ 15.30709121700005, 45.629864256000076 ] ] ] }
        }
    ]
}