{
    "type": "FeatureCollection",
    "features": [
        {
            "type": "Feature",
            "properties": {
                "WCID": "SWE",
                "COUNTRY": "Sweden"
            },
            "geometry": { "type": "MultiPolygon", "coordinates": [ [ [ [ 17.286945032000062, 59.259045052000033 ], [ 17.291945173000045, 59.257218132000048 ], [ 17.370554014000049, 59.248054030000048 ], [ 17.39200917200003, 59.252145069000051 ], [ 17.371809120000023, 59.270973171000037 ], [ 17.356945156000052, 59.292082156000049 ], [ 17.352909102000069, 59.321454021000079 ], [ 17.413054119000037, 59.312218169000062 ], [ 17.442773162000037, 59.304718042000047 ], [ 17.47083611000005, 59.296391124000081 ], [ 17.585827104000032, 59.282218164000028 ], [ 17.740273226000056, 59.269436097000039 ], [ 17.847218097000052, 59.264445009000042 ], [ 17.908054118000052, 59.297218083000075 ], [ 17.944027067000036, 59.318336120000083 ], [ 17.983473309000033, 59.332427106000068 ], [ 17.99653617000007, 59.333100172000059 ], [ 18.021527150000054, 59.320973235000054 ], [ 18.052500126000041, 59.316382131000069 ], [ 18.074718205000067, 59.316663260000041 ], [ 18.133609121000063, 59.318053986000052 ], [ 18.206945074000032, 59.329436107000049 ], [ 18.246463233000043, 59.350763189000077 ], [ 18.278536083000063, 59.36610911300005 ], [ 18.348609129000067, 59.373327105000044 ], [ 18.397918189000052, 59.367636128000072 ], [ 18.439273159000038, 59.347109182000054 ], [ 18.454718156000069, 59.331109135000077 ], [ 18.474445133000074, 59.337700161000043 ], [ 18.468609149000031, 59.365554063000047 ], [ 18.450273233000075, 59.394163175000074 ], [ 18.430482219000055, 59.427982143000065 ], [ 18.477218202000074, 59.43527322500006 ], [ 18.498336072000029, 59.430544994000059 ], [ 18.526391140000044, 59.419300168000063 ], [ 18.610282256000062, 59.369991108000079 ], [ 18.643154069000047, 59.321873116000063 ], [ 18.593054093000035, 59.301663174000055 ], [ 18.522218126000041, 59.295827022000083 ], [ 18.383191185000044, 59.302218056000072 ], [ 18.346527064000043, 59.30728223400007 ], [ 18.33050019500007, 59.32288212900005 ], [ 18.27721811300006, 59.310827109000058 ], [ 18.269445071000064, 59.268609139000034 ], [ 18.310000239000033, 59.219718168000043 ], [ 18.31139113200004, 59.132500106000066 ], [ 18.225827155000047, 59.117773103000047 ], [ 18.140273237000031, 59.090827128000058 ], [ 18.021382143000039, 59.041936157000066 ], [ 17.893954080000071, 58.904791122000063 ], [ 17.891945106000037, 58.874163144000079 ], [ 17.894718174000047, 58.858891149000044 ], [ 17.789445158000035, 58.943054007000057 ], [ 17.756663200000048, 59.018327018000036 ], [ 17.768891223000026, 59.09666327900004 ], [ 17.764718209000023, 59.120763263000072 ], [ 17.666245095000022, 59.16735407200008 ], [ 17.62416324700007, 59.074436148000075 ], [ 17.615973290000056, 59.029091226000048 ], [ 17.613609090000068, 58.974718155000062 ], [ 17.57832714500006, 58.950509207000039 ], [ 17.591391179000027, 58.94360017200006 ], [ 17.629100188000052, 58.910200131000067 ], [ 17.581109099000059, 58.847500143000048 ], [ 17.350000246000036, 58.75221818700004 ], [ 17.271109103000072, 58.736936134000075 ], [ 17.223609193000073, 58.730553985000029 ], [ 17.156663267000056, 58.732773178000059 ], [ 17.088473299000043, 58.763053977000027 ], [ 17.031945074000078, 58.747700174000045 ], [ 17.082218220000073, 58.723054026000057 ], [ 17.140273293000064, 58.696727138000028 ], [ 17.034445060000053, 58.637218140000073 ], [ 16.907291253000039, 58.616663199000072 ], [ 16.78971812900005, 58.623600062000037 ], [ 16.736118205000025, 58.628991135000035 ], [ 16.677773286000047, 58.636936005000052 ], [ 16.461391270000036, 58.655545004000032 ], [ 16.436391238000056, 58.657491114000038 ], [ 16.412773214000026, 58.658882175000031 ], [ 16.298336095000025, 58.663054016000046 ], [ 16.237918163000074, 58.66389120000008 ], [ 16.193609244000072, 58.627491109000061 ], [ 16.293327070000032, 58.613609169000028 ], [ 16.370554070000026, 58.605273198000077 ], [ 16.411663282000063, 58.613327034000065 ], [ 16.434582255000066, 58.639582172000075 ], [ 16.649436083000069, 58.620554079000044 ], [ 16.719027170000061, 58.603609055000049 ], [ 16.77750016400006, 58.581382092000069 ], [ 16.933609088000026, 58.488327041000048 ], [ 16.826391135000051, 58.442700151000054 ], [ 16.746109099000023, 58.429027088000055 ], [ 16.600554165000062, 58.446936030000074 ], [ 16.573336113000039, 58.452036082000063 ], [ 16.540691115000072, 58.461382240000034 ], [ 16.505691137000042, 58.472636118000082 ], [ 16.475554172000045, 58.479718156000047 ], [ 16.422845076000044, 58.477773219000028 ], [ 16.573054146000061, 58.435827158000052 ], [ 16.692773205000037, 58.408745061000047 ], [ 16.770000205000031, 58.367218095000055 ], [ 16.788891171000046, 58.322218171000031 ], [ 16.824718107000024, 58.199436030000072 ], [ 16.825836086000038, 58.176663237000071 ], [ 16.80281820600004, 58.138673267000058 ], [ 16.76447317800006, 58.125182091000056 ], [ 16.742809143000045, 58.086127116000057 ], [ 16.73180923700005, 58.04920013800006 ], [ 16.74694511000007, 58.010963237000055 ], [ 16.639254082000036, 57.987500111000031 ], [ 16.620209225000053, 57.987009099000034 ], [ 16.655500222000057, 57.977745084000048 ], [ 16.671945181000069, 57.980273234000038 ], [ 16.735618141000032, 57.965063264000037 ], [ 16.742563218000043, 57.950336093000033 ], [ 16.776182194000057, 57.920273224000027 ], [ 16.763609172000031, 57.881236018000038 ], [ 16.737082292000025, 57.872636018000037 ], [ 16.659163282000065, 57.883327135000059 ], [ 16.617918115000066, 57.891245016000028 ], [ 16.603473246000021, 57.927773183000056 ], [ 16.506209139000077, 57.99197319700005 ], [ 16.522327203000032, 57.877827098000068 ], [ 16.564327076000041, 57.854163141000072 ], [ 16.685273245000076, 57.759718035000049 ], [ 16.695173279000073, 57.741700129000037 ], [ 16.616182223000067, 57.776318060000051 ], [ 16.596663285000034, 57.798745015000065 ], [ 16.557918105000056, 57.823191171000076 ], [ 16.41923616400004, 57.889091203000078 ], [ 16.468254037000065, 57.845791129000077 ], [ 16.599609189000034, 57.770000116000062 ], [ 16.66055400700003, 57.741100152000058 ], [ 16.697082173000069, 57.717909102000078 ], [ 16.71139125600007, 57.702636101000053 ], [ 16.625554029000057, 57.61971812400003 ], [ 16.632500112000059, 57.552218154000059 ], [ 16.691245184000024, 57.478745073000027 ], [ 16.665827062000062, 57.40853607300005 ], [ 16.636945036000043, 57.403053973000056 ], [ 16.629927203000022, 57.378673196000079 ], [ 16.600827079000055, 57.37749118000005 ], [ 16.55235403000006, 57.381382227000074 ], [ 16.472218174000034, 57.290273118000073 ], [ 16.46597315300005, 57.270554020000077 ], [ 16.455418158000043, 57.202918097000065 ], [ 16.460900258000038, 57.170691188000035 ], [ 16.513882268000032, 57.117218166000043 ], [ 16.534927215000039, 57.118400182000073 ], [ 16.56332711500005, 57.093891161000045 ], [ 16.584445152000058, 57.046663160000037 ], [ 16.49721820600007, 57.037909100000036 ], [ 16.454445187000033, 56.955273258000034 ], [ 16.440554026000029, 56.893882187000031 ], [ 16.426663201000054, 56.843609041000036 ], [ 16.407773241000029, 56.795554081000034 ], [ 16.375000167000053, 56.720836119000069 ], [ 16.379827137000063, 56.663327043000038 ], [ 16.304300155000021, 56.656663263000041 ], [ 16.281527194000034, 56.657918033000044 ], [ 16.25360908600004, 56.64610910500005 ], [ 16.216109122000034, 56.607218080000052 ], [ 16.120554084000048, 56.455691208000076 ], [ 16.10416327300004, 56.425554075000036 ], [ 16.090554079000071, 56.395000194000033 ], [ 16.054718090000051, 56.313609064000048 ], [ 16.043327084000055, 56.268882222000059 ], [ 16.003473146000033, 56.213054053000064 ], [ 15.865554126000063, 56.092218022000054 ], [ 15.788609092000058, 56.111936114000059 ], [ 15.775836078000054, 56.14777310900007 ], [ 15.658891261000065, 56.178891092000072 ], [ 15.598054067000078, 56.194718137000052 ], [ 15.375273306000054, 56.138054125000053 ], [ 15.225827157000026, 56.151109106000035 ], [ 15.088891166000053, 56.160000126000057 ], [ 14.848054109000032, 56.161382135000053 ], [ 14.717218132000028, 56.161664269000028 ], [ 14.692636189000041, 56.158191144000057 ], [ 14.68246324100005, 56.123191166000026 ], [ 14.712363334000031, 56.100964203000046 ], [ 14.750827217000051, 56.059718031000045 ], [ 14.767218196000044, 56.033327106000058 ], [ 14.738336170000025, 56.010827060000054 ], [ 14.72000025400007, 56.000273238000034 ], [ 14.635273294000058, 56.007500115000028 ], [ 14.620836136000037, 56.02944511100003 ], [ 14.603609146000053, 56.051936104000049 ], [ 14.555136097000059, 56.056245073000071 ], [ 14.541391116000057, 56.051109146000044 ], [ 14.511663188000057, 56.037500120000061 ], [ 14.369445090000056, 55.958882226000071 ], [ 14.330273271000067, 55.936945109000078 ], [ 14.263609145000032, 55.886109202000057 ], [ 14.238745067000025, 55.859300187000031 ], [ 14.217218160000073, 55.830273154000054 ], [ 14.204718228000047, 55.804364188000079 ], [ 14.195000250000021, 55.773191219000068 ], [ 14.19256329500007, 55.728673255000047 ], [ 14.210554044000048, 55.700827064000066 ], [ 14.276945088000048, 55.647218087000056 ], [ 14.341391195000028, 55.578609192000044 ], [ 14.365936090000048, 55.542845120000038 ], [ 14.336663298000076, 55.501109109000026 ], [ 14.312500116000024, 55.486664240000039 ], [ 14.193545151000023, 55.386145105000082 ], [ 14.163054134000049, 55.380273246000058 ], [ 14.122500140000056, 55.379436062000082 ], [ 14.058891217000053, 55.38610906200006 ], [ 14.037500098000066, 55.389445060000071 ], [ 14.004718139000033, 55.405827154000065 ], [ 13.969445079000025, 55.421109040000033 ], [ 13.935836161000054, 55.431391121000047 ], [ 13.911945055000047, 55.433882223000069 ], [ 13.891391120000037, 55.433609140000044 ], [ 13.730554132000066, 55.425553964000073 ], [ 13.710282164000034, 55.424164244000053 ], [ 13.636945037000032, 55.416664117000039 ], [ 13.497773257000063, 55.382218183000077 ], [ 13.465827142000023, 55.373600078000038 ], [ 13.424027094000053, 55.354582210000046 ], [ 13.375554045000058, 55.340000213000053 ], [ 13.344718196000031, 55.339164202000063 ], [ 13.295418188000042, 55.34138222100006 ], [ 12.982218150000051, 55.400554099000033 ], [ 12.916736040000046, 55.545900156000073 ], [ 12.921182136000027, 55.572427036000079 ], [ 12.960282206000045, 55.59110912500006 ], [ 12.981945067000026, 55.599164134000034 ], [ 13.038745034000044, 55.626945113000033 ], [ 13.06110912500003, 55.680764140000065 ], [ 12.928054123000038, 55.823053988000026 ], [ 12.912773243000061, 55.83805407400007 ], [ 12.681391141000063, 56.061945102000038 ], [ 12.663609101000077, 56.078609164000056 ], [ 12.620627204000073, 56.107982203000063 ], [ 12.581109213000047, 56.141664210000044 ], [ 12.46007318900007, 56.296664208000038 ], [ 12.637218176000033, 56.256109040000069 ], [ 12.718682228000034, 56.222782090000067 ], [ 12.799236174000043, 56.225900158000059 ], [ 12.830373268000073, 56.253364134000037 ], [ 12.734027146000074, 56.356727083000067 ], [ 12.670000134000077, 56.379991222000058 ], [ 12.632573260000072, 56.39193610500007 ], [ 12.624300154000025, 56.418327030000057 ], [ 12.634373190000076, 56.439163268000073 ], [ 12.676245155000061, 56.465000149000048 ], [ 12.731391205000023, 56.466809132000037 ], [ 12.794373161000067, 56.447909114000026 ], [ 12.832782227000052, 56.439718150000033 ], [ 12.85264515800003, 56.439918142000067 ], [ 12.872363250000035, 56.442491219000033 ], [ 12.883609082000021, 56.446391151000057 ], [ 12.901109154000039, 56.457218055000055 ], [ 12.914445098000044, 56.472636063000039 ], [ 12.930273148000026, 56.50110905300005 ], [ 12.934791162000067, 56.536318076000043 ], [ 12.917218167000044, 56.578609136000068 ], [ 12.880209214000047, 56.642982153000048 ], [ 12.817500173000042, 56.657500112000037 ], [ 12.785000182000033, 56.643609119000075 ], [ 12.758054039000058, 56.640000207000071 ], [ 12.721945135000055, 56.641518169000051 ], [ 12.670827093000071, 56.676109110000027 ], [ 12.613609204000056, 56.746936025000082 ], [ 12.599373212000046, 56.783673236000027 ], [ 12.598054068000067, 56.810345122000058 ], [ 12.576663284000063, 56.832082247000073 ], [ 12.476527201000067, 56.884718085000031 ], [ 12.418054038000037, 56.897218185000042 ], [ 12.348891267000056, 56.916809039000043 ], [ 12.350000193000028, 56.969991209000057 ], [ 12.286109135000061, 57.032491206000032 ], [ 12.245691263000026, 57.053882158000079 ], [ 12.148054161000061, 57.186109196000075 ], [ 12.110000152000055, 57.250000085000067 ], [ 12.142363184000033, 57.279854077000039 ], [ 12.145836141000075, 57.309163246000082 ], [ 12.095000234000054, 57.426936027000067 ], [ 12.047636110000042, 57.45729108900008 ], [ 12.009582270000067, 57.42551814400008 ], [ 11.986036163000051, 57.344991188000051 ], [ 11.942782190000059, 57.376109171000053 ], [ 11.917773273000023, 57.402218129000062 ], [ 11.902773186000047, 57.424309138000069 ], [ 11.90666322800007, 57.515000157000031 ], [ 11.911109157000055, 57.526645135000081 ], [ 11.914582282000026, 57.531527091000044 ], [ 11.922218196000074, 57.56389112800008 ], [ 11.907773159000044, 57.617391140000052 ], [ 11.862500153000042, 57.607773241000075 ], [ 11.830000162000033, 57.661382218000028 ], [ 11.868609219000064, 57.680545092000045 ], [ 11.887782152000057, 57.693882209000037 ], [ 11.745973258000049, 57.688745108000035 ], [ 11.701873216000024, 57.699927070000058 ], [ 11.72305411800005, 57.807218113000033 ], [ 11.668054080000047, 57.845836056000053 ], [ 11.699027057000023, 57.88582712200008 ], [ 11.749300203000075, 57.894718142000045 ], [ 11.795554060000029, 58.006100057000083 ], [ 11.798682186000065, 58.039091228000075 ], [ 11.776663262000056, 58.053144997000061 ], [ 11.776663262000056, 58.059436118000065 ], [ 11.796109109000042, 58.095273113000076 ], [ 11.837218154000027, 58.154718074000073 ], [ 11.880482185000062, 58.202082197000038 ], [ 11.798054046000061, 58.318327124000064 ], [ 11.729163184000072, 58.328609205000078 ], [ 11.622773195000036, 58.276109154000039 ], [ 11.601109161000068, 58.259018118000029 ], [ 11.528609218000042, 58.230754006000041 ], [ 11.495282268000039, 58.236109203000069 ], [ 11.405554162000044, 58.261109068000053 ], [ 11.384163210000054, 58.311945143000059 ], [ 11.238336199000059, 58.346936069000037 ], [ 11.201391117000071, 58.399436119000029 ], [ 11.235554078000064, 58.505273238000029 ], [ 11.255691265000053, 58.554027080000083 ], [ 11.266391267000074, 58.57943614900006 ], [ 11.260273149000056, 58.634991236000076 ], [ 11.250000120000038, 58.655273263000026 ], [ 11.210282137000036, 58.679718078000064 ], [ 11.179445115000021, 58.711518180000041 ], [ 11.179300108000064, 58.739300166000078 ], [ 11.200836067000068, 58.770000060000029 ], [ 11.229300172000023, 58.794227113000034 ], [ 11.232218080000052, 58.839163166000048 ], [ 11.19416323400003, 58.917500098000062 ], [ 11.166663216000074, 58.924436123000078 ], [ 11.119445105000068, 58.941245024000068 ], [ 11.113336039000046, 59.003609066000081 ], [ 11.123336152000036, 59.021109139000032 ], [ 11.169445169000028, 59.066518100000053 ], [ 11.195418173000064, 59.077218102000074 ], [ 11.26555408300004, 59.093891216000031 ], [ 11.320000244000028, 59.100273197000035 ], [ 11.344163259000027, 59.088191187000064 ], [ 11.37333613800007, 59.050827009000045 ], [ 11.401663283000062, 59.01277316900007 ], [ 11.423263280000072, 58.987754026000061 ], [ 11.42919112900006, 58.987636009000028 ], [ 11.42347316300004, 58.919163236000031 ], [ 11.43124503100006, 58.891036083000074 ], [ 11.456945120000057, 58.883745001000079 ], [ 11.496663271000045, 58.884718140000075 ], [ 11.585836160000042, 58.896663190000027 ], [ 11.599963187000071, 58.899182120000035 ], [ 11.624027128000023, 58.906936051000059 ], [ 11.75180019000004, 59.095136097000079 ], [ 11.741873167000051, 59.119991122000044 ], [ 11.752636033000044, 59.181245064000052 ], [ 11.761945143000048, 59.206245097000078 ], [ 11.769545182000059, 59.217536023000036 ], [ 11.792654089000052, 59.237836154000036 ], [ 11.797918092000032, 59.266527074000066 ], [ 11.790836054000067, 59.30332714900004 ], [ 11.78305412800006, 59.324718102000077 ], [ 11.739163297000061, 59.429718035000064 ], [ 11.667009192000023, 59.593573179000032 ], [ 11.764654006000058, 59.638045043000034 ], [ 11.818054105000044, 59.648682181000027 ], [ 11.899100236000038, 59.699718080000082 ], [ 11.90319127600003, 59.729300164000051 ], [ 11.898845091000055, 59.772473168000033 ], [ 11.896391205000043, 59.784718123000061 ], [ 11.882082291000074, 59.802353982000056 ], [ 11.815963324000052, 59.846100141000079 ], [ 11.852773290000073, 59.861382194000043 ], [ 11.875827211000058, 59.869991079000044 ], [ 11.965482227000052, 59.896945101000028 ], [ 12.003191236000077, 59.889582102000077 ], [ 12.034163207000063, 59.886109144000045 ], [ 12.107218199000044, 59.885827009000081 ], [ 12.134863224000071, 59.887636159000067 ], [ 12.163054079000062, 59.896945101000028 ], [ 12.191945159000056, 59.910273165000035 ], [ 12.316945152000073, 59.972636034000061 ], [ 12.469445163000046, 60.070000221000043 ], [ 12.494509233000031, 60.113044982000076 ], [ 12.502782171000035, 60.144718183000066 ], [ 12.507845176000046, 60.174091221000083 ], [ 12.506109116000061, 60.20207319900004 ], [ 12.532773292000059, 60.339027127000065 ], [ 12.571945110000058, 60.378054107000082 ], [ 12.589718098000048, 60.39916326000008 ], [ 12.600136133000035, 60.433882108000034 ], [ 12.607218171000056, 60.468400127000052 ], [ 12.590973204000022, 60.521800059000043 ], [ 12.505836034000026, 60.630000203000066 ], [ 12.425000121000039, 60.710273187000041 ], [ 12.382500184000037, 60.755554072000052 ], [ 12.364718144000051, 60.779445011000064 ], [ 12.35236321900004, 60.802218139000047 ], [ 12.336109200000067, 60.835827056000028 ], [ 12.308609181000065, 60.887218181000037 ], [ 12.271945060000064, 60.946109098000079 ], [ 12.239582197000061, 60.97693606100006 ], [ 12.216218144000038, 60.998745103000033 ], [ 12.247773160000065, 61.018609208000044 ], [ 12.29416330600003, 61.029444997000041 ], [ 12.38805403300006, 61.050553982000054 ], [ 12.407773299000041, 61.053891153000052 ], [ 12.432500248000053, 61.054445029000078 ], [ 12.458054157000049, 61.053891153000052 ], [ 12.50027330000006, 61.050827064000032 ], [ 12.567218220000029, 61.048045111000079 ], [ 12.60221819800006, 61.04971813800006 ], [ 12.621945175000064, 61.053053968000029 ], [ 12.637827205000065, 61.057536107000033 ], [ 12.670273217000044, 61.087773152000068 ], [ 12.772218114000054, 61.200827089000029 ], [ 12.796663265000063, 61.244991170000048 ], [ 12.831109199000025, 61.312218057000052 ], [ 12.856109231000062, 61.362500088000047 ], [ 12.773891142000025, 61.41471817200005 ], [ 12.526527097000042, 61.566663301000062 ], [ 12.474863225000036, 61.569582215000082 ], [ 12.43750022100005, 61.569018113000027 ], [ 12.399718122000024, 61.576936162000038 ], [ 12.144445081000072, 61.717500175000055 ], [ 12.124445022000032, 61.728609047000077 ], [ 12.159445167000058, 61.844445105000034 ], [ 12.170000163000054, 61.878609072000074 ], [ 12.181663246000028, 61.912500124000076 ], [ 12.200282135000066, 61.963336032000029 ], [ 12.215000254000074, 62.006100167000056 ], [ 12.258609117000049, 62.14249116600007 ], [ 12.294618108000066, 62.25821809200005 ], [ 12.293745049000051, 62.267082122000033 ], [ 12.271391184000038, 62.30805403800008 ], [ 12.256391265000047, 62.327218087000062 ], [ 12.245345090000058, 62.337982127000032 ], [ 12.20486334800006, 62.397353997000039 ], [ 12.178336133000073, 62.430827127000043 ], [ 12.14916325400003, 62.46027325600005 ], [ 12.08471815300004, 62.529163280000034 ], [ 12.047500156000069, 62.590000140000029 ], [ 12.046663307000074, 62.665273151000065 ], [ 12.072773271000074, 62.715827091000051 ], [ 12.089445044000058, 62.749445061000074 ], [ 12.066663198000072, 62.803054037000038 ], [ 12.050282277000065, 62.838882147000049 ], [ 12.028891157000032, 62.89249112400006 ], [ 12.058336113000053, 62.918609134000064 ], [ 12.113336150000066, 62.967218138000078 ], [ 12.151109197000039, 62.999445047000052 ], [ 12.168609102000062, 63.015827141000045 ], [ 12.144163281000033, 63.045273270000052 ], [ 12.036945161000062, 63.173882175000074 ], [ 12.027491212000029, 63.18244512800004 ], [ 11.93639115600007, 63.272218161000069 ], [ 11.998891152000056, 63.323882200000071 ], [ 12.078336172000036, 63.388327134000065 ], [ 12.137218204000021, 63.436663223000039 ], [ 12.195000195000034, 63.485273232000054 ], [ 12.178609215000051, 63.512218033000067 ], [ 12.146663268000054, 63.589573109000071 ], [ 12.346663189000026, 63.728882184000042 ], [ 12.47305407500005, 63.833327068000074 ], [ 12.530836066000063, 63.872773143000074 ], [ 12.633891231000064, 63.942773267000064 ], [ 12.681945185000075, 63.967218081000055 ], [ 12.794445078000024, 64.007218032000083 ], [ 12.846945128000073, 64.025273155000036 ], [ 12.938054069000032, 64.053327049000075 ], [ 12.988336101000073, 64.064436089000083 ], [ 13.032218214000068, 64.071109089000061 ], [ 13.135554004000028, 64.083600137000076 ], [ 13.193609245000061, 64.090000223000061 ], [ 13.230000116000042, 64.093045033000067 ], [ 13.291391187000045, 64.086653999000077 ], [ 13.985000214000024, 64.015545118000034 ], [ 14.150691162000044, 64.179845005000061 ], [ 14.150554034000038, 64.339291100000082 ], [ 14.116391241000031, 64.470554051000079 ], [ 14.03250012500007, 64.48805412300004 ], [ 13.900836183000024, 64.507491086000073 ], [ 13.820273185000076, 64.529436082000075 ], [ 13.668263348000039, 64.580200073000071 ], [ 13.676945155000055, 64.607773182000074 ], [ 13.702218102000074, 64.634573144000058 ], [ 13.725573270000041, 64.652263151000056 ], [ 13.83278217000003, 64.733318166000061 ], [ 13.879163264000056, 64.771100098000034 ], [ 13.955827168000042, 64.835536146000038 ], [ 14.091391209000051, 64.949154018000058 ], [ 14.235282168000026, 65.048873185000048 ], [ 14.296436198000038, 65.102127104000033 ], [ 14.308836050000025, 65.115236065000033 ], [ 14.31944502500005, 65.129991232000066 ], [ 14.329163339000047, 65.149718042000075 ], [ 14.356109146000051, 65.208600073000071 ], [ 14.36889121300004, 65.246654081000031 ], [ 14.493054022000024, 65.313600175000033 ], [ 14.494027161000076, 65.367636125000047 ], [ 14.49528226700005, 65.446382094000057 ], [ 14.497218151000027, 65.516100083000083 ], [ 14.500554149000038, 65.585827124000048 ], [ 14.534718116000022, 65.700963293000029 ], [ 14.565282223000054, 65.736373146000062 ], [ 14.588054010000064, 65.756945019000057 ], [ 14.603891281000074, 65.77332711300005 ], [ 14.621391186000039, 65.797209167000062 ], [ 14.633191229000033, 65.821800162000045 ], [ 14.608891253000024, 65.876391163000051 ], [ 14.580273257000044, 65.931109065000044 ], [ 14.56944517900007, 65.949436096000056 ], [ 14.537636191000047, 66.016382190000058 ], [ 14.519163315000071, 66.07889123800004 ], [ 14.507082143000048, 66.123600142000043 ], [ 14.717782234000026, 66.140544998000053 ], [ 14.981391246000044, 66.149154051000039 ], [ 15.025273191000053, 66.149991235000073 ], [ 15.468054101000064, 66.283873196000059 ], [ 15.446854089000055, 66.321382213000049 ], [ 15.400554132000025, 66.406936131000066 ], [ 15.371391143000039, 66.461654033000059 ], [ 15.362782258000038, 66.480000175000043 ], [ 15.52777315000003, 66.558045082000035 ], [ 15.625827168000058, 66.605818074000069 ], [ 15.731109236000066, 66.685000070000058 ], [ 16.010000134000052, 66.890827091000062 ], [ 16.353882297000041, 67.017773194000029 ], [ 16.402500186000054, 67.170545114000049 ], [ 16.361382257000059, 67.237782227000082 ], [ 16.337500203000047, 67.260818044000075 ], [ 16.261945057000048, 67.30554505300006 ], [ 16.21263616400006, 67.333736076000037 ], [ 16.161663296000029, 67.355818032000059 ], [ 16.138609207000059, 67.367491173000076 ], [ 16.107636063000029, 67.385691135000059 ], [ 16.088054093000039, 67.405400175000068 ], [ 16.199163261000024, 67.500827137000044 ], [ 16.382500126000025, 67.515545088000067 ], [ 16.403327144000059, 67.530000183000084 ], [ 16.508327078000036, 67.609163236000029 ], [ 16.573609196000064, 67.661236144000043 ], [ 16.588054065000051, 67.682218060000082 ], [ 16.620282147000069, 67.732209072000046 ], [ 16.684718196000063, 67.832218085000079 ], [ 16.72694505100003, 67.899154120000048 ], [ 17.188327080000022, 68.030273237000074 ], [ 17.234545062000052, 68.062100162000036 ], [ 17.252582247000078, 68.074573272000066 ], [ 17.273609089000047, 68.09054498900008 ], [ 17.592500105000056, 68.029709135000076 ], [ 17.648891203000062, 68.014163219000068 ], [ 17.680273216000046, 68.00443602100006 ], [ 17.743327089000047, 67.984709212000041 ], [ 17.801936038000065, 67.964154103000055 ], [ 17.825554062000037, 67.955273141000077 ], [ 17.858054054000036, 67.948609193000038 ], [ 17.884163347000026, 67.945545104000075 ], [ 17.939718098000071, 67.997773246000065 ], [ 18.135554058000025, 68.150273257000038 ], [ 18.155282208000074, 68.166109187000075 ], [ 18.103882199000054, 68.280818047000082 ], [ 18.085827076000044, 68.317763297000056 ], [ 18.069445149000046, 68.354427083000076 ], [ 18.049582218000069, 68.400273243000072 ], [ 18.058054143000049, 68.439991227000064 ], [ 18.086245165000037, 68.499300065000057 ], [ 18.099536182000065, 68.508927184000072 ], [ 18.149436166000044, 68.515273123000043 ], [ 18.358054025000058, 68.539154003000078 ], [ 18.61194505800006, 68.475263281000082 ], [ 18.952218142000049, 68.487782157000083 ], [ 19.413327089000063, 68.419436118000078 ], [ 19.543891156000029, 68.399718194000059 ], [ 19.717218186000025, 68.37277322500006 ], [ 19.860554095000055, 68.349991212000077 ], [ 19.898327142000028, 68.341382159000034 ], [ 19.930827133000037, 68.337073190000069 ], [ 19.952363260000027, 68.34276316100005 ], [ 19.970418215000052, 68.355545061000043 ], [ 20.006663241000069, 68.381100143000083 ], [ 20.039163232000078, 68.39915409200006 ], [ 20.075836070000037, 68.41471811200006 ], [ 20.171527062000052, 68.44596316500008 ], [ 20.204236098000024, 68.47089111300005 ], [ 20.088054035000027, 68.501663259000054 ], [ 19.956391267000072, 68.543882235000069 ], [ 20.063054171000033, 68.583054054000058 ], [ 20.177218207000067, 68.646945111000036 ], [ 20.202500206000025, 68.662218112000062 ], [ 20.238327143000049, 68.691373221000049 ], [ 20.313891173000059, 68.754718113000081 ], [ 20.350273160000029, 68.786654003000081 ], [ 20.314718132000053, 68.928327110000055 ], [ 20.238891245000048, 68.96860014300006 ], [ 20.096945055000049, 69.042218064000053 ], [ 20.535273163000056, 69.05638213900005 ], [ 20.580927210000027, 69.060300176000055 ], [ 20.604163354000036, 69.053054020000047 ], [ 20.650063327000055, 69.043791179000038 ], [ 20.744163266000044, 69.031100140000035 ], [ 20.791663344000028, 69.023327098000038 ], [ 20.846382252000069, 69.011936091000052 ], [ 20.875554125000065, 69.001245141000084 ], [ 20.908882248000054, 68.985544999000069 ], [ 20.930691122000042, 68.970691093000028 ], [ 20.930973257000062, 68.949227050000047 ], [ 20.885900243000037, 68.918191210000032 ], [ 20.900827072000027, 68.892073199000038 ], [ 20.952082242000074, 68.880682193000041 ], [ 20.990836139000066, 68.879436139000063 ], [ 21.024718139000072, 68.877491202000044 ], [ 21.058891158000051, 68.873318188000042 ], [ 21.081391204000056, 68.866654072000074 ], [ 21.212218128000075, 68.817909114000031 ], [ 21.420554020000054, 68.724154006000049 ], [ 21.453891196000029, 68.686727132000044 ], [ 21.494163224000033, 68.669854026000053 ], [ 21.550554154000054, 68.661654010000063 ], [ 21.593191219000062, 68.657345041000042 ], [ 21.623054096000033, 68.649427160000073 ], [ 21.642773194000029, 68.642491135000057 ], [ 21.706591161000063, 68.614991116000056 ], [ 21.726945104000038, 68.58735413800008 ], [ 21.765418207000039, 68.57568217000005 ], [ 21.816945119000025, 68.570400230000075 ], [ 21.864718112000048, 68.573609157000078 ], [ 21.889300222000031, 68.571245125000075 ], [ 21.933891277000043, 68.555263183000079 ], [ 21.95944518500005, 68.543882235000069 ], [ 22.000827144000027, 68.521518144000083 ], [ 22.028745084000036, 68.502345043000048 ], [ 22.048609189000047, 68.481518193000056 ], [ 22.159163307000028, 68.464991091000059 ], [ 22.37194512800005, 68.463609083000051 ], [ 22.430554078000057, 68.451663195000037 ], [ 22.500000157000045, 68.440127181000037 ], [ 22.581663196000022, 68.427218045000075 ], [ 22.666800198000033, 68.421654137000075 ], [ 22.82666320900006, 68.38596315500007 ], [ 22.863609130000043, 68.357500224000034 ], [ 22.905000141000073, 68.329991153000037 ], [ 22.936391207000042, 68.322218111000041 ], [ 22.969445074000078, 68.317763297000056 ], [ 23.055418088000067, 68.291100128000039 ], [ 23.353336073000037, 68.083600079000064 ], [ 23.372218154000052, 68.060127062000049 ], [ 23.394445117000032, 68.042500087000064 ], [ 23.531663243000025, 67.992491138000048 ], [ 23.63833620500003, 67.958054089000029 ], [ 23.659791195000025, 67.945891109000058 ], [ 23.655691271000023, 67.921173212000042 ], [ 23.60208229400007, 67.896382224000035 ], [ 23.545554068000058, 67.890000076000035 ], [ 23.51110914000003, 67.883609210000031 ], [ 23.488818139000045, 67.870963265000057 ], [ 23.470554140000047, 67.819854107000083 ], [ 23.491391216000068, 67.712491147000037 ], [ 23.507773310000061, 67.665545113000064 ], [ 23.471945033000054, 67.556382223000071 ], [ 23.430827104000059, 67.479782189000048 ], [ 23.448327176000078, 67.452500100000066 ], [ 23.46930020700006, 67.442909191000069 ], [ 23.493745189000037, 67.437218047000044 ], [ 23.519718193000074, 67.44331806100007 ], [ 23.542909243000054, 67.452627170000028 ], [ 23.581945107000024, 67.450000114000034 ], [ 23.735000168000056, 67.426100123000083 ], [ 23.765136128000051, 67.416873156000065 ], [ 23.780345091000072, 67.326309207000065 ], [ 23.74319113100006, 67.286318141000038 ], [ 23.70805402600007, 67.278045034000058 ], [ 23.68305416100003, 67.275545048000083 ], [ 23.630273317000047, 67.267491213000028 ], [ 23.610000175000039, 67.261373261000074 ], [ 23.590554160000067, 67.240682198000059 ], [ 23.573327169000038, 67.157009179000056 ], [ 23.681109224000068, 67.047482179000042 ], [ 23.731109121000031, 67.008327124000061 ], [ 23.751109180000071, 66.995973205000041 ], [ 23.787773301000072, 66.981382155000063 ], [ 23.866945071000032, 66.931109176000064 ], [ 23.940691234000042, 66.87977320400006 ], [ 24.000763329000051, 66.802282174000084 ], [ 23.942500217000031, 66.787909054000067 ], [ 23.892082231000074, 66.744782150000049 ], [ 23.900836123000033, 66.712491204000059 ], [ 23.902773181000043, 66.680263289000038 ], [ 23.889718199000072, 66.575827122000078 ], [ 23.874163230000079, 66.555345103000036 ], [ 23.826945120000062, 66.543882180000082 ], [ 23.807218143000057, 66.53776322300007 ], [ 23.72527330500003, 66.500827025000035 ], [ 23.65603610200003, 66.457209110000065 ], [ 23.639718213000037, 66.433318171000053 ], [ 23.662500226000077, 66.312209058000064 ], [ 23.684718137000061, 66.263318087000073 ], [ 23.726109148000035, 66.198254066000061 ], [ 23.754718092000076, 66.185000098000046 ], [ 23.814300181000078, 66.16818214400007 ], [ 23.856109114000049, 66.160273148000044 ], [ 23.886391254000046, 66.156663230000049 ], [ 23.919027200000073, 66.14416329800008 ], [ 23.935554134000029, 66.128463155000077 ], [ 23.948609115000068, 66.101382232000049 ], [ 23.967782216000046, 66.072491152000055 ], [ 24.03139113800006, 66.02026317800005 ], [ 24.16409125000007, 65.832636119000028 ], [ 24.167009159000031, 65.814027121000038 ], [ 24.148745159000043, 65.803600201000052 ], [ 24.11360922700004, 65.799573199000065 ], [ 24.080827100000079, 65.806109072000083 ], [ 24.046245044000045, 65.807345067000028 ], [ 23.986109247000059, 65.792500214000029 ], [ 23.953191167000057, 65.779991229000075 ], [ 23.931318087000022, 65.760473129000047 ], [ 23.773336143000051, 65.795273115000043 ], [ 23.653891173000034, 65.806382154000062 ], [ 23.518327132000024, 65.800827132000052 ], [ 23.434718151000027, 65.760545046000061 ], [ 23.394445117000032, 65.767491129000064 ], [ 23.249718148000056, 65.800827132000052 ], [ 23.234445147000031, 65.763609135000081 ], [ 23.136391128000071, 65.713191149000068 ], [ 23.077354031000027, 65.700827171000071 ], [ 23.000273211000035, 65.752773178000041 ], [ 22.826800169000023, 65.821663202000082 ], [ 22.790273176000028, 65.856382219000068 ], [ 22.723327083000072, 65.886109141000077 ], [ 22.675827173000073, 65.902218153000035 ], [ 22.642563255000027, 65.898745028000064 ], [ 22.676182230000052, 65.87547317700006 ], [ 22.704718085000025, 65.807491080000034 ], [ 22.679300131000048, 65.760473129000047 ], [ 22.654091222000034, 65.759018031000039 ], [ 22.608609171000069, 65.796936085000027 ], [ 22.479163249000067, 65.851109163000046 ], [ 22.451382269000078, 65.856109136000043 ], [ 22.418609195000045, 65.859436081000069 ], [ 22.368191209000031, 65.859154114000034 ], [ 22.329163224000069, 65.82970915900006 ], [ 22.257773213000064, 65.69110014000006 ], [ 22.249054022000053, 65.632491191000042 ], [ 22.285927188000073, 65.62740019000006 ], [ 22.315273237000042, 65.62953606700006 ], [ 22.290963203000047, 65.664782137000032 ], [ 22.323054157000058, 65.659163245000059 ], [ 22.385554154000033, 65.628873226000053 ], [ 22.422427152000068, 65.546800144000031 ], [ 22.400000196000065, 65.536800199000083 ], [ 22.372636132000025, 65.549991135000027 ], [ 22.241836198000044, 65.577273224000066 ], [ 22.206327103000035, 65.578773249000051 ], [ 22.079718120000052, 65.607209191000038 ], [ 21.851318131000028, 65.67214513600004 ], [ 21.824163279000061, 65.699300156000049 ], [ 21.76582707700004, 65.712145087000067 ], [ 21.828054158000043, 65.665263259000028 ], [ 21.848191178000036, 65.656109047000029 ], [ 22.022500231000038, 65.598053974000038 ], [ 22.057782176000046, 65.589154069000074 ], [ 22.120973177000053, 65.581382201000054 ], [ 22.194373168000027, 65.542282131000036 ], [ 22.164163280000025, 65.533053991000031 ], [ 22.053845029000058, 65.517436158000066 ], [ 21.993891287000054, 65.514444992000051 ], [ 21.909163321000051, 65.526654072000042 ], [ 21.889582189000066, 65.534427114000039 ], [ 21.85721815200003, 65.530063160000054 ], [ 21.901109150000025, 65.496654067000065 ], [ 21.92000011600004, 65.487073217000045 ], [ 21.939718208000045, 65.485273119000055 ], [ 21.926800187000026, 65.508191087000057 ], [ 21.979163277000055, 65.489718043000039 ], [ 22.030973162000066, 65.459718037000073 ], [ 22.01402713300007, 65.426236022000069 ], [ 21.929445180000073, 65.398036115000082 ], [ 21.675827062000053, 65.391100090000066 ], [ 21.654863251000052, 65.391936101000056 ], [ 21.631800109000039, 65.39735399500006 ], [ 21.602845160000072, 65.414082095000083 ], [ 21.544718170000067, 65.408053998000071 ], [ 21.471245089000035, 65.383745137000062 ], [ 21.501773154000034, 65.349936060000061 ], [ 21.538691246000042, 65.327018093000049 ], [ 21.584091154000077, 65.320582132000084 ], [ 21.617082158000073, 65.324718099000052 ], [ 21.699200166000026, 65.283709134000048 ], [ 21.659300128000041, 65.245827123000083 ], [ 21.588054118000059, 65.234709199000065 ], [ 21.558054113000026, 65.234218187000067 ], [ 21.539582243000041, 65.25360016500008 ], [ 21.493891147000056, 65.286709185000063 ], [ 21.466554073000054, 65.312044996000054 ], [ 21.328682159000039, 65.370273240000074 ], [ 21.264863354000056, 65.338254034000045 ], [ 21.329027158000031, 65.322627149000027 ], [ 21.417218191000075, 65.306109100000072 ], [ 21.505273269000043, 65.248600192000083 ], [ 21.553609190000032, 65.215136114000074 ], [ 21.619373267000071, 65.15137313200006 ], [ 21.577709173000073, 65.059918186000061 ], [ 21.533700158000045, 65.058745055000031 ], [ 21.486036130000059, 65.059773179000047 ], [ 21.471600146000071, 65.040263294000056 ], [ 21.466663205000032, 65.007218143000046 ], [ 21.373336077000033, 64.975553995000041 ], [ 21.300827083000058, 64.954436126000076 ], [ 21.24944517800003, 64.948600142000032 ], [ 21.205973275000076, 64.889018053000029 ], [ 21.208882299000038, 64.86249117400007 ], [ 21.183054134000031, 64.829991182000072 ], [ 21.127218086000028, 64.818463215000065 ], [ 21.095900111000049, 64.827000184000042 ], [ 21.075554047000026, 64.853391109000029 ], [ 21.042218212000023, 64.844845088000056 ], [ 21.039373226000066, 64.823818078000045 ], [ 21.094236135000074, 64.783045148000042 ], [ 21.129945055000064, 64.775491209000052 ], [ 21.159445163000044, 64.775545021000028 ], [ 21.222218074000068, 64.782353976000081 ], [ 21.258327146000056, 64.777500184000075 ], [ 21.303400159000034, 64.761654028000066 ], [ 21.297354125000027, 64.662909174000049 ], [ 21.273473245000048, 64.668327068000053 ], [ 21.238891188000025, 64.685273265000035 ], [ 21.152827147000039, 64.723600188000034 ], [ 21.128973257000041, 64.725018071000079 ], [ 21.104718208000065, 64.719845095000039 ], [ 21.119163245000038, 64.684363158000053 ], [ 21.271382295000024, 64.615263251000044 ], [ 21.364654102000031, 64.59908215400003 ], [ 21.465273318000072, 64.575545100000056 ], [ 21.554163234000043, 64.532482234000042 ], [ 21.585000256000058, 64.439709150000056 ], [ 21.458054152000045, 64.361100141000065 ], [ 21.390554015000077, 64.335263260000033 ], [ 21.31777327900005, 64.308463298000049 ], [ 21.272291229000075, 64.296936002000052 ], [ 21.247773156000051, 64.307209198000066 ], [ 20.963745158000052, 64.142700098000034 ], [ 20.905000254000072, 64.04943600200005 ], [ 20.895554016000062, 64.002491142000054 ], [ 20.793891254000073, 63.886382169000058 ], [ 20.774027149000062, 63.867082166000046 ], [ 20.728609136000046, 63.848054072000082 ], [ 20.638336206000076, 63.813327177000076 ], [ 20.535000248000074, 63.799163269000076 ], [ 20.502500256000076, 63.820618091000028 ], [ 20.44777330200003, 63.758327140000063 ], [ 20.415691232000029, 63.69444513500008 ], [ 20.380763338000065, 63.674091192000049 ], [ 20.316663236000068, 63.660000207000053 ], [ 20.298609120000037, 63.646382129000074 ], [ 20.263882224000042, 63.665836023000054 ], [ 20.100000259000069, 63.655827025000065 ], [ 20.011945181000044, 63.635827133000078 ], [ 19.89624507700006, 63.60777323800005 ], [ 19.775273259000073, 63.533336071000065 ], [ 19.753300267000043, 63.505718035000029 ], [ 19.775900225000044, 63.460018055000035 ], [ 19.705000221000034, 63.431935997000039 ], [ 19.675554092000027, 63.430553989000032 ], [ 19.638473223000062, 63.444582109000066 ], [ 19.641527085000064, 63.467073270000071 ], [ 19.616391266000051, 63.494718128000045 ], [ 19.501663296000061, 63.549436030000038 ], [ 19.466945117000023, 63.55999119300003 ], [ 19.425827188000028, 63.546318130000031 ], [ 19.473609233000047, 63.453044982000051 ], [ 19.447218141000064, 63.440273141000034 ], [ 19.358745141000043, 63.435136040000032 ], [ 19.315554032000023, 63.451245052000047 ], [ 19.309182277000048, 63.463609197000039 ], [ 19.289027152000074, 63.457354118000069 ], [ 19.276663342000063, 63.414300137000055 ], [ 19.230554157000029, 63.32750016500006 ], [ 19.149300155000049, 63.312773161000052 ], [ 19.047218130000033, 63.241173268000068 ], [ 19.054718089000062, 63.217354078000028 ], [ 19.085282196000037, 63.214163255000074 ], [ 19.10944504400004, 63.210963212000081 ], [ 19.062500183000054, 63.176936038000065 ], [ 19.041945074000068, 63.175409190000039 ], [ 18.96607326000003, 63.221145045000071 ], [ 18.896663223000076, 63.273191132000079 ], [ 18.806573186000037, 63.247463215000039 ], [ 18.847218208000072, 63.234100115000047 ], [ 18.883891214000073, 63.227109105000068 ], [ 18.911663309000062, 63.20847311600005 ], [ 18.897500239000067, 63.191663210000058 ], [ 18.780282173000046, 63.162354041000071 ], [ 18.756236169000033, 63.186527115000047 ], [ 18.78516329100006, 63.19833604300004 ], [ 18.72955405700003, 63.20614512700007 ], [ 18.737363308000056, 63.170127083000068 ], [ 18.647218119000058, 63.140544999000042 ], [ 18.566945135000026, 63.117491078000057 ], [ 18.382218214000034, 63.051663298000051 ], [ 18.289163331000054, 62.997218143000055 ], [ 18.346663354000043, 62.988054040000065 ], [ 18.367218128000047, 62.991391211000064 ], [ 18.396245161000024, 62.99332709600003 ], [ 18.532354026000064, 62.985136132000036 ], [ 18.557218104000071, 62.980545029000041 ], [ 18.575200136000035, 62.961800075000042 ], [ 18.470418132000077, 62.860409054000058 ], [ 18.20402716600006, 62.777354116000083 ], [ 18.126109162000034, 62.765827155000068 ], [ 18.082773214000042, 62.781109209000078 ], [ 18.104445127000076, 62.804163298000049 ], [ 18.135382229000072, 62.809127061000083 ], [ 18.073327144000075, 62.836663290000047 ], [ 18.037218073000076, 62.839163276000079 ], [ 17.980763272000047, 62.818473219000055 ], [ 17.927500133000024, 62.842500112000039 ], [ 17.867363330000046, 62.925827126000058 ], [ 17.843327217000024, 62.962218165000081 ], [ 17.824300129000051, 62.994582202000061 ], [ 17.700554069000077, 62.992709182000056 ], [ 17.730554074000054, 62.972773160000031 ], [ 17.762082268000029, 62.958745039000064 ], [ 17.793609120000042, 62.95055407600006 ], [ 17.834718164000037, 62.933327086000077 ], [ 17.881945160000043, 62.883609156000034 ], [ 17.994718135000028, 62.730554095000059 ], [ 18.004582294000045, 62.69902707500006 ], [ 17.993891177000023, 62.654854110000031 ], [ 17.971800168000073, 62.656518085000073 ], [ 17.951663316000065, 62.669718074000059 ], [ 17.879236129000049, 62.66242715900006 ], [ 17.966391158000022, 62.634436129000051 ], [ 18.040136148000045, 62.62500011800006 ], [ 18.046391227000072, 62.595273195000061 ], [ 17.978054074000056, 62.555273244000034 ], [ 17.839445055000056, 62.485554082000078 ], [ 17.818609152000022, 62.482491167000035 ], [ 17.781800192000048, 62.501173256000072 ], [ 17.723609164000038, 62.498882146000028 ], [ 17.689445030000059, 62.491936063000082 ], [ 17.658263344000034, 62.467982093000046 ], [ 17.673891235000042, 62.444300199000054 ], [ 17.612500164000039, 62.434582220000038 ], [ 17.55500014100005, 62.443336112000054 ], [ 17.53360918900006, 62.454436099000077 ], [ 17.509163200000046, 62.481663203000039 ], [ 17.474718104000033, 62.506382106000046 ], [ 17.430000148000033, 62.533609209000076 ], [ 17.405273198000032, 62.536244983000074 ], [ 17.330827146000047, 62.487773107000066 ], [ 17.359718225000051, 62.360273128000074 ], [ 17.373891185000048, 62.326800165000066 ], [ 17.465273208000042, 62.265545049000082 ], [ 17.502500258000055, 62.258500059000028 ], [ 17.552163202000031, 62.250163250000071 ], [ 17.577000122000072, 62.247163200000045 ], [ 17.623891171000025, 62.239436091000073 ], [ 17.648882150000077, 62.231727087000081 ], [ 17.60000023200007, 62.209445138000035 ], [ 17.546463340000059, 62.202391096000042 ], [ 17.562436062000074, 62.230718073000048 ], [ 17.537554047000071, 62.230782111000053 ], [ 17.51470917000006, 62.229854067000076 ], [ 17.509036131000073, 62.202582204000066 ], [ 17.483254067000075, 62.125144985000077 ], [ 17.463609233000057, 62.006382134000035 ], [ 17.440345093000076, 61.991736099000036 ], [ 17.405063315000064, 61.989718072000073 ], [ 17.35082720500003, 61.943473268000048 ], [ 17.336391221000042, 61.818054012000061 ], [ 17.385663233000059, 61.756500165000034 ], [ 17.440282228000058, 61.726945072000035 ], [ 17.476800169000057, 61.73151807000005 ], [ 17.497363325000038, 61.725963215000036 ], [ 17.523609243000067, 61.698882124000079 ], [ 17.495173301000023, 61.634582198000032 ], [ 17.445273149000059, 61.628882169000065 ], [ 17.422218221000037, 61.64221811200008 ], [ 17.388054087000057, 61.689582235000046 ], [ 17.361109118000059, 61.703473228000064 ], [ 17.33319117700006, 61.713463283000067 ], [ 17.227363279000031, 61.722773231000076 ], [ 17.148782266000069, 61.717282246000082 ], [ 17.189300219000074, 61.705554119000055 ], [ 17.21402716800003, 61.704300187000058 ], [ 17.264545067000029, 61.685373179000067 ], [ 17.185554011000022, 61.634718152000062 ], [ 17.164863283000045, 61.631936031000066 ], [ 17.137082135000071, 61.637354093000056 ], [ 17.098609200000055, 61.602773211000056 ], [ 17.117773248000049, 61.555545042000062 ], [ 17.165418165000062, 61.519573266000066 ], [ 17.219654108000043, 61.434654025000043 ], [ 17.153954068000075, 61.428263159000039 ], [ 17.105273148000038, 61.399927130000037 ], [ 17.145000184000025, 61.357773198000075 ], [ 17.209163318000037, 61.327082188000077 ], [ 17.203609133000043, 61.27888222200005 ], [ 17.181109088000028, 61.190273267000066 ], [ 17.162754061000044, 61.046663270000067 ], [ 17.152500143000054, 60.942773268000053 ], [ 17.201663191000023, 60.91693605100005 ], [ 17.242918080000038, 60.893463202000078 ], [ 17.276109243000064, 60.843045048000079 ], [ 17.283609203000026, 60.771663252000053 ], [ 17.285273178000068, 60.731945101000065 ], [ 17.275273232000075, 60.676109053000062 ], [ 17.359718225000051, 60.640545140000029 ], [ 17.37710011300004, 60.618991076000043 ], [ 17.401800240000057, 60.630409072000077 ], [ 17.520554039000046, 60.64305401200005 ], [ 17.555273223000029, 60.643327094000028 ], [ 17.57832714500006, 60.640000149000059 ], [ 17.609163329000069, 60.632218055000067 ], [ 17.635827169000038, 60.618609197000069 ], [ 17.650627095000061, 60.600963279000041 ], [ 17.605900254000062, 60.580963220000058 ], [ 17.608745072000033, 60.553463201000056 ], [ 17.632082134000029, 60.520409166000036 ], [ 17.657918177000056, 60.50540907900006 ], [ 17.687918182000033, 60.497354070000029 ], [ 17.733509198000036, 60.498327042000028 ], [ 17.728400260000058, 60.536727055000028 ], [ 17.773054011000056, 60.571109119000027 ], [ 17.842500259000076, 60.590000085000042 ], [ 17.885827154000026, 60.597354031000066 ], [ 17.937218112000039, 60.598054088000083 ], [ 17.960973264000074, 60.592082149000078 ], [ 17.993327075000025, 60.558882101000052 ], [ 18.100000204000025, 60.453044983000041 ], [ 18.214163234000068, 60.343045077000056 ], [ 18.239582194000036, 60.329018129000076 ], [ 18.27020916500004, 60.34527315400004 ], [ 18.313891118000072, 60.353882207000026 ], [ 18.437845050000078, 60.340000099000065 ], [ 18.465827196000077, 60.299436046000039 ], [ 18.574163294000073, 60.250000084000078 ], [ 18.599618129000078, 60.235618079000062 ], [ 18.556945189000032, 60.224445002000039 ], [ 18.531109146000063, 60.226944988000071 ], [ 18.470836053000028, 60.234991113000035 ], [ 18.440900254000042, 60.242982251000058 ], [ 18.381527210000058, 60.270545134000031 ], [ 18.354163314000061, 60.290836046000038 ], [ 18.317082277000054, 60.308191111000042 ], [ 18.396109207000052, 60.208054023000045 ], [ 18.421663283000044, 60.187218120000068 ], [ 18.507427084000028, 60.15265400100003 ], [ 18.531663190000074, 60.153053985000042 ], [ 18.632773250000071, 60.145000150000044 ], [ 18.711391143000071, 60.128054121000048 ], [ 18.776663203000055, 60.110836015000075 ], [ 18.816391244000044, 60.096382094000035 ], [ 18.817218203000039, 60.075482154000042 ], [ 18.890000112000052, 59.958054037000068 ], [ 18.90736322500004, 59.937909138000066 ], [ 18.929718096000045, 59.92471803400008 ], [ 18.956973195000046, 59.920327090000058 ], [ 19.007218179000063, 59.912773152000057 ], [ 19.045554154000058, 59.899163288000068 ], [ 19.070554019000042, 59.889718056000049 ], [ 19.065445081000064, 59.832500168000081 ], [ 19.033191182000053, 59.828745075000029 ], [ 18.969218150000074, 59.865609188000064 ], [ 18.936109130000034, 59.869991079000044 ], [ 18.864718113000038, 59.798045013000035 ], [ 18.934718237000027, 59.783609197000033 ], [ 18.968609121000043, 59.783609197000033 ], [ 19.079654083000037, 59.767427094000027 ], [ 19.072636083000077, 59.738191184000073 ], [ 19.032218211000043, 59.719991222000033 ], [ 18.985691272000054, 59.716663271000073 ], [ 18.953609202000052, 59.719991222000033 ], [ 18.841391277000071, 59.712491095000075 ], [ 18.745554104000064, 59.689163253000061 ], [ 18.717218074000073, 59.671391103000076 ], [ 18.69979126000004, 59.644091077000041 ], [ 18.736873302000049, 59.642082102000074 ], [ 18.666382167000052, 59.591382149000083 ], [ 18.645554143000027, 59.580554071000051 ], [ 18.373327194000069, 59.466945085000077 ], [ 18.317218231000027, 59.473609201000045 ], [ 18.275136048000036, 59.475827052000056 ], [ 18.25944512500007, 59.446382097000082 ], [ 18.286591260000023, 59.412282168000047 ], [ 18.32826323300003, 59.397945090000064 ], [ 18.165618101000064, 59.41082706900005 ], [ 18.191709121000031, 59.424563165000052 ], [ 18.195082167000066, 59.450118079000049 ], [ 18.120000263000065, 59.45388222400004 ], [ 18.087218137000036, 59.434582221000028 ], [ 18.05721813200006, 59.391391112000065 ], [ 18.088891165000064, 59.367218039000079 ], [ 18.091391151000039, 59.334445133000031 ], [ 18.007363242000054, 59.344963248000056 ], [ 17.932145049000042, 59.33651814500007 ], [ 17.897782263000067, 59.343891202000066 ], [ 17.859163315000046, 59.356109167000056 ], [ 17.832773228000065, 59.365000187000078 ], [ 17.808745161000047, 59.374445083000069 ], [ 17.782773163000059, 59.389163202000077 ], [ 17.759654030000036, 59.414863291000074 ], [ 17.784654062000072, 59.493400215000065 ], [ 17.80916325000004, 59.518191203000072 ], [ 17.843473230000029, 59.530691135000041 ], [ 17.817709104000073, 59.586454093000043 ], [ 17.756509140000048, 59.618273139000053 ], [ 17.739663191000034, 59.663954008000076 ], [ 17.721109178000063, 59.696036078000077 ], [ 17.706800263000048, 59.677353989000039 ], [ 17.710591231000024, 59.669400066000037 ], [ 17.720691256000066, 59.658609204000072 ], [ 17.718263187000048, 59.622845132000066 ], [ 17.642500169000073, 59.63750021900006 ], [ 17.603963196000052, 59.650627117000056 ], [ 17.597563278000052, 59.65860015100003 ], [ 17.628054127000041, 59.662218116000076 ], [ 17.64534515500003, 59.666036073000043 ], [ 17.653336126000056, 59.682127148000063 ], [ 17.654163252000046, 59.718045112000027 ], [ 17.62967317500005, 59.786482178000028 ], [ 17.591036122000048, 59.803054039000074 ], [ 17.581036176000055, 59.778045122000037 ], [ 17.538473207000038, 59.748191130000066 ], [ 17.513882212000055, 59.744991087000074 ], [ 17.448054097000067, 59.735545017000049 ], [ 17.444718099000056, 59.676109109000038 ], [ 17.523682165000025, 59.578536044000032 ], [ 17.543154165000033, 59.573009185000046 ], [ 17.528200179000066, 59.599718120000034 ], [ 17.521663300000057, 59.611382208000066 ], [ 17.514445140000078, 59.646518141000058 ], [ 17.510136172000045, 59.696727082000052 ], [ 17.537500236000028, 59.73221807200008 ], [ 17.588891193000052, 59.736936078000042 ], [ 17.612563196000053, 59.732427117000043 ], [ 17.616109244000029, 59.695545066000079 ], [ 17.561173245000077, 59.668445032000079 ], [ 17.589709099000061, 59.639427051000041 ], [ 17.694163203000073, 59.607500214000027 ], [ 17.742218163000075, 59.590554017000045 ], [ 17.762363229000073, 59.576800152000033 ], [ 17.785827194000035, 59.532636072000059 ], [ 17.731391259000077, 59.44485407600007 ], [ 17.547918103000029, 59.490136135000057 ], [ 17.522663261000048, 59.507491200000061 ], [ 17.546082299000034, 59.536991141000044 ], [ 17.495273213000075, 59.541109170000027 ], [ 17.442773162000037, 59.558745030000068 ], [ 17.372982251000053, 59.611873220000064 ], [ 17.382845069000041, 59.652354125000045 ], [ 17.348745140000062, 59.614436071000057 ], [ 17.370827096000028, 59.583054058000073 ], [ 17.405482243000051, 59.54964513300007 ], [ 17.418954140000039, 59.488473165000073 ], [ 17.404445066000051, 59.46916327200006 ], [ 17.325554090000026, 59.488054070000032 ], [ 17.258609170000057, 59.50624497900003 ], [ 17.185273217000031, 59.538609184000052 ], [ 17.117218198000046, 59.547773119000055 ], [ 17.065000115000032, 59.541527092000081 ], [ 17.02527324600004, 59.536800201000062 ], [ 16.944718127000044, 59.54485403700005 ], [ 16.864963313000032, 59.584727086000044 ], [ 16.826382250000051, 59.585273251000046 ], [ 16.78694506100004, 59.558882158000074 ], [ 16.659854118000055, 59.550273105000031 ], [ 16.619718213000056, 59.583473153000057 ], [ 16.558609109000031, 59.609854020000057 ], [ 16.537918214000058, 59.608191218000059 ], [ 16.499091226000075, 59.592909164000048 ], [ 16.521663189000037, 59.571663219000072 ], [ 16.543018099000051, 59.554363306000027 ], [ 16.480836112000077, 59.499754033000045 ], [ 16.330000243000029, 59.467773217000058 ], [ 16.173336102000064, 59.465136103000077 ], [ 16.096663313000022, 59.472218140000052 ], [ 16.066391232000058, 59.482500221000066 ], [ 16.032463299000028, 59.490163292000034 ], [ 16.071591197000032, 59.455345034000061 ], [ 16.107218141000033, 59.445418178000068 ], [ 16.17528221300006, 59.439718149000043 ], [ 16.27641808900006, 59.443982191000032 ], [ 16.309309180000071, 59.45110915500004 ], [ 16.335000216000026, 59.453327174000037 ], [ 16.664718136000033, 59.473609201000045 ], [ 16.689373169000078, 59.463673125000071 ], [ 16.750000146000048, 59.42416318000005 ], [ 16.811945093000077, 59.388118147000057 ], [ 16.877773208000065, 59.38193615800003 ], [ 16.891245105000053, 59.398118093000051 ], [ 16.854373281000051, 59.407145067000044 ], [ 16.800554086000034, 59.425545021000062 ], [ 16.726663251000048, 59.453609142000062 ], [ 16.695418198000027, 59.470482248000053 ], [ 16.836736080000037, 59.489645123000059 ], [ 16.897500184000023, 59.467500134000034 ], [ 16.932563194000068, 59.447845074000043 ], [ 16.95791811600003, 59.425000197000031 ], [ 17.111663343000032, 59.374445083000069 ], [ 17.174445139000056, 59.373054023000066 ], [ 17.280554167000048, 59.356663211000068 ], [ 17.308573193000029, 59.346800058000042 ], [ 17.300973153000029, 59.322845081000082 ], [ 17.263882226000078, 59.290836102000071 ], [ 17.252918193000028, 59.264309055000069 ], [ 17.286945032000062, 59.259045052000033 ] ] ], [ [ [ 19.003891234000037, 57.898891156000047 ], [ 19.033336189000067, 57.826945090000038 ], [ 18.929445181000062, 57.739718144000051 ], [ 18.848891236000043, 57.721109145000071 ], [ 18.809163194000064, 57.703609073000052 ], [ 18.793327097000031, 57.65916319300004 ], [ 18.75971817900006, 57.508045022000033 ], [ 18.768745154000044, 57.469718099000033 ], [ 18.788327124000034, 57.448327147000043 ], [ 18.713191241000061, 57.244300056000043 ], [ 18.658054075000052, 57.220836091000081 ], [ 18.55193616400004, 57.182782251000049 ], [ 18.506527203000076, 57.167354017000036 ], [ 18.447500164000076, 57.154854084000078 ], [ 18.417218192000064, 57.144163302000038 ], [ 18.393127093000032, 57.130827024000041 ], [ 18.342918152000038, 57.075482155000032 ], [ 18.340345076000062, 57.013463280000053 ], [ 18.298745187000065, 56.936100157000055 ], [ 18.210827069000061, 56.912500071000068 ], [ 18.168891234000057, 56.910000084000046 ], [ 18.144582206000052, 56.914791180000066 ], [ 18.158336071000065, 56.94166322600006 ], [ 18.209163261000072, 56.989163304000044 ], [ 18.256663339000056, 57.032218123000064 ], [ 18.254445152000073, 57.079163152000035 ], [ 18.173336157000051, 57.14193606300006 ], [ 18.148327073000075, 57.235273249000045 ], [ 18.15805410400003, 57.315827027000068 ], [ 18.142500141000028, 57.409436122000045 ], [ 18.115273205000051, 57.480827138000052 ], [ 18.110136104000048, 57.504582122000045 ], [ 18.115273205000051, 57.525273186000049 ], [ 18.13860909400006, 57.551109061000034 ], [ 18.185300151000035, 57.592236043000071 ], [ 18.219854044000044, 57.608609085000069 ], [ 18.245691260000058, 57.61916324200007 ], [ 18.276109187000031, 57.63416316100006 ], [ 18.294718185000022, 57.645827082000039 ], [ 18.338891151000041, 57.681663238000056 ], [ 18.355827121000061, 57.695827146000056 ], [ 18.381945132000055, 57.718609159000039 ], [ 18.40166322400006, 57.738609050000036 ], [ 18.419718178000039, 57.760273253000037 ], [ 18.466527084000063, 57.810273149000068 ], [ 18.685973189000038, 57.914853988000061 ], [ 18.720554072000027, 57.921936026000083 ], [ 18.881945103000078, 57.919718174000081 ], [ 18.908327144000054, 57.917909192000081 ], [ 19.005409197000063, 57.906109148000041 ], [ 19.003891234000037, 57.898891156000047 ] ] ], [ [ [ 16.429718069000046, 56.208882212000049 ], [ 16.418473243000051, 56.21319118100007 ], [ 16.410827103000031, 56.225000109000064 ], [ 16.403327144000059, 56.27416416300008 ], [ 16.391663223000023, 56.465000149000048 ], [ 16.394582137000043, 56.532491234000076 ], [ 16.420273173000055, 56.586391230000061 ], [ 16.542500265000058, 56.776382154000032 ], [ 16.614300151000066, 56.870963214000028 ], [ 16.629163277000032, 56.879163230000074 ], [ 16.64500021200007, 56.883609159000059 ], [ 16.749445096000045, 56.939718122000045 ], [ 16.848054164000075, 57.064163233000045 ], [ 16.900000171000045, 57.134991153000044 ], [ 16.961245061000056, 57.226527068000053 ], [ 16.965554030000078, 57.241663277000043 ], [ 16.960282148000033, 57.256944995000026 ], [ 16.959854168000049, 57.277218136000045 ], [ 16.966109247000077, 57.293609116000027 ], [ 16.973327072000075, 57.305273205000049 ], [ 16.982773309000038, 57.315554112000029 ], [ 16.993054049000023, 57.324718047000033 ], [ 17.010000245000072, 57.337491229000079 ], [ 17.022218210000062, 57.344991188000051 ], [ 17.035554153000078, 57.351944983000067 ], [ 17.056663306000075, 57.359163143000046 ], [ 17.102082157000041, 57.349444996000045 ], [ 17.124163276000047, 57.320827167000061 ], [ 17.050554072000068, 57.18666323900004 ], [ 17.008891152000047, 57.131945002000066 ], [ 16.961109107000027, 57.075273110000069 ], [ 16.926663340000061, 57.03805410700005 ], [ 16.88027319400004, 56.929718176000051 ], [ 16.848327079000057, 56.843891175000067 ], [ 16.838891235000062, 56.829582093000056 ], [ 16.828054105000035, 56.825273124000034 ], [ 16.812636097000052, 56.825000210000042 ], [ 16.782218170000021, 56.807918059000031 ], [ 16.770273287000066, 56.79582716300007 ], [ 16.726663251000048, 56.702218068000036 ], [ 16.635554143000036, 56.518882208000036 ], [ 16.576663226000051, 56.406945076000056 ], [ 16.570000116000074, 56.391245101000038 ], [ 16.571109209000042, 56.374300078000033 ], [ 16.575418178000064, 56.364300132000039 ], [ 16.571663253000054, 56.355000075000078 ], [ 16.553054087000078, 56.326382246000037 ], [ 16.496109113000045, 56.240827154000044 ], [ 16.48638224900003, 56.231382090000068 ], [ 16.473609235000026, 56.22444506000005 ], [ 16.43721819600006, 56.21139108400007 ], [ 16.429718069000046, 56.208882212000049 ] ] ], [ [ [ 11.465000128000042, 58.066109119000032 ], [ 11.452636151000036, 58.074718172000075 ], [ 11.401945082000054, 58.133609089000061 ], [ 11.410554135000041, 58.147500081000032 ], [ 11.67319118100005, 58.285544998000034 ], [ 11.70889121600004, 58.285827133000055 ], [ 11.721663225000043, 58.28471803900004 ], [ 11.736663311000029, 58.281663171000048 ], [ 11.786663207000061, 58.245554100000049 ], [ 11.812427166000077, 58.217709082000056 ], [ 11.815836086000047, 58.171945064000056 ], [ 11.814718108000022, 58.147218114000054 ], [ 11.811109196000075, 58.133609089000061 ], [ 11.803336154000021, 58.118745124000043 ], [ 11.714718147000042, 58.101109097000062 ], [ 11.676391224000042, 58.098882193000065 ], [ 11.624163250000038, 58.110273200000051 ], [ 11.606663345000072, 58.11860917000007 ], [ 11.583054038000057, 58.118891137000048 ], [ 11.553336168000044, 58.115273172000059 ], [ 11.466527144000054, 58.09860911100003 ], [ 11.463609235000035, 58.071663304000083 ], [ 11.465000128000042, 58.066109119000032 ] ] ], [ [ [ 11.51812714600004, 57.980691155000045 ], [ 11.509718085000031, 57.989718130000028 ], [ 11.497773202000076, 58.009853976000045 ], [ 11.500000106000073, 58.034027049000031 ], [ 11.525273221000077, 58.048473260000037 ], [ 11.735882285000059, 58.041718116000027 ], [ 11.741663284000026, 58.027773144000037 ], [ 11.735554050000076, 58.001518173000079 ], [ 11.725973199000066, 57.992082162000031 ], [ 11.65944502800005, 57.957500106000055 ], [ 11.646109084000045, 57.95082710500003 ], [ 11.594445045000043, 57.932491189000075 ], [ 11.585000149000052, 57.930827046000047 ], [ 11.574718068000038, 57.931663224000033 ], [ 11.525282273000073, 57.950000146000036 ], [ 11.51812714600004, 57.980691155000045 ] ] ], [ [ [ 19.126109105000069, 57.839718105000031 ], [ 19.093327147000025, 57.851945122000075 ], [ 19.075418205000062, 57.860409168000047 ], [ 19.035973304000038, 57.898744976000046 ], [ 19.035273247000077, 57.915554044000032 ], [ 19.092363228000067, 57.971945142000038 ], [ 19.104718153000022, 57.975273261000041 ], [ 19.285827109000024, 57.976663148000057 ], [ 19.296391157000073, 57.976663148000057 ], [ 19.307500196000035, 57.97444512900006 ], [ 19.334236120000071, 57.959363235000069 ], [ 19.282082242000058, 57.938882222000075 ], [ 19.271245112000031, 57.946800103000044 ], [ 19.256663283000023, 57.949436044000038 ], [ 19.238054117000047, 57.946936058000063 ], [ 19.166663268000036, 57.928191105000053 ], [ 19.148336069000038, 57.916109094000035 ], [ 19.140836109000077, 57.904718088000038 ], [ 19.126109105000069, 57.839718105000031 ] ] ], [ [ [ 18.561663195000051, 60.30527320300007 ], [ 18.549163262000036, 60.306109047000064 ], [ 18.516945070000077, 60.31749116800006 ], [ 18.401109180000049, 60.36527321300008 ], [ 18.393327086000056, 60.377218096000036 ], [ 18.381945132000055, 60.416382203000069 ], [ 18.372918157000072, 60.496936149000078 ], [ 18.385273250000068, 60.504718075000028 ], [ 18.408882222000045, 60.499718102000031 ], [ 18.422500132000039, 60.486663288000045 ], [ 18.456109217000062, 60.42750012700003 ], [ 18.507218207000051, 60.348054102000049 ], [ 18.537218212000028, 60.34250008500004 ], [ 18.571391231000064, 60.310553970000058 ], [ 18.561663195000051, 60.30527320300007 ] ] ], [ [ [ 17.25638226600006, 59.373327105000044 ], [ 17.231109152000045, 59.375545124000041 ], [ 17.151391218000072, 59.385136033000038 ], [ 17.070136042000058, 59.456663172000049 ], [ 17.089718180000034, 59.460000175000062 ], [ 17.150554033000049, 59.456663172000049 ], [ 17.236109125000041, 59.449718094000048 ], [ 17.256945027000029, 59.446663226000055 ], [ 17.266945141000065, 59.44416324000008 ], [ 17.280282258000057, 59.436945080000044 ], [ 17.317082165000045, 59.405554014000074 ], [ 17.313473253000041, 59.396109118000027 ], [ 17.266391265000038, 59.374445083000069 ], [ 17.25638226600006, 59.373327105000044 ] ] ], [ [ [ 17.777773190000062, 59.308609089000072 ], [ 17.754445180000062, 59.309436048000066 ], [ 17.721663222000075, 59.316109049000033 ], [ 17.686945043000037, 59.328045047000046 ], [ 17.671945125000036, 59.334718047000081 ], [ 17.661945179000043, 59.343045133000032 ], [ 17.617500137000036, 59.397773261000054 ], [ 17.608054068000058, 59.419163207000054 ], [ 17.62319128200005, 59.42527311200007 ], [ 17.638882205000073, 59.42610912300006 ], [ 17.650554172000056, 59.42416318000005 ], [ 17.740827102000026, 59.391518182000027 ], [ 17.775554165000074, 59.370409197000072 ], [ 17.788054098000032, 59.314582201000064 ], [ 17.777773190000062, 59.308609089000072 ] ] ], [ [ [ 17.484718218000069, 62.363054076000083 ], [ 17.45666331700005, 62.365273268000067 ], [ 17.444163217000039, 62.367491120000068 ], [ 17.416109155000072, 62.377982245000055 ], [ 17.370763226000065, 62.471800217000066 ], [ 17.467636067000058, 62.460000174000072 ], [ 17.514445140000078, 62.41444503300005 ], [ 17.542500209000025, 62.366100059000075 ], [ 17.509163200000046, 62.363327158000061 ], [ 17.484718218000069, 62.363054076000083 ] ] ] ] }
        }
    ]
}