{
    "type": "FeatureCollection",
    "features": [
        {
            "type": "Feature",
            "properties": {
                "WCID": "SWI",
                "COUNTRY": "Switzerland"
            },
            "geometry": { "type": "Polygon", "coordinates": [ [ [ 6.446945120000066, 46.839436087000081 ], [ 6.460282237000058, 46.895827017000045 ], [ 6.528336082000067, 46.971664130000079 ], [ 6.56639126400006, 46.980000100000041 ], [ 6.632500173000039, 47.00000016000007 ], [ 6.678336108000053, 47.034164127000054 ], [ 6.699445093000065, 47.063891217000048 ], [ 6.793336155000077, 47.130827084000032 ], [ 6.849718200000041, 47.164991219000058 ], [ 6.838954160000071, 47.171518039000034 ], [ 6.971663325000065, 47.291936148000048 ], [ 7.000836036000067, 47.365000193000071 ], [ 6.980836144000023, 47.36166419500006 ], [ 6.931391130000065, 47.35889112600006 ], [ 6.881663309000032, 47.363673170000027 ], [ 6.990554123000038, 47.497218178000026 ], [ 7.025000224000053, 47.508045082000081 ], [ 7.146418127000061, 47.499053982000078 ], [ 7.182918131000065, 47.444018071000073 ], [ 7.247709236000048, 47.42166420500007 ], [ 7.275554087000046, 47.432491110000058 ], [ 7.308336045000033, 47.44027320400005 ], [ 7.340282161000061, 47.439018098000076 ], [ 7.355900161000022, 47.43401812500008 ], [ 7.358054142000071, 47.433609088000026 ], [ 7.385418206000054, 47.433327121000048 ], [ 7.415553998000064, 47.445273177000047 ], [ 7.433054071000072, 47.460545004000039 ], [ 7.452773169000068, 47.469991074000063 ], [ 7.49694512800005, 47.494991106000043 ], [ 7.502218183000025, 47.500545123000052 ], [ 7.50257324100005, 47.549927106000041 ], [ 7.521663193000052, 47.559718174000068 ], [ 7.546663225000032, 47.565553991000058 ], [ 7.554027062000046, 47.578882223000051 ], [ 7.577082158000053, 47.58430917000004 ], [ 7.588273172000072, 47.584482172000037 ], [ 7.640554120000047, 47.603882087000045 ], [ 7.675691225000037, 47.60500006500007 ], [ 7.668818065000039, 47.57603606400005 ], [ 7.62110911000002, 47.561100183000065 ], [ 7.656109088000051, 47.550554072000068 ], [ 7.697218132000046, 47.543327027000032 ], [ 7.769718074000025, 47.553327141000068 ], [ 7.917709125000044, 47.554227022000077 ], [ 8.033336138000038, 47.556109094000078 ], [ 8.101836069000058, 47.571073139000077 ], [ 8.195763341000031, 47.620344983000052 ], [ 8.24083618700007, 47.619436050000047 ], [ 8.289100192000035, 47.609091105000061 ], [ 8.390836045000071, 47.579991148000033 ], [ 8.435836136000034, 47.573609167000029 ], [ 8.471245151000062, 47.607354039000029 ], [ 8.523473292000062, 47.632700076000049 ], [ 8.562918194000076, 47.618400046000033 ], [ 8.569427077000057, 47.598536109000065 ], [ 8.576418087000036, 47.591373102000034 ], [ 8.593054153000026, 47.600553969000032 ], [ 8.624963220000041, 47.65620913500004 ], [ 8.610254154000074, 47.667736096000056 ], [ 8.580554053000071, 47.66860915500007 ], [ 8.540554102000044, 47.664300186000048 ], [ 8.522082232000059, 47.651664132000064 ], [ 8.485418111000058, 47.647082081000065 ], [ 8.419027067000059, 47.673882210000045 ], [ 8.40694505700003, 47.701800151000043 ], [ 8.47708214000005, 47.770618091000074 ], [ 8.562918194000076, 47.806664130000058 ], [ 8.611663319000058, 47.803882176000059 ], [ 8.661391139000045, 47.798045019000028 ], [ 8.685554155000034, 47.786664238000071 ], [ 8.73645410000006, 47.757073103000039 ], [ 8.732254096000077, 47.708291097000028 ], [ 8.720218186000068, 47.696627008000064 ], [ 8.753336091000051, 47.69360918700005 ], [ 8.800136112000075, 47.68172700100007 ], [ 8.774373159000049, 47.715973111000039 ], [ 8.80548225800004, 47.736036034000051 ], [ 8.83528227100004, 47.718045117000031 ], [ 8.855836038000064, 47.698882243000071 ], [ 8.883300182000028, 47.654145008000057 ], [ 8.898891193000054, 47.650827115000027 ], [ 8.925973290000059, 47.651800087000026 ], [ 8.947773279000046, 47.657491064000055 ], [ 8.979445138000074, 47.670136003000039 ], [ 9.000836091000053, 47.68082712000006 ], [ 9.033336082000062, 47.688327080000079 ], [ 9.082636090000051, 47.68541805600006 ], [ 9.26110022000006, 47.66284508800004 ], [ 9.478318080000065, 47.575854009000068 ], [ 9.566727209000021, 47.540454046000036 ], [ 9.559800237000047, 47.50209108100006 ], [ 9.596600145000025, 47.469436024000061 ], [ 9.649654072000033, 47.458609120000062 ], [ 9.670345135000048, 47.390691061000041 ], [ 9.637363184000037, 47.369582076000029 ], [ 9.610963206000065, 47.362227124000071 ], [ 9.540000170000042, 47.284164113000031 ], [ 9.533573262000061, 47.274545040000078 ], [ 9.496809229000064, 47.22332708600004 ], [ 9.485000133000028, 47.196244989000036 ], [ 9.487082198000053, 47.172636017000059 ], [ 9.502082284000039, 47.14680919400007 ], [ 9.511736057000064, 47.105973232000053 ], [ 9.474636077000071, 47.057454083000039 ], [ 9.485282268000049, 47.061100211000053 ], [ 9.506391253000061, 47.064718175000053 ], [ 9.541391231000034, 47.070000116000074 ], [ 9.59863610900004, 47.063836064000043 ], [ 9.632500171000061, 47.056664172000069 ], [ 9.71944515000007, 47.050282191000065 ], [ 9.872918133000042, 47.023045029000059 ], [ 9.891600222000022, 47.000336106000077 ], [ 9.875836041000071, 46.968182120000051 ], [ 9.877782152000066, 46.940409187000057 ], [ 9.935000208000076, 46.912773214000026 ], [ 10.058891275000065, 46.866391114000066 ], [ 10.109445048000055, 46.850273217000051 ], [ 10.131527172000062, 46.85040917200007 ], [ 10.141809085000034, 46.851345095000056 ], [ 10.160836173000064, 46.85500010800007 ], [ 10.227500131000056, 46.87693605100003 ], [ 10.31332713200004, 46.933609116000071 ], [ 10.323327078000034, 46.955554112000073 ], [ 10.350627104000068, 46.991245094000078 ], [ 10.390763345000039, 47.00256418400005 ], [ 10.430000207000035, 46.984164230000033 ], [ 10.48820917200004, 46.935991085000069 ], [ 10.471236153000063, 46.871354039000039 ], [ 10.447500112000057, 46.763053982000031 ], [ 10.470836169000052, 46.635827085000074 ], [ 10.486527092000074, 46.617354041000056 ], [ 10.485691248000023, 46.592636144000039 ], [ 10.471873178000067, 46.555764152000052 ], [ 10.457527048000031, 46.542500125000061 ], [ 10.449718131000054, 46.539164128000039 ], [ 10.337218071000052, 46.549435982000034 ], [ 10.303609153000025, 46.554864271000042 ], [ 10.246318174000066, 46.590409072000057 ], [ 10.253609089000065, 46.615964154000039 ], [ 10.241800161000072, 46.634445077000066 ], [ 10.181109147000029, 46.632218173000069 ], [ 10.119163194000066, 46.611382103000039 ], [ 10.05139114800005, 46.541518101000065 ], [ 10.044445065000048, 46.502636129000052 ], [ 10.049682246000032, 46.445591075000038 ], [ 10.090691210000045, 46.423744985000042 ], [ 10.153891263000048, 46.390273196000066 ], [ 10.173954019000064, 46.263118048000081 ], [ 10.13639119000004, 46.230691147000073 ], [ 10.071773255000039, 46.221800127000051 ], [ 9.99500021800003, 46.291664128000036 ], [ 9.982218151000041, 46.33304508100008 ], [ 9.99041816700003, 46.355200128000035 ], [ 9.946945091000032, 46.379582079000045 ], [ 9.908054066000034, 46.383191158000045 ], [ 9.852782287000025, 46.369718087000081 ], [ 9.81305407800005, 46.358327081000027 ], [ 9.770554140000058, 46.342209184000069 ], [ 9.708818071000053, 46.30027318100008 ], [ 9.624718077000068, 46.291936037000028 ], [ 9.581945058000031, 46.296945063000067 ], [ 9.544863182000029, 46.306245119000039 ], [ 9.521391171000062, 46.319718023000064 ], [ 9.457636069000046, 46.386245021000036 ], [ 9.450282290000075, 46.426664235000032 ], [ 9.455000128000052, 46.472500169000057 ], [ 9.366800210000065, 46.508054023000057 ], [ 9.293782266000051, 46.500827146000063 ], [ 9.250627200000054, 46.442427074000079 ], [ 9.273127078000073, 46.425764186000038 ], [ 9.297218176000058, 46.350964249000072 ], [ 9.292636125000058, 46.324853950000033 ], [ 9.276663235000058, 46.292500139000026 ], [ 9.241009133000034, 46.233627160000026 ], [ 9.176454062000062, 46.178600133000032 ], [ 9.144436197000061, 46.168044970000039 ], [ 9.132218065000075, 46.160273102000076 ], [ 9.083336146000022, 46.121109162000039 ], [ 9.035827184000027, 46.057218105000061 ], [ 9.01666330300003, 46.022500094000065 ], [ 8.997363301000064, 45.975136138000039 ], [ 9.022982252000077, 45.93895397700004 ], [ 9.073054066000054, 45.920000147000053 ], [ 9.084100241000044, 45.902291197000068 ], [ 9.036663195000074, 45.837773174000063 ], [ 8.998336104000032, 45.829436030000068 ], [ 8.951109109000072, 45.845273133000035 ], [ 8.936318067000059, 45.871873103000041 ], [ 8.926663288000043, 45.90083609900006 ], [ 8.897782267000025, 45.952773221000029 ], [ 8.819863257000065, 45.986382138000067 ], [ 8.820282184000064, 46.033882216000052 ], [ 8.851454147000027, 46.056736145000059 ], [ 8.844163232000028, 46.080753986000047 ], [ 8.82221806900003, 46.098609116000034 ], [ 8.74721814000003, 46.121109162000039 ], [ 8.72885406100005, 46.108591125000032 ], [ 8.719300200000021, 46.104018126000028 ], [ 8.696527072000038, 46.101109103000056 ], [ 8.615836166000065, 46.121245116000068 ], [ 8.460554033000051, 46.233327088000067 ], [ 8.445000238000034, 46.247218081000028 ], [ 8.434582203000048, 46.293191143000058 ], [ 8.448127191000026, 46.322982104000062 ], [ 8.465973269000074, 46.372635995000053 ], [ 8.460836168000071, 46.448327096000071 ], [ 8.441454023000063, 46.46208213400007 ], [ 8.365273251000076, 46.453609036000046 ], [ 8.357218075000048, 46.450000124000042 ], [ 8.303745053000057, 46.422909142000037 ], [ 8.141945152000062, 46.22290905300008 ], [ 8.158745168000053, 46.183818035000058 ], [ 8.14958223900004, 46.151245121000045 ], [ 8.009027110000034, 46.009300105000079 ], [ 7.97305416100005, 45.996936128000073 ], [ 7.950000239000076, 45.99416423200006 ], [ 7.906809130000056, 45.992636044000051 ], [ 7.879300227000044, 45.975136138000039 ], [ 7.866391258000021, 45.948327124000059 ], [ 7.855745067000043, 45.919053998000038 ], [ 7.783891202000063, 45.923609059000057 ], [ 7.743336034000038, 45.932218112000044 ], [ 7.709163182000054, 45.943327151000062 ], [ 7.65028215600006, 45.980554033000033 ], [ 7.536663279000038, 45.981664132000049 ], [ 7.458054103000052, 45.941109132000065 ], [ 7.42971807300006, 45.929445043000044 ], [ 7.386109210000029, 45.915409043000068 ], [ 7.338891267000065, 45.920554023000079 ], [ 7.296809084000074, 45.92319113700006 ], [ 7.230282254000031, 45.898045092000075 ], [ 7.191391229000033, 45.880691200000058 ], [ 7.10326322800006, 45.883536018000029 ], [ 7.07028228300004, 45.903053950000071 ], [ 7.038054033000037, 45.931936145000066 ], [ 7.030554073000076, 45.961935982000057 ], [ 7.007218184000067, 45.998054106000041 ], [ 6.93305409900006, 46.055273168000042 ], [ 6.873891106000031, 46.088053953000042 ], [ 6.783473169000047, 46.154718079000077 ], [ 6.800000103000059, 46.378327140000067 ], [ 6.807018103000075, 46.404227053000056 ], [ 6.798336128000074, 46.428609171000062 ], [ 6.737782241000048, 46.447491085000081 ], [ 6.702773211000022, 46.454718129000071 ], [ 6.633609099000068, 46.464164199000038 ], [ 6.51513609400007, 46.45846417000007 ], [ 6.491945044000033, 46.453045101000043 ], [ 6.319718223000052, 46.404164189000028 ], [ 6.295554034000077, 46.394164243000034 ], [ 6.244863301000066, 46.356382144000065 ], [ 6.230000175000043, 46.330200096000056 ], [ 6.243745155000056, 46.315509134000081 ], [ 6.271945063000032, 46.261936032000051 ], [ 6.245554138000045, 46.218327001000034 ], [ 6.187500238000041, 46.172082197000066 ], [ 6.13326328900007, 46.149782144000028 ], [ 5.996391169000049, 46.14694503700008 ], [ 5.967009078000046, 46.207291220000059 ], [ 5.981391250000058, 46.221936081000081 ], [ 6.009163178000051, 46.233891190000065 ], [ 6.030000254000072, 46.241391149000037 ], [ 6.074582256000042, 46.248400097000058 ], [ 6.115554004000046, 46.261527163000039 ], [ 6.106109108000055, 46.297491060000027 ], [ 6.117636069000071, 46.30874510600006 ], [ 6.153545148000035, 46.379264237000029 ], [ 6.111109081000052, 46.409718038000051 ], [ 6.071109130000025, 46.426382100000069 ], [ 6.086945060000062, 46.449436022000043 ], [ 6.135282155000027, 46.539718171000061 ], [ 6.128682244000061, 46.588054093000039 ], [ 6.269163277000075, 46.682782172000032 ], [ 6.358745035000027, 46.716727036000066 ], [ 6.435000238000043, 46.758045124000034 ], [ 6.456873149000046, 46.781454104000034 ], [ 6.446945120000066, 46.839436087000081 ] ], [ [ 8.710254115000055, 47.696809063000046 ], [ 8.705482129000075, 47.711036002000071 ], [ 8.673954103000028, 47.702854091000063 ], [ 8.678591140000037, 47.693344990000071 ], [ 8.710254115000055, 47.696809063000046 ] ] ] }
        }
    ]
}