{
    "type": "FeatureCollection",
    "features": [
        {
            "type": "Feature",
            "properties": {
                "WCID": "TTO",
                "COUNTRY": "Trinidad and Tobago"
            },
            "geometry": { "type": "MultiPolygon", "coordinates": [ [ [ [ -61.079446024999982, 10.824164108000048 ], [ -61.075564029999953, 10.826109045000067 ], [ -61.025417785999934, 10.840273120000063 ], [ -60.928335900999969, 10.838609145000021 ], [ -60.909235889999934, 10.827009094000061 ], [ -60.923054965999938, 10.797218134000047 ], [ -60.944454970999971, 10.762217988000032 ], [ -60.963054916999965, 10.739164234000043 ], [ -60.987226816999964, 10.714718078000033 ], [ -61.017917825999973, 10.698473111000055 ], [ -61.034173018999979, 10.678191085000037 ], [ -61.045417844999974, 10.489164080000023 ], [ -61.020972861999951, 10.392217982000034 ], [ -60.998608938999951, 10.351600117000032 ], [ -61.004445928999985, 10.149582169000041 ], [ -61.08361786599994, 10.102773095000032 ], [ -61.107226836999985, 10.091945017000057 ], [ -61.152226760999952, 10.075554038000064 ], [ -61.202917828999944, 10.069164178000051 ], [ -61.405281950999949, 10.066944985000021 ], [ -61.526672863999977, 10.06833604600007 ], [ -61.677081925999971, 10.076109087000077 ], [ -61.705554915999983, 10.078891041000077 ], [ -61.806117804999985, 10.081109060000074 ], [ -61.833617823999987, 10.071391082000048 ], [ -61.858335887999942, 10.062218094000059 ], [ -61.880281889999935, 10.042500170000039 ], [ -61.909517800999936, 10.040345015000071 ], [ -61.921599811999954, 10.064864094000029 ], [ -61.81778189399995, 10.127773127000069 ], [ -61.647781976999966, 10.19721803300007 ], [ -61.504099894999968, 10.237636073000033 ], [ -61.461390913999935, 10.274309079000034 ], [ -61.453755, 10.294164131000059 ], [ -61.463054888999977, 10.571245041000054 ], [ -61.473617930999978, 10.597773094000047 ], [ -61.495835841999963, 10.635273058000053 ], [ -61.546255000999963, 10.66944507200003 ], [ -61.601255037999977, 10.684582118000037 ], [ -61.622917899999948, 10.678891141000065 ], [ -61.657781922999959, 10.680064105000042 ], [ -61.66201780199998, 10.708400134000044 ], [ -61.602781885999946, 10.742218096000045 ], [ -61.479999911999982, 10.750554067000053 ], [ -61.428545922999945, 10.753953934000037 ], [ -61.384590886999945, 10.77971806100004 ], [ -61.242499857999974, 10.790273224000032 ], [ -61.196399893999967, 10.789445092000051 ], [ -61.171808898999984, 10.799100038000063 ], [ -61.143335908999973, 10.815273088000026 ], [ -61.079446024999982, 10.824164108000048 ] ] ], [ [ [ -60.797499923999965, 11.14166423100005 ], [ -60.844935795999959, 11.157218026000066 ], [ -60.847226905999946, 11.176945003000071 ], [ -60.756673013999944, 11.242218068000057 ], [ -60.700835792999953, 11.275836038000023 ], [ -60.657781978999935, 11.301391120000062 ], [ -60.529590827999982, 11.345554027000048 ], [ -60.52083576299998, 11.330553940000073 ], [ -60.524726809999947, 11.273891101000061 ], [ -60.531808846999979, 11.259026969000047 ], [ -60.641808921999939, 11.202218117000029 ], [ -60.668890850999958, 11.19889117200006 ], [ -60.687781983999969, 11.201945035000051 ], [ -60.738755019999985, 11.182635980000043 ], [ -60.758199861999969, 11.171244973000057 ], [ -60.797499923999965, 11.14166423100005 ] ] ] ] }
        }
    ]
}