{
    "type": "FeatureCollection",
    "features": [
        {
            "type": "Feature",
            "properties": {
                "WCID": "TUN",
                "COUNTRY": "Tunisia"
            },
            "geometry": { "type": "MultiPolygon", "coordinates": [ [ [ [ 10.332673235000073, 36.889327079000054 ], [ 10.344236070000022, 36.877144989000044 ], [ 10.286182171000064, 36.815273132000073 ], [ 10.275591133000034, 36.838500056000044 ], [ 10.202773181000055, 36.830964222000034 ], [ 10.19277323600005, 36.810827035000045 ], [ 10.196736032000047, 36.79013597200003 ], [ 10.243891111000039, 36.785827003000065 ], [ 10.256154003000063, 36.786791090000065 ], [ 10.319027161000065, 36.744582172000037 ], [ 10.33694515600007, 36.73513610200007 ], [ 10.374863209000068, 36.724582113000054 ], [ 10.407218194000052, 36.722773131000054 ], [ 10.41531813000006, 36.724036116000036 ], [ 10.43610910600006, 36.72971804000008 ], [ 10.458609151000076, 36.738609060000044 ], [ 10.484163227000067, 36.752218086000028 ], [ 10.524445145000072, 36.775618013000042 ], [ 10.547218106000059, 36.817773118000048 ], [ 10.566391206000048, 36.857353974000034 ], [ 10.599163274000034, 36.878327005000074 ], [ 10.622773252000059, 36.876391120000051 ], [ 10.655000161000032, 36.876936112000067 ], [ 10.677500206000047, 36.878882222000072 ], [ 10.713191188000053, 36.886800103000041 ], [ 10.819163255000035, 36.950827115000038 ], [ 10.868327141000066, 36.996382088000075 ], [ 10.893891275000044, 37.039373205000061 ], [ 11.039373287000046, 37.085964181000065 ], [ 11.067782239000053, 37.051382125000032 ], [ 11.102218115000028, 36.904445015000078 ], [ 11.035691117000056, 36.811382085000048 ], [ 10.980836086000068, 36.760273095000059 ], [ 10.967500143000052, 36.743609033000041 ], [ 10.89721822000007, 36.648045111000044 ], [ 10.864718229000061, 36.591945033000059 ], [ 10.836800121000067, 36.542635973000074 ], [ 10.821945041000049, 36.503053943000054 ], [ 10.812773228000026, 36.48277309000008 ], [ 10.796391133000043, 36.465345102000072 ], [ 10.740836046000027, 36.453327129000058 ], [ 10.673609159000023, 36.434164254000052 ], [ 10.572218138000039, 36.397773216000076 ], [ 10.547500241000023, 36.384164190000035 ], [ 10.53028213500005, 36.370827074000033 ], [ 10.522445055000048, 36.362854040000059 ], [ 10.512782230000028, 36.351109149000024 ], [ 10.497773259000041, 36.328191182000069 ], [ 10.480273186000034, 36.287500059000024 ], [ 10.469027186000062, 36.255136022000045 ], [ 10.455973210000025, 36.179164128000025 ], [ 10.456182255000044, 36.117353962000038 ], [ 10.471663295000042, 36.056664122000029 ], [ 10.520000222000021, 35.972218123000061 ], [ 10.604863304000048, 35.862354003000064 ], [ 10.625000156000056, 35.840827097000044 ], [ 10.685836177000056, 35.788609181000027 ], [ 10.688773196000056, 35.787036065000052 ], [ 10.739718068000059, 35.771664158000078 ], [ 10.814863339000055, 35.724445041000024 ], [ 10.827082142000052, 35.705900080000049 ], [ 10.871391229000039, 35.682082232000027 ], [ 10.907218166000064, 35.673336051000035 ], [ 10.929718212000068, 35.670827012000075 ], [ 10.973054160000061, 35.664164238000069 ], [ 11.001391195000053, 35.656391196000072 ], [ 11.027082231000065, 35.637354050000056 ], [ 11.013709240000026, 35.562718063000034 ], [ 11.030000140000027, 35.521664172000044 ], [ 11.05449122300007, 35.501736029000028 ], [ 11.019582272000036, 35.38910018200005 ], [ 11.025973306000026, 35.338609106000035 ], [ 11.050836042000071, 35.305135975000042 ], [ 11.084718210000062, 35.274991131000036 ], [ 11.100827054000035, 35.263053960000036 ], [ 11.126663265000047, 35.241944975000024 ], [ 11.072500244000025, 35.170627048000028 ], [ 11.048818183000037, 35.158054026000059 ], [ 11.019509182000036, 35.124027019000039 ], [ 11.014291112000024, 35.092673169000079 ], [ 11.014863261000073, 35.062145104000024 ], [ 10.909445070000061, 34.888609030000055 ], [ 10.823054135000064, 34.793609042000071 ], [ 10.731391150000036, 34.670273193000071 ], [ 10.708745092000072, 34.651382227000056 ], [ 10.680273275000047, 34.644718111000032 ], [ 10.658891208000057, 34.642491207000035 ], [ 10.632773197000063, 34.631800089000023 ], [ 10.575309216000051, 34.545800086000042 ], [ 10.496527205000064, 34.522636026000043 ], [ 10.430345038000041, 34.496245101000056 ], [ 10.395282196000039, 34.460273157000074 ], [ 10.375000170000021, 34.435827001000064 ], [ 10.336109145000023, 34.407491140000047 ], [ 10.152218068000025, 34.324782207000055 ], [ 10.116036074000021, 34.314227044000063 ], [ 10.036945106000076, 34.21804504000005 ], [ 10.021391143000073, 34.191109123000047 ], [ 10.012473301000057, 34.171136054000044 ], [ 10.007082229000048, 34.168609078000031 ], [ 10.014163260000032, 34.109718161000046 ], [ 10.019163233000029, 34.080273206000072 ], [ 10.030836039000064, 34.036382208000077 ], [ 10.039300253000022, 34.009582078000051 ], [ 10.068891221000058, 33.953044968000029 ], [ 10.079718125000056, 33.935273153000026 ], [ 10.096391240000059, 33.914444962000061 ], [ 10.166109228000039, 33.829164126000023 ], [ 10.266391156000054, 33.748600123000074 ], [ 10.314445110000065, 33.712773186000049 ], [ 10.331945183000073, 33.700273086000038 ], [ 10.356109204000063, 33.686100126000042 ], [ 10.390273171000047, 33.673044977000075 ], [ 10.457200153000031, 33.650745091000033 ], [ 10.478327076000028, 33.638673139000048 ], [ 10.53028213500005, 33.649436005000041 ], [ 10.605554140000038, 33.671391060000076 ], [ 10.631391189000055, 33.683882107000045 ], [ 10.65910025200003, 33.701664147000031 ], [ 10.694718144000035, 33.712491051000029 ], [ 10.715973142000053, 33.704164133000063 ], [ 10.724718149000068, 33.679582191000065 ], [ 10.71721819000004, 33.605554060000031 ], [ 10.705900106000058, 33.578609091000033 ], [ 10.672782201000075, 33.548327119000078 ], [ 10.691527154000028, 33.491800066000053 ], [ 10.751663286000053, 33.473745112000074 ], [ 10.909791243000029, 33.53624510800006 ], [ 10.930000179000047, 33.567082130000074 ], [ 10.920763321000038, 33.593464170000061 ], [ 10.901945111000032, 33.613673106000078 ], [ 10.933609091000051, 33.630000048000056 ], [ 10.979654070000038, 33.636727028000053 ], [ 11.025836178000077, 33.625545066000029 ], [ 11.055836183000054, 33.612636097000063 ], [ 11.078891110000029, 33.594164227000078 ], [ 11.091663287000074, 33.577082076000067 ], [ 11.107363262000035, 33.549718012000028 ], [ 11.114445132000071, 33.522218161000069 ], [ 11.113745076000043, 33.49250012300007 ], [ 11.103654102000064, 33.46044504300005 ], [ 11.101109189000056, 33.42971815900006 ], [ 11.121109080000053, 33.285827033000032 ], [ 11.174300135000067, 33.210064183000043 ], [ 11.342782257000067, 33.182782094000061 ], [ 11.365000168000051, 33.181664116000036 ], [ 11.431600256000024, 33.18916424300005 ], [ 11.481945152000037, 33.187773182000058 ], [ 11.52608224200003, 33.171136110000077 ], [ 11.525000139000042, 33.146664138000062 ], [ 11.522173258000066, 33.125918089000038 ], [ 11.516954014000021, 33.102473236000037 ], [ 11.504745102000072, 33.074809099000049 ], [ 11.494027162000066, 33.043473187000075 ], [ 11.483700155000065, 32.942909124000039 ], [ 11.477218094000023, 32.863882193000052 ], [ 11.466663266000069, 32.650973135000072 ], [ 11.472773170000039, 32.62250014500006 ], [ 11.494445084000063, 32.598882121000031 ], [ 11.516945130000067, 32.58124508800006 ], [ 11.536945021000065, 32.567500108000047 ], [ 11.558327089000045, 32.545900111000037 ], [ 11.580000176000055, 32.503054001000066 ], [ 11.581663313000035, 32.470827092000036 ], [ 11.56750024300004, 32.442218148000052 ], [ 11.550973142000032, 32.428326987000048 ], [ 11.515882137000062, 32.409400147000042 ], [ 11.483327160000044, 32.390000064000048 ], [ 11.414718097000048, 32.353053976000069 ], [ 11.325836060000029, 32.319445059000032 ], [ 11.181927164000058, 32.261664241000062 ], [ 11.144163338000055, 32.246382188000041 ], [ 11.029163290000042, 32.199718121000046 ], [ 10.878536131000033, 32.132282190000069 ], [ 10.859718088000022, 32.092500168000072 ], [ 10.830554094000036, 32.04138212600003 ], [ 10.814027160000023, 32.025000031000047 ], [ 10.710345029000052, 31.964444972000024 ], [ 10.616109136000034, 31.861244968000051 ], [ 10.530836179000062, 31.761391187000072 ], [ 10.498473148000073, 31.737082159000067 ], [ 10.469445108000059, 31.721245056000043 ], [ 10.44416327600004, 31.720554052000068 ], [ 10.41652713600007, 31.725691153000071 ], [ 10.387636057000066, 31.729718154000068 ], [ 10.349445088000039, 31.730273204000071 ], [ 10.314927070000067, 31.719300119000025 ], [ 10.287218174000031, 31.694164133000072 ], [ 10.136454055000058, 31.502364227000044 ], [ 10.123336041000073, 31.42250011200008 ], [ 10.169845042000077, 31.315318034000029 ], [ 10.220554048000054, 31.197909028000026 ], [ 10.264582174000054, 31.07680913400003 ], [ 10.290691132000063, 30.910418130000039 ], [ 10.277500195000073, 30.869718122000052 ], [ 10.223054034000029, 30.750553946000025 ], [ 10.211945163000053, 30.728473163000046 ], [ 10.083609172000024, 30.58805398800007 ], [ 9.982218151000041, 30.461391193000054 ], [ 9.892291226000054, 30.356318002000023 ], [ 9.864027113000077, 30.339445063000028 ], [ 9.840691224000068, 30.340273195000066 ], [ 9.735136073000035, 30.315953941000032 ], [ 9.637500144000057, 30.278053992000025 ], [ 9.537109084000065, 30.234391150000079 ], [ 9.534163180000064, 30.248336122000069 ], [ 9.520554154000024, 30.303335992000029 ], [ 9.468054104000032, 30.510000029000025 ], [ 9.436391129000071, 30.63389109700006 ], [ 9.383609111000055, 30.840273167000078 ], [ 9.334163258000046, 31.032773129000077 ], [ 9.298609237000051, 31.17055401600004 ], [ 9.213336112000036, 31.500554071000067 ], [ 9.18139117000004, 31.624164177000068 ], [ 9.105836192000027, 31.912773221000066 ], [ 9.082563335000032, 32.000082142000053 ], [ 9.057218136000074, 32.095554031000063 ], [ 9.008336050000025, 32.129436030000079 ], [ 8.86444509100005, 32.218044985000063 ], [ 8.688327056000048, 32.326109175000056 ], [ 8.560000118000062, 32.404164140000034 ], [ 8.415282201000025, 32.491664168000057 ], [ 8.350982274000046, 32.531218034000062 ], [ 8.348609190000047, 32.533335973000078 ], [ 8.342782258000057, 32.573609174000069 ], [ 8.323327190000043, 32.710273088000065 ], [ 8.319445028000075, 32.738327151000078 ], [ 8.312218151000025, 32.793053938000071 ], [ 8.30610908500006, 32.834164156000043 ], [ 8.274163305000059, 32.876664260000041 ], [ 8.157773203000033, 33.028054005000058 ], [ 8.078400100000067, 33.110827143000051 ], [ 8.045418149000056, 33.107635985000059 ], [ 8.019445146000066, 33.113891064000029 ], [ 7.762573172000032, 33.211664121000069 ], [ 7.74305406700006, 33.229164194000077 ], [ 7.731945028000041, 33.248327068000037 ], [ 7.726391179000075, 33.286664217000066 ], [ 7.72416326900003, 33.318600107000066 ], [ 7.724445068000023, 33.373053979000076 ], [ 7.724718151000047, 33.399164110000072 ], [ 7.725027108000063, 33.41940003600007 ], [ 7.675554098000021, 33.507773124000039 ], [ 7.557363227000053, 33.676245020000067 ], [ 7.515000250000071, 33.810553954000056 ], [ 7.492500205000056, 33.887500161000048 ], [ 7.492218070000035, 33.919853972000055 ], [ 7.500282131000063, 33.947491119000063 ], [ 7.508609217000071, 33.967773145000024 ], [ 7.518191241000068, 34.004300138000076 ], [ 7.515263275000052, 34.071918125000025 ], [ 7.518054113000062, 34.083053986000039 ], [ 7.528891243000032, 34.104309151000052 ], [ 7.625973296000041, 34.194573196000078 ], [ 7.64916334000003, 34.208744983000031 ], [ 7.681663331000038, 34.219991150000055 ], [ 7.701663223000025, 34.22388219700008 ], [ 7.731109184000047, 34.226391068000055 ], [ 7.759309092000024, 34.233464221000077 ], [ 7.783745022000062, 34.250618121000059 ], [ 7.821945043000028, 34.338600110000073 ], [ 7.824236152000026, 34.380827132000036 ], [ 7.845136092000075, 34.417918059000044 ], [ 7.868891244000054, 34.436100084000032 ], [ 8.036109207000038, 34.509164128000066 ], [ 8.070273174000022, 34.521945022000068 ], [ 8.106554075000076, 34.532718114000033 ], [ 8.12083616700005, 34.537909027000069 ], [ 8.252709153000069, 34.655209068000033 ], [ 8.238336033000053, 34.670964197000046 ], [ 8.227082155000062, 34.693673119000039 ], [ 8.243609088000028, 34.71860911400006 ], [ 8.265273291000028, 34.738053956000044 ], [ 8.270154073000072, 34.740109031000031 ], [ 8.285482227000045, 34.750691183000072 ], [ 8.275282289000074, 34.843054057000074 ], [ 8.286109193000073, 34.965554064000059 ], [ 8.32950917900007, 35.108673217000046 ], [ 8.401109240000039, 35.192218160000039 ], [ 8.34055401300003, 35.290273184000057 ], [ 8.319300189000046, 35.312773230000062 ], [ 8.308336156000053, 35.339164155000049 ], [ 8.302082251000058, 35.373882166000044 ], [ 8.302773255000034, 35.398891083000024 ], [ 8.312082197000052, 35.435691158000054 ], [ 8.322218097000075, 35.457773115000066 ], [ 8.348891157000025, 35.584444962000077 ], [ 8.345273192000036, 35.623600185000043 ], [ 8.344863317000033, 35.64416417800004 ], [ 8.337918072000036, 35.682427063000034 ], [ 8.323891125000046, 35.704718064000076 ], [ 8.298609125000041, 35.725273173000062 ], [ 8.279163278000055, 35.746526998000036 ], [ 8.271109107000029, 35.767218061000051 ], [ 8.262500222000028, 35.816800036000075 ], [ 8.260554111000033, 35.856382065000048 ], [ 8.266663178000044, 35.921800137000048 ], [ 8.280282262000071, 35.961936043000037 ], [ 8.282973188000028, 35.965309088000026 ], [ 8.290836084000034, 36.000000109000041 ], [ 8.305273241000066, 36.097500083000057 ], [ 8.319300189000046, 36.204991119000056 ], [ 8.333891238000035, 36.291382222000038 ], [ 8.371663279000074, 36.35750018300007 ], [ 8.374445065000032, 36.374991203000036 ], [ 8.376391175000037, 36.420136134000074 ], [ 8.370273224000073, 36.452564208000069 ], [ 8.290691244000072, 36.481727029000069 ], [ 8.245836160000067, 36.481527037000035 ], [ 8.215273226000022, 36.483891069000038 ], [ 8.187291248000065, 36.495545099000026 ], [ 8.18166330300005, 36.505273136000028 ], [ 8.186245019000069, 36.527291055000035 ], [ 8.207636139000044, 36.556109044000038 ], [ 8.241109102000053, 36.569436102000054 ], [ 8.349718116000076, 36.604018158000031 ], [ 8.450000211000031, 36.660827010000048 ], [ 8.475691247000043, 36.720273144000032 ], [ 8.476391136000075, 36.743609033000041 ], [ 8.638054077000049, 36.831109062000053 ], [ 8.632218093000063, 36.881944969000074 ], [ 8.622027207000031, 36.941364114000066 ], [ 8.667218071000036, 36.953891203000069 ], [ 8.766182196000045, 36.962426998000069 ], [ 8.826945127000045, 36.979582072000028 ], [ 8.85805405800005, 36.995282215000032 ], [ 8.877782208000042, 37.006944962000034 ], [ 8.89629112700004, 37.018626988000051 ], [ 8.915554081000039, 37.030827016000046 ], [ 8.940554113000076, 37.051664260000052 ], [ 8.959445079000034, 37.070273091000047 ], [ 8.973327187000052, 37.086391155000058 ], [ 8.985554037000043, 37.110545118000061 ], [ 9.043336196000041, 37.152218097000059 ], [ 9.066109156000039, 37.160827150000046 ], [ 9.080927187000043, 37.162318123000034 ], [ 9.158336075000022, 37.187773124000046 ], [ 9.327773231000037, 37.228054037000049 ], [ 9.560273144000064, 37.301382111000066 ], [ 9.659236096000029, 37.335209125000063 ], [ 9.738745153000025, 37.340409090000037 ], [ 9.858682141000031, 37.328336132000061 ], [ 9.869582136000076, 37.281391104000079 ], [ 9.849927076000029, 37.254573205000042 ], [ 9.808463309000047, 37.235536059000026 ], [ 9.77742713300006, 37.223664099000075 ], [ 9.784436081000024, 37.178853941000057 ], [ 9.808309082000051, 37.150773224000034 ], [ 9.838445042000046, 37.140745115000072 ], [ 9.860391211000035, 37.14031814100008 ], [ 9.880945147000034, 37.147409064000044 ], [ 9.902054132000046, 37.160900072000061 ], [ 9.926000223000074, 37.206009128000062 ], [ 9.858600166000031, 37.228864231000045 ], [ 9.926936147000049, 37.248045043000047 ], [ 10.048336112000072, 37.261526999000068 ], [ 10.194300251000072, 37.211527103000037 ], [ 10.254863189000048, 37.179582161000042 ], [ 10.212082291000058, 37.163364184000045 ], [ 10.146391136000034, 37.167909020000025 ], [ 10.132009131000075, 37.145518106000054 ], [ 10.191391227000054, 37.127491147000057 ], [ 10.211763276000056, 37.128073187000041 ], [ 10.169445058000065, 37.064018012000076 ], [ 10.172363301000075, 37.039582082000038 ], [ 10.200627079000071, 36.986873154000079 ], [ 10.332673235000073, 36.889327079000054 ] ] ], [ [ [ 10.86500019600004, 33.638609101000043 ], [ 10.86139111600005, 33.684164242000065 ], [ 10.856391143000053, 33.696664174000034 ], [ 10.850273192000031, 33.704991092000057 ], [ 10.839163314000075, 33.716382098000054 ], [ 10.822500259000037, 33.729718042000059 ], [ 10.806945123000048, 33.73416413800004 ], [ 10.795554116000062, 33.733891056000061 ], [ 10.778054043000054, 33.728054066000027 ], [ 10.766600173000029, 33.715691094000078 ], [ 10.760000094000077, 33.706109070000025 ], [ 10.740418125000076, 33.706526992000079 ], [ 10.730282224000064, 33.711244998000041 ], [ 10.719163294000055, 33.730827135000027 ], [ 10.714163322000047, 33.743609035000077 ], [ 10.71444512100004, 33.760273096000049 ], [ 10.727363310000044, 33.883191192000027 ], [ 10.735136184000055, 33.890418069000077 ], [ 10.765273150000041, 33.895553996000046 ], [ 10.796391133000043, 33.896109046000049 ], [ 10.912218139000061, 33.878054091000024 ], [ 10.968336154000042, 33.857500156000071 ], [ 11.043054116000064, 33.816664194000055 ], [ 11.052636140000061, 33.807636046000027 ], [ 11.055000172000064, 33.793609099000037 ], [ 11.049163182000029, 33.785273128000028 ], [ 11.007782229000043, 33.755000041000073 ], [ 10.993609101000061, 33.750000068000077 ], [ 10.937773221000043, 33.723327008000069 ], [ 10.88277318300004, 33.673044977000075 ], [ 10.872218188000033, 33.654164237000032 ], [ 10.86500019600004, 33.638609101000043 ] ] ], [ [ [ 11.128891175000035, 34.668609049000054 ], [ 11.117218201000071, 34.67457310900005 ], [ 11.122218174000068, 34.700409152000077 ], [ 11.13055414400003, 34.710827020000067 ], [ 11.237982148000071, 34.822845121000057 ], [ 11.269718212000043, 34.818054025000038 ], [ 11.287773167000068, 34.811944959000073 ], [ 11.302218204000042, 34.80332702100003 ], [ 11.282363319000069, 34.74277313500005 ], [ 11.257218113000022, 34.731945057000075 ], [ 11.221945052000024, 34.720554051000079 ], [ 11.19250009700005, 34.711109154000042 ], [ 11.177218211000024, 34.703609027000027 ], [ 11.139445164000051, 34.676936135000062 ], [ 11.128891175000035, 34.668609049000054 ] ] ] ] }
        }
    ]
}