{
    "type": "FeatureCollection",
    "features": [
        {
            "type": "Feature",
            "properties": {
                "WCID": "TUR",
                "COUNTRY": "Turkey"
            },
            "geometry": { "type": "MultiPolygon", "coordinates": [ [ [ [ 26.669718216000035, 39.554991064000035 ], [ 26.659445188000063, 39.551654061000079 ], [ 26.581391229000076, 39.534709038000074 ], [ 26.538609157000053, 39.529709065000077 ], [ 26.205063222000035, 39.462700107000046 ], [ 26.130973232000031, 39.453044993000049 ], [ 26.109991149000052, 39.457627044000048 ], [ 26.070545075000041, 39.482664124000053 ], [ 26.104436127000042, 39.586382130000061 ], [ 26.133327206000047, 39.607773250000037 ], [ 26.154854113000056, 39.632635986000025 ], [ 26.160273181000036, 39.65610011800004 ], [ 26.163054129000045, 39.686382091000041 ], [ 26.158054156000048, 39.821382197000048 ], [ 26.150200145000042, 39.90867318100004 ], [ 26.157500112000037, 39.946654099000057 ], [ 26.174718218000066, 39.979436058000033 ], [ 26.197354050000058, 40.002835984000058 ], [ 26.225409118000073, 39.998254101000043 ], [ 26.248882303000073, 39.991100146000065 ], [ 26.289718097000048, 40.00527310700005 ], [ 26.33305404500004, 40.02464502600003 ], [ 26.384718085000031, 40.102482229000032 ], [ 26.398609246000035, 40.139991078000037 ], [ 26.438327229000038, 40.192354001000069 ], [ 26.514027214000066, 40.216245107000077 ], [ 26.609854161000044, 40.284444965000034 ], [ 26.684018079000055, 40.347764209000047 ], [ 26.704300273000058, 40.378882192000049 ], [ 26.810000263000063, 40.395818163000058 ], [ 26.886945129000026, 40.395553965000033 ], [ 26.962500275000025, 40.38290902600005 ], [ 27.026663241000051, 40.391109042000039 ], [ 27.057082173000026, 40.425900143000035 ], [ 27.086800211000025, 40.447627042000079 ], [ 27.118609198000058, 40.452764143000024 ], [ 27.26416329400007, 40.458609179000064 ], [ 27.298882143000071, 40.405545026000027 ], [ 27.306391155000028, 40.384991091000074 ], [ 27.394582188000072, 40.339709033000076 ], [ 27.429163238000058, 40.324154064000027 ], [ 27.47263614700006, 40.313326992000043 ], [ 27.511663294000073, 40.305553950000046 ], [ 27.55860916000006, 40.304718107000042 ], [ 27.575027129000034, 40.313273180000067 ], [ 27.678327213000046, 40.309436113000061 ], [ 27.741109177000055, 40.310000047000074 ], [ 27.780136156000026, 40.315136142000028 ], [ 27.877845175000061, 40.375853978000066 ], [ 27.83152711300005, 40.39721810900005 ], [ 27.794609188000038, 40.392109171000072 ], [ 27.687082278000048, 40.492700056000047 ], [ 27.723327137000069, 40.522073095000053 ], [ 27.754854157000068, 40.52971806100004 ], [ 27.856936182000027, 40.522491184000046 ], [ 28.020136196000067, 40.487709135000046 ], [ 28.027636156000028, 40.463054102000058 ], [ 28.001109108000037, 40.442218032000028 ], [ 27.927773323000054, 40.411936060000073 ], [ 27.900763310000059, 40.388673094000069 ], [ 27.923745148000023, 40.364709065000056 ], [ 27.953191276000041, 40.35693602300006 ], [ 28.035827119000032, 40.369164214000079 ], [ 28.075273194000033, 40.379718036000043 ], [ 28.109582167000042, 40.38958219500006 ], [ 28.153609120000056, 40.396382098000061 ], [ 28.185691190000057, 40.397764106000068 ], [ 28.20388226700004, 40.394064166000078 ], [ 28.246663333000072, 40.403464135000036 ], [ 28.483327208000048, 40.396382098000061 ], [ 28.509163251000075, 40.395264119000046 ], [ 28.674436109000055, 40.363600139000027 ], [ 28.75513606800007, 40.391518079000036 ], [ 28.791382267000074, 40.394864135000034 ], [ 28.829718242000069, 40.391927116000033 ], [ 28.883954018000054, 40.379427016000079 ], [ 28.916663221000078, 40.362500098000055 ], [ 28.937218162000079, 40.359445062000077 ], [ 28.982218086000046, 40.357073151000066 ], [ 29.055763252000077, 40.366800182000077 ], [ 29.141691171000048, 40.437909063000063 ], [ 29.080000195000025, 40.477627047000055 ], [ 29.026527173000034, 40.480064169000059 ], [ 28.975345093000044, 40.462973133000048 ], [ 28.914854071000036, 40.468882207000036 ], [ 28.891936104000024, 40.476945095000076 ], [ 28.776727180000023, 40.527073235000046 ], [ 28.805827136000062, 40.558118128000046 ], [ 28.852491203000056, 40.575553996000053 ], [ 28.894163343000059, 40.588609145000078 ], [ 28.909836161000044, 40.593118106000077 ], [ 28.955273285000033, 40.62471804900008 ], [ 28.980409104000046, 40.639573128000052 ], [ 29.001391187000024, 40.643882097000073 ], [ 29.154718157000048, 40.657491123000057 ], [ 29.251663249000046, 40.662491096000053 ], [ 29.392291133000072, 40.702209079000056 ], [ 29.424000208000052, 40.685800163000067 ], [ 29.479445157000043, 40.720273086000077 ], [ 29.510691216000055, 40.731518080000058 ], [ 29.535827202000064, 40.706382093000059 ], [ 29.554027164000047, 40.686173157000042 ], [ 29.701491160000046, 40.705009138000037 ], [ 29.90152712400004, 40.712909081000078 ], [ 29.933954025000048, 40.722209138000039 ], [ 29.937500241000066, 40.752218028000073 ], [ 29.916945132000023, 40.761654040000053 ], [ 29.726109145000066, 40.772218087000056 ], [ 29.591663250000067, 40.775554085000067 ], [ 29.562218127000051, 40.771109162000073 ], [ 29.518054047000078, 40.769153999000025 ], [ 29.412491185000079, 40.76971810100008 ], [ 29.336663291000036, 40.807073226000057 ], [ 29.290273313000057, 40.848054027000046 ], [ 29.254991200000063, 40.868327001000068 ], [ 29.14943604900003, 40.903045012000064 ], [ 29.129436158000033, 40.914445071000046 ], [ 29.04332719000007, 40.973054020000063 ], [ 29.025554034000038, 41.03442715400007 ], [ 29.04182716400004, 41.051282155000081 ], [ 29.088218149000056, 41.118618174000062 ], [ 29.088218149000056, 41.139573100000064 ], [ 29.074582301000078, 41.159427146000041 ], [ 29.087354142000038, 41.175273134000065 ], [ 29.133473217000073, 41.21276421400006 ], [ 29.160000265000065, 41.224573142000054 ], [ 29.219791230000055, 41.236873250000031 ], [ 29.290273313000057, 41.228045094000038 ], [ 29.471100134000039, 41.195545103000029 ], [ 29.579600183000025, 41.173000130000048 ], [ 29.621627213000068, 41.175754088000076 ], [ 29.75471809000004, 41.163045111000031 ], [ 29.862209125000049, 41.147227119000036 ], [ 29.87471811000006, 41.14540908400005 ], [ 29.984436217000052, 41.139573100000064 ], [ 30.158609148000039, 41.140691078000032 ], [ 30.195000186000073, 41.151373143000058 ], [ 30.261663306000059, 41.19221815800006 ], [ 30.284718234000024, 41.20805408700005 ], [ 30.326800250000076, 41.203045062000058 ], [ 30.355136112000025, 41.186036001000048 ], [ 30.376945153000065, 41.17499116700003 ], [ 30.425045040000043, 41.164964232000045 ], [ 30.493463331000044, 41.14721806600005 ], [ 30.516936180000073, 41.143327019000026 ], [ 30.606109236000066, 41.133882123000035 ], [ 30.757218187000035, 41.086453962000064 ], [ 30.879718194000077, 41.076936143000069 ], [ 30.933609138000065, 41.074718124000071 ], [ 30.954736060000073, 41.074573117000057 ], [ 30.980273204000071, 41.075000091000049 ], [ 31.073327082000048, 41.078327036000076 ], [ 31.233473233000041, 41.089300121000065 ], [ 31.298882253000045, 41.113882231000048 ], [ 31.33721822800004, 41.137218120000057 ], [ 31.340545173000066, 41.142627130000051 ], [ 31.37554515100004, 41.170545071000049 ], [ 31.410000138000044, 41.210064235000061 ], [ 31.421527099000059, 41.279018130000054 ], [ 31.552491151000027, 41.362764239000057 ], [ 31.614718233000076, 41.379436012000042 ], [ 31.747773235000068, 41.433044989000052 ], [ 31.797891149000066, 41.457782164000037 ], [ 31.992218198000046, 41.542500072000053 ], [ 32.160691267000061, 41.608882230000063 ], [ 32.179436053000074, 41.633327045000044 ], [ 32.277500129000032, 41.719436013000063 ], [ 32.530263293000075, 41.809164119000059 ], [ 32.60270020400003, 41.831800119000036 ], [ 32.684436165000079, 41.83375410900004 ], [ 32.692491174000054, 41.839427148000027 ], [ 32.721373201000063, 41.849154012000042 ], [ 32.772773211000072, 41.858045032000064 ], [ 32.798045152000043, 41.85889110100004 ], [ 32.828045157000076, 41.859153958000036 ], [ 32.912209188000077, 41.87498217600006 ], [ 32.95082713000005, 41.884991174000049 ], [ 32.987009124000053, 41.90638212600004 ], [ 33.068327164000038, 41.938045101000057 ], [ 33.219718250000028, 41.976382082000043 ], [ 33.338600124000038, 42.019853985000054 ], [ 33.398600134000048, 42.01692702400004 ], [ 33.543609239000034, 42.004164236000065 ], [ 33.573191154000028, 41.995127035000053 ], [ 33.59888219100003, 41.990000160000079 ], [ 33.632209141000033, 41.986382196000079 ], [ 33.738045085000067, 41.979718080000055 ], [ 33.774154157000055, 41.977773143000036 ], [ 33.834718101000078, 41.974991189000036 ], [ 33.923882273000061, 41.97305396400003 ], [ 33.99389128100006, 41.981109140000058 ], [ 34.101945077000039, 41.976109167000061 ], [ 34.209436113000038, 41.959436053000047 ], [ 34.25554513000003, 41.947627125000054 ], [ 34.315273231000049, 41.940818170000057 ], [ 34.364436111000032, 41.943327041000032 ], [ 34.554709169000034, 41.948045047000051 ], [ 34.61471823200003, 41.94027317900003 ], [ 34.641391292000037, 41.939709076000042 ], [ 34.715545151000072, 41.942491198000027 ], [ 34.744427178000024, 41.94666421200003 ], [ 34.792500242000074, 41.956518145000075 ], [ 34.832500193000044, 41.968318021000073 ], [ 34.850818172000061, 41.979436113000077 ], [ 34.889709197000059, 42.010273134000045 ], [ 34.91720921600006, 42.036654001000045 ], [ 34.94898216100006, 42.085927019000053 ], [ 34.978882254000041, 42.091945058000078 ], [ 35.006382272000053, 42.086100189000035 ], [ 35.027491257000065, 42.078045013000065 ], [ 35.047209182000074, 42.065273172000047 ], [ 35.157363315000055, 42.025318148000053 ], [ 35.114991286000077, 42.000964193000073 ], [ 35.099300195000069, 41.967209095000044 ], [ 35.09638228700004, 41.918673182000077 ], [ 35.136936114000036, 41.858045032000064 ], [ 35.212491260000036, 41.770554056000037 ], [ 35.265263220000065, 41.725818162000053 ], [ 35.286654172000055, 41.713054032000059 ], [ 35.456382180000048, 41.653600187000052 ], [ 35.479436102000079, 41.646664162000036 ], [ 35.493173203000026, 41.643864103000055 ], [ 35.506382244000065, 41.638054103000059 ], [ 35.549427173000026, 41.630827059000069 ], [ 35.57665410900006, 41.627209094000079 ], [ 35.616945079000061, 41.630964187000075 ], [ 35.643882169000051, 41.63665399000007 ], [ 35.776791158000037, 41.671518014000071 ], [ 35.876654159000054, 41.700827015000073 ], [ 35.911109145000069, 41.713054032000059 ], [ 35.931382287000076, 41.725545079000028 ], [ 35.953045148000058, 41.734573227000055 ], [ 35.973054092000041, 41.732218080000052 ], [ 36.056100145000073, 41.688745004000054 ], [ 36.074573189000034, 41.674845126000037 ], [ 36.113600169000051, 41.632073112000057 ], [ 36.131109126000069, 41.595127024000078 ], [ 36.133191191000037, 41.544300169000053 ], [ 36.11714504300005, 41.509300191000079 ], [ 36.123782169000037, 41.475736033000032 ], [ 36.172763330000066, 41.419436131000055 ], [ 36.240273190000039, 41.356109176000075 ], [ 36.344991156000049, 41.283335983000029 ], [ 36.400127148000024, 41.254154052000047 ], [ 36.431518213000061, 41.242073215000062 ], [ 36.466936113000031, 41.241100076000066 ], [ 36.492491195000071, 41.247909031000063 ], [ 36.535136139000031, 41.269854027000065 ], [ 36.571100203000071, 41.295691076000026 ], [ 36.612491215000034, 41.347491070000046 ], [ 36.657773273000032, 41.360836066000047 ], [ 36.711654159000034, 41.36500019600004 ], [ 36.734445056000027, 41.363045033000049 ], [ 36.810000202000026, 41.35555395800003 ], [ 36.864018216000034, 41.345127038000044 ], [ 36.930827181000041, 41.315818037000042 ], [ 37.004300262000072, 41.279018130000054 ], [ 37.028809115000058, 41.25749105500006 ], [ 37.029445134000071, 41.224164105000057 ], [ 37.03221820300007, 41.193600166000067 ], [ 37.05234516400003, 41.17040911600003 ], [ 37.129300255000032, 41.146800145000043 ], [ 37.15228226000005, 41.144909187000053 ], [ 37.238045056000033, 41.141109168000071 ], [ 37.296654173000036, 41.136935986000026 ], [ 37.417763286000024, 41.080545055000073 ], [ 37.499163301000067, 41.041935998000042 ], [ 37.539645044000054, 41.028882189000058 ], [ 37.581382228000052, 41.037491074000059 ], [ 37.610409261000029, 41.050545050000039 ], [ 37.629718149000041, 41.079427077000048 ], [ 37.656245196000043, 41.117491144000041 ], [ 37.682763358000045, 41.135200093000037 ], [ 37.753609216000029, 41.119164172000069 ], [ 37.785409151000067, 41.098736132000056 ], [ 37.782836074000045, 41.065609175000077 ], [ 37.793609167000056, 41.045545078000032 ], [ 37.814854106000041, 41.02721804600003 ], [ 37.895127090000074, 40.982354077000025 ], [ 37.934436205000054, 40.988318136000032 ], [ 37.98819119400008, 40.987636017000057 ], [ 38.097218129000055, 40.96360007100003 ], [ 38.116091158000074, 40.955473146000031 ], [ 38.159991208000065, 40.949435996000034 ], [ 38.327773273000048, 40.918464193000034 ], [ 38.355827168000076, 40.91027323000003 ], [ 38.389645130000076, 40.920009146000041 ], [ 38.420545184000048, 40.912209114000063 ], [ 38.518600208000066, 40.92027317600008 ], [ 38.709991244000037, 40.950000098000032 ], [ 38.73444511100007, 40.96305407400007 ], [ 38.764163317000055, 40.981518066000035 ], [ 38.78360028000003, 40.996945126000071 ], [ 38.816109156000039, 41.009991056000047 ], [ 38.929027139000027, 41.040964200000076 ], [ 39.005754075000027, 41.033745034000049 ], [ 39.054709251000077, 41.041100154000048 ], [ 39.098327166000047, 41.050818133000064 ], [ 39.123882248000029, 41.057209166000064 ], [ 39.147918194000056, 41.065554022000072 ], [ 39.154718096000067, 41.073400154000069 ], [ 39.165827136000075, 41.082500051000068 ], [ 39.210827227000038, 41.074154022000073 ], [ 39.233054190000075, 41.056382208000059 ], [ 39.262909188000037, 41.049300170000038 ], [ 39.284718230000067, 41.051518022000039 ], [ 39.326654065000071, 41.066109071000028 ], [ 39.353600207000056, 41.076382099000057 ], [ 39.385409195000079, 41.089154108000059 ], [ 39.414227184000026, 41.106727104000072 ], [ 39.487354092000032, 41.097564175000059 ], [ 39.551109195000038, 41.052218078000067 ], [ 39.690554057000043, 41.00305402500004 ], [ 39.721418236000034, 41.01002709800008 ], [ 39.912491264000039, 40.956653988000028 ], [ 40.081382254000061, 40.921654010000054 ], [ 40.106663248000075, 40.917073133000031 ], [ 40.12859114500003, 40.916382129000056 ], [ 40.149991150000062, 40.92027317600008 ], [ 40.26914510000006, 40.95720903800003 ], [ 40.345273233000057, 40.983591078000075 ], [ 40.358200140000065, 40.994100141000047 ], [ 40.365536149000036, 41.002345084000069 ], [ 40.393327187000068, 41.018645036000066 ], [ 40.461654115000044, 41.043191104000073 ], [ 40.481654174000028, 41.042500100000041 ], [ 40.580545209000036, 41.054700128000036 ], [ 40.637773324000079, 41.078609171000039 ], [ 40.729709223000043, 41.136935986000026 ], [ 40.772754152000061, 41.166382114000044 ], [ 40.848973312000055, 41.195573098000068 ], [ 40.882763279000073, 41.18860019300007 ], [ 40.921245099000032, 41.18671812000008 ], [ 41.043873181000038, 41.230264119000026 ], [ 41.171691170000031, 41.285300198000073 ], [ 41.208763322000038, 41.307600084000057 ], [ 41.208863234000034, 41.307673174000058 ], [ 41.234709168000052, 41.324709057000064 ], [ 41.337900287000025, 41.370682120000026 ], [ 41.384954112000059, 41.373709161000079 ], [ 41.413036170000055, 41.394436099000075 ], [ 41.498745154000062, 41.481518038000047 ], [ 41.53155410200003, 41.523873136000077 ], [ 41.569154147000063, 41.518045031000042 ], [ 41.72470919400007, 41.492491123000036 ], [ 41.759718225000029, 41.468600184000024 ], [ 41.83012721700004, 41.43012708100008 ], [ 41.883045190000075, 41.458318103000067 ], [ 41.910127119000038, 41.488254070000039 ], [ 41.958463375000065, 41.516800151000041 ], [ 41.979436071000066, 41.518045031000042 ], [ 42.097773289000031, 41.507500094000079 ], [ 42.174709269000061, 41.507500094000079 ], [ 42.280136177000031, 41.489573214000075 ], [ 42.311936112000069, 41.476664245000052 ], [ 42.366936149000026, 41.460273098000073 ], [ 42.455273195000075, 41.43470913200008 ], [ 42.472209165000038, 41.433327124000073 ], [ 42.483327090000046, 41.43832709600008 ], [ 42.557909264000045, 41.501800064000065 ], [ 42.590936142000032, 41.57875398200008 ], [ 42.604163288000052, 41.584718042000077 ], [ 42.651663366000037, 41.592764166000052 ], [ 42.681391294000036, 41.594718155000066 ], [ 42.831018157000074, 41.582418047000033 ], [ 42.89277333800004, 41.506945044000076 ], [ 43.01610918800003, 41.39332700500006 ], [ 43.039718159000074, 41.374164130000054 ], [ 43.126382177000039, 41.32000010400003 ], [ 43.23360013000007, 41.190273221000041 ], [ 43.349709270000062, 41.201936136000029 ], [ 43.37846322200005, 41.201664227000037 ], [ 43.42999130700008, 41.183464266000044 ], [ 43.455482183000072, 41.168045084000028 ], [ 43.474363258000039, 41.137982215000079 ], [ 43.460773176000032, 41.112964245000057 ], [ 43.454163374000075, 41.094927060000032 ], [ 43.483873198000026, 41.022773123000036 ], [ 43.56597326900004, 40.996664165000027 ], [ 43.595200128000045, 40.993326994000029 ], [ 43.672491166000043, 40.926518029000079 ], [ 43.742491289000043, 40.770264266000027 ], [ 43.750409170000069, 40.745000204000064 ], [ 43.741382196000075, 40.666654052000069 ], [ 43.717936168000051, 40.620918029000052 ], [ 43.653045150000025, 40.531382204000067 ], [ 43.592763341000079, 40.50110006400007 ], [ 43.583054079000078, 40.451109052000049 ], [ 43.606936133000033, 40.368891131000055 ], [ 43.661654035000026, 40.27443613500003 ], [ 43.715373318000047, 40.157182194000029 ], [ 43.66852719600007, 40.146173235000049 ], [ 43.648818156000061, 40.124854031000041 ], [ 43.668400126000051, 40.103182118000063 ], [ 43.912491206000027, 40.018600165000066 ], [ 43.933882158000074, 40.013609077000069 ], [ 43.971373238000069, 40.010818071000074 ], [ 44.044291269000041, 40.010344996000072 ], [ 44.28263621900004, 40.046100184000068 ], [ 44.351663371000029, 40.022218130000056 ], [ 44.399154061000047, 40.003609131000076 ], [ 44.487782294000056, 39.962773169000059 ], [ 44.551800253000067, 39.898744984000075 ], [ 44.560263293000048, 39.879436097000053 ], [ 44.592491208000069, 39.831800064000049 ], [ 44.641382179000061, 39.803744996000034 ], [ 44.746100145000071, 39.73055405000008 ], [ 44.778863328000057, 39.706382150000024 ], [ 44.799373175000028, 39.686445122000066 ], [ 44.816373183000053, 39.645818038000073 ], [ 44.81304506500004, 39.63080906700003 ], [ 44.736718113000052, 39.701800099000025 ], [ 44.608463260000065, 39.779154001000052 ], [ 44.471082190000061, 39.698864253000067 ], [ 44.477891145000058, 39.640653947000033 ], [ 44.425827121000054, 39.436444969000036 ], [ 44.401100171000053, 39.416518168000039 ], [ 44.340273203000038, 39.395544969000071 ], [ 44.30452723500008, 39.387291142000038 ], [ 44.230918200000076, 39.408454106000079 ], [ 44.200954069000034, 39.416936089000046 ], [ 44.076863345000049, 39.411653981000029 ], [ 44.036382273000072, 39.385473107000053 ], [ 44.034954164000055, 39.377445088000059 ], [ 44.060545121000075, 39.352482103000057 ], [ 44.074718248000067, 39.336100177000048 ], [ 44.216445167000074, 39.136518009000042 ], [ 44.198036161000061, 39.056673173000036 ], [ 44.162418102000061, 39.005200073000026 ], [ 44.173327149000045, 38.968036055000027 ], [ 44.209427167000058, 38.893464106000067 ], [ 44.250545096000053, 38.865544993000071 ], [ 44.283663337000064, 38.86249113000008 ], [ 44.300263361000077, 38.84262702500007 ], [ 44.30319116000004, 38.809982194000042 ], [ 44.261800148000077, 38.724291148000077 ], [ 44.306518105000066, 38.647282077000057 ], [ 44.317218107000031, 38.613045020000072 ], [ 44.321527244000038, 38.509373115000074 ], [ 44.311763332000055, 38.469927041000062 ], [ 44.304163293000045, 38.449436137000077 ], [ 44.305263334000074, 38.400536114000033 ], [ 44.318145146000063, 38.38205401700003 ], [ 44.436727115000053, 38.394809095000028 ], [ 44.482518123000034, 38.341300198000056 ], [ 44.473218234000058, 38.316745077000064 ], [ 44.399018106000028, 38.211300065000046 ], [ 44.323318121000057, 38.09720911900007 ], [ 44.238882181000065, 37.96027312800004 ], [ 44.22397329000006, 37.899153966000029 ], [ 44.293054086000041, 37.873318091000044 ], [ 44.576791232000062, 37.766800194000041 ], [ 44.617763316000037, 37.717973094000058 ], [ 44.598873189000074, 37.690818074000049 ], [ 44.584436199000038, 37.613882093000029 ], [ 44.588854132000051, 37.443091093000078 ], [ 44.612800224000068, 37.434227062000048 ], [ 44.648600171000055, 37.427773165000076 ], [ 44.801654058000054, 37.321664137000027 ], [ 44.818182166000042, 37.297418141000037 ], [ 44.820545192000054, 37.268744992000052 ], [ 44.79276337400006, 37.174991057000057 ], [ 44.787336091000043, 37.149709058000042 ], [ 44.774091175000081, 37.165964251000048 ], [ 44.745827230000032, 37.174427123000044 ], [ 44.642218190000051, 37.188464129000067 ], [ 44.582763338000063, 37.163182129000063 ], [ 44.567627130000062, 37.149709058000042 ], [ 44.550545147000037, 37.132636127000069 ], [ 44.490554189000079, 37.09165398500005 ], [ 44.470273336000048, 37.080827080000063 ], [ 44.436382284000047, 37.063045040000077 ], [ 44.349709214000029, 37.038318091000065 ], [ 44.341100161000043, 37.00665394300006 ], [ 44.319163212000035, 36.971236043000033 ], [ 44.257073258000048, 36.98569113800005 ], [ 44.195963316000075, 37.096382216000052 ], [ 44.230263238000077, 37.154018027000063 ], [ 44.262600285000076, 37.163464264000027 ], [ 44.268327136000039, 37.195000169000025 ], [ 44.262145148000059, 37.236518083000078 ], [ 44.230554090000055, 37.276245119000066 ], [ 44.118882161000045, 37.315682141000025 ], [ 44.096100148000062, 37.317218041000046 ], [ 44.072945141000048, 37.316373145000057 ], [ 44.04804518800006, 37.322218014000043 ], [ 44.009018209000033, 37.31776420500006 ], [ 43.95581810200008, 37.279636101000051 ], [ 43.936936188000061, 37.251936091000061 ], [ 43.912982218000025, 37.226591059000043 ], [ 43.816373240000075, 37.221927033000043 ], [ 43.623045145000049, 37.230000147000055 ], [ 43.489991149000048, 37.25124508600004 ], [ 43.156936226000028, 37.373882221000031 ], [ 43.002763354000081, 37.339153984000063 ], [ 42.960618139000076, 37.323527099000046 ], [ 42.924163230000033, 37.327764151000054 ], [ 42.894436140000039, 37.335536020000063 ], [ 42.822836079000069, 37.367182230000026 ], [ 42.786800265000068, 37.383673122000062 ], [ 42.765727155000036, 37.371218117000069 ], [ 42.724709138000037, 37.351945104000038 ], [ 42.588045056000055, 37.175682229000074 ], [ 42.579509261000055, 37.153673195000067 ], [ 42.531663346000073, 37.147491206000041 ], [ 42.376936095000076, 37.117491201000064 ], [ 42.355609181000034, 37.106927154000061 ], [ 42.357073331000038, 37.129709166000055 ], [ 42.351518141000042, 37.231173110000043 ], [ 42.294436207000047, 37.269718131000047 ], [ 42.215827198000056, 37.289445107000063 ], [ 42.180827221000072, 37.290544981000039 ], [ 42.148745151000071, 37.259300095000071 ], [ 42.083318194000071, 37.208318007000059 ], [ 42.056927101000042, 37.192773097000043 ], [ 41.995273174000033, 37.17276415300006 ], [ 41.840273176000039, 37.129991134000079 ], [ 41.548191174000067, 37.085273177000033 ], [ 41.483045179000044, 37.080273204000036 ], [ 41.454163320000077, 37.078891196000029 ], [ 41.362491282000065, 37.075000149000061 ], [ 41.216382304000035, 37.072491110000044 ], [ 41.118327113000078, 37.097491142000024 ], [ 40.929991280000024, 37.129718051000054 ], [ 40.901109253000072, 37.128609125000025 ], [ 40.806654089000062, 37.122491174000061 ], [ 40.770818100000042, 37.11804507800008 ], [ 40.688463219000027, 37.095545032000075 ], [ 40.670273315000031, 37.085126997000032 ], [ 40.634991203000027, 37.06888219800004 ], [ 40.513045072000068, 37.023182218000045 ], [ 40.482491191000065, 37.020818018000057 ], [ 40.44777318000007, 37.015273221000029 ], [ 40.41526329800007, 37.001382228000068 ], [ 40.279709148000052, 36.928600151000069 ], [ 40.263882271000057, 36.919491202000074 ], [ 40.214427198000067, 36.89581802500004 ], [ 40.007763328000067, 36.814709030000074 ], [ 39.94277323600005, 36.792764202000058 ], [ 39.923327220000033, 36.786382220000064 ], [ 39.818054037000024, 36.753609147000077 ], [ 39.58805411000003, 36.71888208300004 ], [ 39.439300139000068, 36.69751812100003 ], [ 39.308600284000079, 36.67831803100006 ], [ 39.257763370000077, 36.668054055000027 ], [ 39.22152722900006, 36.665336139000033 ], [ 39.171654067000077, 36.66970914500007 ], [ 39.130545190000078, 36.683600138000031 ], [ 39.096373177000032, 36.695545021000044 ], [ 39.074718195000059, 36.702764187000071 ], [ 39.043463251000048, 36.70819113400006 ], [ 39.003673183000046, 36.705618057000038 ], [ 38.96610012900004, 36.696936082000036 ], [ 38.917627080000045, 36.695135984000046 ], [ 38.774709260000066, 36.698045007000076 ], [ 38.725263239000071, 36.703609082000071 ], [ 38.684163248000061, 36.725545026000077 ], [ 38.628318147000073, 36.768044963000079 ], [ 38.541100253000025, 36.844300166000039 ], [ 38.513609120000069, 36.858044978000066 ], [ 38.432773207000025, 36.885544997000068 ], [ 38.38637317000007, 36.898327064000057 ], [ 38.243400197000028, 36.913882200000046 ], [ 38.181109246000062, 36.905818138000029 ], [ 38.097291219000056, 36.87374512100007 ], [ 38.055545150000057, 36.850545019000037 ], [ 38.023373227000036, 36.830364246000045 ], [ 37.99332712100005, 36.824718028000063 ], [ 37.956100239000079, 36.81290910000007 ], [ 37.91777331600008, 36.79110005800004 ], [ 37.891391276000036, 36.781100113000036 ], [ 37.776936220000039, 36.747982207000064 ], [ 37.736109143000078, 36.747764110000048 ], [ 37.710273268000037, 36.74832703900006 ], [ 37.669718100000068, 36.737218167000037 ], [ 37.568318193000039, 36.696936082000036 ], [ 37.53333615300005, 36.67777320700003 ], [ 37.373809256000072, 36.655336025000054 ], [ 37.269436121000069, 36.664444975000038 ], [ 37.24888218600006, 36.664718057000073 ], [ 37.127491273000032, 36.659153982000078 ], [ 37.038191147000077, 36.719645004000029 ], [ 36.988318152000033, 36.757418051000059 ], [ 36.93360025000004, 36.778045077000058 ], [ 36.702763306000065, 36.829427149000026 ], [ 36.66670922000003, 36.834282115000065 ], [ 36.659945192000066, 36.833709128000066 ], [ 36.662563363000061, 36.815136004000067 ], [ 36.586391142000025, 36.619709081000053 ], [ 36.549573297000052, 36.487773231000062 ], [ 36.567636130000039, 36.42096409800007 ], [ 36.582763286000045, 36.397491081000055 ], [ 36.661136093000039, 36.310982129000024 ], [ 36.690136137000025, 36.286245121000036 ], [ 36.683118137000065, 36.232736056000078 ], [ 36.616454179000073, 36.219509078000044 ], [ 36.575554179000051, 36.227773132000038 ], [ 36.535554061000028, 36.235545 ], [ 36.50665409700008, 36.233327148000058 ], [ 36.392218151000066, 36.213327089000074 ], [ 36.374927123000077, 36.176591051000059 ], [ 36.381382195000072, 36.097073109000064 ], [ 36.383609266000065, 36.030536053000048 ], [ 36.37497322400003, 35.997909159000073 ], [ 36.300000285000067, 35.969718137000029 ], [ 36.223609128000078, 35.962218010000072 ], [ 36.186800168000048, 35.910273176000032 ], [ 36.182500251000079, 35.879718122000043 ], [ 36.182500251000079, 35.855000057000041 ], [ 36.168473304000031, 35.819718112000032 ], [ 36.155873292000024, 35.818445068000074 ], [ 36.144163270000035, 35.83360910500005 ], [ 36.128054090000035, 35.852218103000041 ], [ 36.109991257000047, 35.86138220600003 ], [ 36.015827112000068, 35.89971801300004 ], [ 35.92243611400005, 35.926991050000026 ], [ 35.978436112000054, 36.002609060000054 ], [ 35.954991259000053, 36.066373215000056 ], [ 35.941936109000039, 36.09527317900006 ], [ 35.850263234000067, 36.218882112000074 ], [ 35.786800157000073, 36.290273128000024 ], [ 35.785545050000053, 36.314845013000024 ], [ 35.818882226000028, 36.355000196000049 ], [ 35.924709119000056, 36.450827143000026 ], [ 36.04138219400005, 36.532491187000062 ], [ 36.162973267000041, 36.588391106000074 ], [ 36.190063242000065, 36.597291178000035 ], [ 36.217282300000079, 36.654782149000027 ], [ 36.206245177000028, 36.767345074000048 ], [ 36.193327156000066, 36.791936070000077 ], [ 36.166382187000067, 36.828609075000031 ], [ 36.129718233000062, 36.863191132000054 ], [ 36.069436088000032, 36.908882227000049 ], [ 36.011200134000035, 36.923191142000064 ], [ 35.957491245000028, 36.894854106000025 ], [ 35.936936136000043, 36.876391120000051 ], [ 35.904854066000041, 36.841100123000047 ], [ 35.823882199000025, 36.777500085000042 ], [ 35.793745066000042, 36.766100194000046 ], [ 35.701654102000077, 36.761236008000026 ], [ 35.64485413500006, 36.75290909000006 ], [ 35.609445120000032, 36.733891055000072 ], [ 35.575554068000031, 36.692754015000048 ], [ 35.61110926300006, 36.68777315300008 ], [ 35.636100243000044, 36.682209078000028 ], [ 35.638054064000073, 36.641926992000037 ], [ 35.633736211000041, 36.611936039000057 ], [ 35.611100210000075, 36.594300180000062 ], [ 35.558536122000078, 36.579791105000027 ], [ 35.538882235000074, 36.590545087000066 ], [ 35.498254145000033, 36.609918012000037 ], [ 35.412491182000053, 36.580273232000025 ], [ 35.34707327700005, 36.544991120000077 ], [ 35.178882175000069, 36.62193598500005 ], [ 35.023600210000041, 36.700554046000036 ], [ 34.980900281000061, 36.719709042000034 ], [ 34.937209107000058, 36.72484496900006 ], [ 34.913745143000028, 36.722209028000066 ], [ 34.904236209000032, 36.71706421600004 ], [ 34.890691221000054, 36.745964180000044 ], [ 34.877218150000033, 36.763044990000026 ], [ 34.83582713800007, 36.790409054000065 ], [ 34.777218189000052, 36.808600131000048 ], [ 34.735127121000062, 36.81290910000007 ], [ 34.705545205000078, 36.81110011800007 ], [ 34.659427136000033, 36.805273186000079 ], [ 34.633773315000042, 36.784091111000066 ], [ 34.56569113900008, 36.771936010000047 ], [ 34.476663257000041, 36.705544967000037 ], [ 34.354027128000041, 36.633600074000071 ], [ 34.322773190000078, 36.615554004000046 ], [ 34.289718149000066, 36.591664239000067 ], [ 34.26138228700006, 36.569300148000025 ], [ 34.239991167000028, 36.54638218000008 ], [ 34.220900209000035, 36.516654084000038 ], [ 34.152491139000063, 36.461100171000055 ], [ 34.128609253000036, 36.448600071000044 ], [ 34.076654026000028, 36.399645063000037 ], [ 34.074091175000035, 36.367691068000056 ], [ 34.031663322000043, 36.303054022000026 ], [ 33.988600121000047, 36.277773196000055 ], [ 33.929645167000047, 36.287700051000058 ], [ 33.866836213000056, 36.309709085000065 ], [ 33.816109103000031, 36.260818114000074 ], [ 33.745273303000033, 36.206382179000059 ], [ 33.705273185000067, 36.179436037000073 ], [ 33.649718098000051, 36.188600139000073 ], [ 33.608318202000078, 36.181664114000057 ], [ 33.540836170000034, 36.139709169000071 ], [ 33.362782250000066, 36.137773117000052 ], [ 33.287209167000071, 36.124436 ], [ 33.045273242000064, 36.091100165000057 ], [ 32.939509214000054, 36.096791142000029 ], [ 32.864436195000053, 36.068327037000074 ], [ 32.815691237000067, 36.031518077000044 ], [ 32.771663279000052, 36.02888213600005 ], [ 32.669718214000056, 36.039164216000074 ], [ 32.579573192000055, 36.081245058000036 ], [ 32.566627175000065, 36.09270915500008 ], [ 32.524573322000037, 36.093191115000025 ], [ 32.501100138000027, 36.099436135000076 ], [ 32.368045136000035, 36.175136121000037 ], [ 32.275827101000061, 36.268327126000031 ], [ 32.20235402000003, 36.346518045000039 ], [ 32.188600155000074, 36.366936026000076 ], [ 32.175409219000073, 36.396235975000025 ], [ 32.149154081000063, 36.429436023000051 ], [ 32.106936111000039, 36.473054106000063 ], [ 32.064709256000071, 36.516391060000046 ], [ 32.002845110000067, 36.54512707400005 ], [ 31.823054125000056, 36.589718129000062 ], [ 31.74027327500005, 36.635545011000033 ], [ 31.582773291000024, 36.696382205000077 ], [ 31.378745194000032, 36.786809027000061 ], [ 31.351382304000026, 36.801654048000046 ], [ 31.289854105000074, 36.816109143000062 ], [ 31.046663242000079, 36.849153958000045 ], [ 30.993045046000077, 36.854154099000027 ], [ 30.970836187000032, 36.85555404400003 ], [ 30.888054164000039, 36.853600055000072 ], [ 30.818609258000038, 36.845545046000041 ], [ 30.763327086000061, 36.844164211000077 ], [ 30.735554153000066, 36.855691172000036 ], [ 30.694373192000057, 36.881591085000025 ], [ 30.650618148000035, 36.870064125000056 ], [ 30.616527104000056, 36.843609162000064 ], [ 30.601382178000051, 36.825273245000062 ], [ 30.573818122000034, 36.787491146000036 ], [ 30.560836063000067, 36.726109128000076 ], [ 30.553609186000074, 36.615818034000029 ], [ 30.52832718600007, 36.494427121000058 ], [ 30.481382158000031, 36.426936036000029 ], [ 30.47444512800007, 36.389164163000032 ], [ 30.485827082000071, 36.363318062000076 ], [ 30.504436080000062, 36.34319110000007 ], [ 30.503882204000035, 36.320545042000049 ], [ 30.428609193000057, 36.227773132000038 ], [ 30.404854041000078, 36.204918029000055 ], [ 30.390827094000031, 36.235264206000068 ], [ 30.365827229000047, 36.261373164000076 ], [ 30.281109154000035, 36.29846425900007 ], [ 30.259854156000074, 36.303873101000079 ], [ 30.208609212000056, 36.303873101000079 ], [ 30.178882289000057, 36.298882181000067 ], [ 30.144645065000077, 36.285545064000075 ], [ 30.140900198000054, 36.256664211000043 ], [ 30.09221810400004, 36.235264206000068 ], [ 29.975827164000066, 36.211654061000047 ], [ 29.773054173000048, 36.152218153000035 ], [ 29.725000219000037, 36.160900129000026 ], [ 29.687491203000036, 36.138054078000039 ], [ 29.677218174000075, 36.118327101000034 ], [ 29.628609171000051, 36.170545017000052 ], [ 29.570273304000068, 36.199436096000056 ], [ 29.504436136000038, 36.205544995000025 ], [ 29.349718106000068, 36.23110912900006 ], [ 29.315273177000051, 36.24720908900008 ], [ 29.283600145000037, 36.271936038000035 ], [ 29.258873195000035, 36.295827145000032 ], [ 29.183609236000052, 36.328327136000041 ], [ 29.148054041000023, 36.348327028000028 ], [ 29.117218193000042, 36.383327006000059 ], [ 29.097773183000072, 36.474300160000041 ], [ 29.124718152000071, 36.52637323600004 ], [ 29.124718152000071, 36.537835992000055 ], [ 29.106936112000028, 36.553600172000074 ], [ 29.078327168000044, 36.558744985000033 ], [ 29.048045195000043, 36.544818117000034 ], [ 29.01842707000003, 36.54219106100004 ], [ 29.023891233000029, 36.583318043000077 ], [ 29.03430021500003, 36.612627044000078 ], [ 29.087218188000065, 36.626653991000069 ], [ 29.05250017700007, 36.681109037000056 ], [ 28.93152718500005, 36.74416425000004 ], [ 28.865691192000043, 36.687636025000074 ], [ 28.851109195000049, 36.657482128000026 ], [ 28.792773160000024, 36.671100038000077 ], [ 28.656936204000033, 36.710273198000039 ], [ 28.619718207000062, 36.77000012600007 ], [ 28.608600116000048, 36.803318024000077 ], [ 28.456391291000045, 36.880826991000049 ], [ 28.394300164000072, 36.862764157000072 ], [ 28.385727153000062, 36.839745104000031 ], [ 28.420136207000041, 36.823954102000073 ], [ 28.387354081000069, 36.78280918300004 ], [ 28.310836190000032, 36.825827122000078 ], [ 28.284300257000041, 36.845964141000024 ], [ 28.261936166000055, 36.845127124000044 ], [ 28.246109121000075, 36.830273218000059 ], [ 28.235482209000054, 36.802836064000076 ], [ 28.247500182000067, 36.766109079000046 ], [ 28.272636169000066, 36.736936032000074 ], [ 28.230827068000053, 36.698600057000078 ], [ 28.066382174000069, 36.589718129000062 ], [ 27.983891170000049, 36.552773214000069 ], [ 27.967218224000078, 36.573873146000039 ], [ 27.959645174000059, 36.597418080000068 ], [ 27.982491225000047, 36.60248209100007 ], [ 28.017354075000071, 36.596453994000058 ], [ 28.050827205000076, 36.597773138000036 ], [ 28.070554182000024, 36.618891175000044 ], [ 28.085618139000076, 36.639291051000043 ], [ 28.061109118000047, 36.673609077000037 ], [ 28.03353617700003, 36.679744966000044 ], [ 28.013609208000048, 36.668054055000027 ], [ 27.989163220000023, 36.671100038000077 ], [ 27.96992708700003, 36.684745106000037 ], [ 28.002773251000065, 36.699154101000033 ], [ 28.038609240000028, 36.707218162000061 ], [ 28.087845043000073, 36.703735984000048 ], [ 28.122909226000047, 36.720964148000064 ], [ 28.120136157000047, 36.797082223000075 ], [ 28.092354171000068, 36.800682083000027 ], [ 28.073600166000062, 36.786109138000029 ], [ 28.036945097000057, 36.769154057000037 ], [ 28.008054018000053, 36.758045017000029 ], [ 27.984163247000026, 36.752209033000042 ], [ 27.915591232000054, 36.745136048000063 ], [ 27.808745100000067, 36.757354013000054 ], [ 27.732354111000063, 36.756653957000026 ], [ 27.708400140000037, 36.743873231000066 ], [ 27.688327159000039, 36.715545080000027 ], [ 27.676109194000048, 36.691664200000048 ], [ 27.503745077000076, 36.670127067000067 ], [ 27.481109245000027, 36.654709059000027 ], [ 27.475273261000041, 36.649991053000065 ], [ 27.374718083000062, 36.684027112000024 ], [ 27.358954070000038, 36.704300086000046 ], [ 27.47263614700006, 36.749718099000063 ], [ 27.496109164000075, 36.745827052000038 ], [ 27.737500264000062, 36.777773168000067 ], [ 27.918882303000032, 36.79416414700006 ], [ 28.025827173000039, 36.822773091000045 ], [ 28.066382174000069, 36.935000070000058 ], [ 28.200000272000068, 36.975818094000033 ], [ 28.324791220000066, 37.038182136000046 ], [ 28.273045038000078, 37.043609083000035 ], [ 28.21028218500004, 37.039445121000028 ], [ 28.034445111000025, 37.024709065000025 ], [ 27.848609097000065, 37.017218158000048 ], [ 27.676391161000026, 37.001936105000027 ], [ 27.515000129000043, 36.992773176000071 ], [ 27.423891189000074, 37.027764101000059 ], [ 27.336109193000027, 37.00430013700003 ], [ 27.316945145000034, 36.976373144000036 ], [ 27.296245196000029, 36.963744969000061 ], [ 27.272218136000049, 36.955827087000046 ], [ 27.255000198000062, 36.965000075000034 ], [ 27.227082257000063, 37.043609083000035 ], [ 27.232909189000054, 37.070273091000047 ], [ 27.324300265000034, 37.153045055000064 ], [ 27.368327217000058, 37.150553954000031 ], [ 27.407218242000056, 37.127209180000079 ], [ 27.439718233000065, 37.104709134000075 ], [ 27.550000275000059, 37.131654103000074 ], [ 27.595273281000061, 37.232491081000035 ], [ 27.563891268000077, 37.27360012500003 ], [ 27.521382278000033, 37.261654069000031 ], [ 27.485827083000061, 37.267491059000065 ], [ 27.408745089000035, 37.305545067000025 ], [ 27.387291273000073, 37.336100122000062 ], [ 27.421082245000036, 37.407909060000065 ], [ 27.408891270000026, 37.41082713600008 ], [ 27.373745112000051, 37.400691068000071 ], [ 27.358745193000061, 37.37318216400007 ], [ 27.332500113000037, 37.353044977000025 ], [ 27.313609147000079, 37.342209020000041 ], [ 27.241382287000079, 37.33638208900004 ], [ 27.194927097000061, 37.35234508800005 ], [ 27.218327192000061, 37.411382185000036 ], [ 27.224163343000043, 37.473327132000065 ], [ 27.211518237000064, 37.587218086000064 ], [ 27.193882209000037, 37.604436024000051 ], [ 27.225273275000063, 37.712491161000059 ], [ 27.247909108000044, 37.74054505600003 ], [ 27.26305403300006, 37.803191065000078 ], [ 27.261663308000038, 37.884436015000063 ], [ 27.265973282000061, 37.890409127000055 ], [ 27.274027118000049, 37.925609097000063 ], [ 27.268327089000024, 37.953600127000072 ], [ 27.243745146000037, 37.977564156000028 ], [ 26.97930012300003, 38.066373103000046 ], [ 26.943336059000046, 38.064154078000058 ], [ 26.923054032000039, 38.062218026000039 ], [ 26.818054099000051, 38.155264192000061 ], [ 26.763263274000053, 38.212982145000069 ], [ 26.681109223000078, 38.201654003000044 ], [ 26.62582721900003, 38.148882211000057 ], [ 26.608745068000076, 38.102636066000059 ], [ 26.58847326700004, 38.101936009000042 ], [ 26.545554067000069, 38.116382219000059 ], [ 26.523609239000052, 38.138327048000065 ], [ 26.488891228000057, 38.172209047000024 ], [ 26.429582222000079, 38.214709152000069 ], [ 26.358609127000022, 38.224164107000036 ], [ 26.33527323800007, 38.224854105000077 ], [ 26.316109190000077, 38.232773159000033 ], [ 26.27582710400003, 38.26443613400005 ], [ 26.275000146000025, 38.285554004000062 ], [ 26.284163242000034, 38.34583598100005 ], [ 26.289018208000073, 38.367491131000065 ], [ 26.31624514400005, 38.373882165000055 ], [ 26.322082302000069, 38.341164244000026 ], [ 26.351382250000029, 38.314991080000027 ], [ 26.369445084000063, 38.306109113000048 ], [ 26.374718139000038, 38.305545011000049 ], [ 26.450136157000031, 38.345409175000043 ], [ 26.470000262000042, 38.361800154000036 ], [ 26.499163250000038, 38.400273090000042 ], [ 26.509854032000078, 38.425482166000052 ], [ 26.478463302000023, 38.44902710000008 ], [ 26.420691202000057, 38.465064196000071 ], [ 26.388118120000058, 38.447009073000061 ], [ 26.358327160000044, 38.566373242000054 ], [ 26.347909125000058, 38.623882150000043 ], [ 26.357982161000052, 38.654791089000071 ], [ 26.398327111000071, 38.666936132000046 ], [ 26.428327116000048, 38.670827011000029 ], [ 26.481245088000037, 38.667354053000054 ], [ 26.523609239000052, 38.633045079000055 ], [ 26.563327222000055, 38.598318016000064 ], [ 26.612218193000047, 38.529709121000053 ], [ 26.629436131000034, 38.458054075000064 ], [ 26.595554131000029, 38.453045049000025 ], [ 26.647909175000052, 38.333326996000039 ], [ 26.691800173000047, 38.310854108000058 ], [ 26.793054066000025, 38.353600138000047 ], [ 26.835000127000058, 38.365554073000055 ], [ 26.904718116000026, 38.373882165000055 ], [ 27.095000227000071, 38.399991122000074 ], [ 27.119300202000034, 38.410545112000079 ], [ 27.156454162000045, 38.452809183000056 ], [ 27.043191180000065, 38.461100058000056 ], [ 26.994227119000072, 38.453118139000026 ], [ 26.947218221000071, 38.441664101000072 ], [ 26.880554095000036, 38.502491070000076 ], [ 26.753327198000079, 38.619991103000075 ], [ 26.733745060000047, 38.641936099000077 ], [ 26.727773290000073, 38.72450019300004 ], [ 26.825418103000061, 38.754300038000054 ], [ 26.900409147000062, 38.815264135000064 ], [ 27.022291240000072, 38.85783598900008 ], [ 27.062982195000075, 38.873182080000049 ], [ 27.052773204000061, 38.92665409600005 ], [ 26.956527163000032, 38.937209091000057 ], [ 26.920409207000034, 38.932773221000048 ], [ 26.887500178000039, 38.920545030000028 ], [ 26.861245040000028, 38.910054072000037 ], [ 26.801663287000054, 38.955827142000032 ], [ 26.794654172000037, 38.983109064000075 ], [ 26.797636118000071, 39.023882161000074 ], [ 26.881036054000049, 39.068454105000058 ], [ 26.869718138000053, 39.097909119000064 ], [ 26.846382249000044, 39.12985406100006 ], [ 26.813054126000054, 39.156654023000044 ], [ 26.759327132000067, 39.173264105000044 ], [ 26.728882215000056, 39.22137321200006 ], [ 26.644718184000055, 39.263054070000067 ], [ 26.664991158000078, 39.301100199000075 ], [ 26.81138227100007, 39.398891193000054 ], [ 26.895000138000057, 39.474153978000061 ], [ 26.937145185000077, 39.48331808000006 ], [ 26.951800272000071, 39.550827102000028 ], [ 26.935136210000053, 39.575544999000044 ], [ 26.881936103000044, 39.576445048000039 ], [ 26.817491170000039, 39.561664232000055 ], [ 26.761663336000026, 39.55610904200006 ], [ 26.694445166000037, 39.555273199000055 ], [ 26.669718216000035, 39.554991064000035 ] ] ], [ [ [ 26.361100229000044, 41.711054110000077 ], [ 26.351173206000055, 41.719082129000071 ], [ 26.332636124000032, 41.745409184000039 ], [ 26.343954040000028, 41.782345047000035 ], [ 26.381318217000057, 41.822000166000066 ], [ 26.446663200000046, 41.825000049000039 ], [ 26.472773163000056, 41.824153980000062 ], [ 26.535727124000061, 41.82804502700003 ], [ 26.558327082000062, 41.851664224000046 ], [ 26.565827209000076, 41.871382149000056 ], [ 26.57529121500005, 41.898645127000066 ], [ 26.566954072000044, 41.934754031000068 ], [ 26.621382295000046, 41.97305396400003 ], [ 26.933054146000075, 42.006945016000032 ], [ 26.962218140000061, 42.003318166000042 ], [ 27.037218236000058, 42.08360908800006 ], [ 27.070273277000069, 42.089991069000064 ], [ 27.233054028000026, 42.109991128000047 ], [ 27.28624508300004, 42.100964154000053 ], [ 27.309163218000037, 42.091382129000067 ], [ 27.363263206000056, 42.06284510200004 ], [ 27.37305410700003, 42.039982120000047 ], [ 27.393463204000057, 42.009291111000039 ], [ 27.411527211000077, 41.994718166000041 ], [ 27.441109126000072, 41.976945011000055 ], [ 27.569582245000049, 41.909264160000077 ], [ 27.595554075000052, 41.935553999000035 ], [ 27.633327122000026, 41.955827141000043 ], [ 27.705827064000061, 41.977482123000073 ], [ 27.832500252000045, 42.001664249000044 ], [ 27.867082309000068, 42.005545070000039 ], [ 27.903609134000078, 41.994709114000045 ], [ 27.971100218000061, 41.984153951000053 ], [ 28.013054159000035, 41.98221806600003 ], [ 28.02832716000006, 41.937482172000045 ], [ 28.032491289000063, 41.909154022000052 ], [ 27.987736117000054, 41.890509149000025 ], [ 27.965482164000036, 41.863609107000059 ], [ 27.967636146000075, 41.828473174000067 ], [ 28.076663248000045, 41.647773088000065 ], [ 28.090545189000068, 41.631382108000025 ], [ 28.132218168000065, 41.594164111000055 ], [ 28.197218151000072, 41.537909136000053 ], [ 28.216945127000031, 41.523600053000052 ], [ 28.242773292000038, 41.50888210200003 ], [ 28.260791198000049, 41.502073147000033 ], [ 28.292909143000031, 41.485827007000069 ], [ 28.331945175000044, 41.469436027000029 ], [ 28.458054093000044, 41.419436131000055 ], [ 28.792500245000042, 41.297209039000052 ], [ 28.835000182000044, 41.282218173000047 ], [ 28.938045121000073, 41.256100162000052 ], [ 29.02888215300004, 41.243882197000062 ], [ 29.048463285000025, 41.25555399700005 ], [ 29.088882163000051, 41.246245056000078 ], [ 29.107391249000045, 41.221553981000056 ], [ 29.071009096000068, 41.17436420100006 ], [ 29.039218213000026, 41.154536138000026 ], [ 29.068391260000055, 41.12310903000008 ], [ 29.055545155000061, 41.082500051000068 ], [ 29.036245152000049, 41.054573226000059 ], [ 28.902491267000073, 40.977773199000069 ], [ 28.827182214000061, 40.955973210000025 ], [ 28.627773216000037, 40.960535983000057 ], [ 28.599163266000062, 40.978264211000067 ], [ 28.59832708700003, 41.006945072000065 ], [ 28.58277329200007, 41.044718119000038 ], [ 28.562218184000074, 41.071727126000042 ], [ 28.527082251000024, 41.079718097000068 ], [ 28.553254073000062, 41.058873142000039 ], [ 28.567773206000027, 41.021236050000027 ], [ 28.541882178000037, 40.990891213000054 ], [ 28.519300157000032, 40.990264247000027 ], [ 28.468054039000037, 41.020127124000055 ], [ 28.44805414700005, 41.033745034000049 ], [ 28.423473211000044, 41.04360902600007 ], [ 28.376109255000074, 41.054436098000053 ], [ 28.242773292000038, 41.079164221000042 ], [ 28.213054080000063, 41.080273147000071 ], [ 28.157909204000077, 41.077491193000071 ], [ 28.131945085000041, 41.07166426100008 ], [ 28.117227134000075, 41.065273228000081 ], [ 28.07652712600003, 41.059709153000028 ], [ 27.99694514600003, 41.027773096000033 ], [ 27.979509111000027, 41.001173126000026 ], [ 27.942082237000079, 40.968745051000042 ], [ 27.888054166000074, 40.968036110000071 ], [ 27.855273213000032, 40.976936015000035 ], [ 27.828054156000064, 40.993891096000027 ], [ 27.776527076000036, 41.009991056000047 ], [ 27.731945074000066, 41.012491210000064 ], [ 27.686109139000052, 41.007209102000047 ], [ 27.505345183000031, 40.981309189000058 ], [ 27.485136079000029, 40.964164174000075 ], [ 27.460545084000046, 40.913609060000056 ], [ 27.452500133000058, 40.892491190000044 ], [ 27.445554050000055, 40.852354111000068 ], [ 27.291527191000057, 40.700264142000037 ], [ 27.176663266000048, 40.631654074000039 ], [ 27.137382147000039, 40.617944968000074 ], [ 27.020282265000048, 40.592218057000025 ], [ 26.970554110000023, 40.554709041000081 ], [ 26.878327191000039, 40.532773097000074 ], [ 26.72540925800007, 40.478054021000048 ], [ 26.679927207000048, 40.448254008000049 ], [ 26.684927180000045, 40.427273099000047 ], [ 26.615000147000046, 40.356109064000066 ], [ 26.581663306000053, 40.326382142000057 ], [ 26.550827122000044, 40.306391135000069 ], [ 26.440273172000047, 40.237491220000038 ], [ 26.347500256000046, 40.138327103000051 ], [ 26.321936121000078, 40.108600180000053 ], [ 26.217909159000044, 40.052909139000064 ], [ 26.164409147000072, 40.051973215000032 ], [ 26.243327113000078, 40.17180006500007 ], [ 26.259854047000033, 40.196936052000069 ], [ 26.267636141000025, 40.218464132000065 ], [ 26.267009174000066, 40.259018127000047 ], [ 26.231663359000038, 40.301654019000068 ], [ 26.211591216000045, 40.322145090000049 ], [ 26.241936052000028, 40.340273135000075 ], [ 26.418054088000076, 40.426382103000037 ], [ 26.543154160000029, 40.482991130000073 ], [ 26.604718234000075, 40.507636105000074 ], [ 26.62499120800004, 40.510273219000055 ], [ 26.64666328900006, 40.508327109000049 ], [ 26.682918205000078, 40.509853956000029 ], [ 26.777218137000034, 40.555827019000048 ], [ 26.797500163000052, 40.567773242000044 ], [ 26.825827140000058, 40.591591091000055 ], [ 26.792909227000052, 40.650691220000056 ], [ 26.773745179000059, 40.659991109000032 ], [ 26.763891246000071, 40.659991109000032 ], [ 26.691945180000062, 40.63916425900004 ], [ 26.671100225000032, 40.636936014000071 ], [ 26.636945143000048, 40.636100170000077 ], [ 26.580273251000051, 40.631654074000039 ], [ 26.438045094000074, 40.616653987000063 ], [ 26.352773311000078, 40.607500111000036 ], [ 26.314854084000046, 40.594154109000044 ], [ 26.288882254000043, 40.592209173000072 ], [ 26.148609260000057, 40.592209173000072 ], [ 26.118609255000024, 40.595127081000044 ], [ 26.076109150000036, 40.613673215000063 ], [ 26.057354138000051, 40.653600076000032 ], [ 26.044718084000067, 40.735827049000079 ], [ 26.059509126000023, 40.734264159000077 ], [ 26.090545134000024, 40.736109184000043 ], [ 26.120200140000065, 40.747700182000074 ], [ 26.173327157000074, 40.818600187000072 ], [ 26.213609243000064, 40.877209136000033 ], [ 26.25110920700007, 40.888609028000076 ], [ 26.287491193000051, 40.901927034000039 ], [ 26.360409225000069, 40.953882093000061 ], [ 26.372982247000039, 41.027354001000049 ], [ 26.323891284000069, 41.093036103000031 ], [ 26.325000210000042, 41.234709042000077 ], [ 26.372845119000033, 41.254436019000025 ], [ 26.415273307000064, 41.259435992000078 ], [ 26.607500187000028, 41.33096413700008 ], [ 26.624718125000072, 41.343882158000042 ], [ 26.635763294000071, 41.364718061000076 ], [ 26.636382214000037, 41.413464192000049 ], [ 26.60444515100005, 41.546100099000057 ], [ 26.570273305000057, 41.611382217000028 ], [ 26.51944510900006, 41.633609180000064 ], [ 26.398327111000071, 41.690818016000037 ], [ 26.361100229000044, 41.711054110000077 ] ] ], [ [ [ 25.73166322000003, 40.093035992000068 ], [ 25.665827226000033, 40.12325409400006 ], [ 25.672218092000037, 40.152491178000048 ], [ 25.688891206000051, 40.164982225000074 ], [ 25.715273246000038, 40.181391142000052 ], [ 25.77666331100005, 40.212209053000038 ], [ 25.940545109000027, 40.23999120700006 ], [ 26.012427137000032, 40.154018025000028 ], [ 25.990000182000074, 40.128873154000075 ], [ 25.958054066000045, 40.121100112000079 ], [ 25.824445188000027, 40.100264210000034 ], [ 25.73166322000003, 40.093035992000068 ] ] ], [ [ [ 27.60166330900006, 40.571936031000064 ], [ 27.553609187000063, 40.58693611700005 ], [ 27.529236121000054, 40.601800081000079 ], [ 27.526527090000059, 40.640127004000078 ], [ 27.53263615700007, 40.649436114000025 ], [ 27.545963215000029, 40.654991136000035 ], [ 27.598327144000052, 40.658336018000057 ], [ 27.615000258000066, 40.658873131000064 ], [ 27.651109162000068, 40.657218040000032 ], [ 27.663327127000059, 40.656100062000064 ], [ 27.706945042000029, 40.649991163000038 ], [ 27.733536127000036, 40.635409166000045 ], [ 27.733054168000024, 40.622209178000048 ], [ 27.719854179000038, 40.614018046000069 ], [ 27.627773273000059, 40.57916424900003 ], [ 27.609300228000052, 40.572773215000041 ], [ 27.60166330900006, 40.571936031000064 ] ] ] ] }
        }
    ]
}