{
    "type": "FeatureCollection",
    "features": [
        {
            "type": "Feature",
            "properties": {
                "WCID": "UAE",
                "COUNTRY": "United Arab Emirates"
            },
            "geometry": { "type": "MultiPolygon", "coordinates": [ [ [ [ 56.360273256000028, 25.421109054000055 ], [ 56.365554191000058, 25.382218029000057 ], [ 56.37582721900003, 25.341944996000052 ], [ 56.381663370000069, 25.32082712600004 ], [ 56.372773188000053, 25.261664133000068 ], [ 56.357500187000028, 25.101664162000077 ], [ 56.35638220900006, 25.081664103000037 ], [ 56.356663338000033, 25.069164171000068 ], [ 56.373527224000043, 24.979382085000054 ], [ 56.352145157000052, 24.976527041000054 ], [ 56.339009206000071, 24.969445004000079 ], [ 56.334645084000044, 24.961809090000031 ], [ 56.339163265000082, 24.92610905500004 ], [ 56.340136237000081, 24.914027045000068 ], [ 56.332145098000069, 24.895136079000054 ], [ 56.303327109000065, 24.88250002500007 ], [ 56.287082310000073, 24.870136047000074 ], [ 56.280473347000054, 24.857273178000071 ], [ 56.26943622400006, 24.849509021000074 ], [ 56.226109161000068, 24.833609054000078 ], [ 56.188763256000072, 24.825000169000077 ], [ 56.179718176000051, 24.781664220000039 ], [ 56.143745060000072, 24.74110905200007 ], [ 56.10416336600008, 24.73471801900007 ], [ 56.07694514700006, 24.738054016000035 ], [ 56.06443616200005, 24.744236005000062 ], [ 55.981136138000068, 24.871735985000043 ], [ 55.998745175000067, 24.890273234000063 ], [ 56.028609226000071, 24.881245086000035 ], [ 56.050827136000066, 24.86610904500003 ], [ 56.034718124000051, 24.946391082000048 ], [ 56.022773242000028, 24.965827039000033 ], [ 56.00013623600006, 24.977082091000057 ], [ 55.97657319700005, 24.981991204000053 ], [ 55.945273327000052, 24.982500153000046 ], [ 55.922218231000045, 24.976527041000054 ], [ 55.88874510100004, 24.959582186000034 ], [ 55.866391236000027, 24.942218067000056 ], [ 55.845554159000073, 24.920273071000054 ], [ 55.814027139000075, 24.885827137000035 ], [ 55.803809264000051, 24.860064184000066 ], [ 55.813891185000045, 24.729718046000073 ], [ 55.820000251000067, 24.701664151000045 ], [ 55.843609223000044, 24.649718144000076 ], [ 55.812491239000053, 24.596109168000055 ], [ 55.781382309000037, 24.565418159000046 ], [ 55.79777328800003, 24.476944991000039 ], [ 55.820000251000067, 24.416664187000038 ], [ 55.813609218000067, 24.316945020000048 ], [ 55.778954071000044, 24.243645109000056 ], [ 55.86250018800007, 24.214026984000043 ], [ 55.892082272000039, 24.227427132000059 ], [ 55.918609151000055, 24.236664157000064 ], [ 55.948609156000032, 24.232573118000062 ], [ 56.023673290000033, 24.083191174000035 ], [ 56.007082319000062, 24.068609010000046 ], [ 55.875273203000063, 24.035000092000075 ], [ 55.801382200000035, 24.020000174000074 ], [ 55.680273254000042, 24.031109045000051 ], [ 55.637909272000059, 24.027909170000044 ], [ 55.510273338000047, 23.972773178000068 ], [ 55.538191278000056, 23.905000127000051 ], [ 55.556382187000054, 23.885764162000044 ], [ 55.562563338000075, 23.768536037000047 ], [ 55.485836234000033, 23.641664197000068 ], [ 55.421945177000055, 23.507218135000073 ], [ 55.361382238000033, 23.326109011000028 ], [ 55.343891218000067, 23.281800092000026 ], [ 55.323609192000049, 23.243891090000034 ], [ 55.296391308000068, 23.201382101000036 ], [ 55.267491176000078, 23.157773070000076 ], [ 55.242073222000045, 23.116809033000038 ], [ 55.21416332900003, 23.014027118000058 ], [ 55.212218224000083, 22.918327074000047 ], [ 55.21333620300004, 22.894164226000044 ], [ 55.217218197000079, 22.851664121000056 ], [ 55.218609258000072, 22.820554017000063 ], [ 55.217773247000082, 22.800553958000023 ], [ 55.199163242000054, 22.699718154000038 ], [ 55.14165416600008, 22.633327110000039 ], [ 52.583327157000042, 22.938891067000043 ], [ 51.583327214000064, 24.116664137000043 ], [ 51.584227095000074, 24.260464236000075 ], [ 51.623327165000035, 24.264444970000056 ], [ 51.725827112000047, 24.26110914000003 ], [ 51.773609157000067, 24.178336002000037 ], [ 51.770000245000062, 24.152500126000064 ], [ 51.772773314000062, 24.129164237000055 ], [ 51.78819115400006, 24.044718071000034 ], [ 51.800336196000046, 24.013300183000069 ], [ 51.815973307000036, 23.997982088000072 ], [ 51.854163270000072, 23.988054058000046 ], [ 51.934163339000065, 23.987500182000076 ], [ 52.085963294000067, 23.955973162000078 ], [ 52.207500220000043, 23.970000110000058 ], [ 52.231663235000042, 23.973891157000025 ], [ 52.254436196000029, 23.980000055000062 ], [ 52.330900275000033, 24.00203607900005 ], [ 52.434163311000077, 24.052353985000025 ], [ 52.523045180000054, 24.12166411000004 ], [ 52.581591265000043, 24.191318061000061 ], [ 52.626245184000027, 24.196800161000056 ], [ 52.653609248000066, 24.16666420100006 ], [ 52.677218220000043, 24.139718059000074 ], [ 52.772218208000027, 24.136391114000048 ], [ 52.943600300000071, 24.137773122000056 ], [ 53.055545143000074, 24.12166411000004 ], [ 53.080273267000052, 24.124164096000072 ], [ 53.145827126000029, 24.13582701200005 ], [ 53.224445187000072, 24.13610914700007 ], [ 53.325827156000059, 24.102773144000025 ], [ 53.414991160000056, 24.107500035000044 ], [ 53.459718169000041, 24.106109142000037 ], [ 53.529445210000063, 24.087773226000024 ], [ 53.556945061000079, 24.070553947000064 ], [ 53.567500224000071, 24.052909034000038 ], [ 53.587773198000036, 24.044164195000064 ], [ 53.874163384000042, 24.059718157000077 ], [ 54.123745113000041, 24.141664169000023 ], [ 54.186391290000074, 24.183054007000067 ], [ 54.245827198000029, 24.217782076000049 ], [ 54.381945115000065, 24.252218120000066 ], [ 54.42750025600003, 24.285691082000028 ], [ 54.456382283000039, 24.335282110000037 ], [ 54.46944514300003, 24.366945084000065 ], [ 54.477491268000051, 24.410273154000038 ], [ 54.50284518400008, 24.437709135000034 ], [ 54.54666325900007, 24.433053993000044 ], [ 54.575554171000078, 24.440973215000042 ], [ 54.669163266000055, 24.663327002000074 ], [ 54.653045201000054, 24.719718100000023 ], [ 54.650273306000031, 24.746945036000056 ], [ 54.707773329000077, 24.801391197000044 ], [ 54.946391193000068, 24.953609074000042 ], [ 55.006373266000082, 24.976045082000041 ], [ 55.016936141000031, 24.983054029000073 ], [ 55.050000234000038, 25.005836042000055 ], [ 55.066382329000078, 25.018054007000046 ], [ 55.129718169000057, 25.085553977000075 ], [ 55.178054090000046, 25.138882159000048 ], [ 55.191663283000082, 25.154164213000058 ], [ 55.205554108000058, 25.170273225000074 ], [ 55.216945115000044, 25.188054091000026 ], [ 55.229163247000031, 25.204718153000044 ], [ 55.263882264000074, 25.243609011000046 ], [ 55.301936104000049, 25.281944986000042 ], [ 55.32670915500006, 25.305600058000039 ], [ 55.330827184000043, 25.311944991000075 ], [ 55.369718209000041, 25.361109044000045 ], [ 55.424854200000027, 25.394245054000066 ], [ 55.439282306000052, 25.407282099000042 ], [ 55.466518127000029, 25.413954094000076 ], [ 55.49301818400005, 25.459435977000055 ], [ 55.504163265000045, 25.473609105000037 ], [ 55.51807320100005, 25.511864111000023 ], [ 55.527500160000045, 25.540000148000047 ], [ 55.542709124000055, 25.565482140000029 ], [ 55.563673269000049, 25.581591152000044 ], [ 55.564745147000053, 25.574053977000062 ], [ 55.545582272000047, 25.548073095000063 ], [ 55.549136199000031, 25.525753931000054 ], [ 55.585245103000034, 25.526409060000049 ], [ 55.632127099000058, 25.536473211000043 ], [ 55.637927209000054, 25.555773214000055 ], [ 55.647345115000064, 25.582236056000056 ], [ 55.691109211000082, 25.623054080000031 ], [ 55.747100157000034, 25.661109094000039 ], [ 55.859436100000039, 25.720418100000074 ], [ 56.024791269000048, 25.882573226000034 ], [ 56.043609144000072, 25.928609153000025 ], [ 56.073609149000049, 26.025973173000068 ], [ 56.079936145000033, 26.065564087000041 ], [ 56.15318224400005, 26.083882066000058 ], [ 56.185554160000038, 26.014718121000044 ], [ 56.165818131000037, 25.908054044000039 ], [ 56.139163344000053, 25.832500072000073 ], [ 56.140827151000053, 25.734991045000072 ], [ 56.147218185000042, 25.666109067000036 ], [ 56.15897330100006, 25.662500155000032 ], [ 56.183327256000041, 25.654991143000075 ], [ 56.238036106000038, 25.626109116000066 ], [ 56.269718192000028, 25.636018035000063 ], [ 56.328191186000026, 25.608327076000023 ], [ 56.346945192000078, 25.594300129000032 ], [ 56.368745181000065, 25.519445040000051 ], [ 56.365273229000081, 25.465827011000044 ], [ 56.360273256000028, 25.421109054000055 ] ] ], [ [ [ 53.784163369000055, 24.125000108000052 ], [ 53.678054174000067, 24.160136040000054 ], [ 53.665554074000056, 24.155553989000055 ], [ 53.654718118000062, 24.152218159000029 ], [ 53.638327138000079, 24.151800070000036 ], [ 53.626945184000078, 24.158891160000053 ], [ 53.624718113000029, 24.169718064000051 ], [ 53.631382229000053, 24.177500158000043 ], [ 53.640273249000074, 24.183054007000067 ], [ 53.708609229000047, 24.221664239000063 ], [ 53.852700180000056, 24.267773088000069 ], [ 53.959163259000036, 24.191109016000041 ], [ 53.964854068000079, 24.179445095000062 ], [ 53.955000135000034, 24.145827125000039 ], [ 53.946382197000048, 24.140000026000052 ], [ 53.899991213000078, 24.132500067000024 ], [ 53.821391257000073, 24.137218073000042 ], [ 53.784163369000055, 24.125000108000052 ] ] ], [ [ [ 54.472636134000027, 24.419773203000034 ], [ 54.330582321000065, 24.456782155000042 ], [ 54.386691284000051, 24.512882066000032 ], [ 54.472636134000027, 24.419773203000034 ] ] ] ] }
        }
    ]
}