{
    "type": "FeatureCollection",
    "features": [
        {
            "type": "Feature",
            "properties": {
                "WCID": "UKR",
                "COUNTRY": "Ukraine"
            },
            "geometry": { "type": "Polygon", "coordinates": [ [ [ 28.214836073000072, 45.448644994000063 ], [ 28.215409227000066, 45.463453973000071 ], [ 28.232354083000075, 45.495400088000054 ], [ 28.246936080000069, 45.511109116000057 ], [ 28.266527102000055, 45.520127038000055 ], [ 28.28888230900003, 45.525953969000057 ], [ 28.316382160000046, 45.527491210000051 ], [ 28.345554033000042, 45.523036061000028 ], [ 28.366382224000063, 45.517773232000081 ], [ 28.399573219000047, 45.511800120000032 ], [ 28.483045073000028, 45.506518012000072 ], [ 28.515827199000057, 45.514918020000039 ], [ 28.530554036000069, 45.531664225000043 ], [ 28.524791142000026, 45.647000051000077 ], [ 28.490691213000048, 45.665754056000026 ], [ 28.524436084000058, 45.711100153000075 ], [ 28.597009117000027, 45.76804512700005 ], [ 28.679963304000069, 45.779673173000049 ], [ 28.766727066000044, 45.862836070000071 ], [ 28.750482267000052, 45.926373243000057 ], [ 28.763363241000036, 45.961864233000028 ], [ 28.801109130000043, 45.972482093000053 ], [ 28.829436107000049, 45.978327129000036 ], [ 28.896663330000024, 45.990536042000031 ], [ 28.968254171000069, 46.00610006200003 ], [ 29.040136199000074, 46.195536104000041 ], [ 29.021663323000041, 46.217627113000049 ], [ 28.950000230000057, 46.289426998000067 ], [ 28.933954082000071, 46.429991180000059 ], [ 28.976382270000045, 46.468182148000039 ], [ 28.994436051000037, 46.478327101000048 ], [ 29.03888226600003, 46.496653964000075 ], [ 29.173882205000041, 46.539718171000061 ], [ 29.203300171000024, 46.544964237000045 ], [ 29.223191265000025, 46.519500183000048 ], [ 29.228327193000041, 46.484709082000052 ], [ 29.219854094000027, 46.406800130000079 ], [ 29.202427112000066, 46.383109183000045 ], [ 29.217909158000055, 46.367273254000054 ], [ 29.238327138000045, 46.368318142000078 ], [ 29.307354123000039, 46.404227053000056 ], [ 29.305409186000077, 46.42824506200003 ], [ 29.350827199000037, 46.469982078000044 ], [ 29.499436164000031, 46.484809162000033 ], [ 29.494436191000034, 46.44228223500005 ], [ 29.602082291000045, 46.37679107200006 ], [ 29.633609144000047, 46.369709035000028 ], [ 29.662209203000032, 46.379436066000039 ], [ 29.734436063000032, 46.440954038000029 ], [ 29.825273263000042, 46.368600109000056 ], [ 29.866382307000038, 46.346373146000076 ], [ 29.923327113000028, 46.382000090000076 ], [ 29.966663229000062, 46.379718033000074 ], [ 29.996382273000052, 46.378873137000028 ], [ 30.048609241000065, 46.378873137000028 ], [ 30.098473183000067, 46.381235996000044 ], [ 30.128709223000044, 46.405091060000075 ], [ 30.116554122000025, 46.426464242000065 ], [ 30.096518188000061, 46.429573090000076 ], [ 30.065827179000053, 46.435264235000034 ], [ 30.03527329800005, 46.443044988000054 ], [ 30.006945147000067, 46.456645129000037 ], [ 29.928609221000045, 46.505273243000033 ], [ 29.899436175000062, 46.535200158000066 ], [ 29.916154048000067, 46.558564210000043 ], [ 29.965027082000063, 46.570127046000039 ], [ 29.971663202000059, 46.74192706000008 ], [ 29.944300144000067, 46.818254012000068 ], [ 29.867009106000069, 46.861309166000069 ], [ 29.737491267000053, 46.890264115000036 ], [ 29.574236100000064, 46.947418134000031 ], [ 29.592491215000052, 47.023182157000065 ], [ 29.57221824100003, 47.142773140000031 ], [ 29.599227080000048, 47.27909121700003 ], [ 29.590545104000057, 47.31026418600004 ], [ 29.567009223000071, 47.337700166000047 ], [ 29.501873286000034, 47.344500069000048 ], [ 29.490127222000069, 47.327636015000053 ], [ 29.478536056000053, 47.297209036000027 ], [ 29.413954162000039, 47.291100137000058 ], [ 29.380273160000058, 47.329082229000051 ], [ 29.380973217000076, 47.35610917300005 ], [ 29.358891261000053, 47.378318031000049 ], [ 29.299436074000027, 47.422209029000044 ], [ 29.245618221000029, 47.457564232000038 ], [ 29.223045085000024, 47.448873204000051 ], [ 29.190100182000037, 47.439536099000065 ], [ 29.142909229000054, 47.511791122000034 ], [ 29.135373227000059, 47.549082210000051 ], [ 29.160127167000041, 47.581664176000061 ], [ 29.19540911200005, 47.609153969000033 ], [ 29.257500239000024, 47.766373160000057 ], [ 29.175554060000024, 47.954700108000054 ], [ 29.144854166000073, 47.983518097000058 ], [ 29.103463322000039, 47.986509095000031 ], [ 29.073391232000063, 47.976991109000039 ], [ 29.061173267000072, 47.951718162000077 ], [ 29.04304505500005, 47.935673187000077 ], [ 29.016527228000029, 47.932336016000079 ], [ 28.982627123000043, 47.936918068000068 ], [ 28.96165409300005, 47.946645099000079 ], [ 28.900409202000048, 47.988591160000055 ], [ 28.882218125000065, 48.005553952000071 ], [ 28.87980916600003, 48.010454013000071 ], [ 28.828327182000066, 48.109718043000044 ], [ 28.807363204000069, 48.125409133000062 ], [ 28.737500208000029, 48.138600070000052 ], [ 28.642491168000049, 48.153600156000039 ], [ 28.557700170000032, 48.161800172000028 ], [ 28.501945091000039, 48.134164199000054 ], [ 28.436663309000039, 48.145827114000042 ], [ 28.388609187000043, 48.163882237000053 ], [ 28.367500202000031, 48.190964166000072 ], [ 28.370482148000065, 48.221791129000053 ], [ 28.34700913100005, 48.242044993000036 ], [ 28.290554163000024, 48.236382179000032 ], [ 28.260000114000036, 48.220545076000064 ], [ 28.235827208000046, 48.206800095000062 ], [ 28.213054080000063, 48.206518128000027 ], [ 28.086109150000027, 48.242600210000035 ], [ 28.093682200000046, 48.291173171000025 ], [ 28.07492718900005, 48.311100140000065 ], [ 28.014718134000077, 48.31666421500006 ], [ 27.955827217000035, 48.327353992000042 ], [ 27.932218246000048, 48.337491065000052 ], [ 27.912773236000078, 48.348045055000057 ], [ 27.890973247000034, 48.364154067000072 ], [ 27.880273245000069, 48.381100096000068 ], [ 27.866245124000045, 48.400553991000038 ], [ 27.763191133000078, 48.449582089000046 ], [ 27.547218154000063, 48.468318157000056 ], [ 27.519518143000028, 48.465500162000069 ], [ 27.454163270000038, 48.439709045000029 ], [ 27.239436177000073, 48.368327081000075 ], [ 26.98110910500003, 48.357773260000045 ], [ 26.80832706700005, 48.333054021000066 ], [ 26.702073201000076, 48.339991220000059 ], [ 26.651663262000056, 48.300827112000036 ], [ 26.637827086000073, 48.273609061000059 ], [ 26.634991153000044, 48.257164270000033 ], [ 26.567773319000025, 48.22249118600007 ], [ 26.530836115000056, 48.208191156000055 ], [ 26.507500226000047, 48.21346421100003 ], [ 26.468882284000074, 48.217491213000073 ], [ 26.317700243000047, 48.176136076000034 ], [ 26.272218192000025, 48.076100073000077 ], [ 26.193463338000072, 48.001518066000074 ], [ 26.158609205000062, 47.985253989000057 ], [ 26.115000175000034, 47.981364115000076 ], [ 26.102709120000043, 47.981718167000054 ], [ 26.037218125000038, 47.983600072000058 ], [ 25.922218078000071, 47.974709052000037 ], [ 25.838327129000049, 47.963464226000042 ], [ 25.817218144000037, 47.955273094000063 ], [ 25.780482274000065, 47.936854030000063 ], [ 25.646109134000028, 47.933591123000042 ], [ 25.58860911000005, 47.934436018000042 ], [ 25.568327084000032, 47.935818027000039 ], [ 25.525000188000035, 47.934709101000067 ], [ 25.501663293000036, 47.933327093000059 ], [ 25.333882234000043, 47.916664204000028 ], [ 25.246382205000032, 47.888736038000047 ], [ 25.224436203000039, 47.87610015100006 ], [ 25.175136196000039, 47.823327018000043 ], [ 25.153818166000065, 47.790127138000059 ], [ 25.116936115000044, 47.759436129000051 ], [ 25.085545050000064, 47.744427158000065 ], [ 25.049436146000062, 47.733327003000056 ], [ 25.029718222000042, 47.728864143000067 ], [ 25.000000184000044, 47.72449113600004 ], [ 24.999509172000046, 47.724464146000059 ], [ 24.961245113000075, 47.720836123000026 ], [ 24.928918124000063, 47.713145057000077 ], [ 24.898709242000052, 47.717845125000053 ], [ 24.863327217000062, 47.759991178000064 ], [ 24.821109247000038, 47.808400190000043 ], [ 24.80277316300004, 47.817773169000077 ], [ 24.770273172000032, 47.820545065000033 ], [ 24.716945157000055, 47.838609072000054 ], [ 24.693882183000028, 47.849164235000046 ], [ 24.670900178000068, 47.866800095000031 ], [ 24.670100209000054, 47.895482129000072 ], [ 24.615409129000057, 47.933745014000067 ], [ 24.588336084000048, 47.945827025000028 ], [ 24.572291277000033, 47.949482205000038 ], [ 24.556391142000052, 47.953045017000079 ], [ 24.45389119500004, 47.958609092000074 ], [ 24.42152715800006, 47.95777324900007 ], [ 24.326945092000074, 47.928891222000061 ], [ 24.246945190000076, 47.903882137000039 ], [ 24.127500220000059, 47.912009063000028 ], [ 24.096182244000033, 47.932353954000064 ], [ 24.032363271000065, 47.95596426600008 ], [ 23.969718100000023, 47.96139121300007 ], [ 23.823891257000071, 47.966945062000036 ], [ 23.566100125000048, 47.999991219000037 ], [ 23.514263250000056, 47.98933614300006 ], [ 23.502982214000042, 47.982464156000049 ], [ 23.41027316800006, 48.000545095000064 ], [ 23.356109142000037, 48.021100204000049 ], [ 23.299100130000056, 48.044854014000066 ], [ 23.279163271000073, 48.075273115000073 ], [ 23.260691232000056, 48.090127020000068 ], [ 23.174163337000039, 48.108327150000036 ], [ 23.15235412800007, 48.105691209000042 ], [ 23.125618203000045, 48.089364267000065 ], [ 23.112500190000048, 48.062773182000058 ], [ 23.102218109000034, 48.034300192000046 ], [ 23.087773240000047, 48.013473175000058 ], [ 23.043327192000049, 47.993044968000049 ], [ 22.930000173000053, 47.960544976000051 ], [ 22.896109121000052, 47.953891086000056 ], [ 22.894800203000045, 47.954535990000068 ], [ 22.859163200000069, 47.993891205000068 ], [ 22.883227142000067, 48.040482181000073 ], [ 22.846545083000024, 48.083164173000057 ], [ 22.790273176000028, 48.116654068000059 ], [ 22.737773293000032, 48.114436048000073 ], [ 22.679791143000045, 48.094991207000078 ], [ 22.64703617400005, 48.094318140000041 ], [ 22.625718144000075, 48.100345063000077 ], [ 22.605236125000033, 48.11648223900005 ], [ 22.597773214000028, 48.145827114000042 ], [ 22.574718119000067, 48.187209073000076 ], [ 22.494609252000032, 48.249700185000052 ], [ 22.454718099000047, 48.243609056000025 ], [ 22.380973276000077, 48.244854104000069 ], [ 22.347773228000051, 48.274991069000066 ], [ 22.270273313000075, 48.359991111000056 ], [ 22.270209107000028, 48.402218134000066 ], [ 22.214300137000066, 48.417773102000069 ], [ 22.171718225000063, 48.409054079000043 ], [ 22.151445083000056, 48.411918175000039 ], [ 22.159791279000046, 48.578254026000081 ], [ 22.173609182000064, 48.592764274000046 ], [ 22.235273167000059, 48.624709048000057 ], [ 22.328673218000063, 48.687000168000054 ], [ 22.38874514400004, 48.800200118000078 ], [ 22.425000228000044, 48.889436038000042 ], [ 22.461382215000071, 48.949436048000052 ], [ 22.53485412200007, 48.994854061000069 ], [ 22.551663191000046, 49.039436063000039 ], [ 22.558054057000049, 49.079436014000066 ], [ 22.568473265000023, 49.08790911300008 ], [ 22.594145191000052, 49.091536130000065 ], [ 22.737773293000032, 49.047218158000078 ], [ 22.86305408000004, 49.003045025000063 ], [ 22.886073301000067, 49.002918123000029 ], [ 22.863500165000062, 49.049827109000034 ], [ 22.876518099000066, 49.087418101000026 ], [ 22.85277317300006, 49.105827107000039 ], [ 22.77805403800005, 49.150545063000038 ], [ 22.70380915100003, 49.16989116700006 ], [ 22.726663248000023, 49.217764239000076 ], [ 22.758818241000029, 49.285900060000074 ], [ 22.732791258000077, 49.397209052000051 ], [ 22.694436171000063, 49.450827081000057 ], [ 22.656873175000044, 49.529854011000054 ], [ 22.678463281000063, 49.569436040000028 ], [ 22.686063321000063, 49.577091065000047 ], [ 22.717218184000046, 49.604436018000058 ], [ 22.780000148000056, 49.67500007600006 ], [ 23.110827162000078, 49.954991182000072 ], [ 23.146109107000029, 49.983045077000043 ], [ 23.228191241000047, 50.046664225000029 ], [ 23.303609091000055, 50.100827078000066 ], [ 23.324436109000033, 50.11527312000004 ], [ 23.34282717800005, 50.127491085000031 ], [ 23.378327221000063, 50.149718049000057 ], [ 23.49610922100004, 50.220827098000029 ], [ 23.54027330200006, 50.242782152000075 ], [ 23.568882246000044, 50.25582707600006 ], [ 23.591109209000024, 50.269153967000079 ], [ 23.684173313000031, 50.333700153000052 ], [ 23.697109104000049, 50.370118181000066 ], [ 23.717591123000034, 50.383836004000045 ], [ 23.755836071000033, 50.394436094000071 ], [ 23.791945142000031, 50.402491103000045 ], [ 23.814445188000036, 50.405818048000071 ], [ 23.846945179000045, 50.406654059000061 ], [ 23.88150024600003, 50.40540917900006 ], [ 23.929436182000074, 50.40360019700006 ], [ 23.983191172000033, 50.405964229000062 ], [ 24.002218092000078, 50.414435986000058 ], [ 24.111382155000058, 50.56693599700003 ], [ 24.108409094000024, 50.625900172000058 ], [ 24.107218193000051, 50.63360917600005 ], [ 24.072218215000078, 50.695827038000061 ], [ 24.014718192000032, 50.739991118000034 ], [ 23.954382235000026, 50.79170008400007 ], [ 23.958400184000027, 50.815200091000065 ], [ 23.980963262000046, 50.829582096000081 ], [ 24.02189125700005, 50.831754015000058 ], [ 24.052500123000073, 50.831382194000071 ], [ 24.076945106000039, 50.829436083000076 ], [ 24.131036209000058, 50.838182096000025 ], [ 24.143473277000055, 50.859582101000058 ], [ 24.090273170000046, 50.881936134000057 ], [ 24.061500108000075, 50.887527031000047 ], [ 24.034300162000022, 50.89825402300005 ], [ 23.98832709900006, 50.931109072000027 ], [ 23.965136049000023, 50.950409075000039 ], [ 23.931663254000057, 50.994073258000071 ], [ 23.905000252000036, 51.068054115000052 ], [ 23.811109190000025, 51.16888220800007 ], [ 23.756663197000023, 51.199436089000073 ], [ 23.731936080000025, 51.214718143000027 ], [ 23.683882293000067, 51.288609146000056 ], [ 23.68124517900003, 51.369300051000039 ], [ 23.692773313000032, 51.402354087000049 ], [ 23.643636082000057, 51.485009040000079 ], [ 23.614091214000041, 51.498627118000059 ], [ 23.604636092000078, 51.527691200000049 ], [ 23.641073231000064, 51.523500081000066 ], [ 23.627773163000029, 51.579718176000029 ], [ 23.613291246000074, 51.606727015000047 ], [ 23.650000126000066, 51.636173144000054 ], [ 23.751318225000034, 51.651791144000072 ], [ 23.90159116500007, 51.634154111000043 ], [ 23.922909194000056, 51.619854081000028 ], [ 23.938400125000044, 51.596100103000026 ], [ 23.963463357000023, 51.58554510700003 ], [ 23.998191258000077, 51.592909112000029 ], [ 24.043054054000038, 51.610273230000075 ], [ 24.07055407200005, 51.624991182000031 ], [ 24.283400266000058, 51.741173245000027 ], [ 24.297354124000037, 51.764573172000041 ], [ 24.30610918900004, 51.803045102000056 ], [ 24.314582287000064, 51.824027017000049 ], [ 24.394227132000026, 51.884718031000034 ], [ 24.700273216000028, 51.89388213400008 ], [ 24.740554128000042, 51.889718172000073 ], [ 24.897500237000031, 51.900691089000077 ], [ 24.991936123000073, 51.911936083000057 ], [ 25.051936133000027, 51.93220905700008 ], [ 25.093609111000035, 51.942218055000069 ], [ 25.173054131000072, 51.95930020600008 ], [ 25.240963305000037, 51.959854082000049 ], [ 25.269582140000068, 51.953609061000066 ], [ 25.312218199000029, 51.939709184000037 ], [ 25.352082195000037, 51.928609197000071 ], [ 25.439991261000046, 51.922218163000082 ], [ 25.546673275000046, 51.922136021000028 ], [ 25.562773235000066, 51.919991092000032 ], [ 25.598327089000065, 51.91888216600006 ], [ 25.685963239000046, 51.922354118000044 ], [ 25.733600110000054, 51.927354091000041 ], [ 25.77041812300007, 51.938182168000026 ], [ 25.818327070000066, 51.93581813600008 ], [ 26.026945097000066, 51.910273113000073 ], [ 26.144436078000069, 51.87846412600004 ], [ 26.175409222000042, 51.862909157000047 ], [ 26.207773259000078, 51.858327106000047 ], [ 26.296663342000045, 51.853600216000075 ], [ 26.338609236000025, 51.857500148000042 ], [ 26.364163311000027, 51.858891208000045 ], [ 26.435545108000042, 51.856173125000055 ], [ 26.439991205000069, 51.823054046000038 ], [ 26.457218195000053, 51.812764254000058 ], [ 26.49860015400003, 51.811936122000077 ], [ 26.530827063000061, 51.813327015000027 ], [ 26.571109149000051, 51.818327155000077 ], [ 26.608054063000054, 51.821109109000076 ], [ 26.642354152000053, 51.820691187000079 ], [ 26.672500170000035, 51.814991158000055 ], [ 26.722500234000051, 51.802491226000029 ], [ 26.772500131000072, 51.785827164000068 ], [ 26.820827167000061, 51.772491221000053 ], [ 26.895000138000057, 51.755554076000067 ], [ 26.926527158000056, 51.750409097000045 ], [ 26.948054064000075, 51.748882081000033 ], [ 26.971109160000026, 51.752218079000045 ], [ 27.019300242000043, 51.768118046000041 ], [ 27.080827099000032, 51.77110016000006 ], [ 27.170000156000071, 51.764164135000044 ], [ 27.202563347000023, 51.75130914500005 ], [ 27.204582212000048, 51.71749118300005 ], [ 27.199373194000032, 51.675136085000076 ], [ 27.282563248000031, 51.598191220000047 ], [ 27.416663306000032, 51.597491163000029 ], [ 27.453191137000033, 51.602773103000061 ], [ 27.511973257000079, 51.628864124000074 ], [ 27.597218218000023, 51.615827080000031 ], [ 27.687218233000067, 51.601391095000054 ], [ 27.724473278000062, 51.581654060000062 ], [ 27.709754153000063, 51.55050908700008 ], [ 27.681663210000067, 51.493191119000073 ], [ 27.747909247000052, 51.466518059000066 ], [ 27.816800277000027, 51.533254101000068 ], [ 27.814227200000062, 51.568327002000046 ], [ 27.813891254000055, 51.592209056000058 ], [ 27.832082163000052, 51.60916413700005 ], [ 27.865973215000054, 51.621800191000034 ], [ 27.895827207000025, 51.613054011000031 ], [ 27.925618168000028, 51.591664232000028 ], [ 27.95527317400007, 51.575000170000067 ], [ 27.983745158000033, 51.565827015000082 ], [ 28.006109249000076, 51.562209051000082 ], [ 28.079027113000052, 51.564436122000075 ], [ 28.109163240000044, 51.569444980000071 ], [ 28.138191279000068, 51.583045121000055 ], [ 28.157500167000023, 51.609991096000044 ], [ 28.182009187000062, 51.637773249000077 ], [ 28.215691195000034, 51.655682191000039 ], [ 28.256736201000024, 51.659291103000044 ], [ 28.319445075000033, 51.58915402000008 ], [ 28.433327144000032, 51.566100098000049 ], [ 28.468191167000043, 51.577909193000039 ], [ 28.490554085000042, 51.581109069000036 ], [ 28.628263222000044, 51.564854044000072 ], [ 28.632773189000034, 51.543600052000045 ], [ 28.637218112000028, 51.51000018700006 ], [ 28.652918088000035, 51.464718129000062 ], [ 28.666527113000029, 51.446654121000051 ], [ 28.757154095000033, 51.415645103000031 ], [ 28.769445150000024, 51.448045014000058 ], [ 28.766036062000069, 51.481382190000033 ], [ 28.793054121000068, 51.516109086000029 ], [ 28.810554026000034, 51.534436117000041 ], [ 28.836945119000063, 51.550273220000065 ], [ 29.05250017700007, 51.631100081000056 ], [ 29.083954107000068, 51.637982126000054 ], [ 29.118054036000046, 51.636936065000043 ], [ 29.163191255000072, 51.62777313600003 ], [ 29.18138216400007, 51.618045099000028 ], [ 29.241518129000042, 51.540964111000051 ], [ 29.249582190000069, 51.502282131000072 ], [ 29.312009097000043, 51.387627083000041 ], [ 29.34221814600005, 51.373182214000053 ], [ 29.353836135000051, 51.375318090000064 ], [ 29.409718116000079, 51.402773182000033 ], [ 29.624027120000051, 51.490682080000056 ], [ 29.675827114000072, 51.499300185000038 ], [ 29.71895418500003, 51.491027079000048 ], [ 29.738218146000065, 51.457145079000043 ], [ 29.762773266000067, 51.440818138000054 ], [ 29.834445076000065, 51.441936116000079 ], [ 29.881663355000057, 51.459718156000065 ], [ 29.911663360000034, 51.472764253000037 ], [ 29.983327123000038, 51.48638216300003 ], [ 30.012218203000032, 51.489154059000043 ], [ 30.04305405100007, 51.490273210000055 ], [ 30.15221811400005, 51.493327073000046 ], [ 30.17999121500003, 51.491518091000046 ], [ 30.207218151000063, 51.483735996000064 ], [ 30.347636152000064, 51.400064151000038 ], [ 30.350273267000034, 51.358327134000035 ], [ 30.464718097000059, 51.295000179000056 ], [ 30.551418156000068, 51.251845112000069 ], [ 30.56777326100007, 51.297773248000055 ], [ 30.615827215000024, 51.323882206000064 ], [ 30.642600187000028, 51.331200110000054 ], [ 30.643745155000033, 51.368882130000031 ], [ 30.58638226000005, 51.489154059000043 ], [ 30.553891153000052, 51.541936077000059 ], [ 30.56500019200007, 51.643327098000043 ], [ 30.625973174000023, 51.707909159000053 ], [ 30.66693620500007, 51.801109050000036 ], [ 30.662082245000079, 51.821654100000046 ], [ 30.746936107000067, 51.895273194000026 ], [ 30.825000124000042, 51.947491110000044 ], [ 30.89694518400006, 51.977764198000045 ], [ 30.958882252000024, 52.00082700400003 ], [ 30.930618139000046, 52.032218070000056 ], [ 30.935000198000068, 52.061800153000036 ], [ 30.95966327800005, 52.079344985000034 ], [ 31.106382291000045, 52.086382096000079 ], [ 31.13221816600003, 52.086382096000079 ], [ 31.296245139000064, 52.086936140000034 ], [ 31.323891170000024, 52.105000147000055 ], [ 31.345973294000032, 52.113744987000075 ], [ 31.370827146000067, 52.117354066000075 ], [ 31.422500238000055, 52.119991181000046 ], [ 31.502782274000026, 52.117491194000081 ], [ 31.523609124000075, 52.116391153000052 ], [ 31.622218192000048, 52.10889119400008 ], [ 31.734718085000054, 52.106100188000028 ], [ 31.783882306000066, 52.108045125000046 ], [ 31.825273318000029, 52.111382128000059 ], [ 31.856109166000067, 52.107909170000028 ], [ 31.900000164000062, 52.093182166000076 ], [ 31.908882299000027, 52.069445119000079 ], [ 31.99582711000005, 52.054436148000036 ], [ 32.123745179000025, 52.044436035000047 ], [ 32.22499119400004, 52.079436013000077 ], [ 32.298118102000046, 52.109154051000075 ], [ 32.331700198000078, 52.169400153000026 ], [ 32.364436056000045, 52.318954093000059 ], [ 32.389163341000028, 52.334018050000054 ], [ 32.413318142000037, 52.335545065000076 ], [ 32.527218148000031, 52.324436026000058 ], [ 32.552491262000046, 52.319991103000064 ], [ 32.584436204000042, 52.309718074000045 ], [ 32.608891245000052, 52.300545087000046 ], [ 32.639163327000063, 52.289436048000027 ], [ 32.700827145000062, 52.268327063000072 ], [ 32.731654108000043, 52.261382153000056 ], [ 32.758609135000029, 52.257773241000052 ], [ 32.916800124000076, 52.247627115000057 ], [ 32.941654143000051, 52.253882194000028 ], [ 32.971927231000052, 52.272764275000043 ], [ 33.038045192000027, 52.305827027000078 ], [ 33.205682250000052, 52.378600052000081 ], [ 33.378600242000061, 52.365000079000026 ], [ 33.417700144000037, 52.355400117000045 ], [ 33.512773223000067, 52.326945065000075 ], [ 33.601663306000034, 52.331936153000072 ], [ 33.628600228000039, 52.341936099000065 ], [ 33.688882206000073, 52.359718139000051 ], [ 33.762218159000042, 52.36873606100005 ], [ 33.831663233000029, 52.363182212000027 ], [ 34.062909213000069, 52.196109088000071 ], [ 34.099782211000047, 52.145054077000054 ], [ 34.077636217000077, 52.121245114000033 ], [ 34.073609215000033, 52.058609163000028 ], [ 34.083609161000027, 52.037491125000031 ], [ 34.129154076000077, 51.986109053000064 ], [ 34.240545044000044, 51.911373154000046 ], [ 34.33735418200007, 51.856664137000053 ], [ 34.38403618600006, 51.843109090000041 ], [ 34.422218102000045, 51.804164253000067 ], [ 34.44110018300006, 51.754918058000044 ], [ 34.426109149000069, 51.728318088000037 ], [ 34.388954183000067, 51.715200074000052 ], [ 34.255273221000039, 51.701100204000056 ], [ 34.19777319700006, 51.696654107000029 ], [ 34.105545105000033, 51.674782202000074 ], [ 34.101863270000024, 51.647700105000069 ], [ 34.163045128000078, 51.614718154000059 ], [ 34.234645190000037, 51.544154096000057 ], [ 34.245200185000044, 51.501173205000043 ], [ 34.239854039000079, 51.431936002000043 ], [ 34.382209266000075, 51.263609114000076 ], [ 34.406936216000076, 51.263609114000076 ], [ 34.550545040000031, 51.233327141000075 ], [ 34.672354042000052, 51.178464232000067 ], [ 34.708600241000056, 51.174164148000045 ], [ 34.734991166000043, 51.172491120000075 ], [ 34.766663361000042, 51.171382194000046 ], [ 34.801100243000064, 51.173609099000032 ], [ 34.827218085000027, 51.178045137000026 ], [ 34.920273304000034, 51.197909074000052 ], [ 34.944291145000079, 51.216027061000034 ], [ 34.974991206000027, 51.223600110000064 ], [ 35.076445092000029, 51.220644987000071 ], [ 35.119009235000078, 51.199264260000064 ], [ 35.12491814100008, 51.178573197000048 ], [ 35.119636201000048, 51.151764182000079 ], [ 35.150745132000054, 51.073700165000048 ], [ 35.165745051000044, 51.058554066000056 ], [ 35.195063272000027, 51.048273159000075 ], [ 35.222145201000046, 51.048418166000033 ], [ 35.244091203000039, 51.050909100000069 ], [ 35.293545102000053, 51.059927022000068 ], [ 35.368827166000074, 51.042127045000029 ], [ 35.370500194000044, 51.021354006000081 ], [ 35.344945112000062, 51.006436063000081 ], [ 35.309663334000049, 50.982554009000069 ], [ 35.305773293000072, 50.960336098000028 ], [ 35.357791217000056, 50.928582096000071 ], [ 35.460863313000061, 50.763073203000033 ], [ 35.486073228000066, 50.678627037000069 ], [ 35.399318183000048, 50.641591095000081 ], [ 35.441054026000074, 50.511973176000026 ], [ 35.458282190000034, 50.488064132000034 ], [ 35.597900222000078, 50.373600192000026 ], [ 35.644718180000041, 50.354164235000042 ], [ 35.681382301000042, 50.346936017000075 ], [ 35.693091149000054, 50.347409091000031 ], [ 35.743191294000042, 50.385273165000058 ], [ 35.827636118000044, 50.423045039000044 ], [ 35.858054045000074, 50.429718039000079 ], [ 35.894154064000077, 50.433327119000069 ], [ 35.927491240000052, 50.435818053000048 ], [ 35.97860023000004, 50.438327092000065 ], [ 36.00777327600008, 50.43915405100006 ], [ 36.059436143000028, 50.434991095000044 ], [ 36.091936134000036, 50.431109100000072 ], [ 36.148463354000057, 50.422282118000055 ], [ 36.188391220000028, 50.398318089000043 ], [ 36.199573182000051, 50.373327109000058 ], [ 36.215827201000025, 50.355000078000046 ], [ 36.279163209000046, 50.294445018000033 ], [ 36.300136072000043, 50.283600177000039 ], [ 36.327082214000029, 50.28082710800004 ], [ 36.353745048000064, 50.287218141000039 ], [ 36.375127116000044, 50.29582702700003 ], [ 36.419991252000045, 50.313882149000051 ], [ 36.47720914100006, 50.301382217000025 ], [ 36.559891252000057, 50.269364185000029 ], [ 36.554054094000037, 50.231000214000062 ], [ 36.578463370000065, 50.217345088000059 ], [ 36.608463207000057, 50.213045004000037 ], [ 36.651445104000061, 50.219436037000037 ], [ 36.66999123800008, 50.243609111000069 ], [ 36.693463250000036, 50.262491192000027 ], [ 36.717491149000068, 50.274709157000075 ], [ 36.810273285000051, 50.314154058000042 ], [ 36.89180020200007, 50.337353992000033 ], [ 36.975963227000079, 50.349154036000073 ], [ 37.01680019500003, 50.346936017000075 ], [ 37.059227209000028, 50.337909042000035 ], [ 37.13054513600008, 50.348327077000079 ], [ 37.216936071000077, 50.369709145000058 ], [ 37.245691195000063, 50.379854097000077 ], [ 37.270827182000062, 50.393882218000044 ], [ 37.292500269000072, 50.412209082000061 ], [ 37.322627176000026, 50.428745068000069 ], [ 37.418600135000077, 50.438045125000031 ], [ 37.461936084000058, 50.436173111000073 ], [ 37.649436073000061, 50.184154092000028 ], [ 37.746109257000057, 50.08048218700003 ], [ 37.793327200000078, 50.069164271000034 ], [ 37.823327205000055, 50.061664144000076 ], [ 37.924782264000044, 50.024573216000078 ], [ 37.981654148000075, 49.96930009700003 ], [ 38.013609148000057, 49.934436073000029 ], [ 38.024227175000078, 49.903082223000069 ], [ 38.103609163000044, 49.938600203000078 ], [ 38.186863254000059, 50.065545133000057 ], [ 38.30485413200006, 50.073882109000067 ], [ 38.329645120000066, 50.065682093000078 ], [ 38.343882285000063, 50.046391143000051 ], [ 38.351245117000076, 50.022909073000051 ], [ 38.36124506200008, 50.000691162000066 ], [ 38.384573240000066, 49.984991187000048 ], [ 38.505682186000058, 49.952073106000057 ], [ 38.547218204000046, 49.954709047000051 ], [ 38.587773205000076, 49.964573206000068 ], [ 38.61443620700004, 49.963882202000036 ], [ 38.65221813800008, 49.958882229000039 ], [ 38.689154168000073, 49.935264205000067 ], [ 38.825827135000054, 49.881382146000078 ], [ 38.86639118800008, 49.874436063000076 ], [ 38.89894515800006, 49.861382087000038 ], [ 38.920827123000038, 49.835545038000078 ], [ 38.941863353000031, 49.811027133000039 ], [ 38.971382236000068, 49.807209176000072 ], [ 39.072836122000069, 49.81992703800006 ], [ 39.091936133000047, 49.831109167000079 ], [ 39.121936138000081, 49.856100147000063 ], [ 39.183736078000038, 49.880409175000068 ], [ 39.202973216000032, 49.871236020000026 ], [ 39.239154036000059, 49.802627125000072 ], [ 39.248054109000066, 49.774300148000066 ], [ 39.26610923100003, 49.756664121000028 ], [ 39.296391204000031, 49.743882221000035 ], [ 39.328609228000062, 49.736936138000033 ], [ 39.359718159000067, 49.732909137000036 ], [ 39.383191176000025, 49.735409123000068 ], [ 39.411936074000039, 49.745409069000061 ], [ 39.442773264000039, 49.756664121000028 ], [ 39.47027328300004, 49.75721816500004 ], [ 39.587700226000038, 49.721382176000077 ], [ 39.613054142000067, 49.668600158000061 ], [ 39.629854158000057, 49.627564204000066 ], [ 39.654300147000072, 49.607627009000055 ], [ 39.812427097000068, 49.55054507400007 ], [ 39.85953607600004, 49.55175408000008 ], [ 39.898327188000053, 49.559436094000034 ], [ 39.930409258000054, 49.56860019700008 ], [ 39.954300197000066, 49.580691092000052 ], [ 39.975127214000054, 49.599853967000058 ], [ 39.998463271000048, 49.612354067000069 ], [ 40.042773197000031, 49.616664209000078 ], [ 40.068327105000037, 49.613053956000044 ], [ 40.139763216000063, 49.601054088000069 ], [ 40.148954141000047, 49.577700094000079 ], [ 40.136245164000059, 49.555409093000037 ], [ 40.103609218000031, 49.542500124000071 ], [ 40.079300190000026, 49.530691196000078 ], [ 40.059154118000038, 49.505691163000051 ], [ 40.054645157000039, 49.474018131000037 ], [ 40.08888221400008, 49.424709070000063 ], [ 40.109718116000067, 49.403882220000071 ], [ 40.149018178000063, 49.370545044000039 ], [ 40.172354067000072, 49.352636102000076 ], [ 40.178745101000061, 49.333045080000034 ], [ 40.167636062000042, 49.251664176000077 ], [ 40.081745191000039, 49.183827086000065 ], [ 40.054163365000079, 49.174164261000044 ], [ 40.000200169000038, 49.149364221000042 ], [ 39.966382207000038, 49.12388222900006 ], [ 39.951100154000073, 49.107773217000044 ], [ 39.939436065000052, 49.08971809500008 ], [ 39.941445207000072, 49.064364179000052 ], [ 39.917636076000065, 49.050273194000056 ], [ 39.823327092000056, 49.052218130000028 ], [ 39.705409137000061, 49.035964111000055 ], [ 39.697909177000042, 49.016800063000062 ], [ 39.69373616300004, 48.976518145000057 ], [ 39.775618137000038, 48.901173217000064 ], [ 39.95000028000004, 48.867491210000026 ], [ 40.026800139000045, 48.893745007000064 ], [ 40.059300130000054, 48.890827099000035 ], [ 40.074854093000056, 48.876236050000045 ], [ 40.068954071000064, 48.849782092000055 ], [ 40.039718161000053, 48.820273099000076 ], [ 40.021382244000051, 48.808736080000074 ], [ 39.856945062000079, 48.821245065000028 ], [ 39.829027121000024, 48.824582236000026 ], [ 39.808045206000031, 48.819573210000044 ], [ 39.78277326500006, 48.802773194000054 ], [ 39.727209126000048, 48.762218026000028 ], [ 39.704163250000079, 48.718600111000057 ], [ 39.660191283000074, 48.603918073000045 ], [ 39.732491233000076, 48.582500131000074 ], [ 39.760554181000032, 48.582500131000074 ], [ 39.790127211000026, 48.583609057000047 ], [ 39.814854161000028, 48.57763611200005 ], [ 39.848918216000072, 48.556900122000059 ], [ 39.867209205000051, 48.503882237000028 ], [ 39.921518238000033, 48.36839111900008 ], [ 39.998882199000036, 48.297218032000046 ], [ 39.940818241000045, 48.21707312400008 ], [ 39.917491236000046, 48.19832716500008 ], [ 39.903591191000032, 48.181664109000053 ], [ 39.776227166000069, 48.024018112000078 ], [ 39.799991203000047, 48.000827062000042 ], [ 39.817836107000062, 47.974364220000041 ], [ 39.803254110000069, 47.868600192000031 ], [ 39.781100237000032, 47.842209099000058 ], [ 39.764291168000057, 47.829300130000036 ], [ 39.731382308000036, 47.81915400400004 ], [ 39.683882230000052, 47.823745108000026 ], [ 39.643045095000048, 47.832764203000067 ], [ 39.604991254000026, 47.839009056000066 ], [ 39.479709126000046, 47.839427146000048 ], [ 39.432209216000047, 47.83138219500006 ], [ 39.409573216000069, 47.831727026000067 ], [ 39.384573184000033, 47.84554509700007 ], [ 39.353873290000024, 47.85248212700003 ], [ 39.254709172000048, 47.852909102000069 ], [ 39.189154140000028, 47.843036058000052 ], [ 39.141518108000071, 47.834300103000032 ], [ 39.11832722500003, 47.837482209000029 ], [ 39.038173264000079, 47.86580013300005 ], [ 38.924709117000077, 47.868318057000067 ], [ 38.897218151000061, 47.868318057000067 ], [ 38.867209261000028, 47.864427010000043 ], [ 38.845963316000052, 47.856800149000037 ], [ 38.822773272000063, 47.838454007000053 ], [ 38.789982261000034, 47.778873092000026 ], [ 38.770400123000059, 47.720818019000035 ], [ 38.758191211000053, 47.689564248000067 ], [ 38.610263360000033, 47.63943610900003 ], [ 38.577491292000047, 47.632482147000076 ], [ 38.537209206000057, 47.628036050000048 ], [ 38.496654038000031, 47.627073137000082 ], [ 38.453873307000038, 47.628873234000025 ], [ 38.353882231000057, 47.608673183000064 ], [ 38.300827131000062, 47.555127071000072 ], [ 38.280818187000079, 47.506100145000062 ], [ 38.223309111000049, 47.339991108000049 ], [ 38.301100213000041, 47.301100083000051 ], [ 38.253873218000024, 47.22804509100007 ], [ 38.227063365000049, 47.210964114000035 ], [ 38.214709110000058, 47.18762705100005 ], [ 38.225545067000041, 47.127764169000045 ], [ 38.235827148000055, 47.109427079000056 ], [ 38.133736070000054, 47.062218021000035 ], [ 38.071382254000071, 47.094982210000069 ], [ 37.896663326000066, 47.097218167000051 ], [ 37.859709191000036, 47.096927147000031 ], [ 37.835818252000024, 47.092764191000072 ], [ 37.801654117000055, 47.081382237000071 ], [ 37.751163209000026, 47.070054095000046 ], [ 37.648327147000032, 47.075000088000081 ], [ 37.60942723800008, 47.085818108000069 ], [ 37.55957318600008, 47.086445074000039 ], [ 37.53888229000006, 47.078609168000071 ], [ 37.45998226200004, 47.011100146000047 ], [ 37.393600271000025, 46.949154026000031 ], [ 37.321027239000045, 46.900127101000066 ], [ 37.247282248000033, 46.932900175000043 ], [ 37.196936179000033, 46.925682183000049 ], [ 37.078327220000062, 46.885264143000029 ], [ 37.03950911700008, 46.874027028000057 ], [ 36.993045043000052, 46.857491209000045 ], [ 36.91666327300004, 46.825545094000063 ], [ 36.867900210000073, 46.790827083000067 ], [ 36.763882301000024, 46.751100047000079 ], [ 36.741663216000063, 46.764582171000029 ], [ 36.700127198000075, 46.772491167000055 ], [ 36.613600141000063, 46.775273121000055 ], [ 36.515127195000048, 46.753054036000037 ], [ 36.416654082000036, 46.724436040000057 ], [ 36.395545096000035, 46.717209163000064 ], [ 36.375545205000037, 46.708882077000055 ], [ 36.354573180000045, 46.695254108000029 ], [ 36.239009199000066, 46.634018103000074 ], [ 36.214573269000027, 46.659564132000071 ], [ 36.193182316000048, 46.666936016000079 ], [ 36.067491152000059, 46.670273187000078 ], [ 35.907200161000048, 46.651091201000042 ], [ 35.811791136000068, 46.618591210000034 ], [ 35.760545186000058, 46.592900174000079 ], [ 35.728736199000025, 46.573045122000053 ], [ 35.699154115000056, 46.544718144000058 ], [ 35.649845055000071, 46.501654105000057 ], [ 35.628036181000027, 46.489154005000046 ], [ 35.582763343000067, 46.472218034000036 ], [ 35.548454034000031, 46.46082702800004 ], [ 35.518182287000059, 46.45540008100005 ], [ 35.484218145000057, 46.441645043000051 ], [ 35.352218089000075, 46.331654021000077 ], [ 35.281200235000028, 46.254527100000075 ], [ 35.196227183000076, 46.154427059000056 ], [ 35.160609123000029, 46.128536031000067 ], [ 35.124427129000026, 46.112491224000053 ], [ 34.996727158000056, 46.074226998000029 ], [ 34.980118249000043, 46.086027041000079 ], [ 35.054645103000041, 46.141654045000053 ], [ 35.109427211000025, 46.155535985000029 ], [ 35.151791194000054, 46.163600047000045 ], [ 35.185263318000068, 46.172354106000057 ], [ 35.204291244000046, 46.184436117000075 ], [ 35.248045114000035, 46.233327088000067 ], [ 35.267563214000063, 46.25980904000005 ], [ 35.282909138000036, 46.270545085000037 ], [ 35.334300263000046, 46.321654075000026 ], [ 35.347973326000044, 46.34963605300004 ], [ 35.198045050000076, 46.443318070000032 ], [ 35.215682251000032, 46.410264203000054 ], [ 35.205409222000071, 46.387073153000074 ], [ 35.119709124000053, 46.299427112000046 ], [ 35.110763286000065, 46.294082140000057 ], [ 35.056654078000065, 46.260127050000051 ], [ 35.033882291000054, 46.250127104000057 ], [ 34.812482197000065, 46.181373202000032 ], [ 34.702491175000034, 46.175818179000032 ], [ 34.631518248000077, 46.082209084000056 ], [ 34.582627109000043, 45.998182181000061 ], [ 34.566382310000051, 45.98596421600007 ], [ 34.540827229000058, 45.98373613900003 ], [ 34.50193620400006, 45.986644994000073 ], [ 34.405191271000035, 46.01273601500003 ], [ 34.441373265000038, 46.093882226000062 ], [ 34.462427097000045, 46.098209132000079 ], [ 34.490600182000037, 46.112044972000035 ], [ 34.51690024800007, 46.103836071000046 ], [ 34.541173234000041, 46.08790911400007 ], [ 34.559709142000031, 46.097627092000039 ], [ 34.570263299000032, 46.121091225000043 ], [ 34.574018224000042, 46.153245044000073 ], [ 34.536900139000068, 46.184464113000047 ], [ 34.476991157000043, 46.161000148000028 ], [ 34.456363293000038, 46.154591177000043 ], [ 34.329427080000073, 46.170273215000066 ], [ 34.239573246000077, 46.228182108000055 ], [ 34.206091230000027, 46.259164137000027 ], [ 34.183318102000044, 46.274436132000062 ], [ 34.155818251000028, 46.281445079000036 ], [ 34.127763351000056, 46.206091099000048 ], [ 34.12394505900005, 46.160064225000042 ], [ 34.126863302000061, 46.118391078000059 ], [ 34.032491286000038, 46.13332712700003 ], [ 33.993045044000041, 46.169573159000038 ], [ 33.974918173000049, 46.200336084000071 ], [ 33.957209223000064, 46.213609163000058 ], [ 33.772973314000069, 46.248118129000034 ], [ 33.681636218000051, 46.221654114000046 ], [ 33.67102707500004, 46.215473131000067 ], [ 33.705682222000064, 46.164982223000038 ], [ 33.729573328000072, 46.145000101000051 ], [ 33.789927222000074, 46.121100109000054 ], [ 33.802082155000051, 46.140273210000032 ], [ 33.807036195000023, 46.170582172000081 ], [ 33.845809203000044, 46.160264217000076 ], [ 33.88346322700005, 46.067836132000025 ], [ 33.899991166000063, 46.038609106000081 ], [ 33.968182308000053, 46.017218154000034 ], [ 33.989582312000039, 46.026791126000035 ], [ 33.989845169000034, 46.071791217000055 ], [ 33.944218111000055, 46.088009194000051 ], [ 33.96220919600006, 46.100818083000036 ], [ 34.005336099000033, 46.097282093000047 ], [ 34.114263290000054, 46.01760908600005 ], [ 34.11692722600003, 45.968254093000041 ], [ 34.139436157000034, 45.94012710800007 ], [ 34.161373274000027, 45.937764250000043 ], [ 34.200509218000036, 45.956236120000028 ], [ 34.19769122200006, 45.994918101000053 ], [ 34.221482249000076, 46.007654067000033 ], [ 34.181400155000063, 46.033173107000039 ], [ 34.358318160000067, 46.016164213000081 ], [ 34.381654049000076, 45.992209069000069 ], [ 34.41484504400006, 45.948600206000037 ], [ 34.39616329100005, 45.925264150000032 ], [ 34.376382167000031, 45.918735988000037 ], [ 34.35845411400004, 45.883664261000035 ], [ 34.497427075000076, 45.874782126000071 ], [ 34.571618150000063, 45.927800178000041 ], [ 34.545545067000035, 45.965473145000033 ], [ 34.61388222000005, 45.948318071000074 ], [ 34.636518221000074, 45.937418077000075 ], [ 34.631236113000057, 45.917064134000043 ], [ 34.603182218000029, 45.878809128000057 ], [ 34.545827201000066, 45.842209044000072 ], [ 34.463391184000045, 45.769291180000039 ], [ 34.649154107000072, 45.785554084000069 ], [ 34.785273198000027, 45.715827043000047 ], [ 34.913873218000049, 45.662209182000026 ], [ 34.986645069000076, 45.631927042000029 ], [ 35.070691251000028, 45.551100182000027 ], [ 35.08456330100006, 45.524845044000074 ], [ 35.093591281000045, 45.463944985000069 ], [ 35.076100261000079, 45.447764224000025 ], [ 35.045954075000054, 45.436100135000061 ], [ 35.013736219000066, 45.423354110000048 ], [ 35.058736142000043, 45.36540012200004 ], [ 35.120545135000043, 45.328600047000066 ], [ 35.133045067000069, 45.325000187000057 ], [ 35.167073247000076, 45.33665405000005 ], [ 35.338591294000025, 45.286109162000059 ], [ 35.343036217000076, 45.332500146000029 ], [ 35.23220013200006, 45.44304504400003 ], [ 35.14693606000003, 45.527491210000051 ], [ 35.087627222000037, 45.58485410600008 ], [ 35.054291219000049, 45.60999109800008 ], [ 35.00220925800005, 45.671927160000052 ], [ 34.980818138000075, 45.700818072000061 ], [ 34.960382220000042, 45.739873215000046 ], [ 34.946382262000043, 45.754164192000076 ], [ 34.904209219000052, 45.813100203000033 ], [ 34.864873283000065, 45.86343604700005 ], [ 34.848709118000045, 45.89810913000008 ], [ 34.754854098000067, 46.011309080000046 ], [ 34.716927159000079, 46.030818127000032 ], [ 34.700536180000029, 46.046391200000073 ], [ 34.666209101000049, 46.086373214000048 ], [ 34.733463313000073, 46.108182088000035 ], [ 34.799482200000057, 46.087718174000031 ], [ 34.82364504800006, 46.072618176000049 ], [ 34.853045076000058, 46.000827007000055 ], [ 34.865000185000042, 45.962491199000056 ], [ 34.902209129000028, 45.883482206000053 ], [ 34.939536091000036, 45.819827016000033 ], [ 34.979427077000025, 45.753318123000042 ], [ 34.981127095000033, 45.751445103000037 ], [ 34.991100219000032, 45.733327116000055 ], [ 35.053882182000052, 45.653873212000065 ], [ 35.070827205000057, 45.634573209000052 ], [ 35.249163260000046, 45.446645072000081 ], [ 35.31930017600007, 45.37693613600004 ], [ 35.359709164000037, 45.351109145000066 ], [ 35.382763253000064, 45.33859110800006 ], [ 35.457900142000028, 45.298464255000056 ], [ 35.488945203000071, 45.288182174000042 ], [ 35.545536125000069, 45.293054072000075 ], [ 35.697345133000056, 45.328464260000032 ], [ 35.863045133000071, 45.404427102000056 ], [ 35.886654105000048, 45.391927002000045 ], [ 35.932773180000027, 45.37027319300006 ], [ 35.955127213000026, 45.363191156000028 ], [ 35.992763299000046, 45.358182130000046 ], [ 36.015136108000036, 45.36026419500007 ], [ 36.040691190000075, 45.377764268000078 ], [ 36.056927104000067, 45.402773185000058 ], [ 36.068873327000063, 45.425053960000071 ], [ 36.136236169000028, 45.458318045000055 ], [ 36.290836182000078, 45.465273181000043 ], [ 36.485263312000029, 45.441373190000036 ], [ 36.60457316600008, 45.418600062000053 ], [ 36.636800243000039, 45.37790910700005 ], [ 36.636936197000068, 45.349709032000078 ], [ 36.62040021100006, 45.333464233000029 ], [ 36.574573329000032, 45.33151812300008 ], [ 36.540545149000025, 45.341382114000055 ], [ 36.494091300000036, 45.33866419800006 ], [ 36.431100124000068, 45.271100191000073 ], [ 36.410536130000025, 45.199718059000077 ], [ 36.405191158000036, 45.155964189000031 ], [ 36.414991280000038, 45.128182203000051 ], [ 36.441654114000073, 45.098318153000037 ], [ 36.453463209000063, 45.07728209000004 ], [ 36.228182294000078, 45.005827036000028 ], [ 36.134427187000028, 45.019845099000065 ], [ 36.009163331000025, 45.011373174000028 ], [ 35.99373610300006, 44.998327077000056 ], [ 35.856936067000049, 44.986382194000043 ], [ 35.833954062000032, 44.993882154000062 ], [ 35.811791136000068, 45.024573163000071 ], [ 35.785409264000066, 45.052773238000043 ], [ 35.727909240000031, 45.08054499800005 ], [ 35.677218172000039, 45.100264263000042 ], [ 35.641927174000045, 45.111382187000061 ], [ 35.593036203000054, 45.11915405600007 ], [ 35.562354079000045, 45.120536064000078 ], [ 35.526582295000026, 45.118453999000053 ], [ 35.428882161000047, 45.074153964000061 ], [ 35.412627136000026, 45.062491216000069 ], [ 35.397209128000043, 45.040554099000076 ], [ 35.249718142000063, 44.956091170000036 ], [ 35.148873285000036, 44.891936083000076 ], [ 35.13387319900005, 44.875953972000048 ], [ 35.122627200000068, 44.853600107000034 ], [ 35.113045175000025, 44.825000048000049 ], [ 35.103327197000056, 44.806100197000035 ], [ 35.082982306000076, 44.791236065000078 ], [ 35.04950012300003, 44.792491171000052 ], [ 34.998391133000041, 44.833254043000068 ], [ 34.964145191000057, 44.839427147000038 ], [ 34.724154036000073, 44.809300072000042 ], [ 34.518591213000036, 44.744427159000054 ], [ 34.462073213000053, 44.720400098000027 ], [ 34.441245189000028, 44.704845130000081 ], [ 34.398600245000068, 44.650827117000063 ], [ 34.376936211000043, 44.621654070000034 ], [ 34.35970922000007, 44.593318041000032 ], [ 34.336509118000038, 44.549091096000041 ], [ 34.130127215000073, 44.435409187000062 ], [ 34.011654043000078, 44.395818105000046 ], [ 33.955545080000036, 44.38110015400008 ], [ 33.930273306000061, 44.379154044000074 ], [ 33.838736218000065, 44.398109047000048 ], [ 33.795273200000054, 44.387209053000049 ], [ 33.710682195000061, 44.394364180000025 ], [ 33.623873170000024, 44.452209035000067 ], [ 33.601663306000034, 44.476373224000042 ], [ 33.578582227000027, 44.49186415500003 ], [ 33.537973247000025, 44.486653964000027 ], [ 33.459573283000054, 44.512773148000065 ], [ 33.387073173000033, 44.559573169000032 ], [ 33.369054093000045, 44.584364156000049 ], [ 33.464709210000024, 44.603045072000043 ], [ 33.554436143000032, 44.623600180000039 ], [ 33.538600213000052, 44.672491151000031 ], [ 33.519709247000037, 44.781109050000055 ], [ 33.528873182000041, 44.796653960000071 ], [ 33.540545150000071, 44.825554091000072 ], [ 33.556173209000065, 44.842282191000038 ], [ 33.601445041000034, 44.857773121000037 ], [ 33.621227171000044, 44.917491164000069 ], [ 33.612500269000066, 44.962627042000065 ], [ 33.56651815400005, 45.087491081000053 ], [ 33.546245180000028, 45.108464111000046 ], [ 33.513327099000037, 45.129436136000038 ], [ 33.42610015300005, 45.173327134000033 ], [ 33.396236102000046, 45.184782178000034 ], [ 33.36235410200004, 45.184018084000058 ], [ 33.338873206000073, 45.17416415100007 ], [ 33.276173218000054, 45.155545094000047 ], [ 33.175400278000041, 45.19012715000008 ], [ 33.14638229600007, 45.209436038000035 ], [ 33.123045066000032, 45.229145077000055 ], [ 33.073191182000073, 45.267636118000041 ], [ 33.011654099000054, 45.304436026000076 ], [ 32.934573279000062, 45.342764122000062 ], [ 32.86400922100006, 45.357627081000032 ], [ 32.840545089000045, 45.359709145000068 ], [ 32.727345139000079, 45.354573218000041 ], [ 32.686236095000027, 45.335336080000047 ], [ 32.656718217000048, 45.312627157000065 ], [ 32.569845155000053, 45.319854034000059 ], [ 32.509718243000066, 45.339709086000028 ], [ 32.48110024600004, 45.394018119000066 ], [ 32.493882145000043, 45.421936059000075 ], [ 32.528745163000053, 45.457482202000051 ], [ 32.573873162000041, 45.482491119000031 ], [ 32.629991178000068, 45.509991138000032 ], [ 32.834436190000076, 45.605000178000068 ], [ 32.898600162000037, 45.642773225000042 ], [ 32.931236108000064, 45.657627131000027 ], [ 33.022482177000029, 45.687482129000045 ], [ 33.184154170000056, 45.73860017100003 ], [ 33.232900134000033, 45.742627005000031 ], [ 33.258609107000041, 45.747764106000034 ], [ 33.310409101000062, 45.765973120000069 ], [ 33.359154059000048, 45.787491142000079 ], [ 33.380954048000035, 45.800264157000072 ], [ 33.40470920000007, 45.819845121000071 ], [ 33.424018088000025, 45.831654049000065 ], [ 33.480536088000065, 45.848036143000058 ], [ 33.565818097000033, 45.861664112000028 ], [ 33.623045038000043, 45.87748210500007 ], [ 33.769400276000056, 45.925300192000066 ], [ 33.744709201000035, 45.944991126000048 ], [ 33.668191142000069, 45.957354098000053 ], [ 33.646382268000025, 45.970818117000078 ], [ 33.626382209000042, 45.998182181000061 ], [ 33.628318093000075, 46.064436097000055 ], [ 33.622991226000067, 46.124018018000072 ], [ 33.614018231000045, 46.142627016000063 ], [ 33.593527160000065, 46.156236042000046 ], [ 33.525327134000065, 46.112973184000055 ], [ 33.510818227000073, 46.083882112000026 ], [ 33.495273317000056, 46.066373155000065 ], [ 33.474436074000039, 46.053036038000073 ], [ 33.429645195000035, 46.045964226000081 ], [ 33.383463255000038, 46.087418102000072 ], [ 33.315818111000056, 46.12442705400008 ], [ 33.269145159000061, 46.141664271000081 ], [ 33.188600267000027, 46.160127089000071 ], [ 33.124854049000078, 46.131100055000047 ], [ 32.903800127000068, 46.11117325400005 ], [ 32.846100279000041, 46.119982131000029 ], [ 32.811791138000046, 46.129300125000043 ], [ 32.774436180000066, 46.129991129000075 ], [ 32.744709258000057, 46.12610008200005 ], [ 32.634436101000063, 46.109154053000054 ], [ 32.585536078000075, 46.096100077000074 ], [ 32.53804505200003, 46.077564169000027 ], [ 32.500409134000051, 46.076245025000048 ], [ 32.409982312000068, 46.091664207000065 ], [ 32.337491254000042, 46.10803607500003 ], [ 32.26450013300007, 46.126927041000044 ], [ 32.243318225000053, 46.173045111000079 ], [ 32.027209124000024, 46.256382183000028 ], [ 31.918663310000056, 46.283827049000081 ], [ 31.889791174000038, 46.281591092000042 ], [ 31.831100249000031, 46.276927066000042 ], [ 31.810409186000072, 46.278736048000042 ], [ 31.79013621200005, 46.284164169000064 ], [ 31.765973197000051, 46.309844979000047 ], [ 31.815000122000072, 46.339573243000075 ], [ 31.851409265000029, 46.342264169000032 ], [ 31.882163306000052, 46.34051805100006 ], [ 31.91720921700005, 46.34027313200005 ], [ 31.942773184000032, 46.343036142000074 ], [ 31.97540913000006, 46.350127065000038 ], [ 32.056718117000059, 46.391682194000055 ], [ 32.007000187000074, 46.448036076000051 ], [ 31.966663284000049, 46.453045101000043 ], [ 31.816327145000059, 46.483018117000029 ], [ 31.80971818200004, 46.484991217000072 ], [ 31.77236322400006, 46.493591217000073 ], [ 31.706036218000065, 46.489227095000047 ], [ 31.65832709600005, 46.471373139000036 ], [ 31.602773183000068, 46.503609100000062 ], [ 31.527082250000035, 46.557491159000051 ], [ 31.514509227000076, 46.579091156000061 ], [ 31.540000271000054, 46.561791075000031 ], [ 31.556527205000066, 46.550127154000052 ], [ 31.587773264000077, 46.541945076000047 ], [ 31.620273255000029, 46.540273221000064 ], [ 31.672627126000066, 46.545127014000059 ], [ 31.695545093000078, 46.550682204000054 ], [ 31.743463260000055, 46.554153988000053 ], [ 31.763745119000077, 46.553327030000048 ], [ 31.83750016700003, 46.529709173000072 ], [ 31.852527076000058, 46.52267323600006 ], [ 31.896382199000072, 46.518591082000057 ], [ 32.092482189000066, 46.509718166000027 ], [ 32.181109248000041, 46.491382083000076 ], [ 32.276645175000056, 46.468591185000037 ], [ 32.319709214000056, 46.461936121000065 ], [ 32.348045076000062, 46.459154 ], [ 32.416100263000033, 46.497773116000076 ], [ 32.412627138000062, 46.525827011000047 ], [ 32.448718104000079, 46.552300079000076 ], [ 32.490818225000055, 46.575553993000028 ], [ 32.55790915700004, 46.596645041000045 ], [ 32.596100126000067, 46.60401809800004 ], [ 32.614709124000058, 46.613882089000072 ], [ 32.641618219000065, 46.642282157000068 ], [ 32.518591158000049, 46.608327067000062 ], [ 32.456091161000074, 46.584718095000028 ], [ 32.421373318000065, 46.568327116000034 ], [ 32.399991251000074, 46.56137315400008 ], [ 32.375263295000025, 46.557491159000051 ], [ 32.328327152000043, 46.556509135000056 ], [ 32.299018151000041, 46.56499111800008 ], [ 32.281100157000026, 46.577900087000046 ], [ 32.243118233000075, 46.601100190000068 ], [ 32.18470910800005, 46.58082704800006 ], [ 32.14186333400005, 46.560264228000051 ], [ 32.013600266000026, 46.634291185000052 ], [ 31.99304515700004, 46.653882208000027 ], [ 31.97082707800007, 46.69360019100003 ], [ 31.966418197000053, 46.726809124000056 ], [ 31.948745122000048, 46.740682180000078 ], [ 31.935963223000044, 46.764018069000031 ], [ 31.935127212000054, 46.794018074000064 ], [ 31.946663225000066, 46.820545121000066 ], [ 31.979718098000035, 46.845127064000053 ], [ 31.99304515700004, 46.868873163000046 ], [ 32.008045075000041, 46.904982235000034 ], [ 32.011236066000038, 46.926100104000056 ], [ 31.980827192000049, 47.007500119000042 ], [ 31.839991269000052, 47.179709170000081 ], [ 31.751518102000034, 47.252353952000078 ], [ 31.726654024000027, 47.231754083000055 ], [ 31.754854099000056, 47.20165399900003 ], [ 31.798882225000057, 47.191100177000067 ], [ 31.816518084000052, 47.17790907300008 ], [ 31.870273241000064, 47.079918086000077 ], [ 31.842354128000068, 47.041518073000077 ], [ 31.839373188000025, 47.012909129000036 ], [ 31.907563323000034, 46.923954002000073 ], [ 31.936382150000043, 46.921109184000045 ], [ 31.96502713700005, 46.925373226000033 ], [ 31.964163298000074, 46.889991201000043 ], [ 31.940963363000037, 46.85470908800005 ], [ 31.887909101000048, 46.832209042000045 ], [ 31.871663296000065, 46.817073169000025 ], [ 31.863818170000059, 46.795482225000057 ], [ 31.871936211000047, 46.76999118100008 ], [ 31.89569119500004, 46.75180010400004 ], [ 31.907082202000026, 46.733744981000029 ], [ 31.908191295000051, 46.653591188000064 ], [ 31.859718246000057, 46.628318073000059 ], [ 31.811936201000037, 46.615682187000061 ], [ 31.738882215000046, 46.627209148000077 ], [ 31.711936072000071, 46.638036052000075 ], [ 31.691936181000074, 46.64414511800004 ], [ 31.64707321700007, 46.653327158000081 ], [ 31.614927110000053, 46.64818217800007 ], [ 31.593400203000044, 46.63117311700006 ], [ 31.575618163000058, 46.607564146000072 ], [ 31.477736142000026, 46.631964201000073 ], [ 31.487845052000068, 46.656027137000081 ], [ 31.512500253000042, 46.669854092000037 ], [ 31.550545041000078, 46.718882191000034 ], [ 31.595691145000046, 46.797082162000038 ], [ 31.520827171000064, 46.739982123000061 ], [ 31.504718159000049, 46.716518159000032 ], [ 31.469991263000054, 46.66860015900005 ], [ 31.41971811600007, 46.62540905000003 ], [ 31.337009184000067, 46.601936033000072 ], [ 31.26805411600003, 46.608036047000041 ], [ 31.237354054000036, 46.612909118000061 ], [ 31.189054175000024, 46.624545044000058 ], [ 31.176936123000075, 46.625545005000049 ], [ 31.156100220000042, 46.62360006800003 ], [ 31.073327082000048, 46.614436133000027 ], [ 31.053054108000026, 46.611927094000066 ], [ 31.015273182000044, 46.603600176000043 ], [ 30.941100212000038, 46.582500076000031 ], [ 30.832773166000038, 46.548327057000051 ], [ 30.780000200000075, 46.481373252000026 ], [ 30.793536136000057, 46.445327045000056 ], [ 30.765136068000061, 46.379009092000047 ], [ 30.655691211000033, 46.253600062000032 ], [ 30.509163306000062, 46.096373160000041 ], [ 30.246245131000023, 45.873600110000041 ], [ 30.163609121000036, 45.829718165000031 ], [ 30.144436188000043, 45.820545010000046 ], [ 30.063327193000077, 45.799854114000027 ], [ 30.047354135000035, 45.812764257000026 ], [ 30.030136197000047, 45.831309050000073 ], [ 29.983600206000062, 45.843182183000067 ], [ 29.929991229000052, 45.817773114000033 ], [ 29.802145077000034, 45.735053956000058 ], [ 29.797427072000062, 45.714918110000042 ], [ 29.82569118400005, 45.686518042000046 ], [ 29.859927068000047, 45.675582173000066 ], [ 29.822773276000078, 45.648327074000065 ], [ 29.78013621100007, 45.62888223200008 ], [ 29.742627194000079, 45.62400916100006 ], [ 29.679718161000039, 45.696236021000061 ], [ 29.677218174000075, 45.73957314300003 ], [ 29.689573267000071, 45.76856413400003 ], [ 29.681382304000067, 45.803591102000041 ], [ 29.636100245000023, 45.820682138000052 ], [ 29.596109179000052, 45.683391089000054 ], [ 29.593045091000079, 45.557073126000034 ], [ 29.619163269000069, 45.487764174000063 ], [ 29.674163306000025, 45.465545090000035 ], [ 29.732982306000054, 45.471445112000026 ], [ 29.753463319000048, 45.449436078000076 ], [ 29.760409234000065, 45.322209181000062 ], [ 29.731936077000057, 45.226236054000026 ], [ 29.708609240000044, 45.21332708500006 ], [ 29.668191200000024, 45.210127042000067 ], [ 29.664327143000037, 45.211800070000038 ], [ 29.672218202000067, 45.272209117000045 ], [ 29.669027211000071, 45.294573208000031 ], [ 29.655000264000023, 45.327764203000072 ], [ 29.640973316000043, 45.346382087000052 ], [ 29.603336056000046, 45.37693613600004 ], [ 29.580691171000069, 45.389018146000069 ], [ 29.510827170000027, 45.410682181000027 ], [ 29.41138225900005, 45.435818167000036 ], [ 29.321527083000035, 45.439018043000033 ], [ 29.221663244000069, 45.425827106000042 ], [ 28.968054179000035, 45.321109140000033 ], [ 28.848609208000028, 45.301654072000076 ], [ 28.797600130000035, 45.23794507000008 ], [ 28.700809097000047, 45.22009111300008 ], [ 28.574718116000042, 45.242764161000025 ], [ 28.375827120000054, 45.300544979000051 ], [ 28.343327129000045, 45.315536013000042 ], [ 28.317845137000063, 45.337145062000047 ], [ 28.299163216000068, 45.362636106000025 ], [ 28.285382194000078, 45.395191083000043 ], [ 28.279227194000043, 45.428945007000038 ], [ 28.226982289000034, 45.449382098000058 ], [ 28.214836073000072, 45.448644994000063 ] ] ] }
        }
    ]
}