{
    "type": "FeatureCollection",
    "features": [
        {
            "type": "Feature",
            "properties": {
                "WCID": "URY",
                "COUNTRY": "Uruguay"
            },
            "geometry": { "type": "Polygon", "coordinates": [ [ [ -58.388890972999945, -33.422499915999936 ], [ -58.41590886399996, -33.4083358399999 ], [ -58.401390904999971, -33.360073008999962 ], [ -58.379999952999981, -33.345417921999967 ], [ -58.358199963999937, -33.323681970999928 ], [ -58.346945916999971, -33.271390964999966 ], [ -58.357508791999976, -33.220000006999953 ], [ -58.365282000999969, -33.181400001999975 ], [ -58.367081930999973, -33.157364055999949 ], [ -58.360554942999954, -33.130982015999962 ], [ -58.340417923999951, -33.117091022999944 ], [ -58.313608908999981, -33.113890979999951 ], [ -58.289726854999969, -33.115008958999965 ], [ -58.241254979999951, -33.11944600299995 ], [ -58.203199965999943, -33.120835889999967 ], [ -58.161535871999945, -33.109726850999948 ], [ -58.141946022999946, -33.09889994599996 ], [ -58.089099966999981, -33.055282030999933 ], [ -58.045564026999955, -32.934717908999971 ], [ -58.047573000999932, -32.901317868999968 ], [ -58.059035756999947, -32.871390953999935 ], [ -58.089308843999959, -32.844655028999966 ], [ -58.120835863999957, -32.819308991999947 ], [ -58.133472924999978, -32.793335820999971 ], [ -58.138617903999943, -32.765281926999933 ], [ -58.138472896999986, -32.740146107999976 ], [ -58.138064027999974, -32.708335946999966 ], [ -58.140554961999953, -32.672226874999978 ], [ -58.152081922999969, -32.59833587199995 ], [ -58.19323589399994, -32.492099942999971 ], [ -58.197645948999934, -32.47833585199993 ], [ -58.199246053999957, -32.45030894699994 ], [ -58.176946000999976, -32.404026927999951 ], [ -58.150281992999965, -32.369726838999952 ], [ -58.135281906999978, -32.354173043999936 ], [ -58.10159989899995, -32.32562696399998 ], [ -58.097554960999958, -32.294590955999979 ], [ -58.101581961999955, -32.254645989999972 ], [ -58.13999991299994, -32.221672923999961 ], [ -58.162781924999933, -32.196673059999966 ], [ -58.182290972999965, -32.156846110999936 ], [ -58.178335887999935, -32.12625501399998 ], [ -58.161235799999986, -32.101064042999951 ], [ -58.151117836999958, -32.066390958999932 ], [ -58.145972856999947, -31.993055005999963 ], [ -58.160426777999987, -31.951108943999941 ], [ -58.200145934999966, -31.894790936999982 ], [ -58.184590966999963, -31.860281970999949 ], [ -58.162226875999977, -31.841117922999956 ], [ -58.139026773999944, -31.83430896699997 ], [ -58.097917896999945, -31.82708192299998 ], [ -58.063608922999947, -31.81249992599993 ], [ -58.040208828999937, -31.789172921999977 ], [ -57.981535841999971, -31.619446086999972 ], [ -57.977781921999963, -31.58089989399997 ], [ -57.989863932999981, -31.548335864999956 ], [ -58.012917854999955, -31.523608914999954 ], [ -58.035690982999938, -31.507264035999981 ], [ -58.065281950999974, -31.49416396 ], [ -58.078890976999958, -31.475899959999936 ], [ -58.068055019999974, -31.449717911999983 ], [ -58.038754903999973, -31.433472944999949 ], [ -58.004445929999974, -31.417708931999982 ], [ -57.920835774999944, -31.270972987999983 ], [ -57.853617772999939, -31.065555003999975 ], [ -57.796946048999985, -30.883472908999977 ], [ -57.797781891999932, -30.805699911999966 ], [ -57.799326844999939, -30.791763991999971 ], [ -57.802917819999948, -30.765417993999961 ], [ -57.806399829999975, -30.748217992999969 ], [ -57.813890904999937, -30.71375496 ], [ -57.845835845999943, -30.642646077999984 ], [ -57.871535766999955, -30.621526866999943 ], [ -57.889863971999944, -30.598335817999953 ], [ -57.889454934999947, -30.534999977999973 ], [ -57.882781934999969, -30.515135872999963 ], [ -57.868617858999983, -30.499445955999931 ], [ -57.796954933999984, -30.448335959999952 ], [ -57.746117852999987, -30.417499943999928 ], [ -57.668890851999947, -30.354726864999975 ], [ -57.631390887999942, -30.298755029999938 ], [ -57.624999853999952, -30.278890924999928 ], [ -57.62944595099998, -30.237782048999975 ], [ -57.607999845999984, -30.184926940999958 ], [ -57.576808939999978, -30.197082040999931 ], [ -57.564308839999967, -30.215146048999941 ], [ -57.566599949999954, -30.247435821999943 ], [ -57.547363984999947, -30.266390992999959 ], [ -57.524863938999943, -30.274581956999953 ], [ -57.495417809999935, -30.27986406399998 ], [ -57.356390869999984, -30.272226976999946 ], [ -57.322226902999944, -30.266672959999937 ], [ -57.30375503199997, -30.275417967999942 ], [ -57.285281987999952, -30.293335961999958 ], [ -57.233890862999942, -30.293335961999958 ], [ -57.213890971999945, -30.292082028999971 ], [ -57.193617829999937, -30.282635959999936 ], [ -57.147917849999942, -30.238199970999972 ], [ -57.147090890999948, -30.20805495899998 ], [ -57.144172982999976, -30.184999862999973 ], [ -57.103890897999975, -30.135417887999949 ], [ -57.07097298399998, -30.108891008999933 ], [ -56.933617898999955, -30.097500001999947 ], [ -56.860555027999965, -30.096673043999942 ], [ -56.811390973999949, -30.105281928999943 ], [ -56.790281988999936, -30.115554956999972 ], [ -56.639172870999971, -30.228472939999961 ], [ -56.567781853999975, -30.299164066999936 ], [ -56.548055044999955, -30.323064057999943 ], [ -56.526946059999943, -30.345835844999954 ], [ -56.511117841999976, -30.358890994999967 ], [ -56.387508909999951, -30.459999880999931 ], [ -56.315281881999965, -30.508335801999976 ], [ -56.266945960999976, -30.535835820999978 ], [ -56.235835856999984, -30.558335866999982 ], [ -56.116390885999976, -30.675835899999981 ], [ -56.001672973999973, -30.795835919999945 ], [ -55.989726917999974, -30.812781948999941 ], [ -55.976808895999966, -30.851046007999969 ], [ -55.985008911999955, -30.890699953999956 ], [ -56.002226849999943, -30.921872921999977 ], [ -56.00667294699997, -30.963608932999932 ], [ -56.012217910999937, -31.066391014999965 ], [ -56.008917787999962, -31.079790995999929 ], [ -55.986672887999987, -31.081673068999976 ], [ -55.910563864999972, -31.082226944999945 ], [ -55.890554920999932, -31.079999872999963 ], [ -55.837917909999987, -31.072782048999954 ], [ -55.759446029999935, -31.016946000999951 ], [ -55.67195488599998, -30.949446030999979 ], [ -55.640417806999949, -30.870699894999973 ], [ -55.629026800999952, -30.850417867999965 ], [ -55.584172889999934, -30.846255079999935 ], [ -55.521117843999946, -30.888890971999956 ], [ -55.421672932999968, -30.963055056999963 ], [ -55.350699837999969, -31.04569995199995 ], [ -55.330208934999973, -31.078399935999983 ], [ -55.247363879999966, -31.231255003999934 ], [ -55.228754880999986, -31.249726874999965 ], [ -55.089581927999973, -31.325690889999976 ], [ -55.063126797999985, -31.325282020999964 ], [ -54.976954964999948, -31.318890987999964 ], [ -54.942508863999933, -31.35083592899997 ], [ -54.913608899999986, -31.374446073999934 ], [ -54.865835738999976, -31.409726845999955 ], [ -54.834035803999939, -31.426673042999937 ], [ -54.80709083499994, -31.435690964999935 ], [ -54.763054997999973, -31.441108858999939 ], [ -54.728335813999934, -31.438608872999964 ], [ -54.705008809999981, -31.440135887999929 ], [ -54.59409980199996, -31.460908925999945 ], [ -54.472226761999934, -31.579790967999941 ], [ -54.463399946999971, -31.672608978999961 ], [ -54.441672880999931, -31.681663948999983 ], [ -54.414999820999981, -31.693608998999935 ], [ -54.383199885999943, -31.715700007999942 ], [ -54.351108930999942, -31.750146109999946 ], [ -54.285835865999957, -31.804446089999942 ], [ -54.164455010999973, -31.887217886999963 ], [ -54.095835889999933, -31.884164024999961 ], [ -54.07132687, -31.875699978999933 ], [ -53.918545896999944, -31.942155059999948 ], [ -53.875417819999939, -31.974446006999983 ], [ -53.743054994999966, -32.096672930999944 ], [ -53.664726780999956, -32.206946087999938 ], [ -53.637226761999955, -32.271391020999943 ], [ -53.643617795999944, -32.30562690499994 ], [ -53.630763978999937, -32.357991000999959 ], [ -53.567508940999971, -32.431117909999955 ], [ -53.553335812999933, -32.446108942999956 ], [ -53.537226800999974, -32.460835946999964 ], [ -53.521117788999959, -32.474445978999938 ], [ -53.404172972999959, -32.568055073999972 ], [ -53.378199801999983, -32.574308978999966 ], [ -53.349726811999972, -32.579172997999933 ], [ -53.259999878999963, -32.600835858999972 ], [ -53.191672950999987, -32.634026854999945 ], [ -53.159172959999978, -32.66111783599996 ], [ -53.098299890999954, -32.723435944999949 ], [ -53.170799832999933, -32.802181913999959 ], [ -53.245563894999975, -32.862226850999946 ], [ -53.298617821999983, -32.946673016999966 ], [ -53.435563870999943, -33.040281944999947 ], [ -53.462226871999974, -33.059172909999972 ], [ -53.480417781999961, -33.07486400099998 ], [ -53.500281885999982, -33.099999986999933 ], [ -53.515835848999984, -33.129308987999934 ], [ -53.521046039999931, -33.141608927999982 ], [ -53.524581861999934, -33.157081921999975 ], [ -53.530281890999959, -33.199446071999944 ], [ -53.528617915999973, -33.221117985999967 ], [ -53.522226881999984, -33.259446081999954 ], [ -53.515699893999965, -33.290417884999954 ], [ -53.509172905999947, -33.321391028999983 ], [ -53.501108844999976, -33.408055046999948 ], [ -53.501399864999939, -33.428063990999931 ], [ -53.505008944999986, -33.460282014999962 ], [ -53.508335889999955, -33.48639097299997 ], [ -53.513890911999965, -33.524726947999966 ], [ -53.523055014999954, -33.57417296899996 ], [ -53.528890830999956, -33.611117882999963 ], [ -53.534446020999951, -33.656954990999964 ], [ -53.521317780999937, -33.681735920999984 ], [ -53.397635758999968, -33.741117848999977 ], [ -53.374299869999959, -33.740672937999932 ], [ -53.399173, -33.756954951999944 ], [ -53.416672904999984, -33.769726960999947 ], [ -53.439726826999959, -33.792226838999966 ], [ -53.460699856999952, -33.81653586699997 ], [ -53.482508898999981, -33.85444604199995 ], [ -53.490563907999956, -33.876108902999931 ], [ -53.499172960999942, -33.90430897799996 ], [ -53.512781985999936, -33.979726828999958 ], [ -53.53555494699998, -34.062364011999932 ], [ -53.568335899999965, -34.082500025999934 ], [ -53.598890953999955, -34.105282038999974 ], [ -53.69791777599994, -34.189446069999974 ], [ -53.718335756999977, -34.214173019999976 ], [ -53.751872924999986, -34.26139096299994 ], [ -53.776881841999966, -34.342226874999938 ], [ -53.841946029999974, -34.420563974999936 ], [ -53.904163891999985, -34.450835888999961 ], [ -53.982226902999969, -34.499026970999978 ], [ -54.09360881799995, -34.591946066999981 ], [ -54.113890844999958, -34.609455024999932 ], [ -54.139517842999965, -34.636735940999984 ], [ -54.140763896999943, -34.664655053999979 ], [ -54.171390867999946, -34.676390891999972 ], [ -54.235699846999978, -34.675281965999943 ], [ -54.252499862999969, -34.62833593199997 ], [ -54.249517917999981, -34.605699931999936 ], [ -54.243817887999967, -34.584026844999983 ], [ -54.312917794999976, -34.562854995999942 ], [ -54.290981851999959, -34.66069996899995 ], [ -54.278890955999941, -34.690699973999983 ], [ -54.336535818999948, -34.724591026999974 ], [ -54.531108793999977, -34.80608190099997 ], [ -54.54833578399996, -34.811108863999948 ], [ -54.58861787, -34.824717888999942 ], [ -54.68610879199997, -34.858890908999967 ], [ -54.724445939999953, -34.875554970999929 ], [ -54.830554967999944, -34.923617976999935 ], [ -54.896117878999974, -34.94360898399998 ], [ -54.954372944999932, -34.943817860999957 ], [ -55.053126851999934, -34.892917914999941 ], [ -55.091945959999975, -34.88528200199994 ], [ -55.130145980999941, -34.88625497299995 ], [ -55.170564020999961, -34.892499993999934 ], [ -55.223335812999949, -34.906535825999981 ], [ -55.248754939999969, -34.907917833999932 ], [ -55.283754917999943, -34.881526908999945 ], [ -55.304726774999949, -34.851390948999949 ], [ -55.333617854999943, -34.826955018999968 ], [ -55.356390982999983, -34.814172951999979 ], [ -55.373399875999951, -34.808446100999959 ], [ -55.433335847999956, -34.80389103899995 ], [ -55.600008819999971, -34.78167296099997 ], [ -55.692781903999958, -34.775073049999946 ], [ -55.787508808999974, -34.788890952999964 ], [ -55.811672997999949, -34.795835862999979 ], [ -55.910281897999937, -34.828335853999931 ], [ -55.930972960999952, -34.838335967999967 ], [ -55.965555017999975, -34.861390894999943 ], [ -56.005145931999948, -34.883063981999953 ], [ -56.027917885999955, -34.891254945999947 ], [ -56.034335741999939, -34.890826965999963 ], [ -56.158335773999966, -34.92722688899994 ], [ -56.317917822999959, -34.910346070999935 ], [ -56.425835831999962, -34.840554992999955 ], [ -56.403617921999967, -34.814726827999948 ], [ -56.366908873999932, -34.795435877999978 ], [ -56.411663877999956, -34.787508944999956 ], [ -56.578899945999979, -34.763890920999984 ], [ -56.82972689099995, -34.689446041999929 ], [ -56.895908888999941, -34.656699957999933 ], [ -57.111254901999985, -34.464173005999953 ], [ -57.174272900999938, -34.452972938999949 ], [ -57.185281859999975, -34.44840899299993 ], [ -57.433335902999943, -34.449717910999937 ], [ -57.553335755999967, -34.443335928999943 ], [ -57.661808814999972, -34.460146003999967 ], [ -57.836872909999954, -34.492781949999937 ], [ -57.877435788999946, -34.442782052999974 ], [ -57.897635839999964, -34.385563996999963 ], [ -57.910563919999959, -34.365972974999977 ], [ -57.964445978999947, -34.308335822999936 ], [ -58.079446025999971, -34.190700002999961 ], [ -58.105417855999974, -34.176945969999963 ], [ -58.210835878999944, -34.12306407899996 ], [ -58.221117791999973, -34.104726821999975 ], [ -58.251108912999939, -34.062499966999951 ], [ -58.300835893999931, -34.001672997999947 ], [ -58.315563903999987, -33.98667291199996 ], [ -58.335008913999957, -33.974726855999961 ], [ -58.361881965999942, -33.961599956999976 ], [ -58.403754936999974, -33.926464024999973 ], [ -58.415108894999946, -33.875564078999957 ], [ -58.423054939999986, -33.855564019999974 ], [ -58.429863894999983, -33.835000025999932 ], [ -58.438055025999972, -33.702508958999942 ], [ -58.438608901999942, -33.554455043999951 ], [ -58.430146029999946, -33.528754954999954 ], [ -58.41694604099996, -33.507635911999955 ], [ -58.384381843999961, -33.467991018999953 ], [ -58.38014596499994, -33.438608927999951 ], [ -58.388890972999945, -33.422499915999936 ] ] ] }
        }
    ]
}