{
    "type": "FeatureCollection",
    "features": [
        {
            "type": "Feature",
            "properties": {
                "WCID": "UZB",
                "COUNTRY": "Uzbekistan"
            },
            "geometry": { "type": "Polygon", "coordinates": [ [ [ 68.64267231000008, 39.858236084000055 ], [ 68.637209153000072, 39.83942709300004 ], [ 68.628582331000075, 39.771100166000053 ], [ 68.627618244000075, 39.65054509600003 ], [ 68.611782314000038, 39.630273128000056 ], [ 68.540263390000064, 39.554709097000057 ], [ 68.520272383000076, 39.547773240000026 ], [ 68.473309250000057, 39.537500044000069 ], [ 68.384718233000058, 39.535554101000059 ], [ 68.353318283000078, 39.536664200000075 ], [ 68.175263357000063, 39.553600171000028 ], [ 68.148882322000077, 39.556654034000076 ], [ 68.082491279000067, 39.567218082000068 ], [ 67.907763298000077, 39.60054503200007 ], [ 67.86303612200004, 39.611382162000041 ], [ 67.83803609000006, 39.61950020300003 ], [ 67.75915416600003, 39.630545037000047 ], [ 67.729709211000056, 39.629153976000055 ], [ 67.709718204000069, 39.625827031000028 ], [ 67.681927166000037, 39.615273209000065 ], [ 67.50443617500008, 39.528882106000026 ], [ 67.441954115000044, 39.483582110000043 ], [ 67.442472285000065, 39.462491063000073 ], [ 67.439972298000043, 39.437209063000068 ], [ 67.431509258000062, 39.367909164000025 ], [ 67.409145167000077, 39.296936069000026 ], [ 67.366000159000066, 39.288782154000046 ], [ 67.364700293000055, 39.271664128000054 ], [ 67.375882255000079, 39.216691081000079 ], [ 67.521854105000045, 39.167700198000034 ], [ 67.566663256000083, 39.171664167000074 ], [ 67.59554511500005, 39.173191182000039 ], [ 67.625954157000081, 39.168464124000025 ], [ 67.69686338200006, 39.128464173000054 ], [ 67.695263277000038, 39.015991102000044 ], [ 67.699982288000058, 39.00624496100005 ], [ 67.71734523300006, 38.995136089000027 ], [ 67.750827248000064, 38.990273244000036 ], [ 67.860818270000038, 38.977627132000066 ], [ 67.934709273000067, 38.996936019000032 ], [ 67.984418150000067, 39.00804505800005 ], [ 68.110536121000052, 38.998882129000037 ], [ 68.126363334000075, 38.980964135000079 ], [ 68.140127257000074, 38.95026424100007 ], [ 68.15387223700003, 38.931382160000055 ], [ 68.180263330000059, 38.904709100000048 ], [ 68.185118128000056, 38.898464247000049 ], [ 68.193645206000042, 38.851727090000054 ], [ 68.174282339000058, 38.820691082000053 ], [ 68.149709281000071, 38.806235987000036 ], [ 68.120045223000034, 38.797982159000071 ], [ 68.074154135000072, 38.664709060000064 ], [ 68.071236227000043, 38.543882081000049 ], [ 68.124909241000069, 38.427564231000076 ], [ 68.219845191000047, 38.330127121000032 ], [ 68.277482343000031, 38.303673164000031 ], [ 68.337063258000057, 38.267627125000047 ], [ 68.364291200000082, 38.237491165000051 ], [ 68.382972283000072, 38.194854100000043 ], [ 68.379982290000044, 38.16054495800006 ], [ 68.354982258000064, 38.085545030000048 ], [ 68.337818132000052, 38.046154108000053 ], [ 68.268463247000057, 37.95228215700007 ], [ 68.238391326000055, 37.942145083000071 ], [ 68.171100233000061, 37.934018157000025 ], [ 68.142554153000049, 37.916309040000044 ], [ 68.129972246000079, 37.884436015000063 ], [ 68.123027169000068, 37.858891159000052 ], [ 68.095409133000032, 37.802354048000041 ], [ 68.073045209000043, 37.765273179000076 ], [ 68.051927172000035, 37.738882086000046 ], [ 68.001791321000042, 37.68749112900008 ], [ 67.981227159000071, 37.673327054000026 ], [ 67.937191322000047, 37.636109057000056 ], [ 67.917209200000059, 37.617209038000055 ], [ 67.903045125000062, 37.599718018000033 ], [ 67.860954057000072, 37.543045121000034 ], [ 67.838318224000034, 37.505827124000064 ], [ 67.826382227000067, 37.482073145000072 ], [ 67.817491207000046, 37.446100196000032 ], [ 67.817491207000046, 37.416382158000033 ], [ 67.829572379000069, 37.390691122000078 ], [ 67.840818211000055, 37.352491101000055 ], [ 67.843736119000027, 37.321518125000068 ], [ 67.841372255000067, 37.281664187000047 ], [ 67.837072338000041, 37.259018128000037 ], [ 67.814009196000029, 37.218745095000031 ], [ 67.787418279000065, 37.190818102000037 ], [ 67.779872219000083, 37.18581812900004 ], [ 67.773182287000054, 37.205200107000053 ], [ 67.749563257000034, 37.22262709000006 ], [ 67.725818164000032, 37.228873116000045 ], [ 67.649427174000039, 37.246100107000075 ], [ 67.526382344000069, 37.268600152000033 ], [ 67.456372330000079, 37.250545030000069 ], [ 67.400691179000034, 37.21901801000007 ], [ 67.380809137000028, 37.212491189000048 ], [ 67.304945202000056, 37.203282160000072 ], [ 67.292391290000069, 37.194409077000046 ], [ 67.266791282000042, 37.18582701400004 ], [ 67.246091166000042, 37.184991171000036 ], [ 67.225818192000077, 37.197491103000061 ], [ 67.21623616800008, 37.226382182000066 ], [ 67.200272330000075, 37.246653983000044 ], [ 67.092082244000039, 37.343273187000079 ], [ 67.012909133000051, 37.379709152000032 ], [ 66.970263351000028, 37.382491106000032 ], [ 66.926927235000051, 37.378873141000042 ], [ 66.858036205000076, 37.365827044000071 ], [ 66.836382229000037, 37.363609025000073 ], [ 66.721100214000046, 37.355554016000042 ], [ 66.623454060000029, 37.360545104000039 ], [ 66.580272338000043, 37.368191076000073 ], [ 66.537736191000079, 37.366382094000073 ], [ 66.519145130000084, 37.390264148000028 ], [ 66.516936163000082, 37.531936081000026 ], [ 66.539836193000042, 37.780827142000078 ], [ 66.554282236000063, 37.818191151000065 ], [ 66.616091228000073, 37.884718150000026 ], [ 66.637763310000082, 37.904853996000043 ], [ 66.659982226000068, 37.927073247000067 ], [ 66.670882221000056, 37.964644961000033 ], [ 66.666091292000033, 37.981636085000048 ], [ 66.651372335000076, 37.996518154000057 ], [ 66.620254184000032, 38.015545074000045 ], [ 66.60026334500003, 38.024436094000066 ], [ 66.570263340000054, 38.035000142000058 ], [ 66.541363376000049, 38.040836126000045 ], [ 66.520536191000076, 38.043327060000024 ], [ 66.492200161000028, 38.042082179000033 ], [ 66.451436116000082, 38.037427038000033 ], [ 66.423872227000061, 38.043609027000059 ], [ 66.326100176000068, 38.081800163000025 ], [ 66.306363309000062, 38.095682103000058 ], [ 66.285954213000082, 38.122218036000049 ], [ 66.26560915400006, 38.147354022000059 ], [ 66.078327262000073, 38.233191081000029 ], [ 66.055818164000073, 38.241100077000056 ], [ 65.878245198000059, 38.282009129000073 ], [ 65.840272326000047, 38.27360912100005 ], [ 65.805054084000062, 38.257427019000033 ], [ 65.776927099000034, 38.234436129000073 ], [ 65.73915405200006, 38.225818024000034 ], [ 65.71638226500005, 38.225818024000034 ], [ 65.695527252000034, 38.228045096000073 ], [ 65.657763257000056, 38.236382072000026 ], [ 65.627763252000079, 38.243609116000073 ], [ 65.59720920400008, 38.253882144000045 ], [ 65.564418192000062, 38.268327014000079 ], [ 65.328182297000069, 38.389854049000064 ], [ 65.292209181000032, 38.410818027000062 ], [ 65.256654153000056, 38.434718018000069 ], [ 65.198863277000044, 38.476935988000037 ], [ 65.151654052000083, 38.511936134000052 ], [ 65.123872233000043, 38.533336138000038 ], [ 65.106645075000074, 38.548045037000065 ], [ 64.995263328000078, 38.621654073000059 ], [ 64.976382253000054, 38.63193598600003 ], [ 64.93525409800003, 38.648882183000069 ], [ 64.907627178000041, 38.656800064000038 ], [ 64.874982179000028, 38.666100120000067 ], [ 64.798036140000079, 38.689991059000079 ], [ 64.746645183000055, 38.708327143000076 ], [ 64.671518185000082, 38.739018152000028 ], [ 64.631654188000027, 38.761382076000075 ], [ 64.464709140000082, 38.873882136000077 ], [ 64.434836205000067, 38.896936058000051 ], [ 64.416382271000032, 38.913882087000047 ], [ 64.401927176000072, 38.929436050000049 ], [ 64.388600286000042, 38.945545062000065 ], [ 64.383027158000061, 38.953126996000037 ], [ 64.366927198000042, 38.971518065000055 ], [ 64.33811826200008, 38.990754030000062 ], [ 64.302900187000034, 38.985409058000073 ], [ 64.266936122000061, 38.972764119000033 ], [ 64.234418194000057, 38.959573183000032 ], [ 64.205672289000063, 38.95207322300007 ], [ 64.177900194000074, 38.953745078000054 ], [ 64.132472290000067, 38.975545067000041 ], [ 64.086382216000061, 39.000691112000027 ], [ 64.043872221000072, 39.029718145000061 ], [ 63.983327219000046, 39.06805395300006 ], [ 63.89305412200008, 39.113882176000061 ], [ 63.813882185000068, 39.153600160000053 ], [ 63.710409266000056, 39.207764186000077 ], [ 63.693882332000044, 39.224164218000055 ], [ 63.657209159000047, 39.263327152000045 ], [ 63.643609185000059, 39.279164255000069 ], [ 63.59582714000004, 39.329718028000059 ], [ 63.561382212000069, 39.364436039000054 ], [ 63.518609193000032, 39.398609058000034 ], [ 63.478600189000076, 39.423327123000035 ], [ 63.342491325000083, 39.498327052000036 ], [ 63.28081811900006, 39.52832705700007 ], [ 63.199154074000035, 39.566664205000052 ], [ 63.130273270000032, 39.59916419700005 ], [ 63.093318130000057, 39.617209093000042 ], [ 63.03860928000006, 39.644436029000076 ], [ 63.00000022200004, 39.666936075000081 ], [ 62.955273213000055, 39.697773097000038 ], [ 62.901654178000058, 39.735827105000055 ], [ 62.879718235000041, 39.748882087000027 ], [ 62.813473204000047, 39.787491145000047 ], [ 62.789436085000034, 39.799718162000033 ], [ 62.727209171000027, 39.829436032000046 ], [ 62.584436190000076, 39.909709184000064 ], [ 62.555409157000042, 39.930545087000041 ], [ 62.441209246000028, 40.032336093000026 ], [ 62.421800279000081, 40.082354094000038 ], [ 62.418327153000064, 40.107491087000028 ], [ 62.425136108000061, 40.128327157000058 ], [ 62.41081814100005, 40.220273115000055 ], [ 62.398882311000079, 40.278045047000035 ], [ 62.352636166000082, 40.424573120000048 ], [ 62.336109232000069, 40.439436079000075 ], [ 62.259227231000068, 40.473391168000035 ], [ 62.216663256000061, 40.480264161000036 ], [ 62.192491188000076, 40.493609157000037 ], [ 62.185527168000078, 40.504209080000066 ], [ 62.141109284000038, 40.564436072000035 ], [ 62.112500172000068, 40.606654042000059 ], [ 62.044718235000062, 40.719154102000061 ], [ 61.999300222000045, 40.839973202000067 ], [ 61.986382200000037, 40.87762705800003 ], [ 61.985336139000083, 40.921244974000047 ], [ 61.987500179000051, 40.94582708400003 ], [ 61.984154123000053, 40.971235985000078 ], [ 61.97054509700007, 41.008609048000039 ], [ 61.947909265000078, 41.044300197000041 ], [ 61.893327149000072, 41.111664212000051 ], [ 61.874163269000064, 41.12554497900004 ], [ 61.737773275000052, 41.202773153000066 ], [ 61.632354079000038, 41.259300205000045 ], [ 61.611382221000042, 41.267491169000039 ], [ 61.446382278000044, 41.302354019000063 ], [ 61.414845199000069, 41.298809144000074 ], [ 61.394854193000072, 41.267909090000046 ], [ 61.379709267000067, 41.214018147000047 ], [ 61.36193611200008, 41.192909162000035 ], [ 61.329300166000053, 41.173045057000024 ], [ 61.289991219000058, 41.162900104000073 ], [ 61.245273263000058, 41.167354080000052 ], [ 61.161518268000066, 41.206100098000036 ], [ 61.138954185000046, 41.232209056000045 ], [ 61.085827168000037, 41.237209029000041 ], [ 61.022491160000072, 41.230273172000068 ], [ 61.004200171000036, 41.209873128000027 ], [ 60.98180020500007, 41.234436128000027 ], [ 60.962773285000083, 41.245827134000081 ], [ 60.939991272000043, 41.250973120000026 ], [ 60.811936243000048, 41.25777319000008 ], [ 60.704991205000056, 41.258045099000071 ], [ 60.679991173000076, 41.252773217000026 ], [ 60.656382202000032, 41.245827134000081 ], [ 60.593882205000057, 41.231654006000042 ], [ 60.51811818200008, 41.217627059000051 ], [ 60.479991251000058, 41.221100184000079 ], [ 60.453745165000043, 41.229018065000048 ], [ 60.432491174000063, 41.242218054000034 ], [ 60.408882202000029, 41.263053957000068 ], [ 60.374436100000082, 41.287773195000057 ], [ 60.344300141000076, 41.305409055000041 ], [ 60.325827097000058, 41.314436029000035 ], [ 60.264573322000047, 41.33874505700004 ], [ 60.222763383000029, 41.349164266000059 ], [ 60.194154103000074, 41.359436121000044 ], [ 60.159718227000042, 41.372773237000047 ], [ 60.140273218000061, 41.38110015500007 ], [ 60.092145168000059, 41.410753988000067 ], [ 60.077773221000029, 41.44547317200005 ], [ 60.097354185000029, 41.530754008000031 ], [ 60.121373199000061, 41.557627060000073 ], [ 60.160691198000052, 41.573609170000054 ], [ 60.18394511300005, 41.590544973000078 ], [ 60.160682314000042, 41.631800198000064 ], [ 60.136109256000054, 41.659718138000073 ], [ 60.075827111000081, 41.730545052000025 ], [ 60.071318150000081, 41.759164223000028 ], [ 60.094436109000071, 41.787354072000028 ], [ 60.116800201000046, 41.802773253000055 ], [ 60.143327248000048, 41.806245038000043 ], [ 60.193318260000069, 41.795000044000062 ], [ 60.225682297000048, 41.780691129000047 ], [ 60.259300266000082, 41.77409121900007 ], [ 60.274154172000067, 41.791036074000033 ], [ 60.253045187000055, 41.824227070000063 ], [ 60.180409290000057, 41.860545018000039 ], [ 60.152763259000039, 41.883873196000025 ], [ 60.14915417900005, 41.891518162000068 ], [ 60.137218181000037, 41.911100132000058 ], [ 60.028045066000061, 42.032491213000071 ], [ 60.026654173000054, 42.163609157000053 ], [ 60.014445093000063, 42.217491216000042 ], [ 59.914227202000063, 42.298464256000045 ], [ 59.85750015800005, 42.31610011600003 ], [ 59.735827110000059, 42.322491150000076 ], [ 59.622218123000039, 42.308882124000036 ], [ 59.558891168000059, 42.299436054000068 ], [ 59.529991204000055, 42.293609123000067 ], [ 59.487209132000032, 42.291664186000048 ], [ 59.449018164000051, 42.293882205000045 ], [ 59.425554199000032, 42.299718021000047 ], [ 59.279300214000045, 42.351109146000056 ], [ 59.265827143000081, 42.367491073000053 ], [ 59.25902724000008, 42.394853964000049 ], [ 59.259718244000055, 42.42208207300007 ], [ 59.259991159000037, 42.446800138000071 ], [ 59.239436218000037, 42.476653963000047 ], [ 59.216100161000043, 42.497354079000047 ], [ 59.143391174000044, 42.544436067000049 ], [ 59.093318187000079, 42.531382091000069 ], [ 59.06805412500006, 42.525553986000034 ], [ 59.047218223000073, 42.52388213200004 ], [ 59.023882334000064, 42.525273193000032 ], [ 58.978045226000063, 42.532354057000077 ], [ 58.951663353000072, 42.540836040000045 ], [ 58.850273337000033, 42.604164168000068 ], [ 58.804573189000052, 42.637627073000033 ], [ 58.775754194000058, 42.662909072000048 ], [ 58.730545226000061, 42.70388216200007 ], [ 58.61353620400007, 42.796173119000059 ], [ 58.59651825900005, 42.780827027000043 ], [ 58.591663293000067, 42.759718042000031 ], [ 58.586236178000036, 42.716382094000039 ], [ 58.582500196000069, 42.695545018000075 ], [ 58.57332720900007, 42.673327107000034 ], [ 58.556518140000037, 42.660964135000029 ], [ 58.521663337000064, 42.657773145000078 ], [ 58.461109283000042, 42.659153980000042 ], [ 58.40575418800006, 42.663318109000045 ], [ 58.367209168000045, 42.674436033000063 ], [ 58.333600251000064, 42.68860010800006 ], [ 58.302082283000061, 42.696518157000071 ], [ 58.266663378000032, 42.694018171000039 ], [ 58.152973255000063, 42.642418169000052 ], [ 58.151791239000033, 42.611173116000032 ], [ 58.199436156000047, 42.588327065000044 ], [ 58.229154194000046, 42.578609087000075 ], [ 58.254718160000039, 42.572773103000031 ], [ 58.29319126300004, 42.561100129000067 ], [ 58.312909188000049, 42.550136097000063 ], [ 58.342763348000062, 42.521382145000075 ], [ 58.506763330000069, 42.30252713200008 ], [ 58.441654048000032, 42.294718049000039 ], [ 58.408809225000027, 42.306345089000047 ], [ 58.416236094000055, 42.358609106000074 ], [ 58.404363295000053, 42.399018093000052 ], [ 58.371245222000027, 42.425136104000046 ], [ 58.325000251000063, 42.446936093000033 ], [ 58.283336157000065, 42.462773196000057 ], [ 58.251391215000069, 42.471373196000059 ], [ 58.101663267000049, 42.503882073000057 ], [ 58.076382273000036, 42.507500205000042 ], [ 58.053609145000053, 42.508045029000073 ], [ 58.021500253000056, 42.501345038000068 ], [ 57.943600186000083, 42.445545032000041 ], [ 57.948045109000077, 42.399164106000057 ], [ 57.96165413500006, 42.370473187000073 ], [ 57.954163228000027, 42.342218126000034 ], [ 57.908327126000074, 42.265273093000076 ], [ 57.872763381000027, 42.210818047000032 ], [ 57.838600252000049, 42.187764126000047 ], [ 57.664436206000062, 42.153600159000064 ], [ 57.620127119000074, 42.154154035000033 ], [ 57.579991214000074, 42.163045055000055 ], [ 57.522218108000061, 42.170273105000035 ], [ 57.49777329300008, 42.173327135000079 ], [ 57.473873302000072, 42.175273246000074 ], [ 57.444991275000064, 42.173882185000025 ], [ 57.417500141000062, 42.171109116000025 ], [ 57.378191194000067, 42.159291136000036 ], [ 57.352218191000077, 42.149718164000035 ], [ 57.323609247000036, 42.138600072000031 ], [ 57.287491290000048, 42.123045104000028 ], [ 57.264163280000048, 42.109718046000069 ], [ 57.24582719700004, 42.095273177000081 ], [ 57.211109186000044, 42.06360902800003 ], [ 57.190336147000039, 42.032909135000068 ], [ 57.167909192000081, 41.990273243000047 ], [ 57.142491238000048, 41.961109081000075 ], [ 57.122073257000068, 41.943327041000032 ], [ 57.097218232000046, 41.92762706600007 ], [ 57.067354182000031, 41.918464137000058 ], [ 57.029163381000046, 41.910264121000068 ], [ 57.004436096000063, 41.904018094000037 ], [ 56.982627222000076, 41.88901800800005 ], [ 56.969709200000068, 41.860135981000042 ], [ 56.977482242000065, 41.681936049000058 ], [ 57.041100217000064, 41.471791174000032 ], [ 57.057073274000061, 41.442764141000055 ], [ 57.089436138000053, 41.406800076000025 ], [ 57.115963353000041, 41.390827019000028 ], [ 57.133882185000061, 41.345827095000061 ], [ 57.057073274000061, 41.267909090000046 ], [ 57.037909226000068, 41.259445045000064 ], [ 56.956100175000074, 41.269991155000071 ], [ 56.92208222000005, 41.276936065000029 ], [ 56.885273260000076, 41.288327071000026 ], [ 56.835545105000051, 41.29860915200004 ], [ 56.798336160000076, 41.298882234000075 ], [ 56.748054129000082, 41.292500086000075 ], [ 56.697209169000075, 41.287218146000043 ], [ 56.666936081000074, 41.288045104000048 ], [ 56.644154068000034, 41.289164256000049 ], [ 56.54277327300008, 41.296109166000065 ], [ 56.533754177000048, 41.298291143000029 ], [ 56.52360922500003, 41.296945009000069 ], [ 56.360273256000028, 41.306382194000037 ], [ 56.215000289000045, 41.315273214000058 ], [ 56.015000200000031, 41.325553953000053 ], [ 56.00096336200005, 41.328454092000072 ], [ 56.00027319600008, 41.353882104000036 ], [ 55.999436179000043, 41.576382071000069 ], [ 55.99916326400006, 41.896100046000072 ], [ 55.99916326400006, 42.13276425600003 ], [ 56.000000281000041, 42.216382122000027 ], [ 55.999718146000077, 42.481100060000074 ], [ 55.998882303000073, 42.760273092000034 ], [ 55.998600168000053, 43.011664139000061 ], [ 55.999436179000043, 43.08138212700004 ], [ 55.99916326400006, 43.346936076000077 ], [ 55.99832725300007, 43.626654099000064 ], [ 55.998045119000039, 43.878873110000029 ], [ 55.998882303000073, 43.948600151000051 ], [ 55.998600168000053, 44.509436144000063 ], [ 55.997491242000081, 44.734164189000069 ], [ 55.998754060000067, 45.002054006000037 ], [ 56.257218259000069, 45.063609027000041 ], [ 56.387500192000061, 45.093882114000053 ], [ 56.648609218000047, 45.153882124000063 ], [ 56.71415419200008, 45.168600076000075 ], [ 56.750191179000069, 45.172964198000045 ], [ 56.757500198000059, 45.17832710700003 ], [ 56.779436142000066, 45.183600162000062 ], [ 57.063609147000079, 45.247773187000064 ], [ 57.392218142000047, 45.320545038000034 ], [ 57.589709192000043, 45.363609077000035 ], [ 57.779636078000067, 45.404473202000077 ], [ 58.00804511900003, 45.453609092000079 ], [ 58.273045191000051, 45.509436088000029 ], [ 58.56054514200008, 45.56860008700005 ], [ 58.56550924000004, 45.569954100000075 ], [ 58.570827222000048, 45.570591124000032 ], [ 59.652973338000038, 45.000000105000026 ], [ 61.149163343000055, 44.211100070000043 ], [ 61.16610015200007, 44.19832705500005 ], [ 61.311663300000077, 44.079718096000079 ], [ 61.614436084000033, 43.82999119200008 ], [ 61.814709256000071, 43.663044970000044 ], [ 61.956936239000072, 43.543609052000079 ], [ 62.025109275000034, 43.484791058000042 ], [ 62.044718235000062, 43.488327048000031 ], [ 62.382491164000044, 43.532773096000028 ], [ 62.488045142000033, 43.546391174000064 ], [ 62.615000297000051, 43.562491133000037 ], [ 62.826663302000043, 43.589153967000072 ], [ 63.211382265000054, 43.636382136000066 ], [ 63.422491226000034, 43.61943610700007 ], [ 63.537500158000057, 43.609991211000079 ], [ 63.767209233000074, 43.590273119000074 ], [ 63.997218212000064, 43.570544969000025 ], [ 64.021382233000054, 43.569164134000061 ], [ 64.458036139000058, 43.548045091000063 ], [ 64.585536119000039, 43.600273233000053 ], [ 64.843318199000066, 43.703327056000035 ], [ 64.931363386000044, 43.737773158000039 ], [ 65.026927141000044, 43.652491148000081 ], [ 65.216091274000064, 43.480818036000073 ], [ 65.268327127000077, 43.43249116700008 ], [ 65.478591192000067, 43.339427064000063 ], [ 65.51901811700003, 43.321109085000046 ], [ 65.638045165000051, 43.153600102000041 ], [ 65.748027135000029, 42.989436002000048 ], [ 65.821927190000054, 42.877209191000077 ], [ 66.123872345000052, 42.996936129000062 ], [ 66.110536234000051, 42.800273211000047 ], [ 66.101091170000075, 42.67166413800004 ], [ 66.095827167000039, 42.604436077000059 ], [ 66.070782208000082, 42.423864234000064 ], [ 66.036654116000079, 42.423327121000057 ], [ 66.034427212000082, 42.336382142000048 ], [ 66.033054088000029, 42.263882200000069 ], [ 66.029163377000032, 42.046109123000065 ], [ 66.029163377000032, 42.003053969000064 ], [ 66.526382233000049, 42.003053969000064 ], [ 66.539154074000066, 41.89666414800007 ], [ 66.545536223000056, 41.836382171000025 ], [ 66.557618233000028, 41.739018151000039 ], [ 66.562482252000052, 41.716936027000031 ], [ 66.636109225000041, 41.460545007000064 ], [ 66.719982236000078, 41.17500005200003 ], [ 66.759491175000051, 41.164835989000039 ], [ 66.777772274000029, 41.161936018000063 ], [ 66.875809193000066, 41.14999113500005 ], [ 67.071945225000036, 41.14330019700003 ], [ 67.159145181000042, 41.145000047000053 ], [ 67.350536218000059, 41.149164177000046 ], [ 67.439418254000032, 41.154164149000053 ], [ 67.489700286000073, 41.158882155000072 ], [ 67.536100155000042, 41.167500093000058 ], [ 67.639982278000048, 41.182209159000081 ], [ 67.755336209000063, 41.19214506700007 ], [ 67.935527179000076, 41.183327138000038 ], [ 67.98942717500006, 41.130545120000079 ], [ 68.107345131000045, 41.064853965000054 ], [ 68.140272264000032, 41.051653976000068 ], [ 68.15416325700005, 41.036109066000051 ], [ 68.144845095000051, 40.983045081000057 ], [ 68.116091311000048, 40.907491109000034 ], [ 68.103318129000058, 40.87943604000003 ], [ 68.081100218000074, 40.857218130000035 ], [ 68.05386339100005, 40.840827150000052 ], [ 68.048036125000067, 40.810273101000064 ], [ 68.212772374000053, 40.703882107000027 ], [ 68.233318263000058, 40.691373122000073 ], [ 68.256945171000041, 40.680545044000041 ], [ 68.265472249000084, 40.677800139000055 ], [ 68.310545095000066, 40.656245069000079 ], [ 68.455263348000074, 40.597773247000077 ], [ 68.479709169000046, 40.594436077000069 ], [ 68.608036107000032, 40.599718017000043 ], [ 68.640745143000061, 40.614227091000032 ], [ 68.651927104000038, 40.671664250000049 ], [ 68.628582331000075, 40.718045009000036 ], [ 68.58915419300007, 40.738882085000057 ], [ 68.568054093000057, 40.861382091000053 ], [ 68.59360029000004, 40.919991208000056 ], [ 68.616654212000071, 40.936936064000065 ], [ 68.646100173000036, 40.94665404300008 ], [ 68.648745166000083, 40.94680005500004 ], [ 68.664427204000049, 40.951935983000055 ], [ 68.721718183000064, 40.97783606400003 ], [ 68.738872251000032, 41.00124504300004 ], [ 68.750691238000059, 41.039436011000078 ], [ 68.769018269000071, 41.070273201000077 ], [ 68.785818117000076, 41.085682156000075 ], [ 68.875263250000046, 41.118600069000024 ], [ 69.031663362000074, 41.199718117000032 ], [ 69.064563337000038, 41.222218163000036 ], [ 69.073045153000066, 41.271936092000033 ], [ 69.070745159000069, 41.357564106000041 ], [ 69.05962723500005, 41.376791186000048 ], [ 69.226654090000068, 41.45971804900006 ], [ 69.254991293000046, 41.470827088000078 ], [ 69.353872270000068, 41.484436114000061 ], [ 69.489972250000051, 41.575554107000073 ], [ 69.637209264000035, 41.670127121000064 ], [ 69.758609230000047, 41.699153987000045 ], [ 69.78637227300004, 41.703327001000048 ], [ 69.84585411300003, 41.706673224000042 ], [ 69.928382332000069, 41.711900179000054 ], [ 70.058027241000048, 41.780264155000054 ], [ 70.139991190000046, 41.828318109000065 ], [ 70.156645193000031, 41.844418069000028 ], [ 70.18275415100004, 41.876082217000032 ], [ 70.244136169000058, 41.955236049000064 ], [ 70.337772254000072, 42.042882091000081 ], [ 70.363172271000053, 42.057873124000025 ], [ 70.387900226000056, 42.069409138000026 ], [ 70.462209151000081, 42.096491067000045 ], [ 70.484836098000073, 42.100518069000032 ], [ 70.505554152000059, 42.091073172000051 ], [ 70.531100181000056, 42.067391111000063 ], [ 70.53831817300005, 42.040591149000079 ], [ 70.628209223000056, 42.024264207000044 ], [ 70.645536126000081, 42.048573235000049 ], [ 70.654436198000042, 42.073854061000077 ], [ 70.665536185000065, 42.096627022000064 ], [ 70.75068224000006, 42.198845002000041 ], [ 70.792763250000064, 42.20399115500004 ], [ 70.840891300000067, 42.194953954000027 ], [ 70.884145105000073, 42.205100081000069 ], [ 70.907763297000031, 42.217736135000052 ], [ 70.966936181000051, 42.250800061000064 ], [ 70.97080929100008, 42.254673171000036 ], [ 70.980536154000049, 42.262045055000044 ], [ 71.033182217000046, 42.29899114300008 ], [ 71.064500193000072, 42.302600055000028 ], [ 71.122545208000076, 42.277600191000033 ], [ 71.172482240000079, 42.249691135000035 ], [ 71.231654118000051, 42.218291185000055 ], [ 71.263882201000058, 42.205653957000038 ], [ 71.275054104000048, 42.204191147000074 ], [ 71.275745108000081, 42.198153997000077 ], [ 71.263736188000053, 42.174545026000033 ], [ 71.222491189000039, 42.141909080000062 ], [ 70.980954076000046, 42.042609176000042 ], [ 70.945118254000079, 42.039545087000079 ], [ 70.912345180000045, 42.045653986000048 ], [ 70.877209248000042, 42.041773165000052 ], [ 70.859427208000056, 42.027044987000068 ], [ 70.851509159000045, 41.970582141000079 ], [ 70.84669124100003, 41.931173114000046 ], [ 70.785263290000046, 41.913573129000042 ], [ 70.751791166000032, 41.912318023000068 ], [ 70.700200216000042, 41.910100171000067 ], [ 70.530818214000078, 41.80010009700004 ], [ 70.516663358000073, 41.785518100000047 ], [ 70.502354109000066, 41.750664135000079 ], [ 70.491645221000056, 41.732045078000056 ], [ 70.474572290000083, 41.716491115000053 ], [ 70.30859132900008, 41.633300055000063 ], [ 70.28526331900008, 41.62496425300003 ], [ 70.25192714800005, 41.614964139000051 ], [ 70.204709206000075, 41.598718167000072 ], [ 70.184291225000038, 41.582609155000057 ], [ 70.180954221000036, 41.541209091000042 ], [ 70.206309143000055, 41.519118082000034 ], [ 70.266391296000052, 41.514682211000036 ], [ 70.292763278000052, 41.515236087000062 ], [ 70.323318165000046, 41.510791164000068 ], [ 70.347763315000066, 41.505518109000036 ], [ 70.369982232000041, 41.499264203000052 ], [ 70.41373610200003, 41.477727071000061 ], [ 70.434982215000048, 41.459254027000043 ], [ 70.474154201000033, 41.412173212000027 ], [ 70.488872320000041, 41.410782151000035 ], [ 70.531245188000071, 41.419118121000054 ], [ 70.601100304000056, 41.443982199000061 ], [ 70.634154172000081, 41.459118072000081 ], [ 70.669700315000057, 41.475854051000056 ], [ 70.711018236000029, 41.470264159000067 ], [ 70.771663317000048, 41.394818146000034 ], [ 70.793445201000054, 41.35495398200004 ], [ 70.792627128000049, 41.330927089000056 ], [ 70.813309138000079, 41.250500045000081 ], [ 70.988309196000046, 41.20356423700008 ], [ 71.156936157000075, 41.161054074000049 ], [ 71.208118237000065, 41.186682078000047 ], [ 71.24547235600005, 41.194600127000058 ], [ 71.397218164000037, 41.125500052000064 ], [ 71.423591319000082, 41.120845078000059 ], [ 71.440391168000076, 41.143144964000044 ], [ 71.442200150000076, 41.195782143000031 ], [ 71.442200150000076, 41.230227071000058 ], [ 71.439145114000041, 41.257454007000035 ], [ 71.434418224000069, 41.332591064000042 ], [ 71.447827257000029, 41.350364219000028 ], [ 71.502072253000051, 41.318145021000078 ], [ 71.545682289000069, 41.302373129000046 ], [ 71.575954203000038, 41.301754042000027 ], [ 71.598454081000057, 41.315782163000051 ], [ 71.618045103000043, 41.333564203000037 ], [ 71.651518234000037, 41.39730908000007 ], [ 71.659772229000055, 41.428764183000055 ], [ 71.650054083000043, 41.462864112000034 ], [ 71.625954100000058, 41.484245006000037 ], [ 71.61941822700004, 41.504118163000044 ], [ 71.645400283000072, 41.554873102000045 ], [ 71.688309257000071, 41.556264162000048 ], [ 71.86678227200008, 41.358000133000075 ], [ 71.888318231000028, 41.331053991000033 ], [ 71.894436182000049, 41.302445046000059 ], [ 71.896236112000054, 41.274809073000029 ], [ 71.88985413100005, 41.246064174000026 ], [ 71.888327116000085, 41.200636103000079 ], [ 71.909009294000043, 41.18945397400006 ], [ 72.111436112000035, 41.196473147000063 ], [ 72.150191183000061, 41.203973106000035 ], [ 72.181091237000032, 41.192718054000068 ], [ 72.215472295000041, 41.052336096000033 ], [ 72.195482294000044, 41.006591188000073 ], [ 72.31915409000004, 41.032153981000079 ], [ 72.395263280000052, 41.040218043000039 ], [ 72.503327135000063, 41.016745026000081 ], [ 72.579709239000067, 40.953827108000041 ], [ 72.60580914500008, 40.927854104000062 ], [ 72.621300243000064, 40.894800069000041 ], [ 72.659991276000028, 40.879109146000076 ], [ 72.702209246000052, 40.870491209000079 ], [ 72.725536250000062, 40.86910014800003 ], [ 72.89942721400007, 40.867718140000079 ], [ 73.049145104000047, 40.868273189000035 ], [ 73.152482236000083, 40.84716420400008 ], [ 73.167545186000041, 40.829109082000059 ], [ 73.147218233000046, 40.799664127000028 ], [ 73.10414514100006, 40.775073131000056 ], [ 72.943591294000043, 40.712718142000028 ], [ 72.878036094000038, 40.693264247000059 ], [ 72.851927136000029, 40.688827035000031 ], [ 72.805882324000038, 40.675073170000076 ], [ 72.710536164000075, 40.584936027000026 ], [ 72.673591249000083, 40.535627135000027 ], [ 72.653882209000074, 40.519373116000054 ], [ 72.629154086000028, 40.513409057000047 ], [ 72.591172330000063, 40.521454007000045 ], [ 72.404609270000037, 40.616436058000033 ], [ 72.373645178000061, 40.602782105000074 ], [ 72.37997234200003, 40.526191124000036 ], [ 72.399718262000079, 40.507164203000059 ], [ 72.434072330000049, 40.488053967000042 ], [ 72.453045103000079, 40.458682102000068 ], [ 72.446363385000041, 40.433818024000061 ], [ 72.432754192000061, 40.404644978000078 ], [ 72.420536227000071, 40.387854014000027 ], [ 72.393872387000044, 40.392709148000051 ], [ 72.345263384000077, 40.40937320900008 ], [ 72.283109224000043, 40.447227058000067 ], [ 72.258045155000048, 40.465491057000065 ], [ 72.227054073000033, 40.464545075000046 ], [ 72.206936165000059, 40.464945060000048 ], [ 72.179563383000072, 40.462027152000076 ], [ 72.112072299000033, 40.432300061000035 ], [ 72.012772227000085, 40.334373113000026 ], [ 72.043872273000034, 40.266327146000037 ], [ 71.903591232000053, 40.250491217000047 ], [ 71.807691195000075, 40.193745061000072 ], [ 71.782763248000037, 40.174382195000078 ], [ 71.714227107000056, 40.147918012000048 ], [ 71.524154209000073, 40.215482186000031 ], [ 71.505554095000036, 40.223818157000039 ], [ 71.484700255000064, 40.238609031000067 ], [ 71.47109123000007, 40.268764101000045 ], [ 71.389982235000048, 40.30188217400007 ], [ 71.29914520300008, 40.309936009000069 ], [ 71.246645152000042, 40.287164222000058 ], [ 71.13916333700007, 40.27743601800006 ], [ 71.09414514000008, 40.277991068000063 ], [ 71.067900228000042, 40.277573146000066 ], [ 70.99567236200005, 40.267645117000029 ], [ 70.982036179000033, 40.244844999000065 ], [ 70.957763361000048, 40.244945079000047 ], [ 70.860672256000043, 40.241191160000028 ], [ 70.822491178000064, 40.228273138000077 ], [ 70.793045217000042, 40.219100151000077 ], [ 70.748882310000056, 40.209100038000031 ], [ 70.708454212000049, 40.203964110000072 ], [ 70.644991302000051, 40.205909047000034 ], [ 70.623591297000075, 40.211882159000027 ], [ 70.602909287000045, 40.233127098000068 ], [ 70.589427163000039, 40.25520905500008 ], [ 70.460963265000032, 40.350354050000078 ], [ 70.37553624800006, 40.376400143000069 ], [ 70.343091242000071, 40.445809175000079 ], [ 70.369982232000041, 40.471327041000052 ], [ 70.415263284000048, 40.491054018000057 ], [ 70.534991228000081, 40.559382119000077 ], [ 70.734009293000042, 40.675082223000061 ], [ 70.777482202000044, 40.706327108000039 ], [ 70.796800310000037, 40.725591069000075 ], [ 70.784154197000078, 40.749182103000066 ], [ 70.759718267000039, 40.761482211000043 ], [ 70.712491272000079, 40.770364178000079 ], [ 70.667209213000035, 40.827445106000027 ], [ 70.658036226000036, 40.870227011000054 ], [ 70.548600254000064, 40.977436079000029 ], [ 70.475118120000047, 41.034464202000038 ], [ 70.465145164000035, 41.038745007000045 ], [ 70.460818258000074, 41.043282131000069 ], [ 70.439009216000045, 41.049254070000075 ], [ 70.417627149000054, 41.047727055000053 ], [ 70.391163301000063, 41.036618015000045 ], [ 70.375736241000084, 41.009182202000034 ], [ 70.374418270000035, 40.961818079000068 ], [ 70.360818129000052, 40.934945027000026 ], [ 70.323472224000056, 40.899244992000035 ], [ 70.252900287000045, 40.858154053000078 ], [ 70.050263251000047, 40.769982131000063 ], [ 70.000000163000038, 40.754109153000059 ], [ 69.972627214000056, 40.746100077000051 ], [ 69.939972325000042, 40.74027314600005 ], [ 69.900272279000035, 40.73388211200006 ], [ 69.847209299000042, 40.722491106000064 ], [ 69.818109176000064, 40.71249116000007 ], [ 69.785954183000058, 40.679718086000037 ], [ 69.759636181000076, 40.651936100000057 ], [ 69.726782305000029, 40.638809034000076 ], [ 69.689700263000077, 40.642636043000039 ], [ 69.669009199000072, 40.65527310300007 ], [ 69.588327178000043, 40.724991092000039 ], [ 69.571518277000052, 40.751245057000062 ], [ 69.537200251000058, 40.780818088000046 ], [ 69.451509205000036, 40.811100060000058 ], [ 69.400609259000078, 40.79985406000003 ], [ 69.365263277000054, 40.779436080000039 ], [ 69.348872297000071, 40.763954034000051 ], [ 69.269991212000036, 40.595545002000051 ], [ 69.259709299000065, 40.502773092000041 ], [ 69.328327247000061, 40.374709178000046 ], [ 69.338736229000062, 40.333464179000032 ], [ 69.31943622700004, 40.209718119000058 ], [ 69.302482319000035, 40.199018117000037 ], [ 69.24914508300003, 40.191100068000026 ], [ 69.226927173000036, 40.19054501800008 ], [ 69.194154099000059, 40.195544991000077 ], [ 69.134145204000049, 40.208744980000063 ], [ 69.078936122000073, 40.230173148000063 ], [ 69.061645094000028, 40.234718151000038 ], [ 69.035818271000039, 40.238744985000039 ], [ 68.768327265000039, 40.208045091000031 ], [ 68.727909225000076, 40.202500127000064 ], [ 68.695536135000054, 40.196100041000079 ], [ 68.642000249000034, 40.184064131000071 ], [ 68.605672242000082, 40.165754031000063 ], [ 68.636654103000069, 40.139991078000037 ], [ 68.681363343000044, 40.121936123000069 ], [ 68.702363363000075, 40.117709130000037 ], [ 68.713882277000039, 40.116391159000045 ], [ 68.762209146000032, 40.122218091000036 ], [ 68.795372314000076, 40.128818169000056 ], [ 68.87622716900006, 40.147626992000028 ], [ 68.991091262000054, 40.140827089000027 ], [ 69.008736174000035, 40.103673130000061 ], [ 68.995045173000051, 40.07061808900005 ], [ 68.932754222000028, 40.07527323000005 ], [ 68.822963360000074, 40.078653987000052 ], [ 68.784572231000084, 40.067909057000065 ], [ 68.81164510800005, 40.00082701000008 ], [ 68.829436201000078, 39.977764203000049 ], [ 68.85665408400007, 39.954853947000061 ], [ 68.904672331000029, 39.892282202000047 ], [ 68.757554172000084, 39.829645077000066 ], [ 68.735536086000081, 39.849300137000057 ], [ 68.723045206000052, 39.868600140000069 ], [ 68.656100286000083, 39.862500126000043 ], [ 68.64267231000008, 39.858236084000055 ] ] ] }
        }
    ]
}