{
    "type": "FeatureCollection",
    "features": [
        {
            "type": "Feature",
            "properties": {
                "WCID": "VEN",
                "COUNTRY": "Venezuela"
            },
            "geometry": { "type": "MultiPolygon", "coordinates": [ [ [ [ -66.310290900999973, 10.626018096000053 ], [ -66.283090954999977, 10.644653917000028 ], [ -66.229872909999983, 10.640553992000036 ], [ -66.209726837999938, 10.632500157000038 ], [ -66.081681866999986, 10.576664109000035 ], [ -66.118345987999987, 10.526945006000062 ], [ -66.119726822999951, 10.500000037000063 ], [ -66.098345928999947, 10.472500018000062 ], [ -66.068481878999933, 10.443191185000046 ], [ -65.958617925999988, 10.356664128000034 ], [ -65.935735833999956, 10.298300098000027 ], [ -65.814454890999968, 10.228336016000071 ], [ -65.786672904999932, 10.220418135000045 ], [ -65.765290837999942, 10.216945010000074 ], [ -65.725308823999967, 10.219209130000024 ], [ -65.548063925999941, 10.178053985000076 ], [ -65.42668189799997, 10.140000144000055 ], [ -65.27611793799997, 10.115553989000034 ], [ -65.081390903999988, 10.060553951000031 ], [ -64.82500893699995, 10.082217986000046 ], [ -64.788064021999958, 10.089445031000025 ], [ -64.76445505099997, 10.097218072000032 ], [ -64.732790902999966, 10.113473097000053 ], [ -64.714735779999955, 10.179718128000047 ], [ -64.625972933999947, 10.24666422100006 ], [ -64.579726788999949, 10.258609104000072 ], [ -64.534608847999948, 10.249936013000024 ], [ -64.482508949999954, 10.23805399500003 ], [ -64.378546024999935, 10.301109041000075 ], [ -64.395845937999979, 10.337218112000073 ], [ -64.38473589299997, 10.368891145000021 ], [ -64.368054899999947, 10.384164146000046 ], [ -64.202517843999942, 10.450000140000043 ], [ -64.182054935999986, 10.456545066000047 ], [ -64.092508883999983, 10.456527128000062 ], [ -64.070846022999945, 10.446391061000043 ], [ -64.050008946999981, 10.44221804600005 ], [ -63.876108930999976, 10.440273109000032 ], [ -63.809445977999985, 10.44221804600005 ], [ -63.793335792999983, 10.446664143000021 ], [ -63.715563968999959, 10.471944969000049 ], [ -63.697499961999938, 10.485553994000043 ], [ -63.777781997999966, 10.525273152000068 ], [ -63.838890933999949, 10.551664077000055 ], [ -63.966390912999941, 10.578473091000035 ], [ -64.148681884999974, 10.570000160000063 ], [ -64.200981943999977, 10.550273184000048 ], [ -64.215845907999949, 10.534027044000027 ], [ -64.235690901999988, 10.514373157000023 ], [ -64.258899888999963, 10.534718048000059 ], [ -64.299590843999965, 10.626527045000046 ], [ -64.264590865999935, 10.657773104000057 ], [ -64.236672925999983, 10.638891191000027 ], [ -64.146808864999969, 10.617917992000059 ], [ -63.974163954999938, 10.629718036000043 ], [ -63.842781980999973, 10.645827048000058 ], [ -63.691945944999986, 10.645553965000033 ], [ -63.666672997999967, 10.641664092000042 ], [ -63.534445959999971, 10.627082095000048 ], [ -63.505555048999952, 10.640000116000067 ], [ -63.344445984999936, 10.672636062000038 ], [ -63.286117828999977, 10.670827080000038 ], [ -63.253063960999953, 10.678336092000052 ], [ -63.23028194799997, 10.68832698500006 ], [ -63.172226874999978, 10.719718051000029 ], [ -62.993755033999946, 10.71639110600006 ], [ -62.972782002999963, 10.705418021000071 ], [ -62.953472947999956, 10.699864172000048 ], [ -62.906672926999931, 10.695835997000074 ], [ -62.869590883999933, 10.706391160000067 ], [ -62.79139091199994, 10.731109057000026 ], [ -62.748335757999939, 10.742218096000045 ], [ -62.697499849999986, 10.747773119000044 ], [ -62.538608804999967, 10.735553980000077 ], [ -62.469999909999956, 10.726945095000076 ], [ -62.358063950999963, 10.708053962000065 ], [ -62.301117803999944, 10.700282094000045 ], [ -62.192508957999962, 10.694164142000034 ], [ -62.131881981999982, 10.701318097000069 ], [ -61.983890930999962, 10.728054021000048 ], [ -61.87959088599996, 10.728327103000026 ], [ -61.883335752999983, 10.694718019000049 ], [ -61.921108799999956, 10.661944945000073 ], [ -61.953054914999939, 10.648891136000032 ], [ -62.035564022999949, 10.632500157000038 ], [ -62.08555503499997, 10.627218049000021 ], [ -62.114581900999951, 10.628191188000073 ], [ -62.135563983999987, 10.634718009000039 ], [ -62.162508952999985, 10.636664119000045 ], [ -62.24917297099995, 10.627009005000048 ], [ -62.276108886999964, 10.600418087000037 ], [ -62.287226810999982, 10.58360901900005 ], [ -62.301390885999979, 10.555273157000045 ], [ -62.331108923999977, 10.531664185000068 ], [ -62.449717883999938, 10.533336040000052 ], [ -62.527226850999966, 10.540418077000027 ], [ -62.579999816999987, 10.555273157000045 ], [ -62.649726857999951, 10.568191178000063 ], [ -62.671108924999942, 10.568054050000057 ], [ -62.830835813999954, 10.54444507900007 ], [ -62.912299865999955, 10.528744936000066 ], [ -63.004235764999976, 10.452982086000077 ], [ -62.977090971999985, 10.464164216000029 ], [ -62.934726821999959, 10.490553967000039 ], [ -62.911181887999987, 10.515627090000066 ], [ -62.872508791999962, 10.52444502000003 ], [ -62.838608854999961, 10.511664126000028 ], [ -62.83555499299996, 10.448327113000062 ], [ -62.83097294199996, 10.42819109900006 ], [ -62.837708806999956, 10.397291045000031 ], [ -62.871808902999987, 10.38986417600006 ], [ -62.889163968999981, 10.403891123000051 ], [ -62.911672899999985, 10.416527010000038 ], [ -62.934308899999962, 10.418473120000044 ], [ -62.954445918999966, 10.414718028000038 ], [ -62.98056393, 10.406944986000042 ], [ -63.003681888999949, 10.39416409200004 ], [ -62.998408833999974, 10.271600048000039 ], [ -62.934172944999943, 10.279309052000031 ], [ -62.927645956999982, 10.302918023000075 ], [ -62.942917784999963, 10.326736040000071 ], [ -62.954726880999942, 10.375000044000046 ], [ -62.946663992999959, 10.400900125000021 ], [ -62.907226802999958, 10.391726970000036 ], [ -62.884735809999938, 10.374391183000057 ], [ -62.857090951999965, 10.382353991000059 ], [ -62.822417867999945, 10.385636009000052 ], [ -62.790090878999933, 10.40133598400007 ], [ -62.736390874999984, 10.373818028000073 ], [ -62.685564019999958, 10.310273144000064 ], [ -62.66639091899998, 10.280553932000032 ], [ -62.630626846999974, 10.107153980000021 ], [ -62.669308827999942, 10.075000162000038 ], [ -62.70916393899995, 10.065836059000048 ], [ -62.801390857999934, 10.055273185000033 ], [ -62.829173011999956, 10.053609042000062 ], [ -62.891673007999941, 10.081664110000077 ], [ -62.917499830999986, 10.095000053000035 ], [ -62.956945905999987, 10.104308995000054 ], [ -63.008608939999988, 10.10166416900006 ], [ -63.016799902999935, 10.098691108000025 ], [ -63.015972943999941, 10.095691057000067 ], [ -62.983855, 10.068918085000064 ], [ -62.94971785499996, 10.077218013000049 ], [ -62.910563973999956, 10.076945098000067 ], [ -62.87139098199998, 10.046391050000068 ], [ -62.805281904999958, 10.008609118000038 ], [ -62.682499931999985, 10.051664105000043 ], [ -62.66278184, 10.059164232000057 ], [ -62.645563901999935, 10.069444971000053 ], [ -62.615763888999936, 10.093191071000035 ], [ -62.60541793799996, 10.127218077000066 ], [ -62.623335764999979, 10.188609148000069 ], [ -62.609445944999948, 10.223953957000049 ], [ -62.577499829999965, 10.225135973000022 ], [ -62.535281859999941, 10.202218006000066 ], [ -62.501317884999935, 10.174236028000053 ], [ -62.488890875999971, 10.15305395300004 ], [ -62.470281876999934, 10.091109006000067 ], [ -62.426945928999942, 9.979164163000064 ], [ -62.37284594099998, 9.881318016000023 ], [ -62.315181966999944, 9.752845065000031 ], [ -62.328699964999942, 9.722936087000051 ], [ -62.322646051999982, 9.712082193000072 ], [ -62.300417914999969, 9.718473059000075 ], [ -62.277226864999932, 9.747500093000042 ], [ -62.268617811999945, 9.766944935000026 ], [ -62.255008953999948, 9.802773212000034 ], [ -62.236808824999969, 9.855000013000051 ], [ -62.237917918999983, 9.879164202000027 ], [ -62.248335785999984, 9.90971808300003 ], [ -62.250490940999953, 9.967009062000045 ], [ -62.205699893999963, 9.914027052000051 ], [ -62.180726851999964, 9.842773163000061 ], [ -62.165346059999933, 9.715282069000068 ], [ -62.196108817999971, 9.641664148000075 ], [ -62.170763953999938, 9.657426988000054 ], [ -62.155699829999946, 9.709582207000039 ], [ -62.130008793999934, 9.752109134000023 ], [ -62.130835751999939, 9.778944970000055 ], [ -62.133499856999947, 9.826445048000039 ], [ -62.027435755999932, 9.866418009000029 ], [ -62.047335902999976, 9.888745052000047 ], [ -62.112226920999944, 9.929445060000035 ], [ -62.13195490399994, 9.937773151000044 ], [ -62.165146066999966, 9.944236101000058 ], [ -62.20153576499996, 9.938336080000056 ], [ -62.231735761999971, 9.964718120000043 ], [ -62.209235883999952, 10.011036014000069 ], [ -62.178890879999983, 10.014718017000064 ], [ -62.075563973999976, 9.986391040000058 ], [ -62.053890886999966, 9.977500020000036 ], [ -61.962226895999947, 9.911944987000027 ], [ -61.811672994999981, 9.757891138000048 ], [ -61.735835881999947, 9.600935978000052 ], [ -61.729446021999934, 9.626109012000029 ], [ -61.728617889999953, 9.646664121000072 ], [ -61.733335895999971, 9.698745076000023 ], [ -61.764726793999955, 9.757773121000071 ], [ -61.782081858999959, 9.778527049000047 ], [ -61.800917839999954, 9.812273094000034 ], [ -61.79278186199997, 9.83110907400004 ], [ -61.771945958999936, 9.83027306300005 ], [ -61.712781959999973, 9.811109015000056 ], [ -61.673335884999972, 9.796527018000063 ], [ -61.65416395799997, 9.790554074000056 ], [ -61.597708822999948, 9.782773153000051 ], [ -61.574581977999969, 9.800691148000055 ], [ -61.584726762999935, 9.819164192000073 ], [ -61.618754943999932, 9.84430001100003 ], [ -61.648054891999948, 9.897364163000077 ], [ -61.619863868999971, 9.905282044000046 ], [ -61.572499913999934, 9.885273100000063 ], [ -61.554172881999932, 9.875553948000061 ], [ -61.480564013999981, 9.823609115000068 ], [ -61.447226837999949, 9.787635998000042 ], [ -61.425772853999945, 9.733891067000059 ], [ -61.407226886999979, 9.704718021000076 ], [ -61.38305498699998, 9.680273206000038 ], [ -61.25598198199998, 9.588891183000044 ], [ -61.197535808999987, 9.578364183000076 ], [ -61.084164030999943, 9.582218014000034 ], [ -61.046455021999975, 9.576609012000063 ], [ -61.0433357799999, 9.575554066000052 ], [ -60.987572989999933, 9.551809140000046 ], [ -60.959726798999952, 9.532500085000038 ], [ -60.853617938999946, 9.44444500700007 ], [ -60.79819981299994, 9.379309069000044 ], [ -60.782990848999987, 9.332218028000057 ], [ -60.783617815999946, 9.305000145000065 ], [ -60.818890875999955, 9.268891073000077 ], [ -60.847090950999984, 9.263336051000067 ], [ -60.912226888999953, 9.236664164000047 ], [ -60.987781866999967, 9.188609037000049 ], [ -61.071108880999986, 9.118891048000023 ], [ -61.084590836999951, 9.097500096000033 ], [ -61.098126772999933, 9.043953984000041 ], [ -61.074308923999979, 9.075973189000024 ], [ -61.058754961999966, 9.095273192000036 ], [ -60.972708857999976, 9.175209056000028 ], [ -60.950490946999935, 9.175135966000028 ], [ -60.955835751999984, 9.154164108000032 ], [ -61.031535903999952, 9.032082191000029 ], [ -61.077363959999957, 8.99500014900002 ], [ -61.093335843999967, 8.972773185000051 ], [ -61.097781940999937, 8.963336001000073 ], [ -61.119726769999943, 8.898054050000042 ], [ -61.183335858999953, 8.72778205700007 ], [ -61.191673002999948, 8.68000001200005 ], [ -61.192645974999948, 8.624718008000059 ], [ -61.210208911999985, 8.595136092000075 ], [ -61.250908918999983, 8.581453976000034 ], [ -61.327781867999931, 8.596109063000029 ], [ -61.436673015999986, 8.601664086000028 ], [ -61.519726780999974, 8.590418086000057 ], [ -61.557226912999965, 8.59860905000005 ], [ -61.595417880999946, 8.616944966000062 ], [ -61.598890838999978, 8.555000019000033 ], [ -61.488063973999942, 8.511664071000041 ], [ -61.393890943999963, 8.474445068000023 ], [ -61.329172927999934, 8.430826985000067 ], [ -61.220281947999979, 8.462845017000063 ], [ -61.168472900999973, 8.495764103000056 ], [ -61.077508799999976, 8.49305406700006 ], [ -61.073481965999974, 8.463745066000058 ], [ -61.084590836999951, 8.447082177000027 ], [ -61.086108799999977, 8.421391141000072 ], [ -61.073546002999933, 8.402918097000054 ], [ -61.017781871999944, 8.469164134000039 ], [ -60.987090862999935, 8.525973153000052 ], [ -60.981255045999944, 8.564445083000066 ], [ -60.902226774999974, 8.582218071000057 ], [ -60.71583587899994, 8.604582162000042 ], [ -60.682226793999973, 8.595418059000053 ], [ -60.659726915999954, 8.579582130000063 ], [ -60.627163892999931, 8.551182062000066 ], [ -60.465835892999962, 8.528264095000054 ], [ -60.428064019999965, 8.573891153000034 ], [ -60.408754964999957, 8.621600107000063 ], [ -60.382154994999951, 8.632364148000022 ], [ -60.236117933999935, 8.627500129000055 ], [ -60.205835793999938, 8.621944939000059 ], [ -60.139308795999966, 8.602773179000053 ], [ -60.025281887999938, 8.553891093000061 ], [ -60.00639092199998, 8.54500007300004 ], [ -59.990281909999965, 8.535273210000071 ], [ -59.981117806999976, 8.518327013000032 ], [ -59.886117818999935, 8.400836032000029 ], [ -59.812090861999934, 8.30610912700007 ], [ -59.80305500299994, 8.28333599900003 ], [ -59.83285501499995, 8.231527120000067 ], [ -59.888890887999935, 8.218609098000059 ], [ -59.92222689099998, 8.21110913900003 ], [ -59.94618186699995, 8.199991047000026 ], [ -59.979726913999968, 8.174864113000069 ], [ -59.987017828999967, 8.146982047000051 ], [ -60.011181849999957, 8.059236094000028 ], [ -60.03778198699996, 8.037009130000058 ], [ -60.093608815999971, 8.041245009000022 ], [ -60.124863926999979, 8.028326987000071 ], [ -60.237226859999964, 7.946391034000044 ], [ -60.25754593399995, 7.921573057000046 ], [ -60.319726914999933, 7.877500171000065 ], [ -60.513199848999932, 7.81819116500003 ], [ -60.533335862999934, 7.803891136000061 ], [ -60.574581866999949, 7.715209091000077 ], [ -60.588754994999988, 7.639309114000071 ], [ -60.662090947999957, 7.566527036000025 ], [ -60.691108928999938, 7.567082086000028 ], [ -60.716664010999978, 7.540000157000065 ], [ -60.71402689699994, 7.500973177000049 ], [ -60.688263943999971, 7.453473100000053 ], [ -60.660835841999983, 7.447218021000026 ], [ -60.609999933999973, 7.381944955000051 ], [ -60.591390935999982, 7.336391155000058 ], [ -60.595354904999965, 7.306109015000061 ], [ -60.618617871999959, 7.284027059000039 ], [ -60.634235871999977, 7.25430902100004 ], [ -60.63083583699995, 7.221944984000061 ], [ -60.617499893999934, 7.194444966000049 ], [ -60.538063926999939, 7.124445010000045 ], [ -60.514999945999932, 7.142982092000068 ], [ -60.505763926999975, 7.172709014000077 ], [ -60.456117914999936, 7.195836026000052 ], [ -60.360490959999936, 7.176245004000066 ], [ -60.336672943999986, 7.155282199000055 ], [ -60.309035797999968, 7.143473104000066 ], [ -60.278054941999983, 7.118744980000031 ], [ -60.281390939999937, 7.090000082000074 ], [ -60.291254930999969, 7.056600041000024 ], [ -60.408335869999974, 6.947500016000049 ], [ -60.463617873999965, 6.906664222000074 ], [ -60.498890933999974, 6.887782141000059 ], [ -60.526946001999931, 6.874718106000046 ], [ -60.590835885999979, 6.850836053000023 ], [ -60.637781919999952, 6.834927033000042 ], [ -60.664999970999986, 6.807500104000042 ], [ -60.676390977999972, 6.790000031000034 ], [ -60.697781929999962, 6.766664142000025 ], [ -60.719172881999953, 6.759027055000047 ], [ -60.816117806999955, 6.788336056000048 ], [ -60.893681927999978, 6.765000167000039 ], [ -60.939654989999951, 6.724582127000076 ], [ -61.035972948999984, 6.719718108000052 ], [ -61.054726786999936, 6.728891096000041 ], [ -61.125108956999952, 6.714773121000064 ], [ -61.174446012999965, 6.658744959000046 ], [ -61.204726811999933, 6.577918099000044 ], [ -61.196526795999944, 6.533682102000057 ], [ -61.140008795999961, 6.408609019000039 ], [ -61.138617902999954, 6.299164162000068 ], [ -61.16014598299995, 6.182500139000069 ], [ -61.262781884999981, 6.107782178000036 ], [ -61.270281843999953, 6.086391058000061 ], [ -61.282817818999945, 6.056336068000064 ], [ -61.323064029999955, 5.992500164000035 ], [ -61.337890945999959, 5.97278207200003 ], [ -61.373455025999988, 5.960973143000047 ], [ -61.38972681499996, 5.940000113000053 ], [ -61.116108804999953, 5.634718123000027 ], [ -60.860281886999985, 5.348054016000049 ], [ -60.781108943999982, 5.25833596800004 ], [ -60.748890919999951, 5.222500147000062 ], [ -60.730372948999957, 5.204800082000077 ], [ -60.710972865999963, 5.20291800900003 ], [ -60.685146042999975, 5.196945065000023 ], [ -60.655208902999959, 5.181318012000077 ], [ -60.644172953999941, 5.158609089000038 ], [ -60.582363960999942, 4.988473218000024 ], [ -60.578546003999975, 4.952636056000074 ], [ -60.59250891399995, 4.924718116000065 ], [ -60.649308880999968, 4.842918117000067 ], [ -60.675564018999978, 4.813891083000044 ], [ -60.720281975999967, 4.776109151000071 ], [ -60.83861785299996, 4.718473173000064 ], [ -60.866808874999947, 4.713336072000061 ], [ -60.886526799999956, 4.709718108000061 ], [ -60.92458198099996, 4.637709010000037 ], [ -60.929863921999981, 4.591873075000024 ], [ -60.951663910999969, 4.556945014000064 ], [ -60.968335850999949, 4.538336015000027 ], [ -60.987090862999935, 4.51930909500004 ], [ -61.052508934999935, 4.507782134000024 ], [ -61.163890849999973, 4.49430906300006 ], [ -61.313608907999935, 4.506664156000056 ], [ -61.492226761999973, 4.406391113000041 ], [ -61.507363975999965, 4.390554009000027 ], [ -61.512781870999959, 4.361945065000043 ], [ -61.507363975999965, 4.327364182000053 ], [ -61.510699805999934, 4.303473076000046 ], [ -61.52403574899995, 4.274864132000062 ], [ -61.554381926999952, 4.248818038000024 ], [ -61.62528193199995, 4.244235987000025 ], [ -61.662781895999956, 4.255282162000071 ], [ -61.699172933999932, 4.259027028000048 ], [ -61.762917810999966, 4.243053971000052 ], [ -61.790564009999969, 4.215691080000056 ], [ -61.811526814999979, 4.184864117000075 ], [ -61.848890824999955, 4.160553915000037 ], [ -61.914863946999958, 4.146945057000039 ], [ -61.95201790599998, 4.156809048000071 ], [ -61.987499842999966, 4.169582063000064 ], [ -62.053199882999934, 4.150136048000036 ], [ -62.079308840999943, 4.124864106000075 ], [ -62.104790831999935, 4.103891076000025 ], [ -62.142646021999951, 4.09319107400006 ], [ -62.180972944999951, 4.09958210700006 ], [ -62.220835766999983, 4.112500129000068 ], [ -62.262508913999966, 4.127218080000034 ], [ -62.281390826999939, 4.136109100000056 ], [ -62.321108810999988, 4.152500080000038 ], [ -62.392226911999956, 4.179445048000048 ], [ -62.440135858999952, 4.182673087000069 ], [ -62.539935827999955, 4.112291084000049 ], [ -62.604164004999973, 4.041944956000066 ], [ -62.669863876999955, 4.046809142000029 ], [ -62.728335865999952, 4.03860912600004 ], [ -62.757781994999959, 4.020273210000028 ], [ -62.780417827999941, 3.908744947000059 ], [ -62.777226836999944, 3.882500034000032 ], [ -62.758335870999986, 3.834717989000069 ], [ -62.740145967999979, 3.790554077000024 ], [ -62.727499854999962, 3.731109116000027 ], [ -62.727226772999984, 3.705282126000043 ], [ -62.734026842999981, 3.676527001000068 ], [ -62.75139984599997, 3.638336032000041 ], [ -62.781255011999974, 3.604309026000067 ], [ -62.878054929999962, 3.560136061000037 ], [ -62.903064014999984, 3.562918014000047 ], [ -62.923617781999951, 3.567218098000069 ], [ -62.990563874999964, 3.604309026000067 ], [ -63.164172871999938, 3.79528214100003 ], [ -63.242290868999987, 3.898127087000034 ], [ -63.293963960999974, 3.939373092000039 ], [ -63.335554964999972, 3.958054007000044 ], [ -63.359454955999979, 3.965836101000036 ], [ -63.382508877999953, 3.970836074000033 ], [ -63.419099907999964, 3.967082155000071 ], [ -63.433617867999942, 3.941664201000037 ], [ -63.438754967999955, 3.915135980000059 ], [ -63.445555038999942, 3.89028212900007 ], [ -63.4581998099999, 3.86645405400003 ], [ -63.491526927999985, 3.857782137000072 ], [ -63.530135817999962, 3.867217981000067 ], [ -63.547917857999948, 3.880691052000032 ], [ -63.57361777899996, 3.909718086000055 ], [ -63.589172914999949, 3.928335969000045 ], [ -63.614172946999986, 3.944864076000044 ], [ -63.644454919999987, 3.948609111000053 ], [ -63.848063920999948, 3.958891024000025 ], [ -63.909026843999982, 3.933053975000064 ], [ -63.940563922999957, 3.904582158000039 ], [ -63.956255012999975, 3.891245042000037 ], [ -63.994164013999978, 3.882918124000071 ], [ -64.01779092299995, 3.886109114000021 ], [ -64.05270892599998, 3.908435990000044 ], [ -64.064590943999974, 3.95528211200002 ], [ -64.087781993999954, 4.032773142000053 ], [ -64.108890978999966, 4.08278209100007 ], [ -64.126390883999932, 4.109582053000054 ], [ -64.221117789999937, 4.141109073000052 ], [ -64.248899942999969, 4.148053983000068 ], [ -64.335554907999949, 4.154164223000066 ], [ -64.379863994999937, 4.153609005000021 ], [ -64.402235797999936, 4.149164082000027 ], [ -64.430281980999951, 4.140000147000023 ], [ -64.467508862999978, 4.133891081000058 ], [ -64.552926826999965, 4.122364120000043 ], [ -64.59201784399994, 4.127773130000037 ], [ -64.607790909999949, 4.145273203000045 ], [ -64.642155036999952, 4.223773079000068 ], [ -64.651954989999979, 4.239164097000071 ], [ -64.674726776999933, 4.257500013000026 ], [ -64.693072918999974, 4.267217992000042 ], [ -64.72417296499998, 4.281391120000023 ], [ -64.746263973999987, 4.287218051000025 ], [ -64.781672988999958, 4.286391092000031 ], [ -64.80000890499997, 4.265073063000045 ], [ -64.801955014999976, 4.210835946000032 ], [ -64.785908866999932, 4.185836082000037 ], [ -64.733890943999938, 4.161245087000054 ], [ -64.713135842999975, 4.144026981000025 ], [ -64.704726781999966, 4.118609027000048 ], [ -64.694454926999981, 4.081945074000032 ], [ -64.660981964999962, 4.016664130000038 ], [ -64.642090830999962, 3.984309145000054 ], [ -64.626681875999964, 3.965553966000073 ], [ -64.51806397699994, 3.854444966000074 ], [ -64.446326787999965, 3.78700903500004 ], [ -64.40529083399997, 3.76721802000003 ], [ -64.365845932999946, 3.750553958000069 ], [ -64.308063941999933, 3.718336102000023 ], [ -64.190217903999951, 3.589653939000073 ], [ -64.182372944999941, 3.549308989000053 ], [ -64.184717865999971, 3.527782082000044 ], [ -64.193481983999959, 3.501391157000057 ], [ -64.224381869999945, 3.466945055000053 ], [ -64.235699953999983, 3.432782094000061 ], [ -64.226672979999933, 3.337500139000042 ], [ -64.205290911999953, 3.193336098000032 ], [ -64.158890875999987, 3.060835978000057 ], [ -64.146117860999937, 3.039718108000045 ], [ -64.088899971999979, 2.940835958000036 ], [ -64.034726893999959, 2.832782161000068 ], [ -63.987854955999978, 2.718609073000039 ], [ -63.995417778999979, 2.623054035000052 ], [ -64.017226820999952, 2.573891155000069 ], [ -64.031254941999975, 2.549718082000027 ], [ -64.046463904999939, 2.509445049000021 ], [ -64.034035889999984, 2.471318118000056 ], [ -63.821808949999934, 2.425836067000034 ], [ -63.782199931999969, 2.42716409600007 ], [ -63.581672955999977, 2.43471803500006 ], [ -63.365417841999943, 2.420000083000048 ], [ -63.346390920999966, 2.406109090000029 ], [ -63.360763873999986, 2.259100064000052 ], [ -63.380008890999932, 2.229164096000034 ], [ -63.39944602199995, 2.149509026000032 ], [ -63.488335769999935, 2.130554023000059 ], [ -63.545417871999973, 2.130000147000032 ], [ -63.607090909999954, 2.105973086000063 ], [ -63.71860894699995, 2.023609152000063 ], [ -63.739172939999946, 2.00305404300002 ], [ -63.825008825999987, 1.977782102000049 ], [ -63.936526862999983, 1.976809131000039 ], [ -63.970555042999933, 1.967218054000057 ], [ -64.002364029999967, 1.94986416200004 ], [ -64.030146015999946, 1.924718117000054 ], [ -64.051890851999985, 1.890482066000061 ], [ -64.052372978999983, 1.840836053000032 ], [ -64.049863939999966, 1.806809047000058 ], [ -64.062781961999974, 1.681108997000024 ], [ -64.077990924999938, 1.635418069000025 ], [ -64.113208832999987, 1.582918019000033 ], [ -64.264454910999973, 1.476109103000056 ], [ -64.365773009999941, 1.50757309100004 ], [ -64.394308863999981, 1.511809137000057 ], [ -64.529726892999975, 1.433608998000068 ], [ -64.5490357799999, 1.41513595400005 ], [ -64.563199854999937, 1.391391028000044 ], [ -64.578964035999945, 1.349791139000047 ], [ -64.59529097799998, 1.330000125000026 ], [ -64.697508957999958, 1.262782122000033 ], [ -64.731746014999942, 1.246945019000066 ], [ -64.757235884999943, 1.244309078000072 ], [ -64.783063881999965, 1.260000169000023 ], [ -64.819072872999982, 1.279482059000031 ], [ -64.943072904999951, 1.210553981000032 ], [ -65.006954909999934, 1.165836024000043 ], [ -65.103890949999936, 1.142082046000041 ], [ -65.136264038999968, 1.118473074000065 ], [ -65.146526840999968, 1.097635998000044 ], [ -65.153899898999953, 1.055553983000038 ], [ -65.154446063999956, 1.03528218200006 ], [ -65.160845981999955, 0.989026985000066 ], [ -65.165845954999952, 0.969445015000076 ], [ -65.17389090599994, 0.950000005000049 ], [ -65.192508956999973, 0.92666411600004 ], [ -65.227646061999963, 0.915000027000076 ], [ -65.253064015999939, 0.91528216200004 ], [ -65.29146402899994, 0.926600078000035 ], [ -65.321672910999951, 0.911944991000041 ], [ -65.385845935999953, 0.837082190000046 ], [ -65.395008864999966, 0.818609146000028 ], [ -65.398346035999964, 0.789027063000049 ], [ -65.400281919999941, 0.753953995000074 ], [ -65.436108855999976, 0.695282181000039 ], [ -65.485772973999985, 0.661873089000039 ], [ -65.521663947999969, 0.649164112000051 ], [ -65.542363895999983, 0.651664098000026 ], [ -65.558617914999957, 0.666109135000056 ], [ -65.575563943999953, 0.696391107000068 ], [ -65.582572891999973, 0.729791147000071 ], [ -65.567508934999978, 0.764718035000044 ], [ -65.527372862999982, 0.80666409600002 ], [ -65.511117837999961, 0.838891173000036 ], [ -65.506955048999941, 0.871809086000042 ], [ -65.510135813999966, 0.901945045000048 ], [ -65.522090921999961, 0.926945077000028 ], [ -65.539735833999941, 0.950000005000049 ], [ -65.559446046999938, 0.971108990000062 ], [ -65.595426875999976, 0.990418045000069 ], [ -65.657226815999934, 0.989717989000042 ], [ -65.735290832999965, 0.982782131000022 ], [ -65.870835762999945, 0.908336079000037 ], [ -65.912781991999964, 0.871809086000042 ], [ -65.929035842999951, 0.854027046000056 ], [ -65.955145973999947, 0.81833606400005 ], [ -65.979590956999971, 0.798745042000064 ], [ -66.12709082799995, 0.734164154000041 ], [ -66.286955011999964, 0.747782064000035 ], [ -66.314726771999972, 0.751391144000024 ], [ -66.338054949999957, 0.765836013000069 ], [ -66.787226892999968, 1.14944504500005 ], [ -66.870455000999982, 1.220927089000043 ], [ -66.875072925999973, 1.225900072000059 ], [ -66.891682002999971, 1.251391116000036 ], [ -66.899035781999942, 1.284100152000065 ], [ -66.926390960999981, 1.459718123000073 ], [ -66.991672910999966, 1.695836001000032 ], [ -67.113235820999932, 2.026653962000069 ], [ -67.160572954999964, 2.132500133000065 ], [ -67.175290905999987, 2.153336036000042 ], [ -67.198626794999939, 2.207500062000065 ], [ -67.211535763999962, 2.243609133000064 ], [ -67.216945946999942, 2.275282166000068 ], [ -67.20750893, 2.294864136000058 ], [ -67.184590962999948, 2.316109075000043 ], [ -67.174181979999958, 2.336527056000023 ], [ -67.192508843999974, 2.392500065000036 ], [ -67.219517850999978, 2.413127090000046 ], [ -67.257926915999974, 2.429027058000031 ], [ -67.281399932999932, 2.438891049000063 ], [ -67.325208955999983, 2.474026981000065 ], [ -67.485563983999953, 2.653336007000064 ], [ -67.535281913999938, 2.680000015000076 ], [ -67.589735785999949, 2.764164214000061 ], [ -67.605835912999964, 2.793336087000057 ], [ -67.634446030999982, 2.80944493100003 ], [ -67.765835883999955, 2.832500026000048 ], [ -67.823617874999968, 2.827082132000044 ], [ -67.833072996999988, 2.876664107000067 ], [ -67.656681878999962, 3.042782196000076 ], [ -67.499999968999987, 3.190654056000028 ], [ -67.435563919999936, 3.253891157000055 ], [ -67.369735804999948, 3.30471801300007 ], [ -67.346399915999939, 3.313682123000035 ], [ -67.292854976999934, 3.396045050000055 ], [ -67.306599956999946, 3.452782153000044 ], [ -67.341535897999961, 3.46652696600006 ], [ -67.362917796999966, 3.473053954000022 ], [ -67.381117926999934, 3.485973149000074 ], [ -67.395573021999951, 3.512500028000034 ], [ -67.428345927999942, 3.608054060000029 ], [ -67.437090934999958, 3.648335978000034 ], [ -67.491045916999951, 3.72430904600003 ], [ -67.511672941999961, 3.737982109000029 ], [ -67.541954913999973, 3.736527011000021 ], [ -67.576954891999947, 3.732364222000058 ], [ -67.599872859999948, 3.740691140000024 ], [ -67.615981871999963, 3.759027057000026 ], [ -67.635145919999957, 3.79763594700006 ], [ -67.680555047999974, 3.92139105900003 ], [ -67.692781897999964, 3.969718096000065 ], [ -67.708508862999963, 4.046953981000058 ], [ -67.729172936999987, 4.087500097000031 ], [ -67.786672959999976, 4.166527027000029 ], [ -67.806254929999966, 4.231809145000057 ], [ -67.805555040999934, 4.272782067000037 ], [ -67.801264009999954, 4.300136073000033 ], [ -67.784799939999971, 4.334754003000057 ], [ -67.858754980999947, 4.561244930000043 ], [ -67.82471791599994, 4.736664082000061 ], [ -67.816655027999957, 4.801627017000044 ], [ -67.813599823999937, 4.831153948000065 ], [ -67.80158185099998, 4.973236092000036 ], [ -67.802781971999934, 5.039445080000064 ], [ -67.820281877999946, 5.093336024000052 ], [ -67.829726773999937, 5.131391038000061 ], [ -67.848635843999944, 5.306517997000071 ], [ -67.803890897999963, 5.383264212000029 ], [ -67.769172886999968, 5.406809146000057 ], [ -67.747655032999944, 5.412209103000066 ], [ -67.688335800999937, 5.448609026000042 ], [ -67.649445949999972, 5.478335949000041 ], [ -67.615908948999959, 5.548191065000026 ], [ -67.63375502699995, 5.57826416100005 ], [ -67.642226783999945, 5.612218077000023 ], [ -67.648899952999955, 5.65221802800005 ], [ -67.651673021999954, 5.683191172000022 ], [ -67.642926840999962, 5.731391138000049 ], [ -67.619999820999965, 5.792218107000053 ], [ -67.597072968999953, 5.824691109000071 ], [ -67.531872993999968, 5.891327072000024 ], [ -67.478926857999966, 5.941600051000023 ], [ -67.461726856999974, 5.955535970000028 ], [ -67.426254977999974, 5.976727098000026 ], [ -67.413981859999978, 5.995536089000041 ], [ -67.434990932999938, 6.038645055000075 ], [ -67.469581873999971, 6.069664132000071 ], [ -67.485563983999953, 6.097782065000047 ], [ -67.492526830999964, 6.121409141000072 ], [ -67.489245986999947, 6.153745015000027 ], [ -67.454455053999936, 6.193053961000032 ], [ -67.472608914999967, 6.194454075000067 ], [ -67.496263986999963, 6.205418107000071 ], [ -67.534454954999944, 6.243054026000038 ], [ -67.56361794299994, 6.262500041000067 ], [ -67.635281874999976, 6.285136041000044 ], [ -67.693346, 6.29305392200007 ], [ -67.831181871999945, 6.307573055000034 ], [ -67.918126850999954, 6.238191181000047 ], [ -67.95750888799995, 6.217782085000067 ], [ -67.99792692799997, 6.207218037000075 ], [ -68.03528188599995, 6.205554061000043 ], [ -68.066117901999974, 6.21333598800004 ], [ -68.103617865999979, 6.221527119000029 ], [ -68.132235862999948, 6.223609016000069 ], [ -68.155155003999937, 6.222773173000064 ], [ -68.194172930999969, 6.210836001000075 ], [ -68.229735836999964, 6.198891119000052 ], [ -68.295290869999974, 6.175836024000034 ], [ -68.319454890999964, 6.168053929000052 ], [ -68.374308914999972, 6.179718018000074 ], [ -68.419308838999939, 6.191809081000031 ], [ -68.453899947999957, 6.190553975000057 ], [ -68.476963927999975, 6.186391187000027 ], [ -68.549999975999981, 6.164445017000048 ], [ -68.638408938999987, 6.135482189000072 ], [ -68.68611789299996, 6.141527050000036 ], [ -68.712017806999938, 6.157009095000035 ], [ -68.753617862999988, 6.169444990000045 ], [ -68.827790832999938, 6.186391187000027 ], [ -69.0258357599999, 6.214864176000049 ], [ -69.056399866999982, 6.21610905700004 ], [ -69.087926886999981, 6.203054075000068 ], [ -69.115572917999941, 6.179164142000047 ], [ -69.153335906999985, 6.141109128000039 ], [ -69.19520887699997, 6.100418005000051 ], [ -69.241746041999988, 6.084100116000059 ], [ -69.270708870999954, 6.090973109000061 ], [ -69.300708875999987, 6.122773212000027 ], [ -69.316117830999985, 6.148609087000068 ], [ -69.371254995999948, 6.145836019000058 ], [ -69.404172908999954, 6.130836100000067 ], [ -69.429454908999958, 6.118609082000035 ], [ -69.724726894999947, 6.48666415100007 ], [ -70.119172888999969, 6.975836045000051 ], [ -70.15848200399995, 6.982500161000075 ], [ -70.22181784299994, 6.974027063000051 ], [ -70.243345923999982, 6.960835959000065 ], [ -70.262299920999965, 6.945691034000049 ], [ -70.294726822999962, 6.938473209000051 ], [ -70.323626786999966, 6.945000029000028 ], [ -70.343899927999985, 6.952500156000042 ], [ -70.360835898999937, 6.963891163000028 ], [ -70.386126782999952, 6.983054038000034 ], [ -70.441681869999968, 7.011109106000049 ], [ -70.552508902999989, 7.058336101000066 ], [ -70.719726865999974, 7.098053917000072 ], [ -70.819454917999963, 7.087500095000053 ], [ -70.85750892599998, 7.082500122000056 ], [ -70.886535791999961, 7.075073086000032 ], [ -70.908199825999986, 7.048191148000058 ], [ -70.970835776999934, 7.008336037000049 ], [ -71.005281878999938, 6.992773190000037 ], [ -71.025008855999943, 6.984444931000041 ], [ -71.181263959999967, 6.963473074000035 ], [ -71.262435818999961, 6.987427044000071 ], [ -71.332508864999966, 7.022364158000073 ], [ -71.463899891999972, 7.023335956000039 ], [ -71.488063912999962, 7.028891146000035 ], [ -71.553072947999965, 7.04500015800005 ], [ -71.601390931999958, 7.057918012000073 ], [ -71.645290982999938, 7.060553953000067 ], [ -71.701954994999937, 7.046391051000057 ], [ -71.804663986999969, 7.003127019000033 ], [ -71.832781919999945, 6.987217999000052 ], [ -71.876872909999975, 6.986526995000077 ], [ -71.926799883999934, 7.009745035000037 ], [ -71.992363968999939, 7.016245033000075 ], [ -72.053799966999975, 7.062145006000037 ], [ -72.066099906999966, 7.062418088000072 ], [ -72.092508936999934, 7.103609107000068 ], [ -72.113346012999955, 7.138336003000063 ], [ -72.132926808999969, 7.173335981000037 ], [ -72.145281901999965, 7.198609095000052 ], [ -72.164599841999973, 7.26250015200003 ], [ -72.16403590799996, 7.289444954000032 ], [ -72.154726797999956, 7.325282116000039 ], [ -72.262508852999986, 7.389445082000066 ], [ -72.323899923999988, 7.39305399400007 ], [ -72.397763936999979, 7.406426986000042 ], [ -72.401672921999989, 7.407218070000056 ], [ -72.419308948999969, 7.420554013000071 ], [ -72.472446023999964, 7.497982179000076 ], [ -72.473481859999936, 7.656245084000034 ], [ -72.459726820999947, 7.920553985000026 ], [ -72.389381865999951, 8.047564126000054 ], [ -72.345835867999938, 8.047709133000069 ], [ -72.32861793, 8.061809003000064 ], [ -72.325008849999961, 8.089027054000042 ], [ -72.336672938999982, 8.151944972000024 ], [ -72.37610895499995, 8.336944975000051 ], [ -72.388199849999978, 8.369444967000049 ], [ -72.401735785999961, 8.384164092000049 ], [ -72.405335812999965, 8.385926973000039 ], [ -72.423064040999975, 8.389718108000068 ], [ -72.664464026999951, 8.641109155000038 ], [ -72.736954916999935, 8.917218099000024 ], [ -72.779726930999971, 9.08027310600005 ], [ -72.885563880999939, 9.119164131000048 ], [ -72.962508913999955, 9.178054041000053 ], [ -72.958345957999938, 9.20110913700006 ], [ -72.981126797999934, 9.26082701200005 ], [ -73.009999939999943, 9.302009146000046 ], [ -73.143545953999933, 9.223891150000043 ], [ -73.165635788999964, 9.195764165000071 ], [ -73.221954969999956, 9.171109132000026 ], [ -73.345563901999981, 9.166391126000065 ], [ -73.378063893999979, 9.171391099000061 ], [ -73.363890933999983, 9.225827034000076 ], [ -73.245146019999936, 9.408473063000031 ], [ -73.117508911999948, 9.561391164000042 ], [ -73.08168197599997, 9.609444950000068 ], [ -73.004726883999979, 9.768327111000076 ], [ -72.986463890999971, 9.904926987000067 ], [ -72.977508832999945, 10.00194500200007 ], [ -72.956535802999952, 10.08208219900007 ], [ -72.938899942999967, 10.11645403700004 ], [ -72.915008836999959, 10.350554056000021 ], [ -72.90853582799997, 10.426691073000029 ], [ -72.903545912999959, 10.444444950000047 ], [ -72.836672909999947, 10.554445025000064 ], [ -72.810008902999982, 10.590553928000077 ], [ -72.704726833999985, 10.77055395800005 ], [ -72.633617784999956, 10.896391136000034 ], [ -72.540008857999965, 11.031944951000071 ], [ -72.491255014999979, 11.122773098000039 ], [ -72.472090966999986, 11.134717980000062 ], [ -72.349872926999979, 11.163473105000037 ], [ -72.317646017999948, 11.164509108000061 ], [ -72.209355013999982, 11.250000162000049 ], [ -72.072726806999981, 11.495509125000069 ], [ -71.968481914999984, 11.666244972000072 ], [ -71.769726873999957, 11.700836081000034 ], [ -71.721681971999942, 11.721945066000046 ], [ -71.626399848999938, 11.755553983000027 ], [ -71.468064020999975, 11.795553934000054 ], [ -71.403335779999964, 11.812773213000071 ], [ -71.324717885999974, 11.853053958000032 ], [ -71.341126802999952, 11.799164187000031 ], [ -71.378617882999947, 11.75333596400003 ], [ -71.445845942999938, 11.723891176000052 ], [ -71.480563953999933, 11.710282151000058 ], [ -71.505008935999967, 11.707218062000038 ], [ -71.541399974999933, 11.703891117000069 ], [ -71.638335846999951, 11.690835968000044 ], [ -71.712235901999975, 11.675000038000064 ], [ -71.765835825999943, 11.662364151000077 ], [ -71.816390939999962, 11.647500019000063 ], [ -71.954173, 11.594718001000047 ], [ -71.969172918999959, 11.546244952000052 ], [ -71.966399849999959, 11.506391182000073 ], [ -71.960846000999936, 11.464444953000054 ], [ -71.952645984999947, 11.421809061000033 ], [ -71.94487294399994, 11.395553923000023 ], [ -71.932781880999983, 11.363053932000071 ], [ -71.906108820999975, 11.300836070000059 ], [ -71.866954938999982, 11.229445054000053 ], [ -71.837781892999942, 11.182782160000045 ], [ -71.79529084, 11.128609082000025 ], [ -71.740846019999935, 11.034164143000055 ], [ -71.763617806999946, 11.013744989000031 ], [ -71.691117864999967, 10.834164222000027 ], [ -71.661808863999966, 10.777500042000042 ], [ -71.617508828999974, 10.741945014000066 ], [ -71.596954893999964, 10.727773060000061 ], [ -71.577926799999943, 10.716109138000036 ], [ -71.581681892999939, 10.674718127000062 ], [ -71.630008928999985, 10.476391066000076 ], [ -71.648899894999943, 10.442500013000029 ], [ -71.677781921999951, 10.423335965000035 ], [ -71.755699925999977, 10.369718104000071 ], [ -71.773199830999943, 10.349309008000034 ], [ -71.79444594399996, 10.321809157000075 ], [ -71.825146005999954, 10.255135978000055 ], [ -71.841126774999964, 10.218891120000023 ], [ -71.911254973999974, 10.124445009000056 ], [ -72.125354932999983, 9.818191053000021 ], [ -72.077926771999955, 9.735554037000043 ], [ -72.046535873999971, 9.707773057000054 ], [ -72.008063943999957, 9.663473190000047 ], [ -71.979172864999953, 9.623336111000071 ], [ -71.965835915999946, 9.602500041000042 ], [ -71.944455021999943, 9.543054074000054 ], [ -71.910845936999976, 9.49360906000004 ], [ -71.733199880999962, 9.375691105000044 ], [ -71.723617855999976, 9.345000095000046 ], [ -71.731955, 9.295973170000025 ], [ -71.751955058999954, 9.22250008900005 ], [ -71.759455018999972, 9.118327114000067 ], [ -71.734173018999968, 9.100553959000024 ], [ -71.71486396399996, 9.077918126000043 ], [ -71.689172927999948, 9.063400167000054 ], [ -71.623890977999963, 9.043053935000046 ], [ -71.598345954999957, 9.040000072000055 ], [ -71.552781928999934, 9.040836083000045 ], [ -71.497226841999975, 9.050418107000041 ], [ -71.313608846999955, 9.11055407200007 ], [ -71.290554924999981, 9.121664117000023 ], [ -71.241390871999954, 9.155418041000075 ], [ -71.225081867999961, 9.174200042000052 ], [ -71.214172987999973, 9.208891063000067 ], [ -71.208346056999972, 9.219718135000051 ], [ -71.165417803999958, 9.273745033000068 ], [ -71.14722689499996, 9.286809068000025 ], [ -71.117781939999986, 9.293336056000044 ], [ -71.074863912999945, 9.312500104000037 ], [ -71.055972946999987, 9.338745016000075 ], [ -71.055555025999979, 9.354444992000026 ], [ -71.071117872999935, 9.390273102000037 ], [ -71.089172994999956, 9.53660000900004 ], [ -71.083072981999976, 9.566664219000074 ], [ -71.061108874999945, 9.617217992000064 ], [ -71.053346058999978, 9.703609095000047 ], [ -71.073399929999937, 9.851109134000069 ], [ -71.098345982999945, 9.894791087000044 ], [ -71.147781944999963, 9.950836012000025 ], [ -71.269454992999954, 10.150136045000067 ], [ -71.292646042999934, 10.175418044000025 ], [ -71.316954902999953, 10.192782162000071 ], [ -71.38556396599995, 10.282773125000062 ], [ -71.436672955999938, 10.369445022000036 ], [ -71.458617783999955, 10.460000086000036 ], [ -71.521954964999964, 10.533336040000052 ], [ -71.545708943999955, 10.56832696500004 ], [ -71.526399887999958, 10.726945095000076 ], [ -71.446672901999989, 10.79555399000003 ], [ -71.451672873999939, 10.916391027000031 ], [ -71.492855008999982, 10.961036061000073 ], [ -71.434726844999943, 10.979582196000024 ], [ -71.411955058999979, 10.984164079000038 ], [ -71.384172904999957, 10.983336115000043 ], [ -71.353899817999945, 10.978335974000061 ], [ -71.281108855999946, 10.989164220000021 ], [ -71.271117794999952, 10.993053926000073 ], [ -71.17807297, 11.032218033000049 ], [ -71.073899826999934, 11.080000078000069 ], [ -71.031535843999961, 11.103191128000049 ], [ -71.01445503399998, 11.117218075000039 ], [ -70.989035906999959, 11.133335972000054 ], [ -70.933899914999984, 11.164717985000038 ], [ -70.890017801999988, 11.186109105000071 ], [ -70.855835897999953, 11.200282065000067 ], [ -70.825563983999984, 11.211391105000075 ], [ -70.736955028999944, 11.230000103000066 ], [ -70.655008849999945, 11.238609156000052 ], [ -70.621399932999964, 11.236244956000064 ], [ -70.546808872999975, 11.241944986000021 ], [ -70.50847289799998, 11.248191180000049 ], [ -70.492099855999982, 11.262918016000071 ], [ -70.446672957999965, 11.290000113000076 ], [ -70.421399842999961, 11.292218132000073 ], [ -70.323335766999946, 11.331664207000074 ], [ -70.239181961999975, 11.353053986000077 ], [ -70.142499892999979, 11.418336104000048 ], [ -70.095563917999982, 11.430000025000027 ], [ -70.03486401899994, 11.441318109000065 ], [ -70.023899818999951, 11.491391096000029 ], [ -70.047790924999958, 11.517773136000073 ], [ -69.987645907999934, 11.514718100000039 ], [ -69.897708924999961, 11.436182181000049 ], [ -69.874026862999983, 11.426527067000052 ], [ -69.836672911999983, 11.424582130000033 ], [ -69.801390966999975, 11.427218071000027 ], [ -69.742399969999951, 11.499200012000074 ], [ -69.77611785199997, 11.609445005000055 ], [ -69.787781940999935, 11.635273169000072 ], [ -69.816535891999933, 11.69097309600005 ], [ -69.857373027999984, 11.689582203000043 ], [ -70.004726885999958, 11.650273088000063 ], [ -70.18000891, 11.603609021000068 ], [ -70.214035916999933, 11.609164212000053 ], [ -70.235981918999983, 11.628891188000068 ], [ -70.226526796999963, 11.655073069000025 ], [ -70.243899966999948, 11.775273081000023 ], [ -70.294035817999941, 11.861664184000063 ], [ -70.293763909999939, 11.899444942000059 ], [ -70.286663934999979, 11.920273133000023 ], [ -70.258064042999933, 11.989164163000055 ], [ -70.206390950999946, 12.080273104000071 ], [ -70.187499816999946, 12.107773123000072 ], [ -70.068072951999966, 12.173609117000069 ], [ -70.014308909999954, 12.197500055000035 ], [ -69.934717877999958, 12.169718070000044 ], [ -69.905699895999987, 12.140000032000046 ], [ -69.859454924999966, 12.071945013000061 ], [ -69.840563958999951, 12.032773194000072 ], [ -69.823755057999961, 11.988054064000039 ], [ -69.816635804999976, 11.916109004000077 ], [ -69.81889087199994, 11.881109026000047 ], [ -69.816881896999973, 11.850973066000051 ], [ -69.804172919999985, 11.794164215000023 ], [ -69.770845969999982, 11.696109023000076 ], [ -69.757781935999958, 11.661391180000066 ], [ -69.719172877999938, 11.570273187000055 ], [ -69.706117895999967, 11.548891119000075 ], [ -69.674726830999987, 11.511109020000049 ], [ -69.631808803999945, 11.467636111000047 ], [ -69.608481966999989, 11.459164186000066 ], [ -69.579517797999983, 11.464100122000048 ], [ -69.555563994999943, 11.486944999000059 ], [ -69.528899819999936, 11.503473106000058 ], [ -69.506954991999976, 11.506945058000042 ], [ -69.444735788999935, 11.498054038000021 ], [ -69.412717923999935, 11.487573139000062 ], [ -69.360217873999943, 11.493326980000063 ], [ -69.327572874999987, 11.512636035000071 ], [ -69.274873, 11.533954065000046 ], [ -69.105982008999945, 11.486391123000033 ], [ -68.95389991899998, 11.451664227000037 ], [ -68.84368191599998, 11.447082176000038 ], [ -68.660426856999948, 11.349864169000057 ], [ -68.601963920999935, 11.290553989000045 ], [ -68.553472933999956, 11.271809036000036 ], [ -68.531954911999946, 11.261391169000035 ], [ -68.418335867999986, 11.180000039000049 ], [ -68.398617942999977, 11.158054037000056 ], [ -68.333346050999978, 11.045000100000038 ], [ -68.242508851999958, 10.874373217000027 ], [ -68.251954920999935, 10.856664100000046 ], [ -68.305072885999948, 10.855000124000071 ], [ -68.325290874999951, 10.843609118000074 ], [ -68.33264599499995, 10.815973145000044 ], [ -68.32806394399995, 10.767500096000049 ], [ -68.280564032999962, 10.643891163000035 ], [ -68.253617890999976, 10.588891126000021 ], [ -68.185972914999979, 10.51500012300005 ], [ -68.165146064999988, 10.498891111000034 ], [ -68.114245951999976, 10.484927028000072 ], [ -68.077372953999941, 10.493053954000061 ], [ -68.002226843999949, 10.491109017000042 ], [ -67.893063954999946, 10.474444955000024 ], [ -67.867981947999965, 10.464873157000056 ], [ -67.831955018999963, 10.482773214000076 ], [ -67.796108803999971, 10.491945028000032 ], [ -67.543335748999937, 10.53277311100004 ], [ -67.466945932999977, 10.538054045000024 ], [ -67.401399952999952, 10.538891062000062 ], [ -67.392245908999939, 10.538782097000023 ], [ -67.280290839999964, 10.546664104000058 ], [ -67.108064018999983, 10.579164095000067 ], [ -67.002226900999972, 10.610282079000058 ], [ -66.509735772999989, 10.627773099000024 ], [ -66.470563953999942, 10.629164159000027 ], [ -66.418335812999942, 10.625554074000036 ], [ -66.385008862999939, 10.616109010000059 ], [ -66.342990884999949, 10.604718004000063 ], [ -66.323626843999932, 10.612782065000033 ], [ -66.310290900999973, 10.626018096000053 ] ] ], [ [ [ -64.055554916999938, 10.857218144000058 ], [ -64.058626884999967, 10.865000070000065 ], [ -64.136399881999978, 10.945000139000058 ], [ -64.150845924999942, 10.952218131000052 ], [ -64.174035800999945, 10.960417980000045 ], [ -64.190145986999937, 10.946945076000077 ], [ -64.20112678299995, 10.93694496300003 ], [ -64.227926912999976, 10.931244933000073 ], [ -64.357926877999944, 10.954582163000055 ], [ -64.405699870999968, 10.970135958000071 ], [ -64.378346032999957, 11.056944983000051 ], [ -64.218335835999937, 11.088054081000053 ], [ -64.201808901999982, 11.087782172000061 ], [ -64.192781927999988, 11.082917986000041 ], [ -64.190990882999984, 11.072636073000069 ], [ -64.197435895999945, 11.055900095000027 ], [ -64.188063921999969, 11.040273210000066 ], [ -64.175845956999979, 11.031664157000023 ], [ -64.105835774999946, 10.995282171000042 ], [ -64.083617863999962, 10.988891137000053 ], [ -64.054455043999951, 10.98569109400006 ], [ -64.042781902999934, 10.987636031000022 ], [ -64.022499875999983, 11.000000176000071 ], [ -63.987499897999953, 11.076109031000044 ], [ -63.951390826999955, 11.115553932000068 ], [ -63.88493574599994, 11.175617980000027 ], [ -63.844863877999956, 11.12708206700006 ], [ -63.80472679899998, 11.021391129000051 ], [ -63.814999827999941, 10.978054007000026 ], [ -63.890008808999937, 10.904444971000032 ], [ -63.972364024999933, 10.892918010000074 ], [ -64.055554916999938, 10.857218144000058 ] ] ], [ [ [ -61.163608882999938, 8.688327098000059 ], [ -61.168335772999967, 8.690554002000056 ], [ -61.172017775999961, 8.700345071000072 ], [ -61.164999942999941, 8.715273072000059 ], [ -61.154726914999969, 8.725827062000064 ], [ -61.093055050999965, 8.782217992000028 ], [ -61.059445965999942, 8.810418067000057 ], [ -61.042499936999945, 8.821109017000026 ], [ -61.013335774999973, 8.832773106000047 ], [ -60.860554969999953, 8.853336094000042 ], [ -60.861946030999945, 8.840273065000076 ], [ -60.944454970999971, 8.74916412500005 ], [ -60.95861787299998, 8.736109143000022 ], [ -60.976108892999946, 8.725827062000064 ], [ -60.987226816999964, 8.723609043000067 ], [ -61.001108924999983, 8.724164092000024 ], [ -61.069172996999953, 8.714444940000021 ], [ -61.107781886999987, 8.705827003000024 ], [ -61.135281905999932, 8.69944502200002 ], [ -61.145008936999943, 8.695836110000073 ], [ -61.163608882999938, 8.688327098000059 ] ] ], [ [ [ -61.246945954999944, 8.474717983000062 ], [ -61.29430890499998, 8.493326981000052 ], [ -61.345835816999966, 8.490836047000073 ], [ -61.392226800999936, 8.486109157000044 ], [ -61.405281950999949, 8.485836074000076 ], [ -61.416390821999983, 8.489164193000022 ], [ -61.471390858999939, 8.511664071000041 ], [ -61.543545969999968, 8.548682076000034 ], [ -61.460281987999963, 8.576391139000066 ], [ -61.437781941999958, 8.581109145000028 ], [ -61.426390935999962, 8.583326996000039 ], [ -61.41389083599995, 8.584164181000062 ], [ -61.393890943999963, 8.582500038000035 ], [ -61.310835838999935, 8.574718111000038 ], [ -61.297499895999977, 8.573327051000035 ], [ -61.279445946999942, 8.569718138000042 ], [ -61.269172917999981, 8.565835976000074 ], [ -61.261499956999955, 8.55296422300006 ], [ -61.269899964999979, 8.537735981000026 ], [ -61.278299972999946, 8.516735961000052 ], [ -61.263599958999976, 8.499927060000061 ], [ -61.185072924999986, 8.496736069000065 ], [ -61.19417299, 8.485691067000062 ], [ -61.234726816999967, 8.475553994000052 ], [ -61.246945954999944, 8.474717983000062 ] ] ], [ [ [ -61.129173006999963, 8.501664125000048 ], [ -61.182781982999984, 8.511109021000038 ], [ -61.263681933999976, 8.510209140000029 ], [ -61.258335787999954, 8.536391188000039 ], [ -61.253063905999966, 8.545273156000064 ], [ -61.240281838999977, 8.561109086000044 ], [ -61.227499939999973, 8.568609045000073 ], [ -61.217508878999979, 8.572500092000041 ], [ -61.177481937999971, 8.566091121000056 ], [ -61.149126797999941, 8.540891097000042 ], [ -61.137045960999956, 8.562945058000025 ], [ -61.08361786599994, 8.609718089000069 ], [ -61.020554940999943, 8.611244937000038 ], [ -60.998063947999981, 8.596945074000075 ], [ -60.990835896999954, 8.585135979000029 ], [ -60.998608938999951, 8.557782141000075 ], [ -61.003617796999947, 8.548891121000054 ], [ -61.040555, 8.514164225000059 ], [ -61.129173006999963, 8.501664125000048 ] ] ], [ [ [ -60.910281951999934, 8.89416417700005 ], [ -60.923054965999938, 8.886391135000054 ], [ -60.946672989999968, 8.875827087000062 ], [ -61.019726808999962, 8.846945060000053 ], [ -61.04639098399997, 8.843891030000066 ], [ -60.941673016999971, 9.011664210000049 ], [ -60.923890976999985, 9.021391074000064 ], [ -60.908890890999942, 9.026945090000027 ], [ -60.89778185199998, 9.029164116000061 ], [ -60.880345983999973, 9.026527001000034 ], [ -60.847926794999978, 9.008191085000021 ], [ -60.840563962999965, 8.998327094000047 ], [ -60.848335830999986, 8.964164133000054 ], [ -60.856254885999988, 8.947364116000074 ], [ -60.892226828999981, 8.910553983000057 ], [ -60.910281951999934, 8.89416417700005 ] ] ], [ [ [ -65.281108858999971, 10.880282124000075 ], [ -65.299726909999947, 10.883054019000042 ], [ -65.393346062999967, 10.906944958000054 ], [ -65.415699927999981, 10.916245015000072 ], [ -65.416117849999978, 10.927218099000072 ], [ -65.386672893999958, 10.956664228000022 ], [ -65.373899879999954, 10.964444981000042 ], [ -65.364454983999963, 10.969164160000048 ], [ -65.304454972999963, 10.976109070000064 ], [ -65.212154963999978, 10.954164074000062 ], [ -65.200835873999949, 10.911664137000059 ], [ -65.199590826999952, 10.898336073000053 ], [ -65.210008861999938, 10.891391163000037 ], [ -65.268617810999956, 10.881109082000023 ], [ -65.281108858999971, 10.880282124000075 ] ] ], [ [ [ -61.048054958999955, 8.639718094000045 ], [ -61.061955004999959, 8.640273144000048 ], [ -61.135281905999932, 8.651944944000036 ], [ -61.146945993999964, 8.654444930000068 ], [ -61.169999915999938, 8.663473078000038 ], [ -61.177226792999932, 8.676664182000025 ], [ -61.098063907999972, 8.700553948000049 ], [ -61.025835874999984, 8.715000158000066 ], [ -60.937781969999946, 8.721245011000065 ], [ -60.959863926999958, 8.681109106000065 ], [ -60.996808840999961, 8.652635948000068 ], [ -61.019446014999971, 8.644718067000042 ], [ -61.041946060999976, 8.640273144000048 ], [ -61.048054958999955, 8.639718094000045 ] ] ], [ [ [ -60.858317839999984, 9.064954004000072 ], [ -60.921954924999966, 9.035000099000058 ], [ -60.943335818999969, 9.022218032000069 ], [ -60.957781861999933, 9.009164224000074 ], [ -60.998890905999986, 8.966945080000073 ], [ -61.029726921999952, 8.927773094000031 ], [ -61.034308805999956, 8.918473205000055 ], [ -61.06139090299996, 8.896944957000073 ], [ -61.07055500499996, 8.892500034000022 ], [ -61.096673014999965, 8.890900096000053 ], [ -61.070626921999974, 8.971318087000043 ], [ -60.947226865999937, 9.054718024000067 ], [ -60.850417895999954, 9.092982082000049 ], [ -60.854445903999988, 9.072500064000053 ], [ -60.858317839999984, 9.064954004000072 ] ] ], [ [ [ -60.923335759999986, 8.61832697400007 ], [ -60.930281842999932, 8.618609109000033 ], [ -60.959163869999941, 8.623891049000065 ], [ -60.988617877999957, 8.635553965000042 ], [ -60.841599965999933, 8.726945040000032 ], [ -60.809445979999964, 8.716945095000028 ], [ -60.804308878999962, 8.705553920000057 ], [ -60.806399828999986, 8.677500026000075 ], [ -60.810281990999954, 8.667500080000025 ], [ -60.823335798999949, 8.652364207000062 ], [ -60.923335759999986, 8.61832697400007 ] ] ] ] }
        }
    ]
}