{
    "type": "FeatureCollection",
    "features": [
        {
            "type": "Feature",
            "properties": {
                "WCID": "YUG",
                "COUNTRY": "Yugoslavia"
            },
            "geometry": { "type": "MultiPolygon", "coordinates": [ [ [ [ 13.835831803687253, 45.578815298692163 ], [ 13.915591111533834, 45.629035977038889 ], [ 13.817221298523046, 45.725630618116504 ], [ 13.599212523742379, 45.807234311371943 ], [ 13.588577949362836, 45.881315900059398 ], [ 13.641750821260558, 45.983017014862014 ], [ 13.601871167337265, 45.984864399857436 ], [ 13.548698295439543, 45.960843586412679 ], [ 13.479573561972499, 45.999641260545616 ], [ 13.498184067136705, 46.051329203967292 ], [ 13.670995900804305, 46.174814899905577 ], [ 13.500842710731588, 46.218981278032395 ], [ 13.421083402885007, 46.204263096262153 ], [ 13.378545105366827, 46.292513026263904 ], [ 13.447669838833868, 46.320062012778159 ], [ 13.437035264454325, 46.356772428665622 ], [ 13.554015582629315, 46.38428906679006 ], [ 13.58591930576795, 46.430119325001563 ], [ 13.692265049563394, 46.437448593061482 ], [ 13.708912709136243, 46.501635058048421 ], [ 14.036648783293945, 46.48105963321094 ], [ 14.117423090544921, 46.432918153718752 ], [ 14.148188488061329, 46.433365834733202 ], [ 14.392945322600585, 46.436927400544924 ], [ 14.521769556609375, 46.36872824283008 ], [ 14.812860521880371, 46.593432985261721 ], [ 15.067858728972656, 46.641593538240237 ], [ 15.450037035552246, 46.605475984529299 ], [ 15.583985361663085, 46.693793855623049 ], [ 15.984578165618164, 46.641593538240237 ], [ 15.947394404021484, 46.818267427400393 ], [ 16.259573969451171, 46.888804994539065 ], [ 16.396367106047851, 46.62312277408008 ], [ 16.560086283293945, 46.47294195742969 ], [ 16.656750712004882, 46.384269319490237 ], [ 17.292401346770507, 46.108676515535159 ], [ 17.794407877532226, 45.806651674226565 ], [ 18.055813822356445, 45.762698732332034 ], [ 18.356125864592773, 45.783759675935549 ], [ 18.551001581755859, 45.797778688386721 ], [ 18.816056284514648, 45.889117799714846 ], [ 19.506732019988281, 46.127132020906252 ], [ 19.906415018645507, 46.161731325105471 ], [ 20.314734491912109, 46.131507478669924 ], [ 20.339222941008789, 45.992610536531252 ], [ 20.595047983733398, 45.912471376375002 ], [ 20.68108848055957, 45.805648408845705 ], [ 20.772049936858398, 45.789630495027346 ], [ 20.738259348479492, 45.629466615632815 ], [ 20.784533533660156, 45.576087556794924 ], [ 20.758687052336914, 45.536456666902346 ], [ 21.079106363860351, 45.324534975007815 ], [ 21.32853606661914, 45.261176668123049 ], [ 21.466031107512695, 45.208015047029299 ], [ 21.497393641082031, 45.144034944490237 ], [ 21.411772760955078, 45.086944185212893 ], [ 21.355780634490234, 45.021442018464846 ], [ 21.438292536345703, 44.99479254336719 ], [ 21.545767817107421, 44.95756109805469 ], [ 21.424141916838867, 44.925471864656252 ], [ 21.34424880465625, 44.883147798494143 ], [ 21.367487940398437, 44.808749757722659 ], [ 21.477652582732421, 44.79280050845508 ], [ 21.583313974944335, 44.79280050845508 ], [ 21.591851267424804, 44.707782350496096 ], [ 21.858902964202148, 44.681220613435549 ], [ 21.946509394255859, 44.618777833894534 ], [ 22.132897410002929, 44.511233888582034 ], [ 22.199408564177734, 44.56434591861133 ], [ 22.295901331511718, 44.691852174714846 ], [ 22.409525904265625, 44.750297151521487 ], [ 22.691102060881835, 44.638717256501955 ], [ 22.742365870085937, 44.580283723787112 ], [ 22.584815058318359, 44.585597597078127 ], [ 22.440566095916015, 44.495299898103518 ], [ 22.505961451140625, 44.34659918399219 ], [ 22.69400123080371, 44.263091646150393 ], [ 22.546538385955078, 44.107677064851565 ], [ 22.373913797942382, 43.939292512849612 ], [ 22.293355021086914, 43.803634248689455 ], [ 22.318091425505859, 43.681457124666018 ], [ 22.915164026824218, 43.176402650789065 ], [ 22.927821192351562, 43.086433015779299 ], [ 22.792252573577148, 42.950671754792971 ], [ 22.449465784636718, 42.800941072419924 ], [ 22.338395151702148, 42.665351472810549 ], [ 22.33493140658496, 42.434028230623049 ], [ 22.329241785613281, 42.340320192292971 ], [ 22.326350245085937, 42.292674623445315 ], [ 22.386221918669921, 42.196666322664065 ], [ 22.686179194060546, 42.063472352937502 ], [ 22.847229990569335, 41.891044221833987 ], [ 22.948493036833984, 41.679812990144534 ], [ 22.946038279143554, 41.455272279695315 ], [ 22.899088892546875, 41.320342622712893 ], [ 22.920243296233398, 41.230689607576174 ], [ 22.69236663302539, 41.158919893220705 ], [ 22.452584299651367, 41.048621736482424 ], [ 22.172940287200195, 41.072715364412112 ], [ 22.010245356169921, 41.091052614167971 ], [ 21.84570029696582, 41.019641481355471 ], [ 21.668387446013671, 40.826407991365237 ], [ 21.39526084384082, 40.760833345369143 ], [ 21.031638178435546, 40.726790986970705 ], [ 20.706975016204101, 41.00056418033008 ], [ 20.572821650115234, 41.301143251375002 ], [ 20.539563212004882, 41.589591585115237 ], [ 20.59892180880664, 41.782420717195315 ], [ 20.582966837493164, 41.880714021638674 ], [ 20.574980768767578, 41.92991217227344 ], [ 20.245184931365234, 42.319800935701174 ], [ 20.072997126189453, 42.485892854646487 ], [ 20.047053370085937, 42.487521730378909 ], [ 19.884560618010742, 42.497710786775393 ], [ 19.557698282805664, 42.547328554109377 ], [ 19.434618982878906, 42.424571596101565 ], [ 19.308814081755859, 42.192649446443362 ], [ 19.368660959807617, 42.000342927888674 ], [ 19.367713007537109, 41.846370302156252 ], [ 19.338465723601562, 41.862022005037112 ], [ 19.14303687533496, 41.932090364412112 ], [ 19.135544809905273, 41.999541841462893 ], [ 18.909899744597656, 42.217792116121096 ], [ 18.528643641082031, 42.352744661287112 ], [ 18.513588938323242, 42.362140260652346 ], [ 18.248711618987304, 42.527438722566409 ], [ 18.001368555632812, 42.694457612947268 ], [ 17.646380457488281, 42.864600740388674 ], [ 17.595679316130859, 42.888900361970705 ], [ 17.547980341521484, 42.92011984439258 ], [ 17.075087580291015, 43.222747407869143 ], [ 16.992262873259765, 43.322715364412112 ], [ 16.639813456145507, 43.389735780671877 ], [ 16.548510584441406, 43.461314760164065 ], [ 16.366747889128906, 43.513022981599612 ], [ 16.059407267180664, 43.433478914216799 ], [ 15.912835154143554, 43.652247987703127 ], [ 15.412318262664062, 43.934756837800784 ], [ 15.149468454924804, 44.239928804353518 ], [ 15.274405512419921, 44.23661383242969 ], [ 15.548222574797851, 44.229346834138674 ], [ 15.285944017974121, 44.328918062166018 ], [ 14.98910621127246, 44.540027223542971 ], [ 14.906961474028808, 44.723323427156252 ], [ 14.945532831755859, 44.92658957095508 ], [ 14.815391573516113, 45.077869020417971 ], [ 14.524585756865722, 45.266284547761721 ], [ 14.378762528596244, 45.31481271291738 ], [ 14.354488405791503, 45.32289084048633 ], [ 14.238621744719726, 45.062354646638674 ], [ 14.174608263579589, 45.010387025789065 ], [ 14.188512835112792, 44.94254644961719 ], [ 14.060400042144042, 44.894702516511721 ], [ 13.991256746855957, 44.783099733308596 ], [ 13.895102533904296, 44.759181581453127 ], [ 13.672059092131835, 45.050357423738284 ], [ 13.64358905276416, 45.179088197664065 ], [ 13.526890787688476, 45.454310975984377 ], [ 13.556276354399902, 45.459601961091799 ], [ 13.749085459319335, 45.494330964998049 ], [ 13.799984011260253, 45.566371522859377 ], [ 13.787731254125386, 45.580685619798174 ], [ 13.835831803687253, 45.578815298692163 ] ] ] ] }
        }
    ]
}